OBJECTID,ID,NAME,CITY,STATE,ZIP,ZIPP4,COUNTY,FIPS,CONTDATE,CONTHOW,GEODATE,NAICSDESCR,GEOLINKID,X,Y,SUBTYPE,DENOM,MEMBERS,LOC_TYPE,PROT,CATH
8249,10585202,AUSTIN BAPTIST CHURCH,AUSTIN,CO,81410,8205,DELTA,8029,2008-11-17T00:00:00.000Z,ALT REF,2008-11-17T00:00:00.000Z,CHURCHES,31812065,-107.9516238,38.7808731,CHRISTIAN,ABC,NOT AVAILABLE,NOT AVAILABLE,Y,N
9953,10759879,OUR SAVIORS LUTHERAN CHURCH,AUSTIN,MN,55912,1649,MOWER,27099,2009-06-25T00:00:00.000Z,ALT REF,2009-06-29T00:00:00.000Z,CHURCHES,122684820,-92.9951886,43.6671477,CHRISTIAN,ELCA,NOT AVAILABLE,NOT AVAILABLE,Y,N
13001,10576825,SUNRISE COMMUNITY CHURCH,AUSTIN,TX,78745,1604,TRAVIS,48453,2009-05-19T00:00:00.000Z,ALT REF,2009-05-19T00:00:00.000Z,CHURCHES,740844128,-97.7894833,30.2287992,CHRISTIAN,CRC,NOT AVAILABLE,NOT AVAILABLE,Y,N
13002,10577882,WOODCLIFF BAPTIST CHURCH,AUSTIN,TX,78754,2053,TRAVIS,48453,2009-05-19T00:00:00.000Z,ALT REF,2009-05-19T00:00:00.000Z,CHURCHES,739538268,-97.6672311,30.36896,CHRISTIAN,BAPT,NOT AVAILABLE,NOT AVAILABLE,Y,N
13004,10589510,UNIVERSITY BAPTIST CHURCH,AUSTIN,TX,78705,5516,TRAVIS,48453,2009-05-19T00:00:00.000Z,ALT REF,2009-05-19T00:00:00.000Z,CHURCHES,18142769,-97.7422619,30.2847744,CHRISTIAN,ABC,NOT AVAILABLE,NOT AVAILABLE,Y,N
13005,10759799,TRIUMPHANT LOVE LUTHERAN CHURCH,AUSTIN,TX,78759,6321,TRAVIS,48453,2009-05-19T00:00:00.000Z,ALT REF,2009-05-19T00:00:00.000Z,CHURCHES,18168139,-97.7559051,30.3948623,CHRISTIAN,ELCA,NOT AVAILABLE,NOT AVAILABLE,Y,N
13006,10762434,AUSTIN KOREAN PRESBYTERIAN CHURCH,AUSTIN,TX,78757,2413,TRAVIS,48453,2009-05-19T00:00:00.000Z,ALT REF,2009-05-19T00:00:00.000Z,CHURCHES,18137782,-97.7344665,30.3445177,CHRISTIAN,PCUSA,648,NOT AVAILABLE,Y,N
13009,10684258,DHARMA DRUM MOUNTAIN AUSTIN,AUSTIN,TX,78750,3874,TRAVIS,48453,2009-05-19T00:00:00.000Z,ALT REF,2009-05-19T00:00:00.000Z,PLACES OF WORSHIP,27831367,-97.8112859,30.4248186,BUDDHIST,CHINESE CH'AN (ZEN),NOT AVAILABLE,NOT AVAILABLE,N,N
13010,10446564,NUESTRA SENORA DE LOS DOLORES CHURCH,AUSTIN,TX,78741,3325,TRAVIS,48453,2009-05-19T00:00:00.000Z,ALT REF,2009-05-19T00:00:00.000Z,CHURCHES,18169952,-97.6981183,30.2323281,CHRISTIAN,NOT AVAILABLE,NOT AVAILABLE,NOT AVAILABLE,N,Y
13012,10441900,SAINT CATHERINE OF SIENA CATHOLIC CHURCH,AUSTIN,TX,78749,2202,TRAVIS,48453,2009-05-19T00:00:00.000Z,ALT REF,2009-05-19T00:00:00.000Z,CHURCHES,18326417,-97.8494924,30.2182793,CHRISTIAN,NOT AVAILABLE,NOT AVAILABLE,NOT AVAILABLE,N,Y
13019,10441932,SAINT AUSTIN CATHOLIC CHURCH,AUSTIN,TX,78705,5609,TRAVIS,48453,2009-05-19T00:00:00.000Z,ALT REF,2009-05-19T00:00:00.000Z,CHURCHES,18142866,-97.7423736,30.2830914,CHRISTIAN,NOT AVAILABLE,NOT AVAILABLE,NOT AVAILABLE,N,Y
13033,10685512,MARIPOSA SANGHA,AUSTIN,TX,78757,7773,TRAVIS,48453,2009-05-19T00:00:00.000Z,ALT REF,2009-05-19T00:00:00.000Z,PLACES OF WORSHIP,18136228,-97.7295944,30.3639756,BUDDHIST,THERAVADA,NOT AVAILABLE,NOT AVAILABLE,N,N
13034,10446561,HOLY CROSS CATHOLIC CHURCH,AUSTIN,TX,78702,2736,TRAVIS,48453,2009-05-19T00:00:00.000Z,ALT REF,2009-05-19T00:00:00.000Z,CHURCHES,18144315,-97.723453,30.2674209,CHRISTIAN,NOT AVAILABLE,NOT AVAILABLE,NOT AVAILABLE,N,Y
13035,10678038,AUSTIN HINDU TEMPLE,AUSTIN,TX,78724,7010,TRAVIS,48453,2009-05-19T00:00:00.000Z,ALT REF,2009-05-19T00:00:00.000Z,"TEMPLES, RELIGIOUS",18160822,-97.6182045,30.2811723,HINDU,NOT AVAILABLE,NOT AVAILABLE,NOT AVAILABLE,N,N
13036,10677503,GURDWARA SAHIB AUSTIN,AUSTIN,TX,78738,7601,TRAVIS,48453,2009-05-19T00:00:00.000Z,ALT REF,2009-05-19T00:00:00.000Z,"TEMPLES, RELIGIOUS",18140531,-97.9811189,30.3117793,OTHER,NOT AVAILABLE,NOT AVAILABLE,NOT AVAILABLE,N,N
13049,10428400,CHABAD HOUSE - LUBAVITCH,AUSTIN,TX,78705,5508,TRAVIS,48453,2007-08-08T00:00:00.000Z,ALT REF,2007-08-08T00:00:00.000Z,SYNAGOGUES,18142752,-97.743663,30.2842356,JUDAIC,CHABAD,NOT AVAILABLE,CHABAD,N,N
13051,10430200,CONGREGATION SHALOM RAV,AUSTIN,TX,78731,2407,TRAVIS,48453,2007-08-08T00:00:00.000Z,ALT REF,2007-08-08T00:00:00.000Z,SYNAGOGUES,18151783,-97.7552676,30.3570585,JUDAIC,NOT AVAILABLE,NOT AVAILABLE,NOT AVAILABLE,N,N
13052,10429418,CONGREGATION KOL HALEVDELL,AUSTIN,TX,78731,2407,TRAVIS,48453,2007-07-30T00:00:00.000Z,PHONE,2007-07-30T00:00:00.000Z,SYNAGOGUES,18151783,-97.7549711,30.3575553,JUDAIC,POSTDENOMINATIONAL,NOT AVAILABLE,NOT AVAILABLE,N,N
13053,10430183,TIFERET ISRAEL OF AUSTIN,AUSTIN,TX,78731,2407,TRAVIS,48453,2007-08-10T00:00:00.000Z,ALT REF,2007-08-08T00:00:00.000Z,SYNAGOGUES,18151783,-97.7552653,30.3570614,JUDAIC,NOT AVAILABLE,NOT AVAILABLE,NOT AVAILABLE,N,N
13054,10677442,GURU RAM DAS ASHRAM,AUSTIN,TX,78749,3222,TRAVIS,48453,2009-05-19T00:00:00.000Z,ALT REF,2009-05-20T00:00:00.000Z,PLACES OF WORSHIP,18148279,-97.8443241,30.2066726,OTHER,NOT AVAILABLE,NOT AVAILABLE,NOT AVAILABLE,N,N
13059,10428918,CHABAD CENTER FOR JEWISH LIVING,AUSTIN,TX,78731,3024,TRAVIS,48453,2007-08-08T00:00:00.000Z,ALT REF,2007-08-08T00:00:00.000Z,SYNAGOGUES,18151877,-97.7566123,30.3525812,JUDAIC,CHABAD,NOT AVAILABLE,CHABAD,N,N
13062,10430205,BEIT SHALOM SABBATH FELLOWSHIP,AUSTIN,TX,78729,2701,WILLIAMSON,48491,2007-08-07T00:00:00.000Z,ALT REF,2007-08-07T00:00:00.000Z,SYNAGOGUES,18162969,-97.7846775,30.4625201,JUDAIC,NOT AVAILABLE,NOT AVAILABLE,NOT AVAILABLE,N,N
13064,10430283,CONGREGATION AGUDAS ACHIM,AUSTIN,TX,78731,2407,TRAVIS,48453,2007-08-10T00:00:00.000Z,ALT REF,2007-08-08T00:00:00.000Z,SYNAGOGUES,18151783,-97.7550877,30.3572937,JUDAIC,NOT AVAILABLE,NOT AVAILABLE,NOT AVAILABLE,N,N
13071,10430211,CONGREGATION BETH ISRAEL OF AUSTIN TEXAS,AUSTIN,TX,78756,3815,TRAVIS,48453,2007-08-08T00:00:00.000Z,ALT REF,2007-08-08T00:00:00.000Z,SYNAGOGUES,18140721,-97.7481487,30.3097,JUDAIC,NOT AVAILABLE,NOT AVAILABLE,NOT AVAILABLE,N,N
13073,10428256,JEWISH COMMUNITY ASSOCIATION OF AUSTIN,AUSTIN,TX,78731,2407,TRAVIS,48453,2007-07-25T00:00:00.000Z,PHONE,2007-08-20T00:00:00.000Z,SYNAGOGUES,18151783,-97.7552654,30.3570613,JUDAIC,NOT AVAILABLE,NOT AVAILABLE,NOT AVAILABLE,N,N
13090,10431264,AUSTIN MOSQUE,AUSTIN,TX,78705,5580,TRAVIS,48453,2007-10-09T00:00:00.000Z,ALT REF,2007-10-09T00:00:00.000Z,"MOSQUES, RELIGIOUS",18142890,-97.744456,30.2828855,MUSLIM,NOT AVAILABLE,NOT AVAILABLE,NOT AVAILABLE,N,N
13098,10431884,NORTH AUSTIN MUSLIM COMMUNITY CENTER,AUSTIN,TX,78753,2143,TRAVIS,48453,2007-10-09T00:00:00.000Z,ALT REF,2008-09-05T00:00:00.000Z,"MOSQUES, RELIGIOUS",18168280,-97.6829635,30.3901126,MUSLIM,NOT AVAILABLE,NOT AVAILABLE,NOT AVAILABLE,N,N
13105,10684902,PLUM BLOSSOM SANGHA,AUSTIN,TX,78704,2396,TRAVIS,48453,2009-05-20T00:00:00.000Z,ALT REF,2009-05-20T00:00:00.000Z,PLACES OF WORSHIP,18179558,-97.7633376,30.2555081,BUDDHIST,ZEN BUDDHIST MASTER THICH NHAT HAHN,NOT AVAILABLE,NOT AVAILABLE,N,N
13135,10437082,GRANT AFRICAN METHODIST EPISCOPAL CHURCH,AUSTIN,TX,78758,4229,TRAVIS,48453,2007-11-08T00:00:00.000Z,ALT REF,2007-11-09T00:00:00.000Z,CHURCHES,18168555,-97.7042032,30.3853899,CHRISTIAN,NOT AVAILABLE,NOT AVAILABLE,NOT AVAILABLE,Y,N
13213,10446569,SAINT VINCENT DE PAUL CATHOLIC CHURCH,AUSTIN,TX,78717,5338,WILLIAMSON,48491,2009-05-21T00:00:00.000Z,ALT REF,2009-05-20T00:00:00.000Z,CHURCHES,27795705,-97.7638295,30.489271,CHRISTIAN,NOT AVAILABLE,NOT AVAILABLE,NOT AVAILABLE,N,Y
13296,10684154,CHITTAMANI BUDDHIST CENTER,AUSTIN,TX,78745,4912,TRAVIS,48453,2009-05-20T00:00:00.000Z,ALT REF,2009-05-20T00:00:00.000Z,PLACES OF WORSHIP,18148517,-97.8061804,30.2044511,BUDDHIST,"VAJRAYANA, NEW KADAMPA TRADITION",NOT AVAILABLE,NOT AVAILABLE,N,N
13297,10683954,AUSTIN SHAMBHALA MEDITATION CENTER,AUSTIN,TX,78704,3413,TRAVIS,48453,2009-05-20T00:00:00.000Z,ALT REF,2009-05-20T00:00:00.000Z,PLACES OF WORSHIP,18145607,-97.7610779,30.2503993,BUDDHIST,TIBETAN KAGYU AND NYIGMA,NOT AVAILABLE,NOT AVAILABLE,N,N
13298,10761861,EAST SIDE CHURCH OF CHRIST,AUSTIN,TX,78702,NULL,TRAVIS,48453,2009-05-20T00:00:00.000Z,ALT REF,2009-05-20T00:00:00.000Z,CHURCHES,18143158,-97.7023123,30.27914,CHRISTIAN,COC,500,NOT AVAILABLE,Y,N
13299,10433635,BANNOCKBURN BAPTIST CHURCH,AUSTIN,TX,78745,5012,TRAVIS,48453,2009-05-21T00:00:00.000Z,ALT REF,2009-05-20T00:00:00.000Z,CHURCHES,740457958,-97.831604,30.2127065,CHRISTIAN,SBC,2800,NOT AVAILABLE,Y,N
13315,10762752,OAK HILL UNITED METHODIST CHURCH,AUSTIN,TX,78736,NULL,TRAVIS,48453,2009-05-19T00:00:00.000Z,ALT REF,2009-05-19T00:00:00.000Z,CHURCHES,732365513,-97.8855885,30.2272899,CHRISTIAN,UMC,NOT AVAILABLE,NOT AVAILABLE,Y,N
13570,10684631,LAND OF COMPASSION AND WISDOM,AUSTIN,TX,78757,7614,TRAVIS,48453,2009-05-21T00:00:00.000Z,ALT REF,2009-05-21T00:00:00.000Z,PLACES OF WORSHIP,18136098,-97.7307093,30.3650883,BUDDHIST,"TIBETAN, GELUGPA (FPMT)",NOT AVAILABLE,NOT AVAILABLE,N,N
13571,10431780,MASJID IBRAHIM,AUSTIN,TX,78704,7668,TRAVIS,48453,2009-05-19T00:00:00.000Z,ALT REF,2009-05-19T00:00:00.000Z,"MOSQUES, RELIGIOUS",18179879,-97.7859011,30.2279245,MUSLIM,NOT AVAILABLE,NOT AVAILABLE,NOT AVAILABLE,N,N
13581,10683678,CHUA LINH-SON,AUSTIN,TX,78727,6810,TRAVIS,48453,2009-05-22T00:00:00.000Z,ALT REF,2009-05-22T00:00:00.000Z,PLACES OF WORSHIP,18166972,-97.7344018,30.4144526,BUDDHIST,NOT AVAILABLE,NOT AVAILABLE,NOT AVAILABLE,N,N
13590,10441428,SAINT MICHAEL'S EPISCOPAL CHURCH,AUSTIN,TX,78746,3320,TRAVIS,48453,2007-11-09T00:00:00.000Z,ALT REF,2008-09-05T00:00:00.000Z,CHURCHES,25031375,-97.8225904,30.3185216,CHRISTIAN,EPIS,NOT AVAILABLE,NOT AVAILABLE,Y,N
13591,10439899,THE CHURCH OF JESUS CHRIST OF LATTER DAY SAINTS - CAPITAL (YOUNG SINGLE ADULT) WARD,AUSTIN,TX,78705,5520,TRAVIS,48453,2007-10-17T00:00:00.000Z,ALT REF,2008-09-05T00:00:00.000Z,CHURCHES,18142907,-97.743412,30.2831473,CHRISTIAN,LDS,NOT AVAILABLE,NOT AVAILABLE,Y,N
13599,10432808,HILL COUNTRY BIBLE CHURCH NORTHWEST,AUSTIN,TX,78750,1079,WILLIAMSON,48491,2007-09-10T00:00:00.000Z,ALT REF,2008-09-05T00:00:00.000Z,CHURCHES,18163016,-97.818787,30.4616061,CHRISTIAN,NONDENOM,NOT AVAILABLE,NOT AVAILABLE,Y,N
13602,10441415,SAINT CHRISTOPHER'S EPISCOPAL CHURCH,AUSTIN,TX,78735,8171,TRAVIS,48453,2007-11-08T00:00:00.000Z,ALT REF,2008-09-05T00:00:00.000Z,CHURCHES,18145136,-97.8896638,30.258345,CHRISTIAN,EPIS,NOT AVAILABLE,NOT AVAILABLE,Y,N
13605,10436973,THE CHURCH AT CANYON CREEK,AUSTIN,TX,78726,NULL,TRAVIS,48453,2007-11-09T00:00:00.000Z,ALT REF,2008-09-05T00:00:00.000Z,CHURCHES,27829260,-97.8419652,30.4298437,CHRISTIAN,SBC,870,NOT AVAILABLE,Y,N
13607,10441988,SAINT THOMAS MORE CATHOLIC CHURCH,AUSTIN,TX,78726,2210,TRAVIS,48453,2007-08-30T00:00:00.000Z,ALT REF,2008-09-05T00:00:00.000Z,CHURCHES,18165473,-97.834454,30.4408697,CHRISTIAN,NOT AVAILABLE,NOT AVAILABLE,NOT AVAILABLE,N,Y
13613,10430181,KOL HALEV,AUSTIN,TX,78731,2365,TRAVIS,48453,2007-08-08T00:00:00.000Z,ALT REF,2008-09-05T00:00:00.000Z,SYNAGOGUES,18136806,-97.7476813,30.3568683,JUDAIC,NOT AVAILABLE,NOT AVAILABLE,NOT AVAILABLE,N,N
13615,10431286,ISLAMIC CENTER OF GREATER AUSTIN,AUSTIN,TX,78723,4608,TRAVIS,48453,2007-10-09T00:00:00.000Z,ALT REF,2008-09-05T00:00:00.000Z,"MOSQUES, RELIGIOUS",18141525,-97.6867916,30.2991949,MUSLIM,NOT AVAILABLE,NOT AVAILABLE,NOT AVAILABLE,N,N
10402,10759880,SAINT OLAF LUTHERAN CHURCH,AUSTIN,MN,55912,3160,MOWER,27099,2009-06-25T00:00:00.000Z,ALT REF,2009-06-29T00:00:00.000Z,CHURCHES,101035980,-92.9765525,43.6685743,CHRISTIAN,ELCA,NOT AVAILABLE,NOT AVAILABLE,Y,N
12405,10685059,SITAGU BUDDHIST VIHARA,AUSTIN,TX,78737,1102,TRAVIS,48453,2009-05-21T00:00:00.000Z,ALT REF,2009-05-21T00:00:00.000Z,PLACES OF WORSHIP,18174760,-97.9208568,30.2197354,BUDDHIST,THERAVADA,NOT AVAILABLE,NOT AVAILABLE,N,N
12406,10684848,ORDINARY MIND ZEN AUSTIN,AUSTIN,TX,78705,1810,TRAVIS,48453,2009-05-21T00:00:00.000Z,ALT REF,2009-05-21T00:00:00.000Z,PLACES OF WORSHIP,18141843,-97.7224626,30.2952065,BUDDHIST,ZEN MEDITATION IN THE TRADITION OF JOKO BECK,NOT AVAILABLE,NOT AVAILABLE,N,N
12408,10577790,IGLESIA BIBLICA BAUTISTA DE AUSTIN,AUSTIN,TX,78744,8051,TRAVIS,48453,2009-05-21T00:00:00.000Z,ALT REF,2009-05-21T00:00:00.000Z,CHURCHES,25030835,-97.7687315,30.1675977,CHRISTIAN,BAPT,NOT AVAILABLE,NOT AVAILABLE,Y,N
12413,10461324,REDEEMER PRESBYTERIAN CHURCH,AUSTIN,TX,78705,NULL,TRAVIS,48453,2008-03-05T00:00:00.000Z,ALT REF,2008-03-05T00:00:00.000Z,CHURCHES,18177113,-97.7220309,30.2920021,CHRISTIAN,PCA,NOT AVAILABLE,NOT AVAILABLE,Y,N
12414,10684035,DIAMOND WAY BUDDHIST CENTER OF AUSTIN,AUSTIN,TX,78753,5836,TRAVIS,48453,2009-05-21T00:00:00.000Z,ALT REF,2009-05-21T00:00:00.000Z,PLACES OF WORSHIP,18175605,-97.6865462,30.3470618,BUDDHIST,"TIBETAN, KARMA KAGYU, DIAMOND WAY",NOT AVAILABLE,NOT AVAILABLE,N,N
12416,10684665,AUSTIN ZAZENKAI,AUSTIN,TX,78757,1737,TRAVIS,48453,2009-05-21T00:00:00.000Z,ALT REF,2009-05-21T00:00:00.000Z,PLACES OF WORSHIP,18136951,-97.7372762,30.3566711,BUDDHIST,"MAHAYANA, TIBETAN BUDDHIST IN THE TRADITION OF LAMA TSONG KHAPA (GELUG)",NOT AVAILABLE,NOT AVAILABLE,N,N
12428,10431958,HYDE PARK BAPTIST CHURCH,AUSTIN,TX,78751,4625,TRAVIS,48453,2007-09-13T00:00:00.000Z,ALT REF,2007-09-13T00:00:00.000Z,CHURCHES,18141191,-97.7317745,30.3025786,CHRISTIAN,SBC,NOT AVAILABLE,NOT AVAILABLE,Y,N
12441,10432807,GREAT HILLS BAPTIST CHURCH,AUSTIN,TX,78759,5629,TRAVIS,48453,2007-09-13T00:00:00.000Z,ALT REF,2007-09-13T00:00:00.000Z,CHURCHES,18179612,-97.7523641,30.398944,CHRISTIAN,SBC,NOT AVAILABLE,NOT AVAILABLE,Y,N
12442,10432809,SHORELINE CHRISTIAN CENTER,AUSTIN,TX,78728,3505,TRAVIS,48453,2007-09-13T00:00:00.000Z,ALT REF,2007-09-13T00:00:00.000Z,CHURCHES,18163818,-97.6917652,30.4574364,CHRISTIAN,NONDENOM,NOT AVAILABLE,NOT AVAILABLE,Y,N
12473,10433224,THE PROMISELAND,AUSTIN,TX,78723,3012,TRAVIS,48453,2007-09-13T00:00:00.000Z,ALT REF,2007-09-13T00:00:00.000Z,CHURCHES,18140984,-97.7012441,30.3058769,CHRISTIAN,NOT AVAILABLE,NOT AVAILABLE,NOT AVAILABLE,Y,N
12486,10433746,EBENEZER BAPTIST CHURCH,AUSTIN,TX,78702,2641,TRAVIS,48453,2007-11-08T00:00:00.000Z,ALT REF,2007-11-08T00:00:00.000Z,CHURCHES,18144203,-97.7306178,30.2689255,CHRISTIAN,SBC,841,NOT AVAILABLE,Y,N
12490,10434108,WOODLAWN BAPTIST CHURCH,AUSTIN,TX,78745,1608,TRAVIS,48453,2007-11-08T00:00:00.000Z,ALT REF,2007-11-08T00:00:00.000Z,CHURCHES,18146856,-97.7910876,30.226954,CHRISTIAN,SBC,2697,NOT AVAILABLE,Y,N
12501,10434711,THE FIRST BAPTIST CHURCH OF AUSTIN,AUSTIN,TX,78701,2600,TRAVIS,48453,2007-11-08T00:00:00.000Z,ALT REF,2007-11-08T00:00:00.000Z,CHURCHES,18144086,-97.7375921,30.2702265,CHRISTIAN,SBC,1688,NOT AVAILABLE,Y,N
12516,10435529,PLEASANT HILL BAPTIST CHURCH,AUSTIN,TX,78745,5713,TRAVIS,48453,2007-11-08T00:00:00.000Z,ALT REF,2007-11-09T00:00:00.000Z,CHURCHES,18149490,-97.7775799,30.1910304,CHRISTIAN,SBC,899,NOT AVAILABLE,Y,N
12519,10435558,HILLCREST BAPTIST CHURCH,AUSTIN,TX,78759,8637,TRAVIS,48453,2007-11-08T00:00:00.000Z,ALT REF,2007-11-08T00:00:00.000Z,CHURCHES,18135405,-97.7499162,30.3736442,CHRISTIAN,SBC,863,NOT AVAILABLE,Y,N
12535,10436455,ANDERSON MILL BAPTIST CHURCH,AUSTIN,TX,78750,1645,WILLIAMSON,48491,2007-11-08T00:00:00.000Z,ALT REF,2007-11-08T00:00:00.000Z,CHURCHES,18163420,-97.8039967,30.4563552,CHRISTIAN,SBC,1373,NOT AVAILABLE,Y,N
12537,10436549,NORTHWEST BAPTIST CHURCH,AUSTIN,TX,78757,2929,TRAVIS,48453,2007-11-08T00:00:00.000Z,ALT REF,2007-11-08T00:00:00.000Z,CHURCHES,18138443,-97.7296498,30.334465,CHRISTIAN,SBC,1016,NOT AVAILABLE,Y,N
12564,10437714,BETHANY LUTHERAN CHURCH,AUSTIN,TX,78749,5902,TRAVIS,48453,2007-09-24T00:00:00.000Z,ALT REF,2007-09-24T00:00:00.000Z,CHURCHES,18149782,-97.8549248,30.184759,CHRISTIAN,LCMS,NOT AVAILABLE,NOT AVAILABLE,Y,N
12565,10437715,REDEEMER LUTHERAN CHURCH,AUSTIN,TX,78757,1453,TRAVIS,48453,2007-09-24T00:00:00.000Z,ALT REF,2007-09-24T00:00:00.000Z,CHURCHES,18137283,-97.7203687,30.3521887,CHRISTIAN,LCMS,NOT AVAILABLE,NOT AVAILABLE,Y,N
12569,10437943,BETHANY UNITED METHODIST CHURCH,AUSTIN,TX,78750,2127,WILLIAMSON,48491,2007-09-24T00:00:00.000Z,ALT REF,2007-09-28T00:00:00.000Z,CHURCHES,18164173,-97.7988574,30.4479204,CHRISTIAN,UMC,NOT AVAILABLE,NOT AVAILABLE,Y,N
12570,10437955,FIRST UNITED METHODIST CHURCH,AUSTIN,TX,78701,1831,TRAVIS,48453,2007-09-24T00:00:00.000Z,ALT REF,2007-09-24T00:00:00.000Z,CHURCHES,18143654,-97.7426263,30.2748382,CHRISTIAN,UMC,NOT AVAILABLE,NOT AVAILABLE,Y,N
12582,10438353,COVENANT PRESBYTERIAN CHURCH,AUSTIN,TX,78757,5036,TRAVIS,48453,2007-10-10T00:00:00.000Z,ALT REF,2007-10-10T00:00:00.000Z,CHURCHES,18152513,-97.7533324,30.3343748,CHRISTIAN,PCUSA,2072,NOT AVAILABLE,Y,N
12586,10438428,WESTLAKE HILLS PRESBYTERIAN CHURCH,AUSTIN,TX,78746,4102,TRAVIS,48453,2007-10-10T00:00:00.000Z,ALT REF,2007-10-10T00:00:00.000Z,CHURCHES,18153531,-97.8421211,30.3031479,CHRISTIAN,PCUSA,2502,NOT AVAILABLE,Y,N
12587,10438462,THE CHURCH OF JESUS CHRIST OF LATTER DAY SAINTS - MCNEIL WARD,AUSTIN,TX,78717,4916,WILLIAMSON,48491,2007-10-17T00:00:00.000Z,ALT REF,2007-10-17T00:00:00.000Z,CHURCHES,18161748,-97.7357041,30.49299,CHRISTIAN,LDS,NOT AVAILABLE,NOT AVAILABLE,Y,N
12594,10438661,THE CHURCH OF JESUS CHRIST OF LATTER DAY SAINTS - SHOAL CREEK WARD,AUSTIN,TX,78753,6707,TRAVIS,48453,2007-10-17T00:00:00.000Z,ALT REF,2007-10-17T00:00:00.000Z,CHURCHES,18137925,-97.6928646,30.3425083,CHRISTIAN,LDS,NOT AVAILABLE,NOT AVAILABLE,Y,N
12597,10438877,THE CHURCH OF JESUS CHRIST OF LATTER DAY SAINTS - MOUNT BONNELL (YOUNG SINGLE ADULT) WARD,AUSTIN,TX,78753,6707,TRAVIS,48453,2007-10-17T00:00:00.000Z,ALT REF,2007-10-17T00:00:00.000Z,CHURCHES,18137925,-97.6928758,30.3424882,CHRISTIAN,LDS,NOT AVAILABLE,NOT AVAILABLE,Y,N
12605,10439381,THE CHURCH OF JESUS CHRIST OF LATTER DAY SAINTS - RIVERSIDE (SPANISH) WARD,AUSTIN,TX,78741,3807,TRAVIS,48453,2007-10-17T00:00:00.000Z,ALT REF,2007-10-17T00:00:00.000Z,CHURCHES,18169960,-97.7359667,30.2330063,CHRISTIAN,LDS,NOT AVAILABLE,NOT AVAILABLE,Y,N
12606,10439384,THE CHURCH OF JESUS CHRIST OF LATTER DAY SAINTS - HILL COUNTRY WARD,AUSTIN,TX,78749,NULL,TRAVIS,48453,2007-10-17T00:00:00.000Z,ALT REF,2007-10-17T00:00:00.000Z,CHURCHES,18147348,-97.8555823,30.2187864,CHRISTIAN,LDS,NOT AVAILABLE,NOT AVAILABLE,Y,N
12609,10439498,THE CHURCH OF JESUS CHRIST OF LATTER DAY SAINTS - BRUSHY CREEK WARD,AUSTIN,TX,78717,4916,WILLIAMSON,48491,2007-10-17T00:00:00.000Z,ALT REF,2007-10-17T00:00:00.000Z,CHURCHES,18161748,-97.7356987,30.4929871,CHRISTIAN,LDS,NOT AVAILABLE,NOT AVAILABLE,Y,N
12610,10439652,THE CHURCH OF JESUS CHRIST OF LATTER DAY SAINTS - PARKWOOD WARD,AUSTIN,TX,78749,NULL,TRAVIS,48453,2007-10-17T00:00:00.000Z,ALT REF,2007-10-17T00:00:00.000Z,CHURCHES,18147348,-97.8555823,30.2187813,CHRISTIAN,LDS,NOT AVAILABLE,NOT AVAILABLE,Y,N
12614,10439748,THE CHURCH OF JESUS CHRIST OF LATTER DAY SAINTS - AUSTIN WARD,AUSTIN,TX,78741,3807,TRAVIS,48453,2007-10-17T00:00:00.000Z,ALT REF,2007-10-17T00:00:00.000Z,CHURCHES,18169960,-97.7359927,30.2330113,CHRISTIAN,LDS,NOT AVAILABLE,NOT AVAILABLE,Y,N
12616,10439770,THE CHURCH OF JESUS CHRIST OF LATTER DAY SAINTS - WALNUT CREEK WARD,AUSTIN,TX,78753,6707,TRAVIS,48453,2007-10-17T00:00:00.000Z,ALT REF,2007-10-17T00:00:00.000Z,CHURCHES,18137925,-97.6928758,30.3424882,CHRISTIAN,LDS,NOT AVAILABLE,NOT AVAILABLE,Y,N
12619,10439849,THE CHURCH OF JESUS CHRIST OF LATTER DAY SAINTS - LAKE AUSTIN (SPANISH) BRANCH,AUSTIN,TX,78753,6707,TRAVIS,48453,2007-10-17T00:00:00.000Z,ALT REF,2007-10-17T00:00:00.000Z,CHURCHES,18137925,-97.6928758,30.3425088,CHRISTIAN,LDS,NOT AVAILABLE,NOT AVAILABLE,Y,N
12620,10439868,THE CHURCH OF JESUS CHRIST OF LATTER DAY SAINTS - CHISHOLM TRAIL (YOUNG SINGLE ADULT) WARD,AUSTIN,TX,78717,4916,WILLIAMSON,48491,2007-10-17T00:00:00.000Z,ALT REF,2007-10-17T00:00:00.000Z,CHURCHES,18161748,-97.7357051,30.4929879,CHRISTIAN,LDS,NOT AVAILABLE,NOT AVAILABLE,Y,N
12623,10439964,THE CHURCH OF JESUS CHRIST OF LATTER DAY SAINTS - OLD SETTLERS WARD,AUSTIN,TX,78717,4916,WILLIAMSON,48491,2007-10-17T00:00:00.000Z,ALT REF,2007-10-17T00:00:00.000Z,CHURCHES,18161748,-97.7357106,30.4929871,CHRISTIAN,LDS,NOT AVAILABLE,NOT AVAILABLE,Y,N
12629,10440094,THE CHURCH OF JESUS CHRIST OF LATTER DAY SAINTS - SUNSET VALLEY WARD,AUSTIN,TX,78749,NULL,TRAVIS,48453,2007-10-17T00:00:00.000Z,ALT REF,2007-10-17T00:00:00.000Z,CHURCHES,18147348,-97.8555823,30.2187967,CHRISTIAN,LDS,NOT AVAILABLE,NOT AVAILABLE,Y,N
12642,10440389,KING-SEABROOK CHAPEL,AUSTIN,TX,78702,2753,TRAVIS,48453,2007-11-28T00:00:00.000Z,ALT REF,2007-11-28T00:00:00.000Z,CHURCHES,18144539,-97.7228696,30.2636726,CHRISTIAN,EPIS,NOT AVAILABLE,NOT AVAILABLE,Y,N
12668,10441414,EPISCOPAL STUDENT CENTER,AUSTIN,TX,78705,1043,TRAVIS,48453,2007-11-28T00:00:00.000Z,ALT REF,2007-11-29T00:00:00.000Z,CHURCHES,18142044,-97.7396777,30.2916794,CHRISTIAN,EPIS,NOT AVAILABLE,NOT AVAILABLE,Y,N
12669,10441416,SAINT MATTHEW'S EPISCOPAL CHURCH,AUSTIN,TX,78759,8615,TRAVIS,48453,2007-11-09T00:00:00.000Z,ALT REF,2007-11-09T00:00:00.000Z,CHURCHES,18151313,-97.7564668,30.3747208,CHRISTIAN,EPIS,NOT AVAILABLE,NOT AVAILABLE,Y,N
12670,10441417,ALL SAINTS' EPISCOPAL CHURCH,AUSTIN,TX,78705,1043,TRAVIS,48453,2007-11-09T00:00:00.000Z,ALT REF,2007-12-04T00:00:00.000Z,CHURCHES,18142044,-97.7396765,30.2916843,CHRISTIAN,EPIS,NOT AVAILABLE,NOT AVAILABLE,Y,N
12671,10441422,SAN FRANCISCO DE ASIS EPISCOPAL CHURCH,AUSTIN,TX,78745,5454,TRAVIS,48453,2007-11-09T00:00:00.000Z,ALT REF,2007-11-09T00:00:00.000Z,CHURCHES,18148900,-97.802144,30.1992237,CHRISTIAN,EPIS,NOT AVAILABLE,NOT AVAILABLE,Y,N
12672,10441423,SAINT PHILIP THE JOY-GIVER,AUSTIN,TX,78748,2712,TRAVIS,48453,2007-11-09T00:00:00.000Z,ALT REF,2007-11-28T00:00:00.000Z,CHURCHES,18150857,-97.8338683,30.1523099,CHRISTIAN,EPIS,NOT AVAILABLE,NOT AVAILABLE,Y,N
12673,10441425,SAINT LUKE'S ON THE LAKE EPISCOPAL CHURCH,AUSTIN,TX,78732,1823,TRAVIS,48453,2007-11-09T00:00:00.000Z,ALT REF,2007-11-29T00:00:00.000Z,CHURCHES,18159948,-97.8751562,30.3938264,CHRISTIAN,EPIS,NOT AVAILABLE,NOT AVAILABLE,Y,N
12674,10441429,HOLY TRINITY CHURCH,AUSTIN,TX,78741,2534,TRAVIS,48453,2007-11-09T00:00:00.000Z,ALT REF,2007-11-09T00:00:00.000Z,CHURCHES,18169758,-97.7349868,30.2397276,CHRISTIAN,EPIS,NOT AVAILABLE,NOT AVAILABLE,Y,N
12695,10443275,SAINT MARY CATHEDRAL,AUSTIN,TX,78701,2406,TRAVIS,48453,2007-09-04T00:00:00.000Z,ALT REF,2007-09-04T00:00:00.000Z,CHURCHES,18143985,-97.7399889,30.2712257,CHRISTIAN,NOT AVAILABLE,NOT AVAILABLE,NOT AVAILABLE,N,Y
12696,10443277,SACRED HEART PARISH,AUSTIN,TX,78723,3728,TRAVIS,48453,2007-09-04T00:00:00.000Z,ALT REF,2007-09-04T00:00:00.000Z,CHURCHES,18140905,-97.6757123,30.3047108,CHRISTIAN,NOT AVAILABLE,NOT AVAILABLE,NOT AVAILABLE,N,Y
12697,10443278,SAINT PAUL'S CATHOLIC CHURCH,AUSTIN,TX,78748,1421,TRAVIS,48453,2007-09-04T00:00:00.000Z,ALT REF,2007-09-04T00:00:00.000Z,CHURCHES,18150675,-97.8153115,30.1661357,CHRISTIAN,NOT AVAILABLE,NOT AVAILABLE,NOT AVAILABLE,N,Y
12705,10446560,SAINT ALBERT THE GREAT CHURCH,AUSTIN,TX,78758,3300,TRAVIS,48453,2007-09-04T00:00:00.000Z,ALT REF,2007-09-04T00:00:00.000Z,CHURCHES,18167618,-97.6995308,30.40291,CHRISTIAN,NOT AVAILABLE,NOT AVAILABLE,NOT AVAILABLE,N,Y
12706,10446566,SAINT JULIA CATHOLIC CHURCH,AUSTIN,TX,78702,3745,TRAVIS,48453,2007-09-04T00:00:00.000Z,ALT REF,2007-09-04T00:00:00.000Z,CHURCHES,18144673,-97.7039978,30.2627576,CHRISTIAN,NOT AVAILABLE,NOT AVAILABLE,NOT AVAILABLE,N,Y
12707,10446567,SAINT PETER THE APOSTLE PARISH,AUSTIN,TX,78741,7212,TRAVIS,48453,2007-09-04T00:00:00.000Z,ALT REF,2007-09-04T00:00:00.000Z,CHURCHES,122468579,-97.7295594,30.2162952,CHRISTIAN,NOT AVAILABLE,NOT AVAILABLE,NOT AVAILABLE,N,Y
12708,10446570,SAN FRANCISCO JAVIER PARISH,AUSTIN,TX,78747,NULL,TRAVIS,48453,2007-09-04T00:00:00.000Z,ALT REF,2007-09-04T00:00:00.000Z,CHURCHES,103679730,-97.6957479,30.1195113,CHRISTIAN,NOT AVAILABLE,NOT AVAILABLE,NOT AVAILABLE,N,Y
12709,10446571,SAN JOSE CATHOLIC CHURCH,AUSTIN,TX,78704,5317,TRAVIS,48453,2007-09-04T00:00:00.000Z,ALT REF,2007-09-04T00:00:00.000Z,CHURCHES,18145963,-97.7631252,30.2420361,CHRISTIAN,NOT AVAILABLE,NOT AVAILABLE,NOT AVAILABLE,N,Y
12713,10448180,OUR LADY'S MARONITE CATHOLIC CHURCH,AUSTIN,TX,78723,3037,TRAVIS,48453,2007-10-09T00:00:00.000Z,ALT REF,2007-10-09T00:00:00.000Z,CHURCHES,18140984,-97.7047474,30.3071145,CHRISTIAN,NOT AVAILABLE,NOT AVAILABLE,NOT AVAILABLE,N,Y
12714,10448396,SAINT IGNATIUS MARTYR PARISH,AUSTIN,TX,78704,5210,TRAVIS,48453,2007-09-04T00:00:00.000Z,ALT REF,2007-09-04T00:00:00.000Z,CHURCHES,18146098,-97.7548858,30.2401726,CHRISTIAN,NOT AVAILABLE,NOT AVAILABLE,NOT AVAILABLE,N,Y
12746,10460117,CHRIST THE KING PRESBYTERIAN CHURCH,AUSTIN,TX,78739,1747,TRAVIS,48453,2008-03-11T00:00:00.000Z,ALT REF,2008-03-11T00:00:00.000Z,CHURCHES,18174944,-97.881268,30.1914252,CHRISTIAN,PCA,NOT AVAILABLE,NOT AVAILABLE,Y,N
12759,10454454,OLIVET BAPTIST CHURCH,AUSTIN,TX,78702,2039,TRAVIS,48453,2008-03-11T00:00:00.000Z,ALT REF,2008-03-11T00:00:00.000Z,CHURCHES,18144061,-97.7257386,30.2712272,CHRISTIAN,NBC,NOT AVAILABLE,NOT AVAILABLE,Y,N
12760,10459952,AUSTIN FIRST CUMBERLAND PRESBYTERIAN CHURCH,AUSTIN,TX,78757,2545,TRAVIS,48453,2008-03-11T00:00:00.000Z,ALT REF,2008-03-11T00:00:00.000Z,CHURCHES,18138116,-97.7275738,30.3396676,CHRISTIAN,PCA,NOT AVAILABLE,NOT AVAILABLE,Y,N
12763,10678042,BARSANA DHAM,AUSTIN,TX,78737,8705,HAYS,48209,2009-05-14T00:00:00.000Z,ALT REF,2009-05-14T00:00:00.000Z,PLACES OF WORSHIP,715184884,-97.9578222,30.1556746,HINDU,NOT AVAILABLE,NOT AVAILABLE,NOT AVAILABLE,N,N
12779,10440199,SAINT GEORGE'S EPISCOPAL CHURCH,AUSTIN,TX,78722,NULL,TRAVIS,48453,2007-11-09T00:00:00.000Z,ALT REF,2007-11-09T00:00:00.000Z,CHURCHES,18141386,-97.715481,30.2999666,CHRISTIAN,EPIS,NOT AVAILABLE,NOT AVAILABLE,Y,N
12795,10432811,CALVARY CHAPEL OF AUSTIN,AUSTIN,TX,78758,6227,TRAVIS,48453,2007-09-10T00:00:00.000Z,ALT REF,2007-09-19T00:00:00.000Z,CHURCHES,18135856,-97.7062054,30.3680395,CHRISTIAN,CAL,NOT AVAILABLE,NOT AVAILABLE,Y,N
12802,10433509,CRESTVIEW BAPTIST CHURCH,AUSTIN,TX,78757,1809,TRAVIS,48453,2007-11-08T00:00:00.000Z,ALT REF,2007-11-08T00:00:00.000Z,CHURCHES,18137536,-97.7238382,30.3480328,CHRISTIAN,SBC,822,NOT AVAILABLE,Y,N
12821,10441418,SAINT ALBAN'S EPISCOPAL CHURCH,AUSTIN,TX,78747,NULL,TRAVIS,48453,2007-11-09T00:00:00.000Z,ALT REF,2007-11-09T00:00:00.000Z,CHURCHES,18151219,-97.7993156,30.1297157,CHRISTIAN,EPIS,NOT AVAILABLE,NOT AVAILABLE,Y,N
12822,10441426,SAINT JOHN'S EPISCOPAL CHURCH,AUSTIN,TX,78758,4264,TRAVIS,48453,2007-11-09T00:00:00.000Z,ALT REF,2007-11-09T00:00:00.000Z,CHURCHES,18168539,-97.6958525,30.3853904,CHRISTIAN,EPIS,NOT AVAILABLE,NOT AVAILABLE,Y,N
12826,10440402,SAINT DAVID'S EPISCOPAL CHURCH,AUSTIN,TX,78701,3202,TRAVIS,48453,2007-11-08T00:00:00.000Z,ALT REF,2007-11-08T00:00:00.000Z,CHURCHES,18144243,-97.7395083,30.2684564,CHRISTIAN,EPIS,NOT AVAILABLE,NOT AVAILABLE,Y,N
12849,10441427,SAINT JAMES' EPISCOPAL CHURCH,AUSTIN,TX,78721,1679,TRAVIS,48453,2007-11-08T00:00:00.000Z,ALT REF,2007-11-09T00:00:00.000Z,CHURCHES,18142756,-97.6728141,30.2832831,CHRISTIAN,EPIS,NOT AVAILABLE,NOT AVAILABLE,Y,N
12851,10441421,SAINT MARK'S EPISCOPAL CHURCH,AUSTIN,TX,78704,4651,TRAVIS,48453,2007-11-09T00:00:00.000Z,ALT REF,2007-11-09T00:00:00.000Z,CHURCHES,18156107,-97.7857359,30.2532646,CHRISTIAN,EPIS,NOT AVAILABLE,NOT AVAILABLE,Y,N
12866,10432812,RIVERBEND CHURCH,AUSTIN,TX,78746,1418,TRAVIS,48453,2007-09-10T00:00:00.000Z,ALT REF,2007-09-10T00:00:00.000Z,CHURCHES,18152357,-97.8030632,30.3411004,CHRISTIAN,SBC,NOT AVAILABLE,NOT AVAILABLE,Y,N
12874,10441420,EPISCOPAL CHURCH OF THE RESURRECTION,AUSTIN,TX,78757,2417,TRAVIS,48453,2007-11-09T00:00:00.000Z,ALT REF,2007-11-09T00:00:00.000Z,CHURCHES,18137761,-97.7357043,30.3449578,CHRISTIAN,EPIS,NOT AVAILABLE,NOT AVAILABLE,Y,N
12899,10441419,EPISCOPAL CHURCH OF THE GOOD SHEPHERD,AUSTIN,TX,78703,2243,TRAVIS,48453,2007-11-08T00:00:00.000Z,ALT REF,2007-11-09T00:00:00.000Z,CHURCHES,18153812,-97.768664,30.2966352,CHRISTIAN,EPIS,NOT AVAILABLE,NOT AVAILABLE,Y,N
12908,11548533,TRINITY BAPTIST CHURCH,AUSTIN,TX,78751,1215,TRAVIS,48453,2009-07-01T00:00:00.000Z,ALT REF,2009-07-01T00:00:00.000Z,CHURCHES,737769271,-97.7213786,30.3224908,CHRISTIAN,NOT AVAILABLE,NOT AVAILABLE,NOT AVAILABLE,Y,N
12909,10585095,TRINITY BAPTIST CHURCH,AUSTIN,TX,78705,2012,TRAVIS,48453,2009-07-01T00:00:00.000Z,ALT REF,2009-07-01T00:00:00.000Z,CHURCHES,18141280,-97.7453489,30.3010637,CHRISTIAN,BAPT,NOT AVAILABLE,NOT AVAILABLE,Y,N
12910,11548532,PEACE LUTHERAN CHURCH,AUSTIN,TX,78726,1706,TRAVIS,48453,2009-07-01T00:00:00.000Z,ALT REF,2009-07-01T00:00:00.000Z,CHURCHES,18164298,-97.8311341,30.445534,CHRISTIAN,NOT AVAILABLE,NOT AVAILABLE,NOT AVAILABLE,Y,N
12935,10441860,SAINT LOUIS KING OF FRANCE CATHOLIC CHURCH,AUSTIN,TX,78757,1204,TRAVIS,48453,2009-05-18T00:00:00.000Z,ALT REF,2009-05-18T00:00:00.000Z,CHURCHES,18137197,-97.7319823,30.352669,CHRISTIAN,NOT AVAILABLE,NOT AVAILABLE,NOT AVAILABLE,N,Y
12938,10461298,CROSSPOINTE CHURCH,AUSTIN,TX,78729,6902,TRAVIS,48453,2009-05-18T00:00:00.000Z,ALT REF,2009-05-18T00:00:00.000Z,CHURCHES,743380624,-97.7326052,30.445815,CHRISTIAN,PCA,NOT AVAILABLE,NOT AVAILABLE,Y,N
12944,10461282,ALL SAINTS PRESBYTERIAN CHURCH,AUSTIN,TX,78735,1494,TRAVIS,48453,2009-05-19T00:00:00.000Z,ALT REF,2009-05-19T00:00:00.000Z,CHURCHES,27821705,-97.873677,30.2920228,CHRISTIAN,PCA,NOT AVAILABLE,NOT AVAILABLE,Y,N
12946,10446568,SAINT THERESA CATHOLIC CHURCH,AUSTIN,TX,78731,3634,TRAVIS,48453,2009-05-19T00:00:00.000Z,ALT REF,2009-05-19T00:00:00.000Z,CHURCHES,18152250,-97.7748238,30.3432259,CHRISTIAN,NOT AVAILABLE,NOT AVAILABLE,NOT AVAILABLE,N,Y
12948,10443276,CHRISTO REY CATHOLIC CHURCH,AUSTIN,TX,78702,4533,TRAVIS,48453,2009-05-19T00:00:00.000Z,ALT REF,2009-05-20T00:00:00.000Z,CHURCHES,18145163,-97.7200445,30.2563034,CHRISTIAN,NOT AVAILABLE,NOT AVAILABLE,NOT AVAILABLE,N,Y
12950,10446565,SAINT JOHN NEUMANN CHURCH,AUSTIN,TX,78746,5228,TRAVIS,48453,2009-05-19T00:00:00.000Z,ALT REF,2009-05-21T00:00:00.000Z,CHURCHES,122474082,-97.8224693,30.2904176,CHRISTIAN,NOT AVAILABLE,NOT AVAILABLE,NOT AVAILABLE,N,Y
12951,10446562,HOLY VIETNAMESE MARTYRS CATHOLIC CHURCH,AUSTIN,TX,78753,7009,TRAVIS,48453,2009-05-19T00:00:00.000Z,ALT REF,2009-05-19T00:00:00.000Z,CHURCHES,122935999,-97.6588971,30.3903765,CHRISTIAN,NOT AVAILABLE,NOT AVAILABLE,NOT AVAILABLE,N,Y
12956,10684480,FO GUANG SHAN HSIANG YUN TEMPLE,AUSTIN,TX,78731,1715,TRAVIS,48453,2009-05-20T00:00:00.000Z,ALT REF,2009-05-20T00:00:00.000Z,"TEMPLES, RELIGIOUS",740950478,-97.7900722,30.3690089,BUDDHIST,"MAHAYANA, HUMANISTIC BUDDHISM",NOT AVAILABLE,NOT AVAILABLE,N,N
12958,10442831,SANTA BARBARA CATHOLIC CHURCH,AUSTIN,TX,78724,NULL,TRAVIS,48453,2009-05-21T00:00:00.000Z,ALT REF,2009-05-21T00:00:00.000Z,CHURCHES,122458688,-97.5882432,30.2492877,CHRISTIAN,NOT AVAILABLE,NOT AVAILABLE,NOT AVAILABLE,N,Y
12959,10683955,AUSTIN ZEN CENTER,AUSTIN,TX,78705,2218,TRAVIS,48453,2009-05-21T00:00:00.000Z,ALT REF,2009-05-21T00:00:00.000Z,PLACES OF WORSHIP,18141633,-97.7434866,30.2988709,BUDDHIST,"MAHAYANA, SOTO ZEN",NOT AVAILABLE,NOT AVAILABLE,N,N
12969,10678043,SINGH SABHA GURDWARA,AUSTIN,TX,78726,NULL,TRAVIS,48453,2009-07-01T00:00:00.000Z,ALT REF,2009-07-01T00:00:00.000Z,"TEMPLES, RELIGIOUS",18164298,-97.8311326,30.4455331,HINDU,NOT AVAILABLE,NOT AVAILABLE,NOT AVAILABLE,N,N
12993,10581180,CAPITOL CITY BAPTIST CHURCH,AUSTIN,TX,78745,1038,TRAVIS,48453,2009-05-18T00:00:00.000Z,ALT REF,2009-05-18T00:00:00.000Z,CHURCHES,18146992,-97.7823654,30.2238706,CHRISTIAN,BAPT,NOT AVAILABLE,NOT AVAILABLE,Y,N
12994,10581179,MARANATHA BAPTIST CHURCH,AUSTIN,TX,78748,5407,TRAVIS,48453,2009-05-19T00:00:00.000Z,ALT REF,2009-05-19T00:00:00.000Z,CHURCHES,18150019,-97.7954412,30.1809503,CHRISTIAN,BAPT,NOT AVAILABLE,NOT AVAILABLE,Y,N
12995,10581178,SCENIC HILLS BAPTIST CHURCH,AUSTIN,TX,78736,7950,TRAVIS,48453,2009-05-19T00:00:00.000Z,ALT REF,2009-05-19T00:00:00.000Z,CHURCHES,18174592,-97.9104907,30.2356091,CHRISTIAN,BAPT,NOT AVAILABLE,NOT AVAILABLE,Y,N
12996,10456684,YOUNG CHAPEL AFRICAN METHODIST EPISCOPAL CHURCH,AUSTIN,TX,78752,3912,TRAVIS,48453,2009-05-19T00:00:00.000Z,ALT REF,2009-05-19T00:00:00.000Z,CHURCHES,18138959,-97.7008937,30.3276874,CHRISTIAN,AME,NOT AVAILABLE,NOT AVAILABLE,Y,N
13000,10446563,OUR LADY OF GUADALUPE CATHOLIC CHURCH,AUSTIN,TX,78702,2613,TRAVIS,48453,2009-05-19T00:00:00.000Z,ALT REF,2009-05-19T00:00:00.000Z,CHURCHES,18144367,-97.7280198,30.2668503,CHRISTIAN,NOT AVAILABLE,NOT AVAILABLE,NOT AVAILABLE,N,Y
30047,10586676,FIRST BAPTIST CHURCH OF AUSTIN,AUSTIN,IN,47102,1530,SCOTT,18143,2009-04-01T00:00:00.000Z,ALT REF,2009-04-01T00:00:00.000Z,CHURCHES,106916791,-85.8085939,38.7408893,CHRISTIAN,ABC,NOT AVAILABLE,NOT AVAILABLE,Y,N
29743,10586862,NEW HARMONY BAPTIST CHURCH,AUSTIN,IN,47102,8601,SCOTT,18143,2009-03-30T00:00:00.000Z,ALT REF,2009-03-30T00:00:00.000Z,CHURCHES,106912616,-85.7854428,38.7729087,CHRISTIAN,ABC,NOT AVAILABLE,NOT AVAILABLE,Y,N
29965,10586870,NEW PROVIDENCE BAPTIST CHURCH,AUSTIN,IN,47102,8505,SCOTT,18143,2009-04-01T00:00:00.000Z,ALT REF,2009-04-01T00:00:00.000Z,CHURCHES,111973094,-85.7575808,38.7297427,CHRISTIAN,ABC,NOT AVAILABLE,NOT AVAILABLE,Y,N