OBJECTID,ID,NAME,CITY,STATE,ZIP,ZIPP4,COUNTY,FIPS,CONTDATE,CONTHOW,GEODATE,NAICSDESCR,GEOLINKID,X,Y,SUBTYPE,DENOM,MEMBERS,LOC_TYPE,PROT,CATH
44003,10456979,ADAMS CHAPEL AFRICAN METHODIST EPISCOPAL CHURCH,BALTIMORE,MD,21215,5413,BALTIMORE CITY,24510,2009-04-14T00:00:00.000Z,ALT REF,2009-04-14T00:00:00.000Z,CHURCHES,18526913,-76.6820672,39.3281511,CHRISTIAN,AME,NOT AVAILABLE,NOT AVAILABLE,Y,N
44018,10431480,MASJID AL NUR,BALTIMORE,MD,21234,1207,BALTIMORE,24005,2009-04-15T00:00:00.000Z,ALT REF,2009-04-15T00:00:00.000Z,"MOSQUES, RELIGIOUS",18495477,-76.5144773,39.4084704,MUSLIM,NOT AVAILABLE,NOT AVAILABLE,NOT AVAILABLE,N,N
44025,10762310,CENTRAL PRESBYTERIAN CHURCH,BALTIMORE,MD,21204,7616,BALTIMORE,24005,2009-04-15T00:00:00.000Z,ALT REF,2009-04-15T00:00:00.000Z,CHURCHES,18493781,-76.6074617,39.3848115,CHRISTIAN,PCUSA,745,NOT AVAILABLE,Y,N
44026,10457035,COWDENSVILLE AFRICAN METHODIST EPISCOPAL CHURCH,BALTIMORE,MD,21227,2739,BALTIMORE,24005,2009-04-15T00:00:00.000Z,ALT REF,2009-04-15T00:00:00.000Z,CHURCHES,18538091,-76.7080833,39.2462043,CHRISTIAN,AME,NOT AVAILABLE,NOT AVAILABLE,Y,N
44027,10760060,EMMANUEL LUTHERAN CHURCH,BALTIMORE,MD,21228,1316,BALTIMORE,24005,2009-04-14T00:00:00.000Z,ALT REF,2009-04-14T00:00:00.000Z,CHURCHES,18524104,-76.7328218,39.29031,CHRISTIAN,LCMS,NOT AVAILABLE,NOT AVAILABLE,Y,N
44028,10583346,COMMUNITY BAPTIST CHURCH OF CHASE,BALTIMORE,MD,21220,1301,BALTIMORE,24005,2009-04-15T00:00:00.000Z,ALT REF,2009-04-15T00:00:00.000Z,CHURCHES,18534825,-76.3811103,39.3493791,CHRISTIAN,BAPT,NOT AVAILABLE,NOT AVAILABLE,Y,N
44029,10583345,GRACE BIBLE BAPTIST CHURCH,BALTIMORE,MD,21228,1147,BALTIMORE,24005,2009-04-15T00:00:00.000Z,ALT REF,2009-04-15T00:00:00.000Z,CHURCHES,18481328,-76.7558784,39.3035536,CHRISTIAN,BAPT,NOT AVAILABLE,NOT AVAILABLE,Y,N
44031,10457054,FALLS ROAD AFRICAN METHODIST EPISCOPAL CHURCH,BALTIMORE,MD,21244,2827,BALTIMORE,24005,2009-04-15T00:00:00.000Z,ALT REF,2009-04-15T00:00:00.000Z,CHURCHES,24746669,-76.7568423,39.3425819,CHRISTIAN,AME,NOT AVAILABLE,NOT AVAILABLE,Y,N
44032,10440908,THE CHURCH OF THE ASCENSION,BALTIMORE,MD,21220,5514,BALTIMORE,24005,2009-04-15T00:00:00.000Z,ALT REF,2009-04-15T00:00:00.000Z,CHURCHES,18536226,-76.4181616,39.3183356,CHRISTIAN,EPIS,NOT AVAILABLE,NOT AVAILABLE,Y,N
44033,10448428,HOLY KOREAN MARTYRS CATHOLIC CHURCH,BALTIMORE,MD,21207,5137,BALTIMORE,24005,2009-04-15T00:00:00.000Z,ALT REF,2009-04-15T00:00:00.000Z,CHURCHES,18524263,-76.7162323,39.3089484,CHRISTIAN,NOT AVAILABLE,NOT AVAILABLE,NOT AVAILABLE,N,Y
44034,10443290,CHURCH OF THE ASCENSION HALETHORPE,BALTIMORE,MD,21227,4029,BALTIMORE,24005,2009-04-15T00:00:00.000Z,ALT REF,2009-04-15T00:00:00.000Z,CHURCHES,18538408,-76.6903305,39.2406876,CHRISTIAN,NOT AVAILABLE,NOT AVAILABLE,NOT AVAILABLE,N,Y
44035,10448645,OUR LADY OF LAVANG CATHOLIC CHURCH,BALTIMORE,MD,21222,6169,BALTIMORE,24005,2009-04-15T00:00:00.000Z,ALT REF,2009-04-15T00:00:00.000Z,CHURCHES,18543187,-76.5080292,39.2447908,CHRISTIAN,NOT AVAILABLE,NOT AVAILABLE,NOT AVAILABLE,N,Y
44036,10440892,HOLY TRINITY EPISCOPAL CHURCH,BALTIMORE,MD,21221,3316,BALTIMORE,24005,2009-04-15T00:00:00.000Z,ALT REF,2009-04-15T00:00:00.000Z,CHURCHES,18535929,-76.4694799,39.3268181,CHRISTIAN,EPIS,NOT AVAILABLE,NOT AVAILABLE,Y,N
44037,10440912,THE EPISCOPAL CHURCH OF CHRIST THE KING,BALTIMORE,MD,21244,1704,BALTIMORE,24005,2009-04-14T00:00:00.000Z,ALT REF,2009-04-14T00:00:00.000Z,CHURCHES,18895268,-76.7591114,39.3130182,CHRISTIAN,EPIS,NOT AVAILABLE,NOT AVAILABLE,Y,N
44038,10454145,PLEASANT ZION BAPTIST CHURCH,BALTIMORE,MD,21222,5048,BALTIMORE,24005,2009-04-14T00:00:00.000Z,ALT REF,2009-04-14T00:00:00.000Z,CHURCHES,18896620,-76.4626906,39.2581553,CHRISTIAN,NBC,NOT AVAILABLE,NOT AVAILABLE,Y,N
44039,10440899,SAINT MARYS EPISCOPAL CHURCH,BALTIMORE,MD,21207,5906,BALTIMORE,24005,2009-04-15T00:00:00.000Z,ALT REF,2009-04-15T00:00:00.000Z,CHURCHES,18526253,-76.7208265,39.3132829,CHRISTIAN,EPIS,NOT AVAILABLE,NOT AVAILABLE,Y,N
44051,10443803,OUR LADY OF HOPE CHURCH,BALTIMORE,MD,21222,3333,BALTIMORE,24005,2009-04-16T00:00:00.000Z,ALT REF,2009-04-15T00:00:00.000Z,CHURCHES,18537568,-76.4931803,39.2691926,CHRISTIAN,NOT AVAILABLE,NOT AVAILABLE,NOT AVAILABLE,N,Y
44052,10460694,BALTIMORE CENTRAL COMMUNITY CHURCH,BALTIMORE,MD,21234,5314,BALTIMORE,24005,2009-04-16T00:00:00.000Z,ALT REF,2009-04-15T00:00:00.000Z,CHURCHES,18492705,-76.5594012,39.3825171,CHRISTIAN,PCA,NOT AVAILABLE,NOT AVAILABLE,Y,N
44106,10587453,TRINITY BAPTIST CHURCH,BALTIMORE,MD,21217,3427,BALTIMORE CITY,24510,2009-05-06T00:00:00.000Z,ALT REF,2009-05-06T00:00:00.000Z,CHURCHES,18523607,-76.6314449,39.3046662,CHRISTIAN,ABC,NOT AVAILABLE,NOT AVAILABLE,Y,N
44117,10583344,BETHANY BAPTIST CHURCH,BALTIMORE,MD,21225,2342,BALTIMORE CITY,24510,2009-05-07T00:00:00.000Z,ALT REF,2009-05-07T00:00:00.000Z,CHURCHES,18544011,-76.604475,39.2284044,CHRISTIAN,BAPT,NOT AVAILABLE,NOT AVAILABLE,Y,N
44142,10460720,LOCH RAVEN PRESBYTERIAN CHURCH IN AMERICA,BALTIMORE,MD,21234,1152,BALTIMORE,24005,2009-04-16T00:00:00.000Z,ALT REF,2009-04-16T00:00:00.000Z,CHURCHES,18495961,-76.5256241,39.4132185,CHRISTIAN,PCA,NOT AVAILABLE,NOT AVAILABLE,Y,N
44147,10457026,CAMPFIELD AFRICAN METHODIST EPISCOPAL CHURCH,BALTIMORE,MD,21208,5914,BALTIMORE,24005,2009-04-16T00:00:00.000Z,ALT REF,2009-04-16T00:00:00.000Z,CHURCHES,18527698,-76.7234256,39.3584764,CHRISTIAN,AME,NOT AVAILABLE,NOT AVAILABLE,Y,N
44148,10439460,THE CHURCH OF JESUS CHRIST OF LATTER DAY SAINTS - CHESAPEAKE WARD,BALTIMORE,MD,21221,3403,BALTIMORE,24005,2009-04-16T00:00:00.000Z,ALT REF,2009-04-16T00:00:00.000Z,CHURCHES,18892461,-76.4557771,39.3223799,CHRISTIAN,LDS,NOT AVAILABLE,NOT AVAILABLE,Y,N
44149,10432504,CHURCH OF THE REDEEMED OF THE LORD,BALTIMORE,MD,21212,4813,BALTIMORE CITY,24510,2009-04-16T00:00:00.000Z,ALT REF,2009-04-16T00:00:00.000Z,CHURCHES,18508908,-76.6072619,39.34282,CHRISTIAN,NONDENOM,NOT AVAILABLE,NOT AVAILABLE,Y,N
44153,10443805,OUR LADY OF VICTORY,BALTIMORE,MD,21229,4720,BALTIMORE,24005,2009-04-16T00:00:00.000Z,ALT REF,2009-04-16T00:00:00.000Z,CHURCHES,18524723,-76.6967862,39.2669479,CHRISTIAN,NOT AVAILABLE,NOT AVAILABLE,NOT AVAILABLE,N,Y
44154,10440921,SAINT MARGARETS CHURCH,BALTIMORE,MD,21234,2731,BALTIMORE,24005,2009-04-16T00:00:00.000Z,ALT REF,2009-04-16T00:00:00.000Z,CHURCHES,18493424,-76.5527471,39.401179,CHRISTIAN,EPIS,NOT AVAILABLE,NOT AVAILABLE,Y,N
44160,10437347,MIDDLE RIVER BAPTIST CHURCH,BALTIMORE,MD,21220,2532,BALTIMORE,24005,2009-04-16T00:00:00.000Z,ALT REF,2009-04-16T00:00:00.000Z,CHURCHES,18535153,-76.4496354,39.3415848,CHRISTIAN,SBC,2703,NOT AVAILABLE,Y,N
44161,10443283,SAINT AGNES CATHOLIC CHURCH,BALTIMORE,MD,21229,2124,BALTIMORE,24005,2009-04-14T00:00:00.000Z,ALT REF,2009-04-14T00:00:00.000Z,CHURCHES,18525113,-76.7198454,39.2901435,CHRISTIAN,NOT AVAILABLE,NOT AVAILABLE,NOT AVAILABLE,N,Y
44164,10460723,NEW SONG COMMUNITY CHURCH,BALTIMORE,MD,21217,2804,BALTIMORE CITY,24510,2009-04-28T00:00:00.000Z,ALT REF,2009-04-28T00:00:00.000Z,CHURCHES,18532267,-76.6411537,39.3063836,CHRISTIAN,PCA,NOT AVAILABLE,NOT AVAILABLE,Y,N
44166,10442508,OUR LADY QUEEN OF PEACE,BALTIMORE,MD,21220,1526,BALTIMORE,24005,2009-04-16T00:00:00.000Z,ALT REF,2009-04-16T00:00:00.000Z,CHURCHES,24738677,-76.4319417,39.3553063,CHRISTIAN,NOT AVAILABLE,NOT AVAILABLE,NOT AVAILABLE,N,Y
44168,10440919,THE EPSICOPAL CHURCH OF THE REDEEMER,BALTIMORE,MD,21210,2006,BALTIMORE CITY,24510,2009-04-16T00:00:00.000Z,ALT REF,2009-04-16T00:00:00.000Z,CHURCHES,18529363,-76.6242021,39.365187,CHRISTIAN,EPIS,NOT AVAILABLE,NOT AVAILABLE,Y,N
44171,10443288,CHURCH OF THE ANNUNCIATION,BALTIMORE,MD,21206,3029,BALTIMORE,24005,2009-04-16T00:00:00.000Z,ALT REF,2009-04-16T00:00:00.000Z,CHURCHES,18510061,-76.5228837,39.3335988,CHRISTIAN,NOT AVAILABLE,NOT AVAILABLE,NOT AVAILABLE,N,Y
44173,10432480,MOUNT PLEASANT CHURCH AND MINISTRIES,BALTIMORE,MD,21206,3955,BALTIMORE CITY,24510,2009-04-16T00:00:00.000Z,ALT REF,2009-04-16T00:00:00.000Z,CHURCHES,18895240,-76.5303928,39.3324711,CHRISTIAN,NONDENOM,NOT AVAILABLE,NOT AVAILABLE,Y,N
44178,10432505,NEW PSALMIST BAPTIST CHURCH,BALTIMORE,MD,21229,NULL,BALTIMORE CITY,24510,2009-04-28T00:00:00.000Z,ALT REF,2009-04-28T00:00:00.000Z,CHURCHES,18525666,-76.6927782,39.2891975,CHRISTIAN,SBC,NOT AVAILABLE,NOT AVAILABLE,Y,N
44180,10457036,DAVIS MEMORIAL AFRICAN METHODIST EPISCOPAL CHURCH,BALTIMORE,MD,21216,2208,BALTIMORE CITY,24510,2009-04-17T00:00:00.000Z,ALT REF,2009-04-17T00:00:00.000Z,CHURCHES,18526493,-76.6777697,39.3159757,CHRISTIAN,AME,NOT AVAILABLE,NOT AVAILABLE,Y,N
44185,10453781,GOOD SHEPHERD BAPTIST CHURCH,BALTIMORE,MD,21215,7850,BALTIMORE CITY,24510,2009-04-21T00:00:00.000Z,ALT REF,2009-04-22T00:00:00.000Z,CHURCHES,18530716,-76.6575263,39.3282536,CHRISTIAN,NBC,NOT AVAILABLE,NOT AVAILABLE,Y,N
44187,10428959,KHAL AHAVAS YISROEL TZEMACH TZEDEK,BALTIMORE,MD,21215,1605,BALTIMORE CITY,24510,2009-04-24T00:00:00.000Z,ALT REF,2009-04-24T00:00:00.000Z,SYNAGOGUES,724418754,-76.7020688,39.364713,JUDAIC,ORTHODOX,NOT AVAILABLE,NOT AVAILABLE,N,N
44198,10448427,SAINT GABRIEL CHURCH,BALTIMORE,MD,21244,2658,BALTIMORE,24005,2009-04-15T00:00:00.000Z,ALT REF,2009-04-15T00:00:00.000Z,CHURCHES,18480668,-76.7567228,39.3212547,CHRISTIAN,NOT AVAILABLE,NOT AVAILABLE,NOT AVAILABLE,N,Y
44201,10442506,SAINT JOSEPH CHURCH,BALTIMORE,MD,21236,3019,BALTIMORE,24005,2009-04-16T00:00:00.000Z,ALT REF,2009-04-16T00:00:00.000Z,CHURCHES,18496670,-76.4962411,39.3871102,CHRISTIAN,NOT AVAILABLE,NOT AVAILABLE,NOT AVAILABLE,N,Y
44203,10443289,SAINT ANTHONY OF PADUA CHURCH,BALTIMORE,MD,21206,5133,BALTIMORE CITY,24510,2009-05-01T00:00:00.000Z,ALT REF,2009-05-01T00:00:00.000Z,CHURCHES,18509585,-76.5481775,39.3354875,CHRISTIAN,NOT AVAILABLE,NOT AVAILABLE,NOT AVAILABLE,N,Y
44220,10443781,SAINT CECILIAS CHURCH,BALTIMORE,MD,21216,2624,BALTIMORE CITY,24510,2009-05-01T00:00:00.000Z,ALT REF,2009-05-01T00:00:00.000Z,CHURCHES,18531932,-76.6727708,39.3118325,CHRISTIAN,NOT AVAILABLE,NOT AVAILABLE,NOT AVAILABLE,N,Y
44231,10440906,THE CHURCH OF SAINT MICHAEL AND ALL ANGELS,BALTIMORE,MD,21218,5929,BALTIMORE CITY,24510,2009-04-15T00:00:00.000Z,ALT REF,2009-04-15T00:00:00.000Z,CHURCHES,18512289,-76.6146821,39.3125164,CHRISTIAN,EPIS,NOT AVAILABLE,NOT AVAILABLE,Y,N
44239,10452938,THE CENTRAL BAPTIST CHURCH,BALTIMORE,MD,21223,1559,BALTIMORE CITY,24510,2009-04-15T00:00:00.000Z,ALT REF,2009-04-15T00:00:00.000Z,CHURCHES,18532745,-76.6498559,39.2878038,CHRISTIAN,NBC,NOT AVAILABLE,NOT AVAILABLE,Y,N
44267,10434297,MARS HILL BAPTIST CHURCH,BALTIMORE,MD,21221,3613,BALTIMORE,24005,2009-04-16T00:00:00.000Z,ALT REF,2009-04-16T00:00:00.000Z,CHURCHES,18536357,-76.4562756,39.3146572,CHRISTIAN,SBC,886,NOT AVAILABLE,Y,N
44268,10442189,SAINT MICHAEL THE ARCHANGEL CHURCH,BALTIMORE,MD,21206,1112,BALTIMORE,24005,2009-04-16T00:00:00.000Z,ALT REF,2009-04-16T00:00:00.000Z,CHURCHES,18507194,-76.5268263,39.357839,CHRISTIAN,NOT AVAILABLE,NOT AVAILABLE,NOT AVAILABLE,N,Y
44272,10455042,NEW PLEASANT GROVE BAPTIST CHURCH,BALTIMORE,MD,21213,1640,BALTIMORE CITY,24510,2009-04-28T00:00:00.000Z,ALT REF,2009-04-28T00:00:00.000Z,CHURCHES,18511872,-76.5769374,39.3160859,CHRISTIAN,NBC,NOT AVAILABLE,NOT AVAILABLE,Y,N
44273,10440903,CHURCH OF THE RESURRECTION,BALTIMORE,MD,21224,1316,BALTIMORE CITY,24510,2009-04-16T00:00:00.000Z,ALT REF,2009-04-16T00:00:00.000Z,CHURCHES,18514945,-76.5759025,39.2949601,CHRISTIAN,EPIS,NOT AVAILABLE,NOT AVAILABLE,Y,N
44278,10440917,CHURCH OF SAINT PAUL THE APOSTLE,BALTIMORE,MD,21230,2328,BALTIMORE CITY,24510,2009-04-20T00:00:00.000Z,ALT REF,2009-04-16T00:00:00.000Z,CHURCHES,18522354,-76.6309945,39.2826913,CHRISTIAN,EPIS,NOT AVAILABLE,NOT AVAILABLE,Y,N
44280,10443794,CHURCH OF THE IMMACULATE HEART OF MARY,BALTIMORE,MD,21286,2301,BALTIMORE,24005,2009-04-16T00:00:00.000Z,ALT REF,2009-04-16T00:00:00.000Z,CHURCHES,19438447,-76.5637197,39.3924307,CHRISTIAN,NOT AVAILABLE,NOT AVAILABLE,NOT AVAILABLE,N,Y
44285,10454300,BEREAN BAPTIST CHURCH,BALTIMORE,MD,21215,5046,BALTIMORE CITY,24510,2009-04-14T00:00:00.000Z,ALT REF,2009-04-14T00:00:00.000Z,CHURCHES,18529048,-76.6808028,39.3483823,CHRISTIAN,NBC,NOT AVAILABLE,NOT AVAILABLE,Y,N
44287,10440910,CHURCH OF THE HOLY NATIVITY,BALTIMORE,MD,21215,6961,BALTIMORE CITY,24510,2009-04-16T00:00:00.000Z,ALT REF,2009-04-16T00:00:00.000Z,CHURCHES,18530476,-76.6637432,39.3383858,CHRISTIAN,EPIS,NOT AVAILABLE,NOT AVAILABLE,Y,N
44290,10443793,IMMACULATE CONCEPTION CHURCH,BALTIMORE,MD,21217,3424,BALTIMORE CITY,24510,2009-04-21T00:00:00.000Z,ALT REF,2009-04-21T00:00:00.000Z,CHURCHES,18523609,-76.630825,39.3035711,CHRISTIAN,NOT AVAILABLE,NOT AVAILABLE,NOT AVAILABLE,N,Y
44293,10760989,ZION EVANGELICAL LUTHERAN UNITED CHURCH OF CHRIST,BALTIMORE,MD,21221,3105,BALTIMORE,24005,2009-04-16T00:00:00.000Z,ALT REF,2009-04-16T00:00:00.000Z,CHURCHES,18535741,-76.4815185,39.3310122,CHRISTIAN,UCC,550,NOT AVAILABLE,Y,N
44294,10759696,CHRIST LUTHERAN CHURCH,BALTIMORE,MD,21230,3800,BALTIMORE CITY,24510,2009-04-15T00:00:00.000Z,ALT REF,2009-04-15T00:00:00.000Z,CHURCHES,18517448,-76.6140494,39.2807974,CHRISTIAN,ELCA,NOT AVAILABLE,NOT AVAILABLE,Y,N
44295,10440889,EPISCOPAL CHURCH OF THE MESSIAH,BALTIMORE,MD,21214,1848,BALTIMORE CITY,24510,2009-04-16T00:00:00.000Z,ALT REF,2009-04-16T00:00:00.000Z,CHURCHES,18507370,-76.558416,39.3550237,CHRISTIAN,EPIS,NOT AVAILABLE,NOT AVAILABLE,Y,N
44300,10587433,MOUNT SINAI TEMPLE,BALTIMORE,MD,21201,1947,BALTIMORE CITY,24510,2009-04-27T00:00:00.000Z,ALT REF,2009-04-27T00:00:00.000Z,CHURCHES,18533119,-76.6240941,39.2976112,CHRISTIAN,ABC,NOT AVAILABLE,NOT AVAILABLE,Y,N
44301,10575017,EBENEZER AFRICAN METHODIST EPISCOPAL ZION CHURCH,BALTIMORE,MD,21223,2840,BALTIMORE CITY,24510,2009-04-17T00:00:00.000Z,ALT REF,2009-04-17T00:00:00.000Z,CHURCHES,18523723,-76.6561041,39.2834601,CHRISTIAN,AMEZ,NOT AVAILABLE,NOT AVAILABLE,Y,N
44303,10454417,GREATER SAINT JOHN BAPTIST CHURCH,BALTIMORE,MD,21222,6142,BALTIMORE,24005,2009-04-16T00:00:00.000Z,ALT REF,2009-04-16T00:00:00.000Z,CHURCHES,18543261,-76.5091903,39.2415608,CHRISTIAN,NBC,NOT AVAILABLE,NOT AVAILABLE,Y,N
44304,10443284,NEW ALL SAINTS CHURCH,BALTIMORE,MD,21207,NULL,BALTIMORE CITY,24510,2009-04-27T00:00:00.000Z,ALT REF,2009-04-27T00:00:00.000Z,CHURCHES,18528482,-76.6915321,39.3307098,CHRISTIAN,NOT AVAILABLE,NOT AVAILABLE,NOT AVAILABLE,N,Y
44305,10685167,LOTUS HEART MINDFULNESS COMMUNITY,BALTIMORE,MD,21211,2554,BALTIMORE CITY,24510,2009-04-20T00:00:00.000Z,ALT REF,2009-04-20T00:00:00.000Z,PLACES OF WORSHIP,18529710,-76.629982,39.3314129,BUDDHIST,VIETNAMESE ZEN,NOT AVAILABLE,NOT AVAILABLE,N,N
44307,10685494,JA LING TIBETAN BUDDHIST CULTURAL CENTER,BALTIMORE,MD,21231,1418,BALTIMORE CITY,24510,2009-04-23T00:00:00.000Z,ALT REF,2009-04-23T00:00:00.000Z,PLACES OF WORSHIP,18515227,-76.5980195,39.292766,BUDDHIST,"MAHAYANA, VAJRAYANA, NON-SECTARIAN",NOT AVAILABLE,NOT AVAILABLE,N,N
44308,10457090,IMMANUEL TEMPLE AFRICAN METHODIST EPISCOPAL CHURCH,BALTIMORE,MD,21205,1740,BALTIMORE CITY,24510,2009-04-23T00:00:00.000Z,ALT REF,2009-04-23T00:00:00.000Z,CHURCHES,18514011,-76.5755587,39.2998605,CHRISTIAN,AME,NOT AVAILABLE,NOT AVAILABLE,Y,N
44309,10684530,JA LING TIBETAN BUDDHIST CULTURAL CENTER,BALTIMORE,MD,21231,1418,BALTIMORE CITY,24510,2009-04-23T00:00:00.000Z,ALT REF,2009-04-23T00:00:00.000Z,PLACES OF WORSHIP,18515227,-76.5976867,39.2927992,BUDDHIST,"TIBETAN, GELUGPA",NOT AVAILABLE,NOT AVAILABLE,N,N
44310,10457084,HEMMINGWAY TEMPLE AFRICAN METHODIST EPISCOPAL CHURCH,BALTIMORE,MD,21225,1323,BALTIMORE CITY,24510,2009-04-21T00:00:00.000Z,ALT REF,2009-04-21T00:00:00.000Z,CHURCHES,18537956,-76.6269728,39.2491138,CHRISTIAN,AME,NOT AVAILABLE,NOT AVAILABLE,Y,N
44311,10443791,HOLY CROSS CHURCH,BALTIMORE,MD,21230,4314,BALTIMORE CITY,24510,2009-04-21T00:00:00.000Z,ALT REF,2009-04-21T00:00:00.000Z,CHURCHES,18518003,-76.6114591,39.2762681,CHRISTIAN,NOT AVAILABLE,NOT AVAILABLE,NOT AVAILABLE,N,Y
44312,10575031,JOHN WESLEY AFRICAN METHODIST EPISCOPAL ZION CHURCH,BALTIMORE,MD,21205,1535,BALTIMORE CITY,24510,2009-04-23T00:00:00.000Z,ALT REF,2009-04-23T00:00:00.000Z,CHURCHES,18513948,-76.5900282,39.3004845,CHRISTIAN,AMEZ,NOT AVAILABLE,NOT AVAILABLE,Y,N
44313,10443812,SACRED HEART OF JESUS CHURCH,BALTIMORE,MD,21224,4203,BALTIMORE CITY,24510,2009-04-30T00:00:00.000Z,ALT REF,2009-04-30T00:00:00.000Z,CHURCHES,18516743,-76.5674673,39.2850749,CHRISTIAN,NOT AVAILABLE,NOT AVAILABLE,NOT AVAILABLE,N,Y
44317,10443789,SAINT FRANCIS XAVIER CATHOLIC CHURCH,BALTIMORE,MD,21213,2910,BALTIMORE CITY,24510,2009-05-01T00:00:00.000Z,ALT REF,2009-05-01T00:00:00.000Z,CHURCHES,18512954,-76.5977664,39.3071593,CHRISTIAN,NOT AVAILABLE,NOT AVAILABLE,NOT AVAILABLE,N,Y
44318,10443785,SAINT DOMINIC CATHOLIC CHURCH,BALTIMORE,MD,21214,2213,BALTIMORE CITY,24510,2009-05-01T00:00:00.000Z,ALT REF,2009-05-01T00:00:00.000Z,CHURCHES,18507816,-76.562921,39.3513012,CHRISTIAN,NOT AVAILABLE,NOT AVAILABLE,NOT AVAILABLE,N,Y
44320,10443808,SAINTS PHILIP AND JAMES ROMAN CATHOLIC CHURCH,BALTIMORE,MD,21218,4050,BALTIMORE CITY,24510,2009-04-30T00:00:00.000Z,ALT REF,2009-04-30T00:00:00.000Z,CHURCHES,18511179,-76.6168004,39.3226325,CHRISTIAN,NOT AVAILABLE,NOT AVAILABLE,NOT AVAILABLE,N,Y
44321,10443814,SACRED HEART OF MARY ROMAN CATHOLIC CHURCH,BALTIMORE,MD,21222,1025,BALTIMORE CITY,24510,2009-04-30T00:00:00.000Z,ALT REF,2009-04-30T00:00:00.000Z,CHURCHES,18517815,-76.5301459,39.2788543,CHRISTIAN,NOT AVAILABLE,NOT AVAILABLE,NOT AVAILABLE,N,Y
44332,10443786,SAINT EDWARDS ROMAN CATHOLIC CHURCH,BALTIMORE,MD,21216,4350,BALTIMORE CITY,24510,2009-05-01T00:00:00.000Z,ALT REF,2009-05-01T00:00:00.000Z,CHURCHES,18531505,-76.6646382,39.298482,CHRISTIAN,NOT AVAILABLE,NOT AVAILABLE,NOT AVAILABLE,N,Y
44333,10443291,SAINT ATHANASIUS ROMAN CATHOLIC CHURCH,BALTIMORE,MD,21226,1255,BALTIMORE CITY,24510,2009-05-01T00:00:00.000Z,ALT REF,2009-05-01T00:00:00.000Z,CHURCHES,18544209,-76.5917393,39.2234045,CHRISTIAN,NOT AVAILABLE,NOT AVAILABLE,NOT AVAILABLE,N,Y
44334,10453219,THE MOUNT MORIAH BAPTIST CHURCH,BALTIMORE,MD,21216,2612,BALTIMORE CITY,24510,2009-04-27T00:00:00.000Z,ALT REF,2009-04-27T00:00:00.000Z,CHURCHES,18532556,-76.6751343,39.3123373,CHRISTIAN,NBC,NOT AVAILABLE,NOT AVAILABLE,Y,N
44339,10454810,SOUTHERN BAPTIST CHURCH,BALTIMORE,MD,21213,2428,BALTIMORE CITY,24510,2009-04-30T00:00:00.000Z,ALT REF,2009-04-30T00:00:00.000Z,CHURCHES,18512579,-76.5881084,39.3100235,CHRISTIAN,NBC,NOT AVAILABLE,NOT AVAILABLE,Y,N
44342,10460091,FOREST PARK COMMUNITY CHURCH,BALTIMORE,MD,21216,1227,BALTIMORE CITY,24510,2009-04-16T00:00:00.000Z,ALT REF,2009-04-16T00:00:00.000Z,CHURCHES,18526421,-76.6822276,39.3238395,CHRISTIAN,PCA,NOT AVAILABLE,NOT AVAILABLE,Y,N
44346,10440918,THE EPISCOPAL CHURCH OF SAINT MARY THE VIRGIN,BALTIMORE,MD,21216,3031,BALTIMORE CITY,24510,2009-04-15T00:00:00.000Z,ALT REF,2009-04-15T00:00:00.000Z,CHURCHES,18531818,-76.6705642,39.3096455,CHRISTIAN,EPIS,NOT AVAILABLE,NOT AVAILABLE,Y,N
44356,10440902,SAINT GEORGE AND SAINT MATTHEW EPISCOPAL CHURCH,BALTIMORE,MD,21222,5112,BALTIMORE,24005,2009-04-16T00:00:00.000Z,ALT REF,2009-04-16T00:00:00.000Z,CHURCHES,18519424,-76.5226689,39.2562256,CHRISTIAN,EPIS,NOT AVAILABLE,NOT AVAILABLE,Y,N
44357,10443810,SAINT PIUS THE X ROMAN CATHOLIC CHURCH,BALTIMORE,MD,21212,2111,BALTIMORE,24005,2009-04-14T00:00:00.000Z,ALT REF,2009-04-14T00:00:00.000Z,CHURCHES,18505404,-76.610208,39.3750316,CHRISTIAN,NOT AVAILABLE,NOT AVAILABLE,NOT AVAILABLE,N,Y
44359,10440233,THE EPISCOPAL CHURCH OF THE HOLY COVENANT,BALTIMORE,MD,21239,2738,BALTIMORE CITY,24510,2009-04-16T00:00:00.000Z,ALT REF,2009-04-16T00:00:00.000Z,CHURCHES,18507130,-76.5941244,39.3592353,CHRISTIAN,EPIS,NOT AVAILABLE,NOT AVAILABLE,Y,N
44360,10432477,NEW SHILOH BAPTIST CHURCH,BALTIMORE,MD,21217,1346,BALTIMORE CITY,24510,2009-04-28T00:00:00.000Z,ALT REF,2009-04-28T00:00:00.000Z,CHURCHES,18531671,-76.649213,39.3122316,CHRISTIAN,BAPT,NOT AVAILABLE,NOT AVAILABLE,Y,N
44361,10432478,BETHEL AFRICAN METHODIST EPISCOPAL CHURCH,BALTIMORE,MD,21217,3033,BALTIMORE CITY,24510,2009-04-15T00:00:00.000Z,ALT REF,2009-04-15T00:00:00.000Z,CHURCHES,18523613,-76.6289883,39.3018962,CHRISTIAN,AME,NOT AVAILABLE,NOT AVAILABLE,Y,N
44362,10443778,BLESSED SACRAMENT CHURCH,BALTIMORE,MD,21218,1237,BALTIMORE CITY,24510,2009-04-15T00:00:00.000Z,ALT REF,2009-04-15T00:00:00.000Z,CHURCHES,18509009,-76.6072908,39.3403566,CHRISTIAN,NOT AVAILABLE,NOT AVAILABLE,NOT AVAILABLE,N,Y
44363,10460705,FAITH CHRISTIAN FELLOWSHIP,BALTIMORE,MD,21218,1202,BALTIMORE CITY,24510,2009-04-17T00:00:00.000Z,ALT REF,2009-04-17T00:00:00.000Z,CHURCHES,18509011,-76.6087205,39.3399714,CHRISTIAN,PCA,NOT AVAILABLE,NOT AVAILABLE,Y,N
44365,10440911,EMMANUEL EPISCOPAL CHURCH,BALTIMORE,MD,21201,5201,BALTIMORE CITY,24510,2009-04-16T00:00:00.000Z,ALT REF,2009-04-16T00:00:00.000Z,CHURCHES,18514302,-76.616771,39.2994055,CHRISTIAN,EPIS,NOT AVAILABLE,NOT AVAILABLE,Y,N
44366,10431422,MASJID UL-HAQQ,BALTIMORE,MD,21217,3220,BALTIMORE CITY,24510,2009-04-24T00:00:00.000Z,ALT REF,2009-04-24T00:00:00.000Z,"MOSQUES, RELIGIOUS",18532451,-76.6331354,39.3049994,MUSLIM,NOT AVAILABLE,NOT AVAILABLE,NOT AVAILABLE,N,N
44367,10440891,MOUNT CALVARY CHURCH,BALTIMORE,MD,21201,4624,BALTIMORE CITY,24510,2009-04-27T00:00:00.000Z,ALT REF,2009-04-27T00:00:00.000Z,CHURCHES,18514299,-76.6217721,39.2992755,CHRISTIAN,EPIS,NOT AVAILABLE,NOT AVAILABLE,Y,N
44368,10587441,PROVIDENCE BAPTIST CHURCH,BALTIMORE,MD,21217,3135,BALTIMORE CITY,24510,2009-04-29T00:00:00.000Z,ALT REF,2009-04-29T00:00:00.000Z,CHURCHES,18532500,-76.6317761,39.3016407,CHRISTIAN,ABC,NOT AVAILABLE,NOT AVAILABLE,Y,N
44369,10587439,PENTECOST BAPTIST CHURCH,BALTIMORE,MD,21216,3512,BALTIMORE CITY,24510,2009-04-29T00:00:00.000Z,ALT REF,2009-04-29T00:00:00.000Z,CHURCHES,18531885,-76.6653151,39.3064599,CHRISTIAN,ABC,NOT AVAILABLE,NOT AVAILABLE,Y,N
44370,10443784,CORPUS CHRISTI CHURCH,BALTIMORE,MD,21217,4224,BALTIMORE CITY,24510,2009-04-17T00:00:00.000Z,ALT REF,2009-04-17T00:00:00.000Z,CHURCHES,18512865,-76.6221487,39.3079544,CHRISTIAN,NOT AVAILABLE,NOT AVAILABLE,NOT AVAILABLE,N,Y
44371,10440898,THE CHURCH OF THE ADVENT,BALTIMORE,MD,21230,4218,BALTIMORE CITY,24510,2009-04-16T00:00:00.000Z,ALT REF,2009-04-16T00:00:00.000Z,CHURCHES,18518190,-76.6138644,39.274409,CHRISTIAN,EPIS,NOT AVAILABLE,NOT AVAILABLE,Y,N
44372,10440904,HOLY CROSS EPISCOPAL CHURCH,BALTIMORE,MD,21223,2815,BALTIMORE CITY,24510,2009-04-16T00:00:00.000Z,ALT REF,2009-04-16T00:00:00.000Z,CHURCHES,18523179,-76.6561745,39.2805031,CHRISTIAN,EPIS,NOT AVAILABLE,NOT AVAILABLE,Y,N
44373,10575013,PENNSYLVANIA AVENUE AFRICAN METHODIST EPISCOPAL ZION CHURCH,BALTIMORE,MD,21201,2006,BALTIMORE CITY,24510,2009-04-29T00:00:00.000Z,ALT REF,2009-04-29T00:00:00.000Z,CHURCHES,18533099,-76.6296739,39.2991183,CHRISTIAN,AMEZ,NOT AVAILABLE,NOT AVAILABLE,Y,N
44374,10587429,MEMORIAL BAPTIST CHURCH,BALTIMORE,MD,21213,NULL,BALTIMORE CITY,24510,2009-04-24T00:00:00.000Z,ALT REF,2009-04-24T00:00:00.000Z,CHURCHES,18513263,-76.5976925,39.3054223,CHRISTIAN,ABC,NOT AVAILABLE,NOT AVAILABLE,Y,N
44375,10457039,EBENEZER AFRICAN METHODIST EPISCOPAL CHURCH,BALTIMORE,MD,21230,3806,BALTIMORE CITY,24510,2009-04-17T00:00:00.000Z,ALT REF,2009-04-17T00:00:00.000Z,CHURCHES,117282082,-76.6152982,39.2800972,CHRISTIAN,AME,NOT AVAILABLE,NOT AVAILABLE,Y,N
44376,10443787,SAINT ELIZABETH OF HUNGARY,BALTIMORE,MD,21224,1130,BALTIMORE CITY,24510,2009-05-01T00:00:00.000Z,ALT REF,2009-05-01T00:00:00.000Z,CHURCHES,18515363,-76.5787846,39.2924917,CHRISTIAN,NOT AVAILABLE,NOT AVAILABLE,NOT AVAILABLE,N,Y
44377,10443287,CHURCH OF SAINT ANN,BALTIMORE,MD,21218,5405,BALTIMORE CITY,24510,2009-05-01T00:00:00.000Z,ALT REF,2009-05-01T00:00:00.000Z,CHURCHES,18512026,-76.6091129,39.3147397,CHRISTIAN,NOT AVAILABLE,NOT AVAILABLE,NOT AVAILABLE,N,Y
44378,10587395,CALVARY BAPTIST CHURCH,BALTIMORE,MD,21215,5424,BALTIMORE CITY,24510,2009-04-14T00:00:00.000Z,ALT REF,2009-04-14T00:00:00.000Z,CHURCHES,18528384,-76.6830958,39.3340683,CHRISTIAN,ABC,NOT AVAILABLE,NOT AVAILABLE,Y,N
44379,10454484,NEW MOUNT HEBRON BAPTIST CHURCH,BALTIMORE,MD,21217,1220,BALTIMORE CITY,24510,2009-04-27T00:00:00.000Z,ALT REF,2009-04-27T00:00:00.000Z,CHURCHES,18531571,-76.6504696,39.309966,CHRISTIAN,NBC,NOT AVAILABLE,NOT AVAILABLE,Y,N
44380,10440207,GRACE AND SAINT PETERS CHURCH,BALTIMORE,MD,21201,4703,BALTIMORE CITY,24510,2009-04-21T00:00:00.000Z,ALT REF,2009-04-21T00:00:00.000Z,CHURCHES,18514475,-76.6180867,39.2977339,CHRISTIAN,EPIS,NOT AVAILABLE,NOT AVAILABLE,Y,N
44381,10443792,HOLY ROSARY CHURCH,BALTIMORE,MD,21231,2729,BALTIMORE CITY,24510,2009-04-21T00:00:00.000Z,ALT REF,2009-04-21T00:00:00.000Z,CHURCHES,18516498,-76.5874992,39.2866252,CHRISTIAN,NOT AVAILABLE,NOT AVAILABLE,NOT AVAILABLE,N,Y
44384,11527303,GOVANS PRESBYTERIAN CHURCH,BALTIMORE,MD,21212,3607,BALTIMORE CITY,24510,2009-04-21T00:00:00.000Z,ALT REF,2009-04-21T00:00:00.000Z,CHURCHES,18506583,-76.6107927,39.3624394,CHRISTIAN,NOT AVAILABLE,NOT AVAILABLE,NOT AVAILABLE,Y,N
44387,10442592,SAINT MICHAEL THE ARCHANGEL UKRAINIAN CATHOLIC CHURCH,BALTIMORE,MD,21224,3613,BALTIMORE CITY,24510,2009-04-30T00:00:00.000Z,ALT REF,2009-04-30T00:00:00.000Z,CHURCHES,18516477,-76.582587,39.285708,CHRISTIAN,NOT AVAILABLE,NOT AVAILABLE,NOT AVAILABLE,N,Y
44389,10443800,MOST PRECIOUS BLOOD CHURCH,BALTIMORE,MD,21206,6744,BALTIMORE CITY,24510,2009-04-24T00:00:00.000Z,ALT REF,2009-04-24T00:00:00.000Z,CHURCHES,18511048,-76.5528423,39.3230183,CHRISTIAN,NOT AVAILABLE,NOT AVAILABLE,NOT AVAILABLE,N,Y
44407,10453889,SAINT PAUL COMMUNITY BAPTIST CHURCH,BALTIMORE,MD,21213,3201,BALTIMORE CITY,24510,2009-05-07T00:00:00.000Z,ALT REF,2009-05-07T00:00:00.000Z,CHURCHES,18512761,-76.5912831,39.3085221,CHRISTIAN,NBC,NOT AVAILABLE,NOT AVAILABLE,Y,N
44413,10440915,SAINT JAMES EPISCOPAL CHURCH AT LAFAYETTE SQUARE,BALTIMORE,MD,21217,2555,BALTIMORE CITY,24510,2009-05-06T00:00:00.000Z,ALT REF,2009-05-08T00:00:00.000Z,CHURCHES,18532817,-76.63552,39.2989533,CHRISTIAN,EPIS,NOT AVAILABLE,NOT AVAILABLE,Y,N
44420,10587456,UNIVERSITY BAPTIST CHURCH,BALTIMORE,MD,21218,2404,BALTIMORE CITY,24510,2009-05-07T00:00:00.000Z,ALT REF,2009-05-07T00:00:00.000Z,CHURCHES,18559593,-76.617361,39.3303336,CHRISTIAN,ABC,NOT AVAILABLE,NOT AVAILABLE,Y,N
44421,10448477,SAINT JEROME CHURCH,BALTIMORE,MD,21230,2539,BALTIMORE CITY,24510,2009-05-04T00:00:00.000Z,ALT REF,2009-05-04T00:00:00.000Z,CHURCHES,18533892,-76.6283537,39.2805037,CHRISTIAN,NOT AVAILABLE,NOT AVAILABLE,NOT AVAILABLE,N,Y
44422,10448476,SAINT PETER THE APOSTLE CHURCH,BALTIMORE,MD,21201,1024,BALTIMORE CITY,24510,2009-05-07T00:00:00.000Z,ALT REF,2009-05-07T00:00:00.000Z,CHURCHES,18533277,-76.6317761,39.2880477,CHRISTIAN,NOT AVAILABLE,NOT AVAILABLE,NOT AVAILABLE,N,Y
44427,10685409,ZEN PEACEMAKER ORDER,BALTIMORE,MD,21211,2428,BALTIMORE CITY,24510,2009-05-08T00:00:00.000Z,ALT REF,2009-05-08T00:00:00.000Z,PLACES OF WORSHIP,18531064,-76.6328969,39.3302777,BUDDHIST,AMERICAN SOTO ZEN BUDDHIST,NOT AVAILABLE,NOT AVAILABLE,N,N
44428,10443594,SAINT IGNATIUS CHURCH,BALTIMORE,MD,21202,3622,BALTIMORE CITY,24510,2009-05-08T00:00:00.000Z,ALT REF,2009-05-08T00:00:00.000Z,CHURCHES,18514440,-76.6132443,39.2984893,CHRISTIAN,NOT AVAILABLE,NOT AVAILABLE,NOT AVAILABLE,N,Y
44429,10457295,WAYMANS MEMORIAL AFRICAN METHODIST EPISCOPAL CHURCH,BALTIMORE,MD,21230,1828,BALTIMORE CITY,24510,2009-05-08T00:00:00.000Z,ALT REF,2009-05-08T00:00:00.000Z,CHURCHES,18522517,-76.6354281,39.2802435,CHRISTIAN,AME,NOT AVAILABLE,NOT AVAILABLE,Y,N
44430,10457290,WATERS AFRICAN METHODIST EPISCOPAL CHURCH,BALTIMORE,MD,21202,5200,BALTIMORE CITY,24510,2009-05-08T00:00:00.000Z,ALT REF,2009-05-08T00:00:00.000Z,CHURCHES,18514871,-76.6014381,39.2955516,CHRISTIAN,AME,NOT AVAILABLE,NOT AVAILABLE,Y,N
44431,10685282,VIKATADAMSHTRI BUDDHIST CENTER,BALTIMORE,MD,21218,4031,BALTIMORE CITY,24510,2009-05-08T00:00:00.000Z,ALT REF,2009-05-08T00:00:00.000Z,PLACES OF WORSHIP,18511021,-76.6169478,39.3242241,BUDDHIST,"TIBETAN, NEW KADAMPA",NOT AVAILABLE,NOT AVAILABLE,N,N
44432,10453831,UNION TEMPLE BAPTIST CHURCH,BALTIMORE,MD,21217,3531,BALTIMORE CITY,24510,2009-05-08T00:00:00.000Z,ALT REF,2009-05-08T00:00:00.000Z,CHURCHES,18531169,-76.6361954,39.3105969,CHRISTIAN,NBC,NOT AVAILABLE,NOT AVAILABLE,Y,N
44461,10457069,HOLY TEMPLE CHURCH,BALTIMORE,MD,21216,4422,BALTIMORE CITY,24510,2009-04-20T00:00:00.000Z,ALT REF,2009-04-20T00:00:00.000Z,CHURCHES,18531498,-76.6583827,39.2992819,CHRISTIAN,NOT AVAILABLE,NOT AVAILABLE,NOT AVAILABLE,Y,N
44464,10575024,GREATER NEW HOPE BAPTIST,BALTIMORE,MD,21216,3138,BALTIMORE CITY,24510,2009-04-27T00:00:00.000Z,ALT REF,2009-04-27T00:00:00.000Z,CHURCHES,18531950,-76.6620856,39.3095952,CHRISTIAN,NOT AVAILABLE,NOT AVAILABLE,NOT AVAILABLE,Y,N
44474,10443802,OUR LADY OF GOOD COUNSEL CHURCH,BALTIMORE,MD,21230,5246,BALTIMORE CITY,24510,2009-04-28T00:00:00.000Z,ALT REF,2009-04-28T00:00:00.000Z,CHURCHES,18518775,-76.5924629,39.2688633,CHRISTIAN,NOT AVAILABLE,NOT AVAILABLE,NOT AVAILABLE,N,Y
44475,10443804,OUR LADY OF MOUNT CARMEL CHURCH,BALTIMORE,MD,21221,2203,BALTIMORE,24005,2009-04-16T00:00:00.000Z,ALT REF,2009-04-16T00:00:00.000Z,CHURCHES,117280934,-76.4484987,39.320567,CHRISTIAN,NOT AVAILABLE,NOT AVAILABLE,NOT AVAILABLE,N,Y
44476,10442190,OUR LADY OF POMPEI CHURCH,BALTIMORE,MD,21224,2507,BALTIMORE CITY,24510,2009-04-28T00:00:00.000Z,ALT REF,2009-04-28T00:00:00.000Z,CHURCHES,18515853,-76.5670046,39.2896064,CHRISTIAN,NOT AVAILABLE,NOT AVAILABLE,NOT AVAILABLE,N,Y
44479,10443167,SAINT RITA CHURCH,BALTIMORE,MD,21222,5113,BALTIMORE,24005,2009-04-14T00:00:00.000Z,ALT REF,2009-04-14T00:00:00.000Z,CHURCHES,18519424,-76.521611,39.256249,CHRISTIAN,NOT AVAILABLE,NOT AVAILABLE,NOT AVAILABLE,N,Y
44480,10443815,SAINT THOMAS MORE CHURCH,BALTIMORE,MD,21234,7260,BALTIMORE CITY,24510,2009-05-05T00:00:00.000Z,ALT REF,2009-05-05T00:00:00.000Z,CHURCHES,18505865,-76.5686723,39.3697811,CHRISTIAN,NOT AVAILABLE,NOT AVAILABLE,NOT AVAILABLE,N,Y
44783,10431889,PROGRESSIVE ISLAMIC COMMUNITY,BALTIMORE,MD,21215,5206,BALTIMORE CITY,24510,2009-07-06T00:00:00.000Z,ALT REF,2009-07-06T00:00:00.000Z,"MOSQUES, RELIGIOUS",18529601,-76.6684439,39.3523,MUSLIM,NOT AVAILABLE,NOT AVAILABLE,NOT AVAILABLE,N,N
43072,10454695,MACEDONIA BAPTIST CHURCH,BALTIMORE,MD,21217,2920,BALTIMORE CITY,24510,2008-02-26T00:00:00.000Z,ALT REF,2008-02-26T00:00:00.000Z,CHURCHES,18532814,-76.6343421,39.2996083,CHRISTIAN,NBC,NOT AVAILABLE,NOT AVAILABLE,Y,N
43079,10454125,ARK CHURCH,BALTIMORE,MD,21202,5829,BALTIMORE CITY,24510,2008-02-26T00:00:00.000Z,ALT REF,2008-02-26T00:00:00.000Z,CHURCHES,18512333,-76.6010544,39.3115703,CHRISTIAN,NBC,NOT AVAILABLE,NOT AVAILABLE,Y,N
43082,10430881,MASJID AL-MUMINIIN,BALTIMORE,MD,21218,4929,BALTIMORE CITY,24510,2009-04-23T00:00:00.000Z,ALT REF,2009-04-23T00:00:00.000Z,"MOSQUES, RELIGIOUS",18511422,-76.5922131,39.3200675,MUSLIM,NOT AVAILABLE,NOT AVAILABLE,NOT AVAILABLE,N,N
43085,10443799,SAINT MICHAEL CHURCH,BALTIMORE,MD,21231,1913,BALTIMORE CITY,24510,2007-09-07T00:00:00.000Z,ALT REF,2007-09-07T00:00:00.000Z,CHURCHES,18515666,-76.5902833,39.2907569,CHRISTIAN,NOT AVAILABLE,NOT AVAILABLE,NOT AVAILABLE,N,Y
43089,10429283,BETH ISAAC ADATH ISRAEL,BALTIMORE,MD,21215,1310,BALTIMORE,24005,2007-08-07T00:00:00.000Z,ALT REF,2007-08-07T00:00:00.000Z,SYNAGOGUES,18527799,-76.7164045,39.3588111,JUDAIC,ORTHODOX,NOT AVAILABLE,NOT AVAILABLE,N,N
43190,10457276,STAR OF BETHLEHEM AFRICAN METHODIST EPISCOPAL CHURCH,BALTIMORE,MD,21230,3048,BALTIMORE CITY,24510,2009-05-07T00:00:00.000Z,ALT REF,2009-05-07T00:00:00.000Z,CHURCHES,18533731,-76.6447549,39.2621084,CHRISTIAN,AME,NOT AVAILABLE,NOT AVAILABLE,Y,N
43217,10435898,NORTH POINT BAPTIST CHURCH,BALTIMORE,MD,21222,3632,BALTIMORE,24005,2007-09-19T00:00:00.000Z,ALT REF,2007-09-19T00:00:00.000Z,CHURCHES,18537769,-76.4662077,39.262915,CHRISTIAN,SBC,832,NOT AVAILABLE,Y,N
43234,10457163,NEW JERUSALEM AFRICAN METHODIST EPISCOPAL CHURCH,BALTIMORE,MD,21206,5126,BALTIMORE CITY,24510,2009-05-18T00:00:00.000Z,ALT REF,2009-05-18T00:00:00.000Z,CHURCHES,18509839,-76.5513847,39.3335994,CHRISTIAN,AME,NOT AVAILABLE,NOT AVAILABLE,Y,N
43251,10439317,THE CHURCH OF JESUS CHRIST OF LATTER DAY SAINTS - INNER HARBOR WARD,BALTIMORE,MD,21201,2113,BALTIMORE CITY,24510,2007-10-16T00:00:00.000Z,ALT REF,2007-10-16T00:00:00.000Z,CHURCHES,18514134,-76.6235024,39.299875,CHRISTIAN,LDS,NOT AVAILABLE,NOT AVAILABLE,Y,N
43252,10439318,THE CHURCH OF JESUS CHRIST OF LATTER DAY SAINTS - HIGHLANDTOWN (SPANISH) BRANCH,BALTIMORE,MD,21201,2113,BALTIMORE CITY,24510,2007-10-16T00:00:00.000Z,ALT REF,2007-10-16T00:00:00.000Z,CHURCHES,18514134,-76.6235116,39.299875,CHRISTIAN,LDS,NOT AVAILABLE,NOT AVAILABLE,Y,N
43253,10439337,THE CHURCH OF JESUS CHRIST OF LATTER DAY SAINTS - BROOKLYN PARK BRANCH,BALTIMORE,MD,21225,2027,BALTIMORE CITY,24510,2007-10-16T00:00:00.000Z,ALT REF,2007-10-16T00:00:00.000Z,CHURCHES,18543530,-76.6063944,39.2360781,CHRISTIAN,LDS,NOT AVAILABLE,NOT AVAILABLE,Y,N
43254,10432482,THE EMPOWERMENT TEMPLE AFRICAN METHODIST EPISCOPAL CHURCH,BALTIMORE,MD,21215,3305,BALTIMORE CITY,24510,2007-09-11T00:00:00.000Z,ALT REF,2007-09-11T00:00:00.000Z,CHURCHES,18528792,-76.6953852,39.3495448,CHRISTIAN,AME,NOT AVAILABLE,NOT AVAILABLE,Y,N
43258,10440186,SAINT LUKE'S CHURCH,BALTIMORE,MD,21223,1836,BALTIMORE CITY,24510,2007-11-06T00:00:00.000Z,ALT REF,2007-11-06T00:00:00.000Z,CHURCHES,18542616,-76.6379027,39.2915838,CHRISTIAN,EPIS,NOT AVAILABLE,NOT AVAILABLE,Y,N
43263,10440893,THE CHURCH OF THE REDEMPTION,BALTIMORE,MD,21230,5301,BALTIMORE CITY,24510,2007-11-06T00:00:00.000Z,ALT REF,2007-11-06T00:00:00.000Z,CHURCHES,18518774,-76.5914553,39.2696734,CHRISTIAN,EPIS,NOT AVAILABLE,NOT AVAILABLE,Y,N
43264,10440894,SAINT ANDREW'S EPISCOPAL CHURCH,BALTIMORE,MD,21239,1619,BALTIMORE,24005,2007-11-06T00:00:00.000Z,ALT REF,2007-11-06T00:00:00.000Z,CHURCHES,19438455,-76.5808396,39.3730699,CHRISTIAN,EPIS,NOT AVAILABLE,NOT AVAILABLE,Y,N
43265,10440896,CATHEDRAL OF THE INCARNATION,BALTIMORE,MD,21218,2437,BALTIMORE CITY,24510,2007-11-06T00:00:00.000Z,ALT REF,2007-11-06T00:00:00.000Z,CHURCHES,19451609,-76.6166417,39.3321772,CHRISTIAN,EPIS,NOT AVAILABLE,NOT AVAILABLE,Y,N
43266,10440897,OLD SAINT PAUL'S,BALTIMORE,MD,21201,4101,BALTIMORE CITY,24510,2007-11-06T00:00:00.000Z,ALT REF,2007-11-06T00:00:00.000Z,CHURCHES,18557396,-76.6149192,39.2921349,CHRISTIAN,EPIS,NOT AVAILABLE,NOT AVAILABLE,Y,N
43267,10440900,MEMORIAL EPISCOPAL CHURCH,BALTIMORE,MD,21217,4202,BALTIMORE CITY,24510,2007-11-06T00:00:00.000Z,ALT REF,2007-11-06T00:00:00.000Z,CHURCHES,18532434,-76.6249795,39.306453,CHRISTIAN,EPIS,NOT AVAILABLE,NOT AVAILABLE,Y,N
43268,10440901,SAINT JOHN'S CHURCH,BALTIMORE,MD,21218,3939,BALTIMORE CITY,24510,2007-11-06T00:00:00.000Z,ALT REF,2007-11-06T00:00:00.000Z,CHURCHES,18510802,-76.6087817,39.3253713,CHRISTIAN,EPIS,NOT AVAILABLE,NOT AVAILABLE,Y,N
43269,10440913,SAINT KATHERINE'S EPISCOPAL CHURCH,BALTIMORE,MD,21217,3323,BALTIMORE CITY,24510,2007-11-06T00:00:00.000Z,ALT REF,2007-11-06T00:00:00.000Z,CHURCHES,18532228,-76.6363936,39.3069073,CHRISTIAN,EPIS,NOT AVAILABLE,NOT AVAILABLE,Y,N
43270,10440914,CHURCH OF THE NATIVITY,BALTIMORE,MD,21212,2523,BALTIMORE CITY,24510,2007-11-06T00:00:00.000Z,ALT REF,2007-11-06T00:00:00.000Z,CHURCHES,18505988,-76.6101784,39.367858,CHRISTIAN,EPIS,NOT AVAILABLE,NOT AVAILABLE,Y,N
43271,10440916,CHURCH OF THE GUARDIAN ANGEL,BALTIMORE,MD,21211,3111,BALTIMORE CITY,24510,2007-11-06T00:00:00.000Z,ALT REF,2007-11-06T00:00:00.000Z,CHURCHES,18511487,-76.6215942,39.319818,CHRISTIAN,EPIS,NOT AVAILABLE,NOT AVAILABLE,Y,N
43300,10441776,CATHEDRAL OF MARY OUR QUEEN,BALTIMORE,MD,21210,2002,BALTIMORE CITY,24510,2007-08-30T00:00:00.000Z,ALT REF,2007-08-30T00:00:00.000Z,CHURCHES,18506916,-76.626008,39.358736,CHRISTIAN,NOT AVAILABLE,NOT AVAILABLE,PLACE OF WORSHIP,N,Y
43302,10440895,SAINT JAMES EPISCOPAL CHURCH,BALTIMORE,MD,21229,3508,BALTIMORE CITY,24510,2009-05-05T00:00:00.000Z,ALT REF,2009-05-05T00:00:00.000Z,CHURCHES,18525536,-76.6843308,39.2829818,CHRISTIAN,EPIS,NOT AVAILABLE,NOT AVAILABLE,Y,N
43312,10442649,SAINT MARTIN PARISH,BALTIMORE,MD,21223,1623,BALTIMORE CITY,24510,2007-09-04T00:00:00.000Z,ALT REF,2007-09-04T00:00:00.000Z,CHURCHES,18532864,-76.644961,39.2893522,CHRISTIAN,NOT AVAILABLE,NOT AVAILABLE,NOT AVAILABLE,N,Y
43313,10442810,SAINT LUKE PARISH (EDGEMERE),BALTIMORE,MD,21219,1411,BALTIMORE,24005,2007-08-30T00:00:00.000Z,ALT REF,2007-08-30T00:00:00.000Z,CHURCHES,18519816,-76.4438689,39.2349117,CHRISTIAN,NOT AVAILABLE,NOT AVAILABLE,NOT AVAILABLE,N,Y
43317,10443039,SAINT BENEDICT PARISH,BALTIMORE,MD,21223,3313,BALTIMORE CITY,24510,2007-08-30T00:00:00.000Z,ALT REF,2007-08-30T00:00:00.000Z,CHURCHES,18523733,-76.6567889,39.2791519,CHRISTIAN,NOT AVAILABLE,NOT AVAILABLE,NOT AVAILABLE,N,Y
43318,10443085,THE SHRINE OF LITTLE FLOWER,BALTIMORE,MD,21213,1213,BALTIMORE CITY,24510,2007-08-30T00:00:00.000Z,ALT REF,2007-08-30T00:00:00.000Z,"SHRINES, RELIGIOUS",18510978,-76.5714033,39.3238189,CHRISTIAN,NOT AVAILABLE,NOT AVAILABLE,NOT AVAILABLE,N,Y
43319,10443086,SAINT URSULA PARISH,BALTIMORE,MD,21234,4121,BALTIMORE,24005,2007-08-30T00:00:00.000Z,ALT REF,2007-08-30T00:00:00.000Z,CHURCHES,18494130,-76.5336362,39.3835547,CHRISTIAN,NOT AVAILABLE,NOT AVAILABLE,NOT AVAILABLE,N,Y
43322,10443285,SAINT ALPHONSUS CHURCH,BALTIMORE,MD,21201,3509,BALTIMORE CITY,24510,2007-08-30T00:00:00.000Z,ALT REF,2007-08-30T00:00:00.000Z,CHURCHES,18515235,-76.6179336,39.2932407,CHRISTIAN,NOT AVAILABLE,NOT AVAILABLE,NOT AVAILABLE,N,Y
43323,10443286,SAINT AMBROSE PARISH,BALTIMORE,MD,21215,6330,BALTIMORE CITY,24510,2007-08-30T00:00:00.000Z,ALT REF,2007-08-30T00:00:00.000Z,CHURCHES,18523549,-76.6685544,39.3416442,CHRISTIAN,NOT AVAILABLE,NOT AVAILABLE,NOT AVAILABLE,N,Y
43326,10443777,SAINT BERNARDINE PARISH,BALTIMORE,MD,21229,1945,BALTIMORE CITY,24510,2007-08-30T00:00:00.000Z,ALT REF,2007-08-30T00:00:00.000Z,CHURCHES,18533935,-76.6800463,39.2942318,CHRISTIAN,NOT AVAILABLE,NOT AVAILABLE,NOT AVAILABLE,N,Y
43327,10443779,SAINT BRIGID CATHOLIC CHURCH,BALTIMORE,MD,21224,NULL,BALTIMORE CITY,24510,2007-09-07T00:00:00.000Z,ALT REF,2007-09-07T00:00:00.000Z,CHURCHES,18517293,-76.5723246,39.2821498,CHRISTIAN,NOT AVAILABLE,NOT AVAILABLE,NOT AVAILABLE,N,Y
43328,10443780,SAINT CASIMIR PARISH,BALTIMORE,MD,21224,4726,BALTIMORE CITY,24510,2007-08-30T00:00:00.000Z,ALT REF,2007-08-30T00:00:00.000Z,CHURCHES,18517463,-76.5771623,39.2801192,CHRISTIAN,NOT AVAILABLE,NOT AVAILABLE,NOT AVAILABLE,N,Y
43329,10443788,SAINT FRANCIS OF ASSISI PARISH,BALTIMORE,MD,21218,3150,BALTIMORE CITY,24510,2007-08-30T00:00:00.000Z,ALT REF,2007-08-30T00:00:00.000Z,CHURCHES,18510087,-76.5798088,39.3307805,CHRISTIAN,NOT AVAILABLE,NOT AVAILABLE,NOT AVAILABLE,N,Y
43330,10443790,SAINT GREGORY THE GREAT PARISH,BALTIMORE,MD,21217,2304,BALTIMORE CITY,24510,2007-09-04T00:00:00.000Z,ALT REF,2007-09-04T00:00:00.000Z,CHURCHES,18531434,-76.6436313,39.3063821,CHRISTIAN,NOT AVAILABLE,NOT AVAILABLE,NOT AVAILABLE,N,Y
43331,10443796,SAINT JOSEPH PASSIONIST MONASTERY CHURCH,BALTIMORE,MD,21229,NULL,BALTIMORE CITY,24510,2007-09-06T00:00:00.000Z,ALT REF,2007-09-06T00:00:00.000Z,CHURCHES,18525556,-76.6807313,39.2837202,CHRISTIAN,NOT AVAILABLE,NOT AVAILABLE,NOT AVAILABLE,N,Y
43332,10443797,SAINT JUDE SHRINE,BALTIMORE,MD,21201,1896,BALTIMORE CITY,24510,2007-08-30T00:00:00.000Z,ALT REF,2007-08-30T00:00:00.000Z,"SHRINES, RELIGIOUS",18515273,-76.6228421,39.2929585,CHRISTIAN,NOT AVAILABLE,NOT AVAILABLE,NOT AVAILABLE,N,Y
43333,10443798,SAINT MARY STAR OF THE SEA PARISH,BALTIMORE,MD,21230,4606,BALTIMORE CITY,24510,2007-09-04T00:00:00.000Z,ALT REF,2007-09-04T00:00:00.000Z,CHURCHES,18518216,-76.6088246,39.2740464,CHRISTIAN,NOT AVAILABLE,NOT AVAILABLE,NOT AVAILABLE,N,Y
43334,10443801,OUR LADY OF FATIMA PARISH,BALTIMORE,MD,21224,2812,BALTIMORE CITY,24510,2007-08-30T00:00:00.000Z,ALT REF,2007-08-30T00:00:00.000Z,CHURCHES,18515653,-76.5392961,39.2911089,CHRISTIAN,NOT AVAILABLE,NOT AVAILABLE,NOT AVAILABLE,N,Y
43335,10443806,SAINT PATRICK PARISH,BALTIMORE,MD,21231,2408,BALTIMORE CITY,24510,2007-09-04T00:00:00.000Z,ALT REF,2007-09-04T00:00:00.000Z,CHURCHES,18516377,-76.5931709,39.2868222,CHRISTIAN,NOT AVAILABLE,NOT AVAILABLE,NOT AVAILABLE,N,Y
43336,10443809,SAINT PIUS V,BALTIMORE,MD,21223,1353,BALTIMORE CITY,24510,2007-09-04T00:00:00.000Z,ALT REF,2007-09-04T00:00:00.000Z,CHURCHES,18533364,-76.633822,39.295417,CHRISTIAN,NOT AVAILABLE,NOT AVAILABLE,NOT AVAILABLE,N,Y
43355,10432481,ROCK CITY CHURCH,BALTIMORE,MD,21234,1416,BALTIMORE,24005,2009-04-16T00:00:00.000Z,ALT REF,2009-04-16T00:00:00.000Z,CHURCHES,117279932,-76.562276,39.4029373,CHRISTIAN,NONDENOM,NOT AVAILABLE,NOT AVAILABLE,Y,N
43365,10448394,BASILICA OF THE NATIONAL SHRINE OF THE ASSUMPTION OF THE BLESSED VIRGIN MARY,BALTIMORE,MD,21201,NULL,BALTIMORE CITY,24510,2007-09-04T00:00:00.000Z,ALT REF,2007-09-04T00:00:00.000Z,"SHRINES, RELIGIOUS",18515041,-76.6161771,39.2944033,CHRISTIAN,NOT AVAILABLE,NOT AVAILABLE,NOT AVAILABLE,N,Y
43366,10448691,INDIAN CATHOLIC SOCIETY OF BALTIMORE,BALTIMORE,MD,21223,3313,BALTIMORE CITY,24510,2007-08-30T00:00:00.000Z,ALT REF,2007-08-30T00:00:00.000Z,CHURCHES,18523733,-76.6567391,39.2790682,CHRISTIAN,NOT AVAILABLE,NOT AVAILABLE,NOT AVAILABLE,N,Y
43430,10457225,SAINT JOHNS AFRICAN METHODIST EPISCOPAL CHURCH,BALTIMORE,MD,21217,2501,BALTIMORE CITY,24510,2008-03-06T00:00:00.000Z,ALT REF,2008-03-06T00:00:00.000Z,CHURCHES,18533134,-76.6375954,39.2984146,CHRISTIAN,AME,NOT AVAILABLE,NOT AVAILABLE,Y,N
43457,10457017,BETHLEHEM AFRICAN METHODIST EPISCOPAL CHURCH,BALTIMORE,MD,21217,3641,BALTIMORE CITY,24510,2008-02-28T00:00:00.000Z,ALT REF,2008-02-28T00:00:00.000Z,CHURCHES,18531183,-76.6279609,39.3059748,CHRISTIAN,AME,NOT AVAILABLE,NOT AVAILABLE,Y,N
43480,10457051,EVERGREEN AFRICAN METHODIST EPISCOPAL CHURCH,BALTIMORE,MD,21229,3824,BALTIMORE CITY,24510,2008-03-06T00:00:00.000Z,ALT REF,2008-03-06T00:00:00.000Z,CHURCHES,18525379,-76.6733326,39.2819481,CHRISTIAN,AME,NOT AVAILABLE,NOT AVAILABLE,Y,N
43495,10460704,EVANGELICAL PRESBYTERIAN CHURCH,BALTIMORE,MD,21206,1633,BALTIMORE CITY,24510,2008-03-07T00:00:00.000Z,ALT REF,2008-03-07T00:00:00.000Z,CHURCHES,117284609,-76.5397822,39.3586356,CHRISTIAN,PCA,NOT AVAILABLE,NOT AVAILABLE,Y,N
43500,10457068,GETHSEMANE AFRICAN METHODIST EPISCOPAL CHURCH,BALTIMORE,MD,21216,4713,BALTIMORE CITY,24510,2008-03-06T00:00:00.000Z,ALT REF,2008-03-06T00:00:00.000Z,CHURCHES,18531579,-76.6604974,39.2958949,CHRISTIAN,AME,NOT AVAILABLE,NOT AVAILABLE,Y,N
43504,10453306,MOUNT ARARAT BAPTIST CHURCH,BALTIMORE,MD,21216,2720,BALTIMORE CITY,24510,2008-03-07T00:00:00.000Z,ALT REF,2008-03-07T00:00:00.000Z,CHURCHES,18523576,-76.6682947,39.3148307,CHRISTIAN,NBC,NOT AVAILABLE,NOT AVAILABLE,Y,N
43505,10452327,MOUNT OLIVE BAPTIST CHURCH,BALTIMORE,MD,21222,6260,BALTIMORE,24005,2008-02-26T00:00:00.000Z,ALT REF,2008-02-26T00:00:00.000Z,CHURCHES,18896611,-76.5054558,39.2345257,CHRISTIAN,NBC,NOT AVAILABLE,NOT AVAILABLE,Y,N
43512,10453724,RISING SUN FIRST BAPTIST CHURCH,BALTIMORE,MD,21207,4473,BALTIMORE,24005,2008-02-26T00:00:00.000Z,ALT REF,2008-02-26T00:00:00.000Z,CHURCHES,18524364,-76.7389431,39.3347939,CHRISTIAN,NBC,NOT AVAILABLE,NOT AVAILABLE,Y,N
43520,10456109,TRINITY AFRICAN METHODIST EPISCOPAL CHURCH,BALTIMORE,MD,21213,3420,BALTIMORE CITY,24510,2008-03-07T00:00:00.000Z,ALT REF,2008-03-07T00:00:00.000Z,CHURCHES,18513050,-76.5873867,39.3069328,CHRISTIAN,AME,NOT AVAILABLE,NOT AVAILABLE,Y,N
43522,10457204,SHILOH AFRICAN METHODIST EPISCOPAL CHURCH,BALTIMORE,MD,21216,2016,BALTIMORE CITY,24510,2008-03-07T00:00:00.000Z,ALT REF,2008-03-07T00:00:00.000Z,CHURCHES,18526619,-76.6836344,39.3155478,CHRISTIAN,AME,NOT AVAILABLE,NOT AVAILABLE,Y,N
43524,10453402,SAINT PAUL BAPTIST CHURCH,BALTIMORE,MD,21218,3644,BALTIMORE CITY,24510,2008-02-26T00:00:00.000Z,ALT REF,2008-03-20T00:00:00.000Z,CHURCHES,18510687,-76.593667,39.3263538,CHRISTIAN,NBC,NOT AVAILABLE,NOT AVAILABLE,Y,N
43525,10453281,SAINT TIMOTHY CHRISTIAN BAPTIST CHURCH,BALTIMORE,MD,21215,4909,BALTIMORE CITY,24510,2008-03-06T00:00:00.000Z,ALT REF,2008-03-06T00:00:00.000Z,CHURCHES,18528614,-76.6864228,39.3404845,CHRISTIAN,NBC,NOT AVAILABLE,NOT AVAILABLE,Y,N
43527,10453713,WHITESTONE BAPTIST CHURCH,BALTIMORE,MD,21216,3905,BALTIMORE CITY,24510,2008-03-06T00:00:00.000Z,ALT REF,2008-03-06T00:00:00.000Z,CHURCHES,18532026,-76.667639,39.3056795,CHRISTIAN,NBC,NOT AVAILABLE,NOT AVAILABLE,Y,N
43547,10459852,CALVARY PRESBYTERIAN CHURCH,BALTIMORE,MD,21286,8301,BALTIMORE,24005,2008-03-06T00:00:00.000Z,ALT REF,2008-03-06T00:00:00.000Z,CHURCHES,18895391,-76.5785987,39.3832964,CHRISTIAN,PCA,NOT AVAILABLE,NOT AVAILABLE,Y,N
43552,10457097,KALALONG AFRICAN METHODIST EPISCOPAL MISSION CHURCH,BALTIMORE,MD,21207,4014,BALTIMORE,24005,2008-03-07T00:00:00.000Z,ALT REF,2008-03-07T00:00:00.000Z,CHURCHES,117288027,-76.7409494,39.3124273,CHRISTIAN,AME,NOT AVAILABLE,NOT AVAILABLE,Y,N
43557,10453050,NEW PILGRIM BAPTIST CHURCH,BALTIMORE,MD,21205,2220,BALTIMORE CITY,24510,2008-02-26T00:00:00.000Z,ALT REF,2008-02-26T00:00:00.000Z,CHURCHES,18514454,-76.5892032,39.2981664,CHRISTIAN,NBC,NOT AVAILABLE,NOT AVAILABLE,Y,N
43558,10454571,NEW MACEDONIA MISSIONARY BAPTIST CHURCH,BALTIMORE,MD,21207,5848,BALTIMORE,24005,2008-02-26T00:00:00.000Z,ALT REF,2008-02-26T00:00:00.000Z,CHURCHES,18527476,-76.7313757,39.3444511,CHRISTIAN,NBC,NOT AVAILABLE,NOT AVAILABLE,Y,N
43589,10438282,CENTRAL CHURCH OF CHRIST,BALTIMORE,MD,21229,1634,BALTIMORE CITY,24510,2007-10-10T00:00:00.000Z,ALT REF,2007-10-10T00:00:00.000Z,CHURCHES,18526211,-76.6886881,39.2943912,CHRISTIAN,COC,1650,NOT AVAILABLE,Y,N
43619,10440905,CHURCH OF THE HOLY TRINITY,BALTIMORE,MD,21216,4816,BALTIMORE CITY,24510,2007-11-06T00:00:00.000Z,ALT REF,2007-11-21T00:00:00.000Z,CHURCHES,18532776,-76.6545142,39.2987818,CHRISTIAN,EPIS,NOT AVAILABLE,NOT AVAILABLE,Y,N
43633,10685254,VAJRA KONCHOG LING,BALTIMORE,MD,21214,1726,BALTIMORE CITY,24510,2009-05-08T00:00:00.000Z,ALT REF,2009-05-08T00:00:00.000Z,PLACES OF WORSHIP,18507489,-76.5611768,39.3549072,BUDDHIST,"TIBETAN, DRIKUNG KAGYU & NYINGMA PRIMARILY RIME OVERALL",NOT AVAILABLE,NOT AVAILABLE,N,N
43639,10443783,SAINT CLEMENT MARY HOFBAUER PARISH,BALTIMORE,MD,21237,2602,BALTIMORE,24005,2007-08-30T00:00:00.000Z,ALT REF,2007-08-30T00:00:00.000Z,CHURCHES,18511457,-76.5123231,39.3200198,CHRISTIAN,NOT AVAILABLE,NOT AVAILABLE,NOT AVAILABLE,N,Y
43647,10432479,FIRST MOUNT OLIVE FREEWILL BAPTIST CHURCH,BALTIMORE,MD,21201,1212,BALTIMORE CITY,24510,2007-09-11T00:00:00.000Z,ALT REF,2007-09-17T00:00:00.000Z,CHURCHES,18533382,-76.6312038,39.2922786,CHRISTIAN,BAPT,NOT AVAILABLE,NOT AVAILABLE,Y,N
43665,10684366,FRESH BREEZE MINDFULNESS SANGHA,BALTIMORE,MD,21212,3607,BALTIMORE CITY,24510,2009-04-20T00:00:00.000Z,ALT REF,2009-04-20T00:00:00.000Z,PLACES OF WORSHIP,18506583,-76.6107915,39.3624385,BUDDHIST,VIETNAMESE ZEN,NOT AVAILABLE,NOT AVAILABLE,N,N
43666,10440890,SAINT BARTHOLOMEWS EPISCOPAL CHURCH,BALTIMORE,MD,21229,2404,BALTIMORE CITY,24510,2009-05-05T00:00:00.000Z,ALT REF,2009-05-05T00:00:00.000Z,CHURCHES,18525343,-76.6990245,39.2923072,CHRISTIAN,EPIS,NOT AVAILABLE,NOT AVAILABLE,Y,N
43683,10443807,SAINT PETER CLAVER CATHOLIC CHURCH,BALTIMORE,MD,21217,2817,BALTIMORE CITY,24510,2009-05-05T00:00:00.000Z,ALT REF,2009-05-05T00:00:00.000Z,CHURCHES,18532539,-76.6386784,39.3062444,CHRISTIAN,NOT AVAILABLE,NOT AVAILABLE,NOT AVAILABLE,N,Y
43709,10442262,SAINT MATTHEW CATHOLIC CHURCH,BALTIMORE,MD,21239,2902,BALTIMORE CITY,24510,2009-05-05T00:00:00.000Z,ALT REF,2009-05-05T00:00:00.000Z,CHURCHES,117284588,-76.5890093,39.3560453,CHRISTIAN,NOT AVAILABLE,NOT AVAILABLE,NOT AVAILABLE,N,Y
43720,10430897,ISLAMIC SOCIETY OF BALTIMORE MASJID AL RAHMAH,BALTIMORE,MD,21244,2401,BALTIMORE,24005,2009-04-16T00:00:00.000Z,ALT REF,2009-04-16T00:00:00.000Z,"MOSQUES, RELIGIOUS",18534196,-76.7481521,39.3034797,MUSLIM,NOT AVAILABLE,NOT AVAILABLE,NOT AVAILABLE,N,N
43729,10443046,SAINT THOMAS AQUINAS,BALTIMORE,MD,21211,1801,BALTIMORE CITY,24510,2009-05-05T00:00:00.000Z,ALT REF,2009-05-05T00:00:00.000Z,CHURCHES,18529712,-76.6339078,39.332927,CHRISTIAN,NOT AVAILABLE,NOT AVAILABLE,NOT AVAILABLE,N,Y
43744,10442555,SAINT LEO THE GREAT ROMAN CATHOLIC CHURCH,BALTIMORE,MD,21202,4451,BALTIMORE CITY,24510,2009-05-04T00:00:00.000Z,ALT REF,2009-05-04T00:00:00.000Z,CHURCHES,18516344,-76.6008291,39.287269,CHRISTIAN,NOT AVAILABLE,NOT AVAILABLE,NOT AVAILABLE,N,Y
43746,10440909,SAINT MATTHIAS EPISCOPAL CHURCH,BALTIMORE,MD,21206,1840,BALTIMORE CITY,24510,2009-05-06T00:00:00.000Z,ALT REF,2009-05-06T00:00:00.000Z,CHURCHES,117288114,-76.533503,39.3528204,CHRISTIAN,EPIS,NOT AVAILABLE,NOT AVAILABLE,Y,N
43786,10442903,SAINT MARY OF THE ASSUMPTION CATHOLIC CHURCH,BALTIMORE,MD,21212,3805,BALTIMORE CITY,24510,2009-05-05T00:00:00.000Z,ALT REF,2009-05-05T00:00:00.000Z,CHURCHES,18507143,-76.6103152,39.3570422,CHRISTIAN,NOT AVAILABLE,NOT AVAILABLE,NOT AVAILABLE,N,Y
43787,10443818,SAINT WENCESLAUS CATHOLIC CHURCH,BALTIMORE,MD,21205,1601,BALTIMORE CITY,24510,2009-05-05T00:00:00.000Z,ALT REF,2009-05-05T00:00:00.000Z,CHURCHES,18513937,-76.5870082,39.3005117,CHRISTIAN,NOT AVAILABLE,NOT AVAILABLE,NOT AVAILABLE,N,Y
43789,10443816,SAINT VERONICA CATHOLIC CHURCH,BALTIMORE,MD,21225,1314,BALTIMORE CITY,24510,2009-05-05T00:00:00.000Z,ALT REF,2009-05-05T00:00:00.000Z,CHURCHES,18537929,-76.6252728,39.2493909,CHRISTIAN,NOT AVAILABLE,NOT AVAILABLE,NOT AVAILABLE,N,Y
43794,10453148,SHARON BAPTIST CHURCH,BALTIMORE,MD,21217,2720,BALTIMORE CITY,24510,2009-04-16T00:00:00.000Z,ALT REF,2009-04-16T00:00:00.000Z,CHURCHES,18532246,-76.6415371,39.3052636,CHRISTIAN,NBC,NOT AVAILABLE,NOT AVAILABLE,Y,N
43814,10443811,SAINT ROSE OF LIMA CHURCH,BALTIMORE,MD,21225,2028,BALTIMORE CITY,24510,2009-05-05T00:00:00.000Z,ALT REF,2009-05-05T00:00:00.000Z,CHURCHES,18543596,-76.6060735,39.2347992,CHRISTIAN,NOT AVAILABLE,NOT AVAILABLE,NOT AVAILABLE,N,Y
43816,10443817,SAINT VINCENT DE PAUL CHURCH,BALTIMORE,MD,21202,4804,BALTIMORE CITY,24510,2009-05-05T00:00:00.000Z,ALT REF,2009-05-05T00:00:00.000Z,CHURCHES,18515609,-76.6063553,39.2913375,CHRISTIAN,NOT AVAILABLE,NOT AVAILABLE,NOT AVAILABLE,N,Y
43820,10457174,PAYNE MEMORIAL AFRICAN METHODIST EPISCOPAL CHURCH,BALTIMORE,MD,21217,3750,BALTIMORE CITY,24510,2009-04-28T00:00:00.000Z,ALT REF,2009-04-28T00:00:00.000Z,CHURCHES,18532432,-76.6318522,39.3067034,CHRISTIAN,AME,NOT AVAILABLE,NOT AVAILABLE,Y,N
43821,10575014,PATTERSON-ASBURY AFRICAN METHODIST EPISCOPAL ZION CHURCH,BALTIMORE,MD,21217,3327,BALTIMORE CITY,24510,2009-04-28T00:00:00.000Z,ALT REF,2009-04-28T00:00:00.000Z,CHURCHES,18532217,-76.6386972,39.3087687,CHRISTIAN,AMEZ,NOT AVAILABLE,NOT AVAILABLE,Y,N
43822,10443819,SAINT WILLIAM OF YORK CATHOLIC CHURCH,BALTIMORE,MD,21229,1306,BALTIMORE CITY,24510,2009-05-05T00:00:00.000Z,ALT REF,2009-05-05T00:00:00.000Z,CHURCHES,18525331,-76.7026393,39.2926217,CHRISTIAN,NOT AVAILABLE,NOT AVAILABLE,NOT AVAILABLE,N,Y
43823,10685447,BURNING HOUSE ZENDO,BALTIMORE,MD,21218,3121,BALTIMORE CITY,24510,2009-04-15T00:00:00.000Z,ALT REF,2009-04-15T00:00:00.000Z,PLACES OF WORSHIP,18510192,-76.581736,39.3300394,BUDDHIST,"MAHAYANA, RINZAI ZEN",NOT AVAILABLE,NOT AVAILABLE,N,N
43824,10440920,SAINT DAVIDS EPISCOPAL CHURCH,BALTIMORE,MD,21210,2320,BALTIMORE CITY,24510,2009-05-05T00:00:00.000Z,ALT REF,2009-05-05T00:00:00.000Z,CHURCHES,117284513,-76.6364697,39.3479031,CHRISTIAN,EPIS,NOT AVAILABLE,NOT AVAILABLE,Y,N
43827,10454701,CONCORD BAPTIST CHURCH,BALTIMORE,MD,21207,7057,BALTIMORE CITY,24510,2009-04-16T00:00:00.000Z,ALT REF,2009-04-16T00:00:00.000Z,CHURCHES,18526964,-76.7021031,39.3337981,CHRISTIAN,NBC,NOT AVAILABLE,NOT AVAILABLE,Y,N
43830,10429282,BETH ABRAHAM ANSHE SFARD,BALTIMORE,MD,21215,3734,BALTIMORE CITY,24510,2007-08-07T00:00:00.000Z,ALT REF,2007-08-07T00:00:00.000Z,SYNAGOGUES,18529080,-76.6926795,39.3591777,JUDAIC,ORTHODOX,NOT AVAILABLE,NOT AVAILABLE,N,N
43836,10587407,ENON BAPTIST CHURCH,BALTIMORE,MD,21217,2444,BALTIMORE CITY,24510,2009-04-17T00:00:00.000Z,ALT REF,2009-04-17T00:00:00.000Z,CHURCHES,18533373,-76.6339419,39.2958019,CHRISTIAN,ABC,NOT AVAILABLE,NOT AVAILABLE,Y,N
43838,10428575,CHABAD OF JOHNS HOPKINS AND CENTRAL BALTIMORE,BALTIMORE,MD,21218,2302,BALTIMORE CITY,24510,2007-08-07T00:00:00.000Z,ALT REF,2007-08-07T00:00:00.000Z,SYNAGOGUES,18509772,-76.617656,39.3339988,JUDAIC,CHABAD,NOT AVAILABLE,CHABAD,N,N
43851,10429034,AGUDATH ISRAEL OF BALTIMORE,BALTIMORE,MD,21215,3626,BALTIMORE CITY,24510,2007-08-07T00:00:00.000Z,ALT REF,2007-08-07T00:00:00.000Z,SYNAGOGUES,18529088,-76.6932681,39.3579709,JUDAIC,ORTHODOX,NOT AVAILABLE,NOT AVAILABLE,N,N
43858,10428156,JEWISH COMMUNITY CENTER OF GREATER BALTIMORE,BALTIMORE,MD,21215,3930,BALTIMORE CITY,24510,2007-08-07T00:00:00.000Z,ALT REF,2007-08-07T00:00:00.000Z,SYNAGOGUES,18529292,-76.686425,39.3530449,JUDAIC,NOT AVAILABLE,NOT AVAILABLE,NOT AVAILABLE,N,N
43868,10429279,KEHILATH B'NAI TORAH,BALTIMORE,MD,21209,3316,BALTIMORE CITY,24510,2007-07-26T00:00:00.000Z,PHONE,2007-07-25T00:00:00.000Z,SYNAGOGUES,18556532,-76.6733377,39.3703266,JUDAIC,ORTHODOX,NOT AVAILABLE,NOT AVAILABLE,N,N
43871,10429487,BETH AM SYNAGOGUE,BALTIMORE,MD,21217,4006,BALTIMORE CITY,24510,2007-08-07T00:00:00.000Z,ALT REF,2007-08-07T00:00:00.000Z,SYNAGOGUES,18531717,-76.6377696,39.3148241,JUDAIC,NOT AVAILABLE,NOT AVAILABLE,NOT AVAILABLE,N,N
43874,10429280,MOSES MONTEFIORE ANSHE EMUNAH HEBREW CONGREGATION,BALTIMORE,MD,21209,1112,BALTIMORE,24005,2007-07-25T00:00:00.000Z,PHONE,2007-07-25T00:00:00.000Z,SYNAGOGUES,18490248,-76.6688628,39.3849311,JUDAIC,MODERN ORTHODOX,NOT AVAILABLE,NOT AVAILABLE,N,N
43876,10429281,NER TAMID GREENSPRING VALLEY SYNAGOGUE,BALTIMORE,MD,21209,3324,BALTIMORE CITY,24510,2007-08-07T00:00:00.000Z,ALT REF,2007-08-07T00:00:00.000Z,SYNAGOGUES,18528994,-76.678471,39.3694156,JUDAIC,ORTHODOX,NOT AVAILABLE,NOT AVAILABLE,N,N
43882,10428582,AMERICAN RUSSIAN INSTITUTE FOR ENRICHMENT OF LIFE - JEWISH RUSSIAN CENTER AND SYNAGOGUE,BALTIMORE,MD,21209,1628,BALTIMORE,24005,2007-08-07T00:00:00.000Z,ALT REF,2007-08-07T00:00:00.000Z,SYNAGOGUES,18489363,-76.6774171,39.3755137,JUDAIC,CHABAD,NOT AVAILABLE,CHABAD,N,N
43885,10428993,BAIS HAKNESSES,BALTIMORE,MD,21209,NULL,BALTIMORE CITY,24510,2007-08-07T00:00:00.000Z,ALT REF,2007-08-07T00:00:00.000Z,SYNAGOGUES,18528946,-76.6940875,39.3704455,JUDAIC,ORTHODOX,NOT AVAILABLE,NOT AVAILABLE,N,N
43892,10429762,BETH EL CONGREGATION,BALTIMORE,MD,21208,1714,BALTIMORE,24005,2007-08-07T00:00:00.000Z,ALT REF,2007-08-07T00:00:00.000Z,SYNAGOGUES,117279217,-76.7224801,39.3915252,JUDAIC,NOT AVAILABLE,NOT AVAILABLE,NOT AVAILABLE,N,N
43898,10428555,CHABAD OF PARK HEIGHTS,BALTIMORE,MD,21215,2502,BALTIMORE CITY,24510,2007-08-07T00:00:00.000Z,ALT REF,2007-08-07T00:00:00.000Z,SYNAGOGUES,18628361,-76.6980763,39.3642725,JUDAIC,CHABAD,NOT AVAILABLE,CHABAD,N,N
43899,10429038,BALTIMORE BEIS HAMEDRASH,BALTIMORE,MD,21215,1604,BALTIMORE CITY,24510,2007-08-07T00:00:00.000Z,ALT REF,2007-08-07T00:00:00.000Z,SYNAGOGUES,18527961,-76.7063487,39.3672851,JUDAIC,ORTHODOX,NOT AVAILABLE,NOT AVAILABLE,N,N
43900,10429278,AGUDATH ISRAEL OF GREENSPRING,BALTIMORE,MD,21209,3922,BALTIMORE CITY,24510,2007-08-07T00:00:00.000Z,ALT REF,2007-08-13T00:00:00.000Z,SYNAGOGUES,18528995,-76.6802894,39.3690322,JUDAIC,ORTHODOX,NOT AVAILABLE,NOT AVAILABLE,N,N
43919,10429764,CHEVREI TZEDEK CONGREGATION,BALTIMORE,MD,21209,2967,BALTIMORE CITY,24510,2007-07-25T00:00:00.000Z,PHONE,2007-07-25T00:00:00.000Z,SYNAGOGUES,18528961,-76.6935924,39.3688727,JUDAIC,NOT AVAILABLE,NOT AVAILABLE,NOT AVAILABLE,N,N
43921,10429763,CHIZUK AMUNO CONGREGATION,BALTIMORE,MD,21208,1866,BALTIMORE,24005,2007-08-07T00:00:00.000Z,ALT REF,2007-08-07T00:00:00.000Z,SYNAGOGUES,18488811,-76.7146361,39.3929135,JUDAIC,NOT AVAILABLE,NOT AVAILABLE,NOT AVAILABLE,N,N
43926,10430886,MASJID AS-SAFFAT,BALTIMORE,MD,21217,3537,BALTIMORE CITY,24510,2007-10-08T00:00:00.000Z,ALT REF,2007-10-08T00:00:00.000Z,"MOSQUES, RELIGIOUS",18532390,-76.639916,39.3098814,MUSLIM,NOT AVAILABLE,NOT AVAILABLE,NOT AVAILABLE,N,N
43931,10430875,MUSLIM COMMUNITY CULTURAL CENTER OF BALTIMORE,BALTIMORE,MD,21216,3024,BALTIMORE CITY,24510,2007-07-16T00:00:00.000Z,PHONE,2007-07-16T00:00:00.000Z,"MOSQUES, RELIGIOUS",18531328,-76.6753893,39.3072657,MUSLIM,NOT AVAILABLE,NOT AVAILABLE,NOT AVAILABLE,N,N
43936,10440907,SAINT JOHNS EPISCOPAL CHURCH,BALTIMORE,MD,21209,4504,BALTIMORE CITY,24510,2009-05-06T00:00:00.000Z,ALT REF,2009-05-06T00:00:00.000Z,CHURCHES,18528357,-76.6525642,39.3663582,CHRISTIAN,EPIS,NOT AVAILABLE,NOT AVAILABLE,Y,N
43939,10431739,MASJID AL-INSHIRAH,BALTIMORE,MD,21207,6205,BALTIMORE,24005,2007-10-08T00:00:00.000Z,ALT REF,2007-10-08T00:00:00.000Z,"MOSQUES, RELIGIOUS",18527057,-76.7120223,39.3370433,MUSLIM,NOT AVAILABLE,NOT AVAILABLE,NOT AVAILABLE,N,N
43942,10430896,UMMAT WASIT,BALTIMORE,MD,21205,1808,BALTIMORE CITY,24510,2007-07-16T00:00:00.000Z,PHONE,2007-07-16T00:00:00.000Z,"MOSQUES, RELIGIOUS",18514679,-76.5978616,39.2966275,MUSLIM,NOT AVAILABLE,NOT AVAILABLE,NOT AVAILABLE,N,N
43943,10431703,JOHN HOPKINS UNIVERSITY MUSLIM ASSOCIATION,BALTIMORE,MD,21218,2608,BALTIMORE CITY,24510,2007-10-08T00:00:00.000Z,ALT REF,2007-10-08T00:00:00.000Z,"MOSQUES, RELIGIOUS",18559593,-76.6172837,39.3308942,MUSLIM,NOT AVAILABLE,NOT AVAILABLE,NOT AVAILABLE,N,N
43950,10429277,ADATH YESHURUN-MOGEN ABRAHAM CONGREGATION,BALTIMORE,MD,21208,2352,BALTIMORE,24005,2007-08-08T00:00:00.000Z,ALT REF,2007-08-07T00:00:00.000Z,SYNAGOGUES,18505243,-76.7607664,39.3629899,JUDAIC,NOT AVAILABLE,NOT AVAILABLE,NOT AVAILABLE,N,N
43955,10430899,MASJID AL KHALIFAH,BALTIMORE,MD,21215,6324,BALTIMORE CITY,24510,2007-07-16T00:00:00.000Z,PHONE,2007-07-16T00:00:00.000Z,"MOSQUES, RELIGIOUS",18556998,-76.667616,39.3406353,MUSLIM,NOT AVAILABLE,NOT AVAILABLE,NOT AVAILABLE,N,N
43962,10587436,NEW LIFE MISSIONARY BAPTIST CHURCH,BALTIMORE,MD,21213,2305,BALTIMORE CITY,24510,2009-04-27T00:00:00.000Z,ALT REF,2009-04-27T00:00:00.000Z,CHURCHES,18512500,-76.5967093,39.310749,CHRISTIAN,ABC,NOT AVAILABLE,NOT AVAILABLE,Y,N
43963,10453314,RAY OF HOPE BAPTIST CHURCH,BALTIMORE,MD,21214,3418,BALTIMORE CITY,24510,2009-04-29T00:00:00.000Z,ALT REF,2009-04-29T00:00:00.000Z,CHURCHES,18509534,-76.5742399,39.3370935,CHRISTIAN,NBC,NOT AVAILABLE,NOT AVAILABLE,Y,N
43966,10452408,NEW SAINT MARK BAPTIST CHURCH,BALTIMORE,MD,21207,7429,BALTIMORE CITY,24510,2009-04-28T00:00:00.000Z,ALT REF,2009-04-28T00:00:00.000Z,CHURCHES,18526935,-76.6853939,39.3252386,CHRISTIAN,NBC,NOT AVAILABLE,NOT AVAILABLE,Y,N
43967,10577569,SAILORS UNION BETHEL ANABAPTIST CHURCH,BALTIMORE,MD,21230,4126,BALTIMORE CITY,24510,2009-04-30T00:00:00.000Z,ALT REF,2009-04-30T00:00:00.000Z,CHURCHES,18517864,-76.6076435,39.2776736,CHRISTIAN,BAPT,NOT AVAILABLE,NOT AVAILABLE,Y,N
43969,10454853,MOUNT LEBANON BAPTIST CHURCH,BALTIMORE,MD,21215,7903,BALTIMORE CITY,24510,2009-04-27T00:00:00.000Z,ALT REF,2009-04-27T00:00:00.000Z,CHURCHES,18531246,-76.6545419,39.3205038,CHRISTIAN,NBC,NOT AVAILABLE,NOT AVAILABLE,Y,N
43971,10428967,DARCHEI TZEDEK CONGREGATION,BALTIMORE,MD,21208,4529,BALTIMORE,24005,2007-08-07T00:00:00.000Z,ALT REF,2007-08-09T00:00:00.000Z,SYNAGOGUES,18527928,-76.7051301,39.3722699,JUDAIC,NOT AVAILABLE,NOT AVAILABLE,NOT AVAILABLE,N,N
43973,10457170,OAK STREET AFRICAN METHODIST EPISCOPAL CHURCH,BALTIMORE,MD,21218,5001,BALTIMORE CITY,24510,2009-04-28T00:00:00.000Z,ALT REF,2009-04-28T00:00:00.000Z,CHURCHES,18511850,-76.6194058,39.3160462,CHRISTIAN,AME,NOT AVAILABLE,NOT AVAILABLE,Y,N
43974,10455285,RISING ZION BAPTIST CHURCH,BALTIMORE,MD,21213,3400,BALTIMORE CITY,24510,2009-04-29T00:00:00.000Z,ALT REF,2009-04-29T00:00:00.000Z,CHURCHES,18512946,-76.5849949,39.3074657,CHRISTIAN,NBC,NOT AVAILABLE,NOT AVAILABLE,Y,N
43975,10587399,THE CITY TEMPLE OF BALTIMORE,BALTIMORE,MD,21217,3602,BALTIMORE CITY,24510,2009-04-16T00:00:00.000Z,ALT REF,2009-04-16T00:00:00.000Z,CHURCHES,18513623,-76.6247257,39.3030275,CHRISTIAN,ABC,NOT AVAILABLE,NOT AVAILABLE,Y,N
43979,10585596,GRACE BAPTIST CHURCH,BALTIMORE,MD,21218,3642,BALTIMORE CITY,24510,2009-04-21T00:00:00.000Z,ALT REF,2009-04-21T00:00:00.000Z,CHURCHES,18510604,-76.5939403,39.3269133,CHRISTIAN,ABC,NOT AVAILABLE,NOT AVAILABLE,Y,N
43981,10587411,FIRST BAPTIST CHURCH,BALTIMORE,MD,21205,1807,BALTIMORE CITY,24510,2009-04-20T00:00:00.000Z,ALT REF,2009-04-20T00:00:00.000Z,CHURCHES,18514679,-76.5972351,39.2969839,CHRISTIAN,ABC,NOT AVAILABLE,NOT AVAILABLE,Y,N
43983,10577723,FREEDOM BAPTIST CHURCH,BALTIMORE,MD,21236,2039,BALTIMORE,24005,2009-04-20T00:00:00.000Z,ALT REF,2009-04-20T00:00:00.000Z,CHURCHES,18496453,-76.4571687,39.3957048,CHRISTIAN,BAPT,NOT AVAILABLE,NOT AVAILABLE,Y,N
43984,10443795,SAINT ISAAC JOGUES CATHOLIC CHURCH,BALTIMORE,MD,21234,1709,BALTIMORE,24005,2009-04-14T00:00:00.000Z,ALT REF,2009-04-14T00:00:00.000Z,CHURCHES,18495340,-76.5256844,39.4051082,CHRISTIAN,NOT AVAILABLE,NOT AVAILABLE,NOT AVAILABLE,N,Y
43985,10579080,ROSEDALE BAPTIST CHURCH,BALTIMORE,MD,21237,4319,BALTIMORE,24005,2009-04-14T00:00:00.000Z,ALT REF,2009-04-14T00:00:00.000Z,CHURCHES,18534829,-76.4698232,39.3503674,CHRISTIAN,BAPT,NOT AVAILABLE,NOT AVAILABLE,Y,N
43989,10683963,THE BALTIMORE SHAMBHALA MEDITATION CENTER,BALTIMORE,MD,21218,2703,BALTIMORE CITY,24510,2009-04-14T00:00:00.000Z,ALT REF,2009-04-14T00:00:00.000Z,PLACES OF WORSHIP,24745110,-76.6157171,39.3304317,BUDDHIST,"VAJRAYANA, TIBETAN, KAGYU & NYINGMA LINEAGES",NOT AVAILABLE,NOT AVAILABLE,N,N
43990,10683880,BALTIMORE DHARMA GROUP,BALTIMORE,MD,21218,1837,BALTIMORE CITY,24510,2009-04-14T00:00:00.000Z,ALT REF,2009-04-14T00:00:00.000Z,PLACES OF WORSHIP,18509129,-76.6114034,39.339424,BUDDHIST,SOTO ZEN,NOT AVAILABLE,NOT AVAILABLE,N,N
43992,10439489,THE CHURCH OF JESUS CHRIST OF LATTER DAY SAINTS - BALTIMORE UNIVERSITY WARD,BALTIMORE,MD,21218,2111,BALTIMORE CITY,24510,2009-04-14T00:00:00.000Z,ALT REF,2009-04-14T00:00:00.000Z,CHURCHES,18510078,-76.5945185,39.3314141,CHRISTIAN,LDS,NOT AVAILABLE,NOT AVAILABLE,Y,N
43993,10460691,ABBOTT MEMORIAL PRESBYTERIAN CHURCH,BALTIMORE,MD,21224,2301,BALTIMORE CITY,24510,2009-04-14T00:00:00.000Z,ALT REF,2009-04-14T00:00:00.000Z,CHURCHES,18516202,-76.5685619,39.2878453,CHRISTIAN,PCA,NOT AVAILABLE,NOT AVAILABLE,Y,N
43994,10460692,AISQUITH PRESBYTERIAN CHURCH,BALTIMORE,MD,21234,6901,BALTIMORE CITY,24510,2009-04-14T00:00:00.000Z,ALT REF,2009-04-14T00:00:00.000Z,CHURCHES,18505721,-76.5446862,39.3709395,CHRISTIAN,PCA,NOT AVAILABLE,NOT AVAILABLE,Y,N
43995,10583347,BALTIMORE BAPTIST CHURCH,BALTIMORE,MD,21206,6580,BALTIMORE CITY,24510,2009-04-14T00:00:00.000Z,ALT REF,2009-04-14T00:00:00.000Z,CHURCHES,18510325,-76.5567649,39.3294395,CHRISTIAN,BAPT,NOT AVAILABLE,NOT AVAILABLE,Y,N
43996,10456984,ALLEN AFRICAN METHODIST EPISCOPAL CHURCH,BALTIMORE,MD,21223,1942,BALTIMORE CITY,24510,2009-04-14T00:00:00.000Z,ALT REF,2009-04-14T00:00:00.000Z,CHURCHES,18533323,-76.6362357,39.2911188,CHRISTIAN,AME,NOT AVAILABLE,NOT AVAILABLE,Y,N