OBJECTID,ID,NAME,CITY,STATE,ZIP,ZIPP4,COUNTY,FIPS,CONTDATE,CONTHOW,GEODATE,NAICSDESCR,GEOLINKID,X,Y,SUBTYPE,DENOM,MEMBERS,LOC_TYPE,PROT,CATH
47783,10440922,EMMANUEL CHURCH,BOSTON,MA,2116,3105,SUFFOLK,25025,2009-04-20T00:00:00.000Z,ALT REF,2009-04-20T00:00:00.000Z,CHURCHES,732556410,-71.0723241,42.3526117,CHRISTIAN,EPIS,NOT AVAILABLE,NOT AVAILABLE,Y,N
47813,10443313,CATHEDRAL OF THE HOLY CROSS,BOSTON,MA,2118,2001,SUFFOLK,25025,2009-04-20T00:00:00.000Z,ALT REF,2009-04-20T00:00:00.000Z,CHURCHES,22022171,-71.0696842,42.3407881,CHRISTIAN,NOT AVAILABLE,NOT AVAILABLE,NOT AVAILABLE,N,Y
47820,10442494,SAINT FRANCIS CHAPEL,BOSTON,MA,2199,7034,SUFFOLK,25025,2009-04-20T00:00:00.000Z,ALT REF,2009-04-20T00:00:00.000Z,CHURCHES,733049372,-71.0827656,42.3470493,CHRISTIAN,NOT AVAILABLE,NOT AVAILABLE,NOT AVAILABLE,N,Y
47832,10432472,PARK STREET CHURCH,BOSTON,MA,2108,4802,SUFFOLK,25025,2007-09-11T00:00:00.000Z,ALT REF,2007-09-11T00:00:00.000Z,CHURCHES,22023653,-71.0620573,42.3568528,CHRISTIAN,CCCC,NOT AVAILABLE,NOT AVAILABLE,Y,N
47857,10438562,THE CHURCH OF JESUS CHRIST OF LATTER DAY SAINTS - BOSTON 1ST WARD,BOSTON,MA,2131,3829,SUFFOLK,25025,2007-10-16T00:00:00.000Z,ALT REF,2007-10-16T00:00:00.000Z,CHURCHES,22017462,-71.1161046,42.2827279,CHRISTIAN,LDS,NOT AVAILABLE,NOT AVAILABLE,Y,N
47884,10439492,THE CHURCH OF JESUS CHRIST OF LATTER DAY SAINTS - BOSTON 2ND WARD,BOSTON,MA,2131,3829,SUFFOLK,25025,2007-10-16T00:00:00.000Z,ALT REF,2007-10-16T00:00:00.000Z,CHURCHES,22017462,-71.1161085,42.2827262,CHRISTIAN,LDS,NOT AVAILABLE,NOT AVAILABLE,Y,N
47885,10439493,THE CHURCH OF JESUS CHRIST OF LATTER DAY SAINTS - BOSTON 3RD (HAITIAN-CREOLE) BRANCH,BOSTON,MA,2131,3829,SUFFOLK,25025,2007-10-16T00:00:00.000Z,ALT REF,2007-10-16T00:00:00.000Z,CHURCHES,22017462,-71.116109,42.2827246,CHRISTIAN,LDS,NOT AVAILABLE,NOT AVAILABLE,Y,N
47886,10456776,BETHEL AFRICAN METHODIST EPISCOPAL CHURCH,BOSTON,MA,2130,3302,SUFFOLK,25025,2008-02-21T00:00:00.000Z,ALT REF,2008-02-21T00:00:00.000Z,CHURCHES,22019613,-71.1037251,42.3051534,CHRISTIAN,AME,NOT AVAILABLE,NOT AVAILABLE,Y,N
47915,10456830,CHARLES STREET AFRICAN METHODIST EPISCOPAL CHURCH,BOSTON,MA,2121,1806,SUFFOLK,25025,2008-02-21T00:00:00.000Z,ALT REF,2008-02-21T00:00:00.000Z,CHURCHES,22019292,-71.083701,42.3127408,CHRISTIAN,AME,NOT AVAILABLE,NOT AVAILABLE,Y,N
47930,10443538,SAINT LEONARD OF PORT MAURICE CHURCH (ITALIAN),BOSTON,MA,2113,1821,SUFFOLK,25025,2007-10-01T00:00:00.000Z,ALT REF,2007-10-08T00:00:00.000Z,CHURCHES,22024978,-71.054292,42.3646897,CHRISTIAN,NOT AVAILABLE,NOT AVAILABLE,NOT AVAILABLE,N,Y
47932,10443545,OUR LADY OF VICTORIES CATHOLIC CHURCH,BOSTON,MA,2116,5216,SUFFOLK,25025,2007-09-28T00:00:00.000Z,ALT REF,2007-09-28T00:00:00.000Z,CHURCHES,22013166,-71.0702982,42.348935,CHRISTIAN,NOT AVAILABLE,NOT AVAILABLE,NOT AVAILABLE,N,Y
47967,10445818,SAINT CECILIA CHURCH,BOSTON,MA,2115,3110,SUFFOLK,25025,2007-09-28T00:00:00.000Z,ALT REF,2007-09-28T00:00:00.000Z,CHURCHES,22021304,-71.0862434,42.3465652,CHRISTIAN,NOT AVAILABLE,NOT AVAILABLE,NOT AVAILABLE,N,Y
47968,10448136,ANNUNCIATION MELKITE CATHOLIC CATHEDRAL,BOSTON,MA,2131,NULL,SUFFOLK,25025,2007-09-28T00:00:00.000Z,ALT REF,2007-09-28T00:00:00.000Z,CHURCHES,92861175,-71.1342179,42.2975206,CHRISTIAN,NOT AVAILABLE,NOT AVAILABLE,NOT AVAILABLE,N,Y
47983,10455574,NEW HOPE BAPTIST CHURCH,BOSTON,MA,2118,3416,SUFFOLK,25025,2008-02-21T00:00:00.000Z,ALT REF,2008-02-21T00:00:00.000Z,CHURCHES,22014051,-71.0781057,42.3401294,CHRISTIAN,NBC,NOT AVAILABLE,NOT AVAILABLE,Y,N
47984,10456706,GRANT AFRICAN METHODIST EPISCOPAL CHURCH,BOSTON,MA,2118,3212,SUFFOLK,25025,2008-02-21T00:00:00.000Z,ALT REF,2008-02-21T00:00:00.000Z,CHURCHES,31109191,-71.0790755,42.3343359,CHRISTIAN,AME,NOT AVAILABLE,NOT AVAILABLE,Y,N
47985,10460686,CITYLIFE PRESBYTERIAN CHURCH OF BOSTON,BOSTON,MA,2116,5442,SUFFOLK,25025,2008-02-21T00:00:00.000Z,ALT REF,2008-02-21T00:00:00.000Z,CHURCHES,22022098,-71.0673422,42.3507106,CHRISTIAN,PCA,NOT AVAILABLE,NOT AVAILABLE,Y,N
49038,10443314,GATE OF HEAVEN CHURCH,SOUTH BOSTON,MA,2127,3049,SUFFOLK,25025,2009-04-28T00:00:00.000Z,ALT REF,2009-04-28T00:00:00.000Z,CHURCHES,22031295,-71.0401107,42.3343844,CHRISTIAN,NOT AVAILABLE,NOT AVAILABLE,NOT AVAILABLE,N,Y
49053,10443527,SAINT BRIGID CHURCH,SOUTH BOSTON,MA,2127,2302,SUFFOLK,25025,2009-04-24T00:00:00.000Z,ALT REF,2009-04-24T00:00:00.000Z,CHURCHES,92845969,-71.030439,42.3353581,CHRISTIAN,NOT AVAILABLE,NOT AVAILABLE,NOT AVAILABLE,N,Y
49081,10442319,SAINT STEPHEN CHURCH,BOSTON,MA,2109,1103,SUFFOLK,25025,2009-04-22T00:00:00.000Z,ALT REF,2009-04-22T00:00:00.000Z,CHURCHES,22030884,-71.0526163,42.365306,CHRISTIAN,NOT AVAILABLE,NOT AVAILABLE,NOT AVAILABLE,N,Y
49084,10443549,SAINT VINCENT DE PAUL CHURCH,SOUTH BOSTON,MA,2127,1236,SUFFOLK,25025,2009-04-24T00:00:00.000Z,ALT REF,2009-04-24T00:00:00.000Z,CHURCHES,22013053,-71.0484167,42.3389178,CHRISTIAN,NOT AVAILABLE,NOT AVAILABLE,NOT AVAILABLE,N,Y
49325,10429294,ZVHILLER BEIS MEDRASH - DOWNTOWN CONGREGATION OF BNAI JACOB OF BOSTON AND NEWTON,BOSTON,MA,2108,4307,SUFFOLK,25025,2007-07-26T00:00:00.000Z,PHONE,2008-09-05T00:00:00.000Z,SYNAGOGUES,22024246,-71.0586785,42.3577913,JUDAIC,ORTHODOX,NOT AVAILABLE,NOT AVAILABLE,N,N
48058,10443534,SAINT JAMES CHURCH,BOSTON,MA,2111,1843,SUFFOLK,25025,2007-10-01T00:00:00.000Z,ALT REF,2007-10-01T00:00:00.000Z,CHURCHES,22023108,-71.0619826,42.3503507,CHRISTIAN,NOT AVAILABLE,NOT AVAILABLE,NOT AVAILABLE,N,Y
48119,10430865,KHANIQAHI NIMATULLAHI SUFI HOUSE,BOSTON,MA,2118,1208,SUFFOLK,25025,2009-04-20T00:00:00.000Z,ALT REF,2009-04-20T00:00:00.000Z,"MOSQUES, RELIGIOUS",22022213,-71.0763677,42.3419135,MUSLIM,NOT AVAILABLE,NOT AVAILABLE,NOT AVAILABLE,N,N
48170,10427978,TEMPLE ISRAEL,BOSTON,MA,2215,5327,SUFFOLK,25025,2007-08-03T00:00:00.000Z,PHONE,2007-08-03T00:00:00.000Z,SYNAGOGUES,22021062,-71.1093562,42.3403513,JUDAIC,REFORM,1068,NOT AVAILABLE,N,N
48291,10426195,BOSTON SYNAGOGUE,BOSTON,MA,2114,1206,SUFFOLK,25025,2007-08-03T00:00:00.000Z,PHONE,2007-08-03T00:00:00.000Z,SYNAGOGUES,92861330,-71.065412,42.3655177,JUDAIC,ORTHODOX,NOT AVAILABLE,SYNAGOGUE,N,N
48338,10431681,ISLAMIC SOCIETY OF NORTHEASTERN UNIVERSITY,BOSTON,MA,2115,5005,SUFFOLK,25025,2007-10-08T00:00:00.000Z,ALT REF,2007-10-08T00:00:00.000Z,"MOSQUES, RELIGIOUS",16838861,-71.087948,42.3396875,MUSLIM,NOT AVAILABLE,NOT AVAILABLE,NOT AVAILABLE,N,N
48356,10430855,ISLAMIC SOCIETY OF BOSTON UNIVERSITY - MUSLIM STUDENTS ASSOCIATION,BOSTON,MA,2215,1401,SUFFOLK,25025,2007-07-16T00:00:00.000Z,PHONE,2007-07-16T00:00:00.000Z,"MOSQUES, RELIGIOUS",92847150,-71.1091109,42.3507649,MUSLIM,NOT AVAILABLE,NOT AVAILABLE,NOT AVAILABLE,N,N
48515,10443543,OUR LADY OF CZESTOCHOWA ROMAN CATHOLIC CHURCH,SOUTH BOSTON,MA,2127,3551,SUFFOLK,25025,2009-04-24T00:00:00.000Z,ALT REF,2009-04-24T00:00:00.000Z,CHURCHES,22022616,-71.0572963,42.3278961,CHRISTIAN,NOT AVAILABLE,NOT AVAILABLE,NOT AVAILABLE,N,Y
48516,10443547,SAINT PETER CATHOLIC LITHUANIAN CHURCH,SOUTH BOSTON,MA,2127,1812,SUFFOLK,25025,2009-04-21T00:00:00.000Z,ALT REF,2009-04-21T00:00:00.000Z,CHURCHES,92860584,-71.054914,42.3387662,CHRISTIAN,NOT AVAILABLE,NOT AVAILABLE,NOT AVAILABLE,N,Y
48565,10440924,CHURCH OF SAINT JOHN THE EVANGELIST,BOSTON,MA,2114,4201,SUFFOLK,25025,2009-04-21T00:00:00.000Z,ALT REF,2009-04-21T00:00:00.000Z,CHURCHES,732532114,-71.0632269,42.360061,CHRISTIAN,EPIS,NOT AVAILABLE,NOT AVAILABLE,Y,N
48568,10430458,MASJID AL-NOOR,BOSTON,MA,2119,1925,SUFFOLK,25025,2009-04-22T00:00:00.000Z,ALT REF,2009-04-22T00:00:00.000Z,"MOSQUES, RELIGIOUS",22020039,-71.0859303,42.3232358,MUSLIM,NOT AVAILABLE,NOT AVAILABLE,NOT AVAILABLE,N,N
48569,10587189,CONGREGACION LEON DE JUDA,BOSTON,MA,2118,1823,SUFFOLK,25025,2009-04-22T00:00:00.000Z,ALT REF,2009-04-22T00:00:00.000Z,CHURCHES,22214094,-71.0763717,42.3344943,CHRISTIAN,ABC,NOT AVAILABLE,NOT AVAILABLE,Y,N
48570,10578242,BIBLE BAPTIST CHURCH,BOSTON,MA,2122,1718,SUFFOLK,25025,2009-04-22T00:00:00.000Z,ALT REF,2009-04-22T00:00:00.000Z,CHURCHES,22018717,-71.0622396,42.3074398,CHRISTIAN,BAPT,NOT AVAILABLE,NOT AVAILABLE,Y,N
48571,10587192,EBENEZER BAPTIST CHURCH,BOSTON,MA,2118,1403,SUFFOLK,25025,2009-04-22T00:00:00.000Z,ALT REF,2009-04-22T00:00:00.000Z,CHURCHES,705090603,-71.0786535,42.3392457,CHRISTIAN,ABC,NOT AVAILABLE,NOT AVAILABLE,Y,N
48574,10587188,CONCORD BAPTIST CHURCH,BOSTON,MA,2116,5915,SUFFOLK,25025,2009-04-22T00:00:00.000Z,ALT REF,2009-04-22T00:00:00.000Z,CHURCHES,22022299,-71.0763372,42.3435344,CHRISTIAN,ABC,NOT AVAILABLE,NOT AVAILABLE,Y,N
48576,10443165,MOST HOLY REDEEMER CATHOLIC CHURCH,BOSTON,MA,2128,NULL,SUFFOLK,25025,2009-04-22T00:00:00.000Z,ALT REF,2009-04-22T00:00:00.000Z,CHURCHES,22013190,-71.0406021,42.3711574,CHRISTIAN,NOT AVAILABLE,NOT AVAILABLE,NOT AVAILABLE,N,Y
48579,10587244,FIRST BAPTIST CHURCH OF BOSTON,BOSTON,MA,2116,2901,SUFFOLK,25025,2009-04-21T00:00:00.000Z,ALT REF,2009-04-21T00:00:00.000Z,CHURCHES,732970447,-71.0761348,42.3519308,CHRISTIAN,ABC,NOT AVAILABLE,NOT AVAILABLE,Y,N
48580,10575010,COLUMBUS AVENUE AFRICAN METHODIST EPISCOPAL ZION CHURCH,BOSTON,MA,2118,1057,SUFFOLK,25025,2009-04-21T00:00:00.000Z,ALT REF,2009-04-21T00:00:00.000Z,CHURCHES,22021357,-71.0820598,42.3399303,CHRISTIAN,AMEZ,NOT AVAILABLE,NOT AVAILABLE,Y,N
48581,10440344,CHURCH OF SAINT AUGUSTINE AND SAINT MARTIN,BOSTON,MA,2118,3201,SUFFOLK,25025,2009-04-21T00:00:00.000Z,ALT REF,2009-04-21T00:00:00.000Z,CHURCHES,22026159,-71.0792596,42.3356611,CHRISTIAN,EPIS,NOT AVAILABLE,NOT AVAILABLE,Y,N
48582,10440923,CHRIST CHURCH IN THE CITY OF BOSTON,BOSTON,MA,2113,1123,SUFFOLK,25025,2009-04-21T00:00:00.000Z,ALT REF,2009-04-21T00:00:00.000Z,CHURCHES,22013447,-71.0544141,42.3663262,CHRISTIAN,EPIS,NOT AVAILABLE,NOT AVAILABLE,Y,N
48583,10440327,CATHEDRAL CHURCH OF SAINT PAUL,BOSTON,MA,2111,1318,SUFFOLK,25025,2009-04-21T00:00:00.000Z,ALT REF,2009-04-21T00:00:00.000Z,CHURCHES,22024185,-71.062245,42.3557185,CHRISTIAN,EPIS,NOT AVAILABLE,NOT AVAILABLE,Y,N
48584,10585383,RIVER OF LIFE CHURCH,BOSTON,MA,2130,1879,SUFFOLK,25025,2009-04-21T00:00:00.000Z,ALT REF,2009-04-21T00:00:00.000Z,CHURCHES,22019677,-71.1110322,42.3196721,CHRISTIAN,ABC,NOT AVAILABLE,NOT AVAILABLE,Y,N
48585,10587344,RUGGLES BAPTIST CHURCH,BOSTON,MA,2215,3101,SUFFOLK,25025,2009-04-21T00:00:00.000Z,ALT REF,2009-04-21T00:00:00.000Z,CHURCHES,22218412,-71.1048332,42.347048,CHRISTIAN,ABC,NOT AVAILABLE,NOT AVAILABLE,Y,N
48586,10587329,PEOPLES BAPTIST CHURCH,BOSTON,MA,2118,1304,SUFFOLK,25025,2009-04-21T00:00:00.000Z,ALT REF,2009-04-21T00:00:00.000Z,CHURCHES,705070972,-71.081939,42.3380543,CHRISTIAN,ABC,NOT AVAILABLE,NOT AVAILABLE,Y,N
48587,10677894,INTERNATIONAL SOCIETY FOR KRISHNA CONSCIOUSNESS BOSTON,BOSTON,MA,2116,3009,SUFFOLK,25025,2009-04-21T00:00:00.000Z,ALT REF,2009-04-21T00:00:00.000Z,PLACES OF WORSHIP,732970442,-71.0748881,42.3522929,HINDU,NOT AVAILABLE,NOT AVAILABLE,NOT AVAILABLE,N,N
48595,10443542,SAINT MONICA-SAINT AUGUSTINE CHURCH,BOSTON,MA,2127,3502,SUFFOLK,25025,2009-04-22T00:00:00.000Z,ALT REF,2009-04-22T00:00:00.000Z,CHURCHES,22022580,-71.0530673,42.3290171,CHRISTIAN,NOT AVAILABLE,NOT AVAILABLE,NOT AVAILABLE,N,Y
48598,10440217,TRINITY CHURCH BOSTON,BOSTON,MA,2116,3722,SUFFOLK,25025,2009-04-21T00:00:00.000Z,ALT REF,2009-04-21T00:00:00.000Z,CHURCHES,22022036,-71.0755435,42.349911,CHRISTIAN,EPIS,NOT AVAILABLE,NOT AVAILABLE,Y,N
48602,10440925,CHURCH OF THE ADVENT,BOSTON,MA,2108,1002,SUFFOLK,25025,2009-04-21T00:00:00.000Z,ALT REF,2009-04-21T00:00:00.000Z,CHURCHES,22024511,-71.0716128,42.3577518,CHRISTIAN,EPIS,NOT AVAILABLE,NOT AVAILABLE,Y,N
48603,10585315,SOUTH BAPTIST CHURCH,SOUTH BOSTON,MA,2127,3145,SUFFOLK,25025,2009-04-27T00:00:00.000Z,ALT REF,2009-04-27T00:00:00.000Z,CHURCHES,22022748,-71.035074,42.3350163,CHRISTIAN,ABC,NOT AVAILABLE,NOT AVAILABLE,Y,N
48645,10432471,JUBILEE CHRISTIAN CHURCH INTERNATIONAL,BOSTON,MA,2126,1746,SUFFOLK,25025,2009-04-22T00:00:00.000Z,ALT REF,2009-04-22T00:00:00.000Z,CHURCHES,724631292,-71.0924849,42.2731937,CHRISTIAN,NONDENOM,NOT AVAILABLE,NOT AVAILABLE,Y,N
48683,10587369,TREMONT TEMPLE BAPTIST CHURCH,BOSTON,MA,2108,4101,SUFFOLK,25025,2009-04-20T00:00:00.000Z,ALT REF,2009-04-20T00:00:00.000Z,CHURCHES,22024183,-71.0605691,42.3574983,CHRISTIAN,ABC,NOT AVAILABLE,NOT AVAILABLE,Y,N
48710,10677898,RAMAKRISHNA VEDANTA SOCIETY,BOSTON,MA,2215,1803,SUFFOLK,25025,2009-04-20T00:00:00.000Z,ALT REF,2009-04-20T00:00:00.000Z,PLACES OF WORSHIP,22013381,-71.0980442,42.3504992,HINDU,NOT AVAILABLE,NOT AVAILABLE,NOT AVAILABLE,N,N
48711,10684244,DHAMMA CETIYA BUDDHIST VIHARA,BOSTON,MA,2132,6005,SUFFOLK,25025,2009-04-20T00:00:00.000Z,ALT REF,2009-04-20T00:00:00.000Z,PLACES OF WORSHIP,21981936,-71.1523332,42.2600642,BUDDHIST,"THERAVADA, VIPASSANA",NOT AVAILABLE,NOT AVAILABLE,N,N
48712,10443164,SAINT JOSEPH'S CATHOLIC CHURCH,BOSTON,MA,2114,2709,SUFFOLK,25025,2009-04-20T00:00:00.000Z,ALT REF,2009-04-20T00:00:00.000Z,CHURCHES,732709014,-71.0654427,42.363114,CHRISTIAN,NOT AVAILABLE,NOT AVAILABLE,NOT AVAILABLE,N,Y
48761,10761011,OLD SOUTH CHURCH IN BOSTON,BOSTON,MA,2116,2804,SUFFOLK,25025,2009-04-20T00:00:00.000Z,ALT REF,2009-04-20T00:00:00.000Z,CHURCHES,22021233,-71.0777842,42.3502579,CHRISTIAN,UCC,509,NOT AVAILABLE,Y,N
48771,10684831,BOSTON OLD PATH SANGHA,BOSTON,MA,2114,4220,SUFFOLK,25025,2009-04-20T00:00:00.000Z,ALT REF,2009-04-20T00:00:00.000Z,PLACES OF WORSHIP,31103310,-71.0635304,42.3601882,BUDDHIST,ZEN BUDDHIST MASTER THICH NHAT HAHN,NOT AVAILABLE,NOT AVAILABLE,N,N
48772,10440274,SAINT STEPHEN'S EPISCOPAL CHURCH,BOSTON,MA,2118,3822,SUFFOLK,25025,2009-04-20T00:00:00.000Z,ALT REF,2009-04-20T00:00:00.000Z,CHURCHES,22026647,-71.0739262,42.340254,CHRISTIAN,EPIS,NOT AVAILABLE,NOT AVAILABLE,Y,N
48802,10428329,CHABAD HOUSE OF GREATER BOSTON,BOSTON,MA,2215,2204,SUFFOLK,25025,2009-04-22T00:00:00.000Z,ALT REF,2009-04-22T00:00:00.000Z,SYNAGOGUES,732973631,-71.0943714,42.3493454,JUDAIC,CHABAD,NOT AVAILABLE,CHABAD,N,N