OBJECTID,ID,NAME,CITY,STATE,ZIP,ZIPP4,COUNTY,FIPS,CONTDATE,CONTHOW,GEODATE,NAICSDESCR,GEOLINKID,X,Y,SUBTYPE,DENOM,MEMBERS,LOC_TYPE,PROT,CATH
22757,10459700,MCGAVOCK CHAPEL AFRICAN METHODIST EPISCOPAL CHURCH,CHARLOTTE,TN,37036,4832,DICKSON,47043,2008-03-06T00:00:00.000Z,ALT REF,2008-03-06T00:00:00.000Z,CHURCHES,98613896,-87.3469098,36.1735326,CHRISTIAN,AME,NOT AVAILABLE,NOT AVAILABLE,Y,N
22758,10459708,MOUNT ZION AFRICAN METHODIST EPISCOPAL CHURCH,CHARLOTTE,TN,37036,NULL,DICKSON,47043,2008-03-06T00:00:00.000Z,ALT REF,2008-03-06T00:00:00.000Z,CHURCHES,98844002,-87.1774131,36.2845652,CHRISTIAN,AME,NOT AVAILABLE,NOT AVAILABLE,Y,N
27102,10587672,FIRST BAPTIST CHURCH,CHARLOTTE,MI,48813,2204,EATON,26045,2009-07-27T00:00:00.000Z,ALT REF,2009-07-27T00:00:00.000Z,CHURCHES,40174724,-84.837834,42.5488616,CHRISTIAN,ABC,NOT AVAILABLE,NOT AVAILABLE,Y,N
27139,10577031,ETZEL ROBERT NEEDMORE INDEPENDENT BAPTIST CHURCH,CHARLOTTE,MI,48813,8627,EATON,26045,2009-07-27T00:00:00.000Z,ALT REF,2009-07-27T00:00:00.000Z,CHURCHES,40173963,-84.8434762,42.6828889,CHRISTIAN,BAPT,NOT AVAILABLE,NOT AVAILABLE,Y,N
27250,10583238,CALVARY BAPTIST CHURCH,CHARLOTTE,MI,48813,1101,EATON,26045,2009-07-23T00:00:00.000Z,ALT REF,2009-07-23T00:00:00.000Z,CHURCHES,40174333,-84.8365333,42.5764523,CHRISTIAN,BAPT,NOT AVAILABLE,NOT AVAILABLE,Y,N
27263,10761028,FIRST CONGREGATIONAL CHURCH,CHARLOTTE,MI,48813,1414,EATON,26045,2009-07-28T00:00:00.000Z,ALT REF,2009-07-28T00:00:00.000Z,CHURCHES,40174490,-84.837676,42.5636554,CHRISTIAN,UCC,429,NOT AVAILABLE,Y,N
27265,10576185,CHARLOTTE CHRISTIAN REFORMED CHURCH,CHARLOTTE,MI,48813,1705,EATON,26045,2009-07-29T00:00:00.000Z,ALT REF,2009-07-29T00:00:00.000Z,CHURCHES,40175868,-84.8513504,42.5558924,CHRISTIAN,CRC,NOT AVAILABLE,NOT AVAILABLE,Y,N
32014,10575236,CLEMENT MEMORIAL AFRICAN METHODIST EPISCOPAL ZION CHURCH,CHARLOTTE,NC,28216,4661,MECKLENBURG,37119,2009-04-24T00:00:00.000Z,ALT REF,2009-04-24T00:00:00.000Z,CHURCHES,28217964,-80.8503177,35.2668412,CHRISTIAN,AMEZ,NOT AVAILABLE,NOT AVAILABLE,Y,N
32017,10427867,TEMPLE BETH EL,CHARLOTTE,NC,28226,5851,MECKLENBURG,37119,2007-08-08T00:00:00.000Z,ALT REF,2007-08-08T00:00:00.000Z,SYNAGOGUES,28237426,-80.787246,35.144566,JUDAIC,REFORM,1214,NOT AVAILABLE,N,N
32030,10436379,WILSON GROVE BAPTIST CHURCH,CHARLOTTE,NC,28227,3462,MECKLENBURG,37119,2007-09-19T00:00:00.000Z,ALT REF,2007-09-21T00:00:00.000Z,CHURCHES,28182173,-80.669734,35.2053846,CHRISTIAN,SBC,759,NOT AVAILABLE,Y,N
32041,10432570,HICKORY GROVE BAPTIST CHURCH,CHARLOTTE,NC,28215,4130,MECKLENBURG,37119,2007-09-24T00:00:00.000Z,ALT REF,2007-09-24T00:00:00.000Z,CHURCHES,28181267,-80.7252501,35.222357,CHRISTIAN,SBC,NOT AVAILABLE,NOT AVAILABLE,Y,N
32042,10432571,VICTORY CHRISTIAN CENTER,CHARLOTTE,NC,28217,4339,MECKLENBURG,37119,2007-09-11T00:00:00.000Z,ALT REF,2007-09-11T00:00:00.000Z,CHURCHES,28237607,-80.8840793,35.1420317,CHRISTIAN,NOT AVAILABLE,NOT AVAILABLE,NOT AVAILABLE,Y,N
32043,10432574,FOREST HILL CHURCH,CHARLOTTE,NC,28210,6133,MECKLENBURG,37119,2007-09-11T00:00:00.000Z,ALT REF,2007-09-11T00:00:00.000Z,CHURCHES,28238192,-80.8573806,35.1350098,CHRISTIAN,EPC,NOT AVAILABLE,NOT AVAILABLE,Y,N
32044,10432575,MECKLENBURG COMMUNITY CHURCH,CHARLOTTE,NC,28269,1164,MECKLENBURG,37119,2007-09-11T00:00:00.000Z,ALT REF,2007-09-11T00:00:00.000Z,CHURCHES,127866453,-80.7994061,35.3557909,CHRISTIAN,NOT AVAILABLE,NOT AVAILABLE,NOT AVAILABLE,Y,N
32077,10437742,MYERS PARK UNITED METHODIST CHURCH,CHARLOTTE,NC,28207,2503,MECKLENBURG,37119,2007-09-24T00:00:00.000Z,ALT REF,2007-09-24T00:00:00.000Z,CHURCHES,28232752,-80.8269892,35.1949391,CHRISTIAN,UMC,NOT AVAILABLE,NOT AVAILABLE,Y,N
32079,10437896,GOOD SHEPHERD UNITED METHODIST CHURCH,CHARLOTTE,NC,28273,6625,MECKLENBURG,37119,2007-09-24T00:00:00.000Z,ALT REF,2007-09-24T00:00:00.000Z,CHURCHES,28185899,-80.96358,35.1157473,CHRISTIAN,UMC,NOT AVAILABLE,NOT AVAILABLE,Y,N
32082,10437900,PROVIDENCE UNITED METHODIST CHURCH,CHARLOTTE,NC,28211,2243,MECKLENBURG,37119,2007-09-24T00:00:00.000Z,ALT REF,2007-09-24T00:00:00.000Z,CHURCHES,28234992,-80.8095008,35.1713554,CHRISTIAN,UMC,NOT AVAILABLE,NOT AVAILABLE,Y,N
32083,10437901,UNIVERSITY CITY UNITED METHODIST CHURCH,CHARLOTTE,NC,28269,1006,MECKLENBURG,37119,2007-09-24T00:00:00.000Z,ALT REF,2007-09-24T00:00:00.000Z,CHURCHES,28209028,-80.7974383,35.3313056,CHRISTIAN,UMC,NOT AVAILABLE,NOT AVAILABLE,Y,N
32089,10438362,FIRST PRESBYTERIAN CHURCH,CHARLOTTE,NC,28202,1623,MECKLENBURG,37119,2007-10-10T00:00:00.000Z,ALT REF,2007-10-10T00:00:00.000Z,CHURCHES,28227330,-80.8439147,35.2290777,CHRISTIAN,PCUSA,2122,NOT AVAILABLE,Y,N
32091,10446889,SAINT MATTHEW CATHOLIC CHURCH,CHARLOTTE,NC,28277,2463,MECKLENBURG,37119,2009-05-07T00:00:00.000Z,ALT REF,2009-05-07T00:00:00.000Z,CHURCHES,28191361,-80.8138237,35.056172,CHRISTIAN,NOT AVAILABLE,NOT AVAILABLE,NOT AVAILABLE,N,Y
32095,10439228,THE CHURCH OF JESUS CHRIST OF LATTER DAY SAINTS - HILLIARD (YOUNG SINGLE ADULT) BRANCH,CHARLOTTE,NC,28205,2273,MECKLENBURG,37119,2007-10-16T00:00:00.000Z,ALT REF,2007-10-16T00:00:00.000Z,CHURCHES,28226460,-80.7763818,35.2330119,CHRISTIAN,LDS,NOT AVAILABLE,NOT AVAILABLE,Y,N
32096,10439629,THE CHURCH OF JESUS CHRIST OF LATTER DAY SAINTS - MATTHEWS WARD,CHARLOTTE,NC,28227,1515,MECKLENBURG,37119,2007-10-16T00:00:00.000Z,ALT REF,2007-10-16T00:00:00.000Z,CHURCHES,17140289,-80.6683307,35.1376476,CHRISTIAN,LDS,NOT AVAILABLE,NOT AVAILABLE,Y,N
32099,10439926,THE CHURCH OF JESUS CHRIST OF LATTER DAY SAINTS - WEDDINGTON WARD,CHARLOTTE,NC,28227,1515,MECKLENBURG,37119,2007-10-16T00:00:00.000Z,ALT REF,2007-10-16T00:00:00.000Z,CHURCHES,17140289,-80.6683308,35.1376414,CHRISTIAN,LDS,NOT AVAILABLE,NOT AVAILABLE,Y,N
32101,10440135,THE CHURCH OF JESUS CHRIST OF LATTER DAY SAINTS - PINEVILLE 1ST WARD,CHARLOTTE,NC,28226,8105,MECKLENBURG,37119,2007-10-16T00:00:00.000Z,ALT REF,2007-10-16T00:00:00.000Z,CHURCHES,127866410,-80.8382908,35.0977777,CHRISTIAN,LDS,NOT AVAILABLE,NOT AVAILABLE,Y,N
32102,10440136,THE CHURCH OF JESUS CHRIST OF LATTER DAY SAINTS - PINEVILLE 2ND (SPANISH) BRANCH,CHARLOTTE,NC,28226,8105,MECKLENBURG,37119,2007-10-16T00:00:00.000Z,ALT REF,2007-10-16T00:00:00.000Z,CHURCHES,127866410,-80.8382947,35.0977774,CHRISTIAN,LDS,NOT AVAILABLE,NOT AVAILABLE,Y,N
32103,10440137,THE CHURCH OF JESUS CHRIST OF LATTER DAY SAINTS - CARMEL WARD,CHARLOTTE,NC,28226,8105,MECKLENBURG,37119,2007-10-16T00:00:00.000Z,ALT REF,2007-10-16T00:00:00.000Z,CHURCHES,127866410,-80.8382947,35.0977774,CHRISTIAN,LDS,NOT AVAILABLE,NOT AVAILABLE,Y,N
32104,10440149,THE CHURCH OF JESUS CHRIST OF LATTER DAY SAINTS - REEDY CREEK WARD,CHARLOTTE,NC,28213,5178,MECKLENBURG,37119,2007-10-16T00:00:00.000Z,ALT REF,2007-10-16T00:00:00.000Z,CHURCHES,127866146,-80.7219142,35.2754427,CHRISTIAN,LDS,NOT AVAILABLE,NOT AVAILABLE,Y,N
32105,10440150,THE CHURCH OF JESUS CHRIST OF LATTER DAY SAINTS - UNIVERSITY CITY WARD,CHARLOTTE,NC,28213,5178,MECKLENBURG,37119,2007-10-16T00:00:00.000Z,ALT REF,2007-10-16T00:00:00.000Z,CHURCHES,127866146,-80.7219023,35.2754427,CHRISTIAN,LDS,NOT AVAILABLE,NOT AVAILABLE,Y,N
32106,10440151,THE CHURCH OF JESUS CHRIST OF LATTER DAY SAINTS - CHARLOTTE (SPANISH) BRANCH,CHARLOTTE,NC,28213,5178,MECKLENBURG,37119,2007-10-16T00:00:00.000Z,ALT REF,2007-10-16T00:00:00.000Z,CHURCHES,127866146,-80.7219037,35.2754375,CHRISTIAN,LDS,NOT AVAILABLE,NOT AVAILABLE,Y,N
32107,10440282,SAINT MICHAEL AND ALL ANGELS EPISCOPAL CHURCH,CHARLOTTE,NC,28208,2039,MECKLENBURG,37119,2007-11-06T00:00:00.000Z,ALT REF,2007-11-06T00:00:00.000Z,CHURCHES,127865782,-80.8913745,35.2625406,CHRISTIAN,EPIS,NOT AVAILABLE,NOT AVAILABLE,Y,N
32108,10440283,CHAPEL OF CHRIST THE KING,CHARLOTTE,NC,28206,3407,MECKLENBURG,37119,2007-11-06T00:00:00.000Z,ALT REF,2007-11-06T00:00:00.000Z,CHURCHES,28226139,-80.8240764,35.2345844,CHRISTIAN,EPIS,NOT AVAILABLE,NOT AVAILABLE,Y,N
32110,10440419,SAINT PETER'S EPISCOPAL CHURCH,CHARLOTTE,NC,28202,2127,MECKLENBURG,37119,2007-11-06T00:00:00.000Z,ALT REF,2007-11-21T00:00:00.000Z,CHURCHES,28227034,-80.8404681,35.2298029,CHRISTIAN,EPIS,NOT AVAILABLE,NOT AVAILABLE,Y,N
32111,10441074,SAINT ANDREW'S EPISCOPAL CHURCH,CHARLOTTE,NC,28205,5637,MECKLENBURG,37119,2007-11-06T00:00:00.000Z,ALT REF,2007-11-06T00:00:00.000Z,CHURCHES,28229568,-80.7841408,35.2164309,CHRISTIAN,EPIS,NOT AVAILABLE,NOT AVAILABLE,Y,N
32199,10454613,SILVER MOUNT BAPTIST CHURCH,CHARLOTTE,NC,28217,5008,MECKLENBURG,37119,2008-02-22T00:00:00.000Z,ALT REF,2008-02-22T00:00:00.000Z,CHURCHES,28238132,-80.8982934,35.1332788,CHRISTIAN,NBC,NOT AVAILABLE,NOT AVAILABLE,Y,N
32200,10452889,UNIVERSITY MEMORIAL MISSIONARY BAPTIST CHURCH,CHARLOTTE,NC,28208,6751,MECKLENBURG,37119,2008-02-22T00:00:00.000Z,ALT REF,2008-02-22T00:00:00.000Z,CHURCHES,28230638,-80.9077169,35.2074973,CHRISTIAN,NBC,NOT AVAILABLE,NOT AVAILABLE,Y,N
32201,10453330,NEW SHILOH BAPTIST CHURCH,CHARLOTTE,NC,28208,6004,MECKLENBURG,37119,2008-02-22T00:00:00.000Z,ALT REF,2008-02-22T00:00:00.000Z,CHURCHES,28249074,-80.9040653,35.2132477,CHRISTIAN,NBC,NOT AVAILABLE,NOT AVAILABLE,Y,N
32202,10452910,MACEDONIA BAPTIST CHURCH,CHARLOTTE,NC,28216,4705,MECKLENBURG,37119,2008-02-22T00:00:00.000Z,ALT REF,2008-02-22T00:00:00.000Z,CHURCHES,28219824,-80.8432953,35.2597403,CHRISTIAN,NBC,NOT AVAILABLE,NOT AVAILABLE,Y,N
32203,10460870,CHRIST CENTRAL CHURCH,CHARLOTTE,NC,28205,1103,MECKLENBURG,37119,2008-02-21T00:00:00.000Z,ALT REF,2008-02-21T00:00:00.000Z,CHURCHES,28223387,-80.8040534,35.2476275,CHRISTIAN,PCA,NOT AVAILABLE,NOT AVAILABLE,Y,N
32204,10454034,PLEASANT HILL BAPTIST CHURCH,CHARLOTTE,NC,28204,3115,MECKLENBURG,37119,2008-02-22T00:00:00.000Z,ALT REF,2008-02-22T00:00:00.000Z,CHURCHES,28230543,-80.8327098,35.2089989,CHRISTIAN,NBC,NOT AVAILABLE,NOT AVAILABLE,Y,N
32205,10460939,UPTOWN CHRIST COVENANT CHURCH,CHARLOTTE,NC,28204,2204,MECKLENBURG,37119,2008-02-21T00:00:00.000Z,ALT REF,2008-02-21T00:00:00.000Z,CHURCHES,135924384,-80.8342809,35.2195032,CHRISTIAN,PCA,NOT AVAILABLE,NOT AVAILABLE,Y,N
32206,10457074,GREATER BETHEL AFRICAN METHODIST EPISCOPAL CHURCH,CHARLOTTE,NC,28208,4408,MECKLENBURG,37119,2008-02-20T00:00:00.000Z,ALT REF,2008-02-20T00:00:00.000Z,CHURCHES,28225877,-80.8600037,35.2355592,CHRISTIAN,AME,NOT AVAILABLE,NOT AVAILABLE,Y,N
32207,10453480,RED BRANCH MISSIONARY BAPTIST CHURCH,CHARLOTTE,NC,28227,6864,MECKLENBURG,37119,2008-02-22T00:00:00.000Z,ALT REF,2008-02-22T00:00:00.000Z,CHURCHES,28181928,-80.6340933,35.2145859,CHRISTIAN,NBC,NOT AVAILABLE,NOT AVAILABLE,Y,N
32208,10452632,UNIVERSITY PARK BAPTIST CHURCH,CHARLOTTE,NC,28216,2205,MECKLENBURG,37119,2008-03-20T00:00:00.000Z,ALT REF,2008-02-20T00:00:00.000Z,CHURCHES,28210548,-80.8656451,35.3171737,CHRISTIAN,NBC,NOT AVAILABLE,NOT AVAILABLE,Y,N
32209,10456981,ADAMS METROPOLITAN AFRICAN METHODIST EPISCOPAL CHURCH,CHARLOTTE,NC,28217,2030,MECKLENBURG,37119,2008-02-20T00:00:00.000Z,ALT REF,2008-02-20T00:00:00.000Z,CHURCHES,28234861,-80.8914606,35.1714924,CHRISTIAN,AME,NOT AVAILABLE,NOT AVAILABLE,Y,N
32219,10460114,KOREAN PRESBYTERIAN CHURCH OF CHARLOTTE,CHARLOTTE,NC,28209,4744,MECKLENBURG,37119,2008-02-20T00:00:00.000Z,ALT REF,2008-02-20T00:00:00.000Z,CHURCHES,28233944,-80.864557,35.1816692,CHRISTIAN,PCA,NOT AVAILABLE,NOT AVAILABLE,Y,N
32225,10452397,NEW HOPE MISSIONARY BAPTIST CHURCH,CHARLOTTE,NC,28205,2921,MECKLENBURG,37119,2008-02-20T00:00:00.000Z,ALT REF,2008-02-20T00:00:00.000Z,CHURCHES,125484473,-80.8146715,35.2263116,CHRISTIAN,NBC,NOT AVAILABLE,NOT AVAILABLE,Y,N
32268,10442434,SAINT GABRIEL CATHOLIC CHURCH,CHARLOTTE,NC,28211,2741,MECKLENBURG,37119,2007-09-05T00:00:00.000Z,ALT REF,2007-09-05T00:00:00.000Z,CHURCHES,28235146,-80.8073277,35.1700352,CHRISTIAN,NOT AVAILABLE,NOT AVAILABLE,NOT AVAILABLE,N,Y
32281,10433295,CHRIST LUTHERAN CHURCH,CHARLOTTE,NC,28226,5111,MECKLENBURG,37119,2007-09-17T00:00:00.000Z,ALT REF,2007-09-17T00:00:00.000Z,CHURCHES,28236732,-80.7931782,35.152141,CHRISTIAN,ELCA,NOT AVAILABLE,NOT AVAILABLE,Y,N
32284,10441075,ALL SAINTS EPISCOPAL CHURCH,CHARLOTTE,NC,28215,2513,MECKLENBURG,37119,2007-11-06T00:00:00.000Z,ALT REF,2007-11-06T00:00:00.000Z,CHURCHES,28222187,-80.7450631,35.2523353,CHRISTIAN,EPIS,NOT AVAILABLE,NOT AVAILABLE,Y,N
32298,10761763,SUGAR CREEK CHURCH OF CHRIST,CHARLOTTE,NC,28206,1739,MECKLENBURG,37119,2009-05-12T00:00:00.000Z,ALT REF,2009-05-12T00:00:00.000Z,CHURCHES,28218730,-80.7984319,35.2646794,CHRISTIAN,COC,400,NOT AVAILABLE,Y,N
32329,11528088,SAINT BASIL THE GREAT UKRAINIAN CATHOLIC MISSION,CHARLOTTE,NC,28226,3934,MECKLENBURG,37119,2009-04-27T00:00:00.000Z,ALT REF,2009-05-05T00:00:00.000Z,CHURCHES,28188595,-80.8503129,35.0883233,CHRISTIAN,NOT AVAILABLE,NOT AVAILABLE,NOT AVAILABLE,N,Y
32351,10575214,STEELE CREEK AFRICAN METHODIST EPISCOPAL ZION CHURCH,CHARLOTTE,NC,28217,3127,MECKLENBURG,37119,2009-05-12T00:00:00.000Z,ALT REF,2009-05-12T00:00:00.000Z,CHURCHES,711617643,-80.9163731,35.1640148,CHRISTIAN,AMEZ,NOT AVAILABLE,NOT AVAILABLE,Y,N
32354,10460933,STONEBRIDGE CHURCH COMMUNITY,CHARLOTTE,NC,28269,8391,MECKLENBURG,37119,2009-05-12T00:00:00.000Z,ALT REF,2009-05-12T00:00:00.000Z,CHURCHES,127866476,-80.7735799,35.3486472,CHRISTIAN,PCA,NOT AVAILABLE,NOT AVAILABLE,Y,N
32355,10575215,WALLS MEMORIAL AFRICAN METHODIST EPISCOPAL ZION CHURCH,CHARLOTTE,NC,28206,3540,MECKLENBURG,37119,2009-05-19T00:00:00.000Z,ALT REF,2009-05-19T00:00:00.000Z,CHURCHES,28221284,-80.8223778,35.2547275,CHRISTIAN,AMEZ,NOT AVAILABLE,NOT AVAILABLE,Y,N
32357,10582715,THE HAVEN OF REST BAPTIST CHURCH,CHARLOTTE,NC,28208,1124,MECKLENBURG,37119,2009-05-19T00:00:00.000Z,ALT REF,2009-05-19T00:00:00.000Z,CHURCHES,28216167,-80.9102734,35.2762222,CHRISTIAN,BAPT,NOT AVAILABLE,NOT AVAILABLE,Y,N
32363,10587818,MOUNT CARMEL BAPTIST CHURCH,CHARLOTTE,NC,28214,2616,MECKLENBURG,37119,2009-05-19T00:00:00.000Z,ALT REF,2009-05-19T00:00:00.000Z,CHURCHES,127866994,-80.9492068,35.2441311,CHRISTIAN,ABC,NOT AVAILABLE,NOT AVAILABLE,Y,N
32374,10575237,GREENVILLE MEMORIAL AFRICAN METHODIST EPISCOPAL ZION CHURCH,CHARLOTTE,NC,28213,6229,MECKLENBURG,37119,2009-04-24T00:00:00.000Z,ALT REF,2009-04-24T00:00:00.000Z,CHURCHES,28217906,-80.7733437,35.2696224,CHRISTIAN,AMEZ,NOT AVAILABLE,NOT AVAILABLE,Y,N
32389,10441070,SAINT MARTINS EPISCOPAL CHURCH,CHARLOTTE,NC,28204,2410,MECKLENBURG,37119,2009-05-07T00:00:00.000Z,ALT REF,2009-05-07T00:00:00.000Z,CHURCHES,28229348,-80.8238702,35.2167458,CHRISTIAN,EPIS,NOT AVAILABLE,NOT AVAILABLE,Y,N
32393,10575245,ROCKWELL AFRICAN METHODIST EPISCOPAL ZION CHURCH,CHARLOTTE,NC,28269,9023,MECKLENBURG,37119,2009-04-24T00:00:00.000Z,ALT REF,2009-04-24T00:00:00.000Z,CHURCHES,116007436,-80.8028788,35.3038913,CHRISTIAN,AMEZ,NOT AVAILABLE,NOT AVAILABLE,Y,N
32396,10587812,GARDEN OF PRAYER BAPTIST CHURCH,CHARLOTTE,NC,28217,2570,MECKLENBURG,37119,2009-04-30T00:00:00.000Z,ALT REF,2009-04-30T00:00:00.000Z,CHURCHES,135926355,-80.8901103,35.1783722,CHRISTIAN,ABC,NOT AVAILABLE,NOT AVAILABLE,Y,N
32397,10575202,CATHEY MEMORIAL AFRICAN METHODIST EPISCOPAL ZION CHURCH,CHARLOTTE,NC,28203,5514,MECKLENBURG,37119,2009-04-27T00:00:00.000Z,ALT REF,2009-04-27T00:00:00.000Z,CHURCHES,28230994,-80.8748202,35.2062297,CHRISTIAN,AMEZ,NOT AVAILABLE,NOT AVAILABLE,Y,N
32404,10446891,SAINT VINCENT DE PAUL CATHOLIC CHURCH,CHARLOTTE,NC,28210,4625,MECKLENBURG,37119,2009-05-07T00:00:00.000Z,ALT REF,2009-05-07T00:00:00.000Z,CHURCHES,28237489,-80.852271,35.1413851,CHRISTIAN,NOT AVAILABLE,NOT AVAILABLE,NOT AVAILABLE,N,Y
32405,10432572,GREATER SALEM CITY OF GOD,CHARLOTTE,NC,28216,3310,MECKLENBURG,37119,2009-04-30T00:00:00.000Z,ALT REF,2009-04-30T00:00:00.000Z,CHURCHES,28216165,-80.8942685,35.2773258,CHRISTIAN,BAPT,NOT AVAILABLE,NOT AVAILABLE,Y,N
32406,10677483,GURDWARA SAHIB CHARLOTTE,CHARLOTTE,NC,28262,3181,MECKLENBURG,37119,2009-04-30T00:00:00.000Z,ALT REF,2009-04-30T00:00:00.000Z,"TEMPLES, RELIGIOUS",116009338,-80.7846271,35.2975095,OTHER,NOT AVAILABLE,NOT AVAILABLE,NOT AVAILABLE,N,N
32418,10575243,MOWING GLADE AFRICAN METHODIST EPISCOPAL ZION CHURCH,CHARLOTTE,NC,28227,2617,MECKLENBURG,37119,2009-04-24T00:00:00.000Z,ALT REF,2009-04-24T00:00:00.000Z,CHURCHES,125501113,-80.6922966,35.2138877,CHRISTIAN,AMEZ,NOT AVAILABLE,NOT AVAILABLE,Y,N
32424,10575241,LITTLE ROCK AFRICAN METHODIST EPISCOPAL ZION CHURCH,CHARLOTTE,NC,28204,2030,MECKLENBURG,37119,2009-04-24T00:00:00.000Z,ALT REF,2009-04-24T00:00:00.000Z,CHURCHES,135924424,-80.8316036,35.2233962,CHRISTIAN,AMEZ,NOT AVAILABLE,NOT AVAILABLE,Y,N
32425,10587832,TEMPLE CHAPEL BAPTIST CHURCH,CHARLOTTE,NC,28208,3446,MECKLENBURG,37119,2009-05-12T00:00:00.000Z,ALT REF,2009-05-12T00:00:00.000Z,CHURCHES,28223384,-80.8739324,35.2471022,CHRISTIAN,ABC,NOT AVAILABLE,NOT AVAILABLE,Y,N
32428,10587831,SAINT LUKE MISSIONARY BAPTIST CHURCH,CHARLOTTE,NC,28206,2157,MECKLENBURG,37119,2009-05-07T00:00:00.000Z,ALT REF,2009-05-07T00:00:00.000Z,CHURCHES,28241809,-80.8351717,35.2578935,CHRISTIAN,ABC,NOT AVAILABLE,NOT AVAILABLE,Y,N
32429,10446890,SAINT THOMAS AQUINAS ROMAN CATHOLIC CHURCH,CHARLOTTE,NC,28213,551,MECKLENBURG,37119,2009-05-07T00:00:00.000Z,ALT REF,2009-05-07T00:00:00.000Z,CHURCHES,28212582,-80.7279859,35.3000663,CHRISTIAN,NOT AVAILABLE,NOT AVAILABLE,NOT AVAILABLE,N,Y
32436,10459913,FREEDOM PRESBYTERIAN CHURCH,CHARLOTTE,NC,28214,2435,MECKLENBURG,37119,2009-04-30T00:00:00.000Z,ALT REF,2009-04-30T00:00:00.000Z,CHURCHES,28219454,-80.9226545,35.2632395,CHRISTIAN,PCA,NOT AVAILABLE,NOT AVAILABLE,Y,N
32439,10434227,FIRST BAPTIST CHURCH OF CHARLOTTE,CHARLOTTE,NC,28202,2821,MECKLENBURG,37119,2009-04-24T00:00:00.000Z,ALT REF,2009-04-24T00:00:00.000Z,CHURCHES,28228707,-80.8401987,35.220668,CHRISTIAN,SBC,3131,NOT AVAILABLE,Y,N
32441,11528087,SAINT JOHN LEE KOREAN CATHOLIC CHURCH,CHARLOTTE,NC,28215,9412,MECKLENBURG,37119,2009-04-27T00:00:00.000Z,ALT REF,2009-04-27T00:00:00.000Z,CHURCHES,28181085,-80.7145423,35.2294741,CHRISTIAN,NOT AVAILABLE,NOT AVAILABLE,NOT AVAILABLE,N,Y
32444,10575242,MYERS TABERNACLE AFRICAN METHODIST EPISCOPAL ZION CHURCH,CHARLOTTE,NC,28204,3019,MECKLENBURG,37119,2009-04-24T00:00:00.000Z,ALT REF,2009-04-24T00:00:00.000Z,CHURCHES,28230329,-80.833783,35.2106005,CHRISTIAN,AMEZ,NOT AVAILABLE,NOT AVAILABLE,Y,N
32445,10585141,FIRST MOUNT ZION BAPTIST CHURCH,CHARLOTTE,NC,28208,7059,MECKLENBURG,37119,2009-04-27T00:00:00.000Z,ALT REF,2009-04-27T00:00:00.000Z,CHURCHES,28229439,-80.883823,35.2150609,CHRISTIAN,ABC,NOT AVAILABLE,NOT AVAILABLE,Y,N
32446,10575205,GETHSEMANE AFRICAN METHODIST EPISCOPAL ZION CHURCH,CHARLOTTE,NC,28216,5307,MECKLENBURG,37119,2009-04-30T00:00:00.000Z,ALT REF,2009-04-30T00:00:00.000Z,CHURCHES,28223233,-80.858319,35.248141,CHRISTIAN,AMEZ,NOT AVAILABLE,NOT AVAILABLE,Y,N
32457,10428364,LUBAVITCH EDUCATION CENTER NORTH CAROLINA,CHARLOTTE,NC,28270,6049,MECKLENBURG,37119,2007-08-08T00:00:00.000Z,ALT REF,2007-08-08T00:00:00.000Z,SYNAGOGUES,28236926,-80.7726047,35.1505702,JUDAIC,CHABAD,NOT AVAILABLE,CHABAD,N,N
32465,10431656,ISLAMIC SOCIETY OF GREATER CHARLOTTE,CHARLOTTE,NC,28215,903,MECKLENBURG,37119,2007-10-05T00:00:00.000Z,ALT REF,2007-10-05T00:00:00.000Z,"MOSQUES, RELIGIOUS",28221415,-80.739574,35.2565633,MUSLIM,NOT AVAILABLE,NOT AVAILABLE,NOT AVAILABLE,N,N
32472,10431655,ISLAMIC SOCIETY OF CHARLOTTE,CHARLOTTE,NC,28226,3000,MECKLENBURG,37119,2007-10-05T00:00:00.000Z,ALT REF,2007-10-08T00:00:00.000Z,"MOSQUES, RELIGIOUS",28187709,-80.7872129,35.0986643,MUSLIM,NOT AVAILABLE,NOT AVAILABLE,NOT AVAILABLE,N,N
32475,10430987,ISLAMIC CENTER OF CHARLOTTE,CHARLOTTE,NC,28205,5710,MECKLENBURG,37119,2007-10-05T00:00:00.000Z,ALT REF,2007-10-05T00:00:00.000Z,"MOSQUES, RELIGIOUS",28230805,-80.769016,35.2086361,MUSLIM,NOT AVAILABLE,NOT AVAILABLE,NOT AVAILABLE,N,N
32512,10575216,WEEPING WILLOW AFRICAN METHODIST EPISCOPAL ZION CHURCH,CHARLOTTE,NC,28215,3321,MECKLENBURG,37119,2009-04-24T00:00:00.000Z,ALT REF,2009-04-24T00:00:00.000Z,CHURCHES,28225062,-80.7504384,35.2413165,CHRISTIAN,AMEZ,NOT AVAILABLE,NOT AVAILABLE,Y,N
32518,10582720,BIBLE WAY BAPTIST CHURCH,CHARLOTTE,NC,28269,4238,MECKLENBURG,37119,2009-04-27T00:00:00.000Z,ALT REF,2009-04-27T00:00:00.000Z,CHURCHES,28215562,-80.8361465,35.2779529,CHRISTIAN,BAPT,NOT AVAILABLE,NOT AVAILABLE,Y,N
32520,10582718,DEVONSHIRE BAPTIST CHURCH,CHARLOTTE,NC,28215,2747,MECKLENBURG,37119,2009-04-27T00:00:00.000Z,ALT REF,2009-04-27T00:00:00.000Z,CHURCHES,28180649,-80.7428065,35.2441919,CHRISTIAN,BAPT,NOT AVAILABLE,NOT AVAILABLE,Y,N
32522,10582717,GATEWAY BAPTIST CHURCH,CHARLOTTE,NC,28215,4033,MECKLENBURG,37119,2009-04-30T00:00:00.000Z,ALT REF,2009-04-30T00:00:00.000Z,CHURCHES,28180999,-80.7263909,35.2316793,CHRISTIAN,BAPT,NOT AVAILABLE,NOT AVAILABLE,Y,N
32801,10432573,FRIENDSHIP MISSIONARY BAPTIST CHURCH,CHARLOTTE,NC,28216,3740,MECKLENBURG,37119,2009-04-30T00:00:00.000Z,ALT REF,2009-04-30T00:00:00.000Z,CHURCHES,28215439,-80.8553831,35.2802687,CHRISTIAN,NBC-ABC,NOT AVAILABLE,NOT AVAILABLE,Y,N
32803,10433335,GREATER PROVIDENCE BAPTIST CHURCH,CHARLOTTE,NC,28215,3317,MECKLENBURG,37119,2009-04-30T00:00:00.000Z,ALT REF,2009-04-30T00:00:00.000Z,CHURCHES,127865525,-80.7529124,35.2449098,CHRISTIAN,SBC,817,NOT AVAILABLE,Y,N
32804,10441073,CHURCH OF THE BELOVED,CHARLOTTE,NC,28277,1829,MECKLENBURG,37119,2009-04-27T00:00:00.000Z,ALT REF,2009-04-27T00:00:00.000Z,CHURCHES,118971833,-80.8239498,35.0360594,CHRISTIAN,EPIS,NOT AVAILABLE,NOT AVAILABLE,Y,N
32805,10430982,MASJID ASH-SHAHEED,CHARLOTTE,NC,28213,6630,MECKLENBURG,37119,2009-04-27T00:00:00.000Z,ALT REF,2009-04-27T00:00:00.000Z,"MOSQUES, RELIGIOUS",28218942,-80.7936291,35.2640981,MUSLIM,NOT AVAILABLE,NOT AVAILABLE,NOT AVAILABLE,N,N
32806,10448620,SAINT JOSEPH VIETNAMESE CATHOLIC CHURCH,CHARLOTTE,NC,28273,3225,MECKLENBURG,37119,2009-04-27T00:00:00.000Z,ALT REF,2009-04-27T00:00:00.000Z,CHURCHES,125487826,-80.9555346,35.166727,CHRISTIAN,NOT AVAILABLE,NOT AVAILABLE,NOT AVAILABLE,N,Y
32823,10579127,FAITH BAPTIST CHURCH,CHARLOTTE,NC,28227,4239,MECKLENBURG,37119,2009-04-27T00:00:00.000Z,ALT REF,2009-04-27T00:00:00.000Z,CHURCHES,127867267,-80.6799032,35.1957121,CHRISTIAN,BAPT,NOT AVAILABLE,NOT AVAILABLE,Y,N
32824,10436566,CALVARY BAPTIST CHURCH,CHARLOTTE,NC,28208,4602,MECKLENBURG,37119,2009-04-27T00:00:00.000Z,ALT REF,2009-04-27T00:00:00.000Z,CHURCHES,28226100,-80.8962175,35.2334205,CHRISTIAN,SBC,1126,NOT AVAILABLE,Y,N
32825,10760041,CHRIST THE KING CHURCH,CHARLOTTE,NC,28278,7628,MECKLENBURG,37119,2009-04-27T00:00:00.000Z,ALT REF,2009-04-27T00:00:00.000Z,CHURCHES,708462922,-80.9966078,35.0976579,CHRISTIAN,ELCA,NOT AVAILABLE,NOT AVAILABLE,Y,N
32826,10435926,ARLINGTON BAPTIST CHURCH,CHARLOTTE,NC,28227,8003,MECKLENBURG,37119,2009-04-27T00:00:00.000Z,ALT REF,2009-04-27T00:00:00.000Z,CHURCHES,28182081,-80.6116502,35.2074117,CHRISTIAN,SBC,842,NOT AVAILABLE,Y,N
32828,10575204,EAST STONEWALL AFRICAN METHODIST EPISCOPAL ZION CHURCH,CHARLOTTE,NC,28216,3208,MECKLENBURG,37119,2009-04-27T00:00:00.000Z,ALT REF,2009-04-27T00:00:00.000Z,CHURCHES,28214626,-80.8617281,35.2836617,CHRISTIAN,AMEZ,NOT AVAILABLE,NOT AVAILABLE,Y,N
32829,10454155,FIRST MOUNT CALVARY BAPTIST CHURCH,CHARLOTTE,NC,28206,2654,MECKLENBURG,37119,2009-04-27T00:00:00.000Z,ALT REF,2009-04-27T00:00:00.000Z,CHURCHES,28223108,-80.8199289,35.2482003,CHRISTIAN,NBC,NOT AVAILABLE,NOT AVAILABLE,Y,N
32831,10587809,FIRST BAPTIST CHURCH - WEST,CHARLOTTE,NC,28216,5120,MECKLENBURG,37119,2009-04-27T00:00:00.000Z,ALT REF,2009-04-27T00:00:00.000Z,CHURCHES,28222162,-80.8515232,35.2503992,CHRISTIAN,ABC,NOT AVAILABLE,NOT AVAILABLE,Y,N
32833,10575201,BIG PINEVILLE AFRICAN METHODIST EPISCOPAL ZION CHURCH,CHARLOTTE,NC,28277,1516,MECKLENBURG,37119,2009-04-24T00:00:00.000Z,ALT REF,2009-04-24T00:00:00.000Z,CHURCHES,112092241,-80.8405273,35.0406114,CHRISTIAN,AMEZ,NOT AVAILABLE,NOT AVAILABLE,Y,N
32834,10574574,CLINTON CHAPEL AFRICAN METHODIST EPISCOPAL ZION CHURCH,CHARLOTTE,NC,28208,4230,MECKLENBURG,37119,2009-04-27T00:00:00.000Z,ALT REF,2009-04-27T00:00:00.000Z,CHURCHES,135924079,-80.8603852,35.2420381,CHRISTIAN,AMEZ,NOT AVAILABLE,NOT AVAILABLE,Y,N
32837,10575484,RAMOTH AFRICAN METHODIST EPISCOPAL ZION CHURCH,CHARLOTTE,NC,28278,9531,MECKLENBURG,37119,2009-04-24T00:00:00.000Z,ALT REF,2009-04-24T00:00:00.000Z,CHURCHES,28234406,-80.9908912,35.1756454,CHRISTIAN,AMEZ,NOT AVAILABLE,NOT AVAILABLE,Y,N
32846,10432578,CALVARY CHURCH,CHARLOTTE,NC,28226,3432,MECKLENBURG,37119,2009-04-27T00:00:00.000Z,ALT REF,2009-04-27T00:00:00.000Z,CHURCHES,28188836,-80.8145517,35.0850846,CHRISTIAN,NONDENOM,NOT AVAILABLE,NOT AVAILABLE,Y,N
32847,10448379,THE CATHEDRAL CHURCH OF SAINT PATRICK,CHARLOTTE,NC,28203,5209,MECKLENBURG,37119,2009-04-27T00:00:00.000Z,ALT REF,2009-04-27T00:00:00.000Z,CHURCHES,28231114,-80.845582,35.2054894,CHRISTIAN,NOT AVAILABLE,NOT AVAILABLE,NOT AVAILABLE,N,Y
32858,10452931,EBENEZER BAPTIST CHURCH,CHARLOTTE,NC,28262,4954,MECKLENBURG,37119,2009-04-27T00:00:00.000Z,ALT REF,2009-04-27T00:00:00.000Z,CHURCHES,127867160,-80.7953428,35.2907966,CHRISTIAN,NBC,NOT AVAILABLE,NOT AVAILABLE,Y,N
32859,10432576,CENTRAL CHURCH OF GOD,CHARLOTTE,NC,28270,5205,MECKLENBURG,37119,2009-04-27T00:00:00.000Z,ALT REF,2009-04-27T00:00:00.000Z,CHURCHES,28236051,-80.7892336,35.159894,CHRISTIAN,COG,NOT AVAILABLE,NOT AVAILABLE,Y,N
32860,10436233,DURHAM MEMORIAL BAPTIST CHURCH,CHARLOTTE,NC,28214,2434,MECKLENBURG,37119,2009-04-27T00:00:00.000Z,ALT REF,2009-04-27T00:00:00.000Z,CHURCHES,28219454,-80.9204687,35.2623527,CHRISTIAN,SBC,969,NOT AVAILABLE,Y,N
32861,10434065,CORNERSTONE BAPTIST CHURCH,CHARLOTTE,NC,28227,2617,MECKLENBURG,37119,2009-04-24T00:00:00.000Z,ALT REF,2009-04-24T00:00:00.000Z,CHURCHES,125501113,-80.6926787,35.2122614,CHRISTIAN,SBC,848,NOT AVAILABLE,Y,N
32889,10430988,MASJID ALI SHAH,CHARLOTTE,NC,28216,5036,MECKLENBURG,37119,2009-05-01T00:00:00.000Z,ALT REF,2009-05-01T00:00:00.000Z,"MOSQUES, RELIGIOUS",28221243,-80.8555924,35.2548433,MUSLIM,NOT AVAILABLE,NOT AVAILABLE,NOT AVAILABLE,N,N
32892,10587821,MYERS PARK BAPTIST CHURCH,CHARLOTTE,NC,28207,2582,MECKLENBURG,37119,2009-05-01T00:00:00.000Z,ALT REF,2009-05-01T00:00:00.000Z,CHURCHES,28233327,-80.8307293,35.1883125,CHRISTIAN,ABC,NOT AVAILABLE,NOT AVAILABLE,Y,N
32894,10575489,MIDDLE STREET AFRICAN METHODIST EPISCOPAL ZION CHURCH,CHARLOTTE,NC,28209,1914,MECKLENBURG,37119,2009-05-01T00:00:00.000Z,ALT REF,2009-05-01T00:00:00.000Z,CHURCHES,28232330,-80.8688024,35.1964728,CHRISTIAN,AMEZ,NOT AVAILABLE,NOT AVAILABLE,Y,N
32895,10684609,VAJRADHARA BUDDHIST CENTER,CHARLOTTE,NC,28207,2449,MECKLENBURG,37119,2009-05-01T00:00:00.000Z,ALT REF,2009-05-01T00:00:00.000Z,PLACES OF WORSHIP,127868875,-80.8310154,35.1877333,BUDDHIST,"TIBETAN, NEW KADAMPA TRADITION",NOT AVAILABLE,NOT AVAILABLE,N,N
32896,10677825,HINDU CENTER OF CHARLOTTE,CHARLOTTE,NC,28212,6403,MECKLENBURG,37119,2009-05-01T00:00:00.000Z,ALT REF,2009-05-01T00:00:00.000Z,PLACES OF WORSHIP,28183202,-80.7397726,35.1802256,HINDU,NOT AVAILABLE,NOT AVAILABLE,NOT AVAILABLE,N,N
32897,10579548,HARBOR BAPTIST CHURCH,CHARLOTTE,NC,28213,7111,MECKLENBURG,37119,2009-05-01T00:00:00.000Z,ALT REF,2009-05-01T00:00:00.000Z,CHURCHES,28219290,-80.7686645,35.2634042,CHRISTIAN,BAPT,NOT AVAILABLE,NOT AVAILABLE,Y,N
32904,10582716,LIBERTY BAPTIST CHURCH,CHARLOTTE,NC,28214,9584,MECKLENBURG,37119,2009-05-01T00:00:00.000Z,ALT REF,2009-05-01T00:00:00.000Z,CHURCHES,125491625,-80.9838192,35.2523548,CHRISTIAN,BAPT,NOT AVAILABLE,NOT AVAILABLE,Y,N
32905,10575211,MOORES SANCTUARY AFRICAN METHODIST EPISCOPAL ZION CHURCH,CHARLOTTE,NC,28208,5828,MECKLENBURG,37119,2009-05-01T00:00:00.000Z,ALT REF,2009-05-01T00:00:00.000Z,CHURCHES,125481372,-80.9113238,35.2223519,CHRISTIAN,AMEZ,NOT AVAILABLE,NOT AVAILABLE,Y,N
32906,10579744,INDEPENDENT BIBLE BAPTIST CHURCH,CHARLOTTE,NC,28277,2017,MECKLENBURG,37119,2009-05-01T00:00:00.000Z,ALT REF,2009-05-01T00:00:00.000Z,CHURCHES,112092258,-80.8488398,35.0180045,CHRISTIAN,BAPT,NOT AVAILABLE,NOT AVAILABLE,Y,N
32912,10460921,PROSPERITY PRESBYTERIAN CHURCH,CHARLOTTE,NC,28269,1104,MECKLENBURG,37119,2009-05-01T00:00:00.000Z,ALT REF,2009-05-01T00:00:00.000Z,CHURCHES,127866494,-80.7879592,35.3709496,CHRISTIAN,PCA,NOT AVAILABLE,NOT AVAILABLE,Y,N
32915,10433331,MULBERRY BAPTIST CHURCH,CHARLOTTE,NC,28214,2823,MECKLENBURG,37119,2009-05-04T00:00:00.000Z,ALT REF,2009-05-04T00:00:00.000Z,CHURCHES,28223504,-80.9337255,35.245198,CHRISTIAN,SBC,1701,NOT AVAILABLE,Y,N
32916,10446885,OUR LADY OF CONSOLATION CATHOLIC CHURCH,CHARLOTTE,NC,28206,2408,MECKLENBURG,37119,2009-05-04T00:00:00.000Z,ALT REF,2009-05-04T00:00:00.000Z,CHURCHES,28221790,-80.8363311,35.2524162,CHRISTIAN,NOT AVAILABLE,NOT AVAILABLE,NOT AVAILABLE,N,Y
32930,10432577,MYERS PARK PRESBYTERIAN CHURCH,CHARLOTTE,NC,28207,2527,MECKLENBURG,37119,2009-05-04T00:00:00.000Z,ALT REF,2009-05-04T00:00:00.000Z,CHURCHES,28232769,-80.8265075,35.1935546,CHRISTIAN,PCUSA,NOT AVAILABLE,NOT AVAILABLE,Y,N
32934,10460885,COVENANT PRESBYTERIAN CHURCH,CHARLOTTE,NC,28204,2813,MECKLENBURG,37119,2009-05-04T00:00:00.000Z,ALT REF,2009-05-04T00:00:00.000Z,CHURCHES,28230253,-80.8435634,35.2119949,CHRISTIAN,PCA,NOT AVAILABLE,NOT AVAILABLE,Y,N
32935,10436690,NATIONS FORD COMMUNITY CHURCH,CHARLOTTE,NC,28217,2613,MECKLENBURG,37119,2009-05-04T00:00:00.000Z,ALT REF,2009-05-04T00:00:00.000Z,CHURCHES,118980120,-80.8907734,35.1672264,CHRISTIAN,SBC,1850,NOT AVAILABLE,Y,N
32936,10433654,NEW HOPE BAPTIST CHURCH,CHARLOTTE,NC,28212,5845,MECKLENBURG,37119,2009-05-04T00:00:00.000Z,ALT REF,2009-05-04T00:00:00.000Z,CHURCHES,28182945,-80.7308244,35.1866503,CHRISTIAN,SBC,830,NOT AVAILABLE,Y,N
32939,10432569,NORTHSIDE BAPTIST CHURCH,CHARLOTTE,NC,28262,4904,MECKLENBURG,37119,2009-05-04T00:00:00.000Z,ALT REF,2009-05-04T00:00:00.000Z,CHURCHES,28214649,-80.7835848,35.2846043,CHRISTIAN,SBC,NOT AVAILABLE,NOT AVAILABLE,Y,N
32945,10434993,PROVIDENCE BAPTIST CHURCH,CHARLOTTE,NC,28211,4002,MECKLENBURG,37119,2009-05-05T00:00:00.000Z,ALT REF,2009-05-05T00:00:00.000Z,CHURCHES,28235198,-80.7947429,35.169503,CHRISTIAN,SBC,2010,NOT AVAILABLE,Y,N
32946,10575483,OZION AFRICAN METHODIST EPISCOPAL ZION CHURCH,CHARLOTTE,NC,28278,NULL,MECKLENBURG,37119,2009-05-04T00:00:00.000Z,ALT REF,2009-05-04T00:00:00.000Z,CHURCHES,28188726,-81.0037515,35.0834423,CHRISTIAN,AMEZ,NOT AVAILABLE,NOT AVAILABLE,Y,N
32947,10443064,OUR LADY OF THE ASSUMPTION CATHOLIC CHURCH,CHARLOTTE,NC,28215,3854,MECKLENBURG,37119,2009-05-05T00:00:00.000Z,ALT REF,2009-05-05T00:00:00.000Z,CHURCHES,28227213,-80.7532602,35.2313656,CHRISTIAN,NOT AVAILABLE,NOT AVAILABLE,NOT AVAILABLE,N,Y
32948,10577971,RIDGEVIEW BAPTIST CHURCH,CHARLOTTE,NC,28214,2627,MECKLENBURG,37119,2009-05-05T00:00:00.000Z,ALT REF,2009-05-05T00:00:00.000Z,CHURCHES,125485804,-80.9570167,35.2466232,CHRISTIAN,BAPT,NOT AVAILABLE,NOT AVAILABLE,Y,N
32949,10434278,PRITCHARD MEMORIAL BAPTIST CHURCH,CHARLOTTE,NC,28203,4205,MECKLENBURG,37119,2009-05-05T00:00:00.000Z,ALT REF,2009-05-05T00:00:00.000Z,CHURCHES,28241653,-80.8507079,35.2167028,CHRISTIAN,SBC,2035,NOT AVAILABLE,Y,N
32956,10762311,SARDIS PRESBYTERIAN CHURCH,CHARLOTTE,NC,28270,5373,MECKLENBURG,37119,2009-05-05T00:00:00.000Z,ALT REF,2009-05-05T00:00:00.000Z,CHURCHES,736214517,-80.7771625,35.157595,CHRISTIAN,PCUSA,2343,NOT AVAILABLE,Y,N
32958,10448715,OUR LADY OF GUADALUPE ROMAN CATHOLIC CHURCH,CHARLOTTE,NC,28214,2909,MECKLENBURG,37119,2009-05-05T00:00:00.000Z,ALT REF,2009-05-05T00:00:00.000Z,CHURCHES,28223590,-80.9298556,35.2471002,CHRISTIAN,NOT AVAILABLE,NOT AVAILABLE,NOT AVAILABLE,N,Y
32959,10428224,SANDRA AND LEON LEVINE JEWISH COMMUNITY CENTER,CHARLOTTE,NC,28226,5907,MECKLENBURG,37119,2009-05-05T00:00:00.000Z,ALT REF,2009-05-05T00:00:00.000Z,SYNAGOGUES,709011698,-80.786034,35.1474803,JUDAIC,NOT AVAILABLE,NOT AVAILABLE,NOT AVAILABLE,N,N
32984,10460930,SOVEREIGN GRACE PRESBYTERIAN CHURCH,CHARLOTTE,NC,28210,4656,MECKLENBURG,37119,2009-05-05T00:00:00.000Z,ALT REF,2009-05-05T00:00:00.000Z,CHURCHES,28237280,-80.8487648,35.144104,CHRISTIAN,PCA,NOT AVAILABLE,NOT AVAILABLE,Y,N
32994,10684139,CHARLOTTE ZEN MEDITATION SOCIETY,CHARLOTTE,NC,28203,5114,MECKLENBURG,37119,2009-05-06T00:00:00.000Z,ALT REF,2009-05-06T00:00:00.000Z,PLACES OF WORSHIP,28230900,-80.8512532,35.2064393,BUDDHIST,"MAHAYANA, ZEN",NOT AVAILABLE,NOT AVAILABLE,N,N
33035,10441072,SAINT JOHNS EPISCOPAL CHURCH,CHARLOTTE,NC,28226,5015,MECKLENBURG,37119,2009-05-07T00:00:00.000Z,ALT REF,2009-05-07T00:00:00.000Z,CHURCHES,28237531,-80.8005372,35.1435045,CHRISTIAN,EPIS,NOT AVAILABLE,NOT AVAILABLE,Y,N
33037,10446887,SAINT JOHN NEUMANN CATHOLIC CHURCH,CHARLOTTE,NC,28227,1911,MECKLENBURG,37119,2009-05-07T00:00:00.000Z,ALT REF,2009-05-07T00:00:00.000Z,CHURCHES,127862884,-80.724048,35.1805444,CHRISTIAN,NOT AVAILABLE,NOT AVAILABLE,NOT AVAILABLE,N,Y
33038,10457159,NEW COVENANT AFRICAN METHODIST EPISCOPAL CHURCH,CHARLOTTE,NC,28269,8811,MECKLENBURG,37119,2009-05-04T00:00:00.000Z,ALT REF,2009-05-04T00:00:00.000Z,CHURCHES,116007323,-80.8285036,35.3063552,CHRISTIAN,AME,NOT AVAILABLE,NOT AVAILABLE,Y,N
33041,10446888,SAINT LUKE CATHOLIC CHURCH,CHARLOTTE,NC,28227,6517,MECKLENBURG,37119,2009-05-06T00:00:00.000Z,ALT REF,2009-05-06T00:00:00.000Z,CHURCHES,127867156,-80.6383752,35.1504515,CHRISTIAN,NOT AVAILABLE,NOT AVAILABLE,NOT AVAILABLE,N,Y
33042,10446886,SAINT ANN CATHOLIC CHURCH,CHARLOTTE,NC,28209,4109,MECKLENBURG,37119,2009-05-07T00:00:00.000Z,ALT REF,2009-05-07T00:00:00.000Z,CHURCHES,28248446,-80.8508571,35.1803624,CHRISTIAN,NOT AVAILABLE,NOT AVAILABLE,NOT AVAILABLE,N,Y
33100,10443354,SAINT PETERS CATHOLIC CHURCH,CHARLOTTE,NC,28202,1839,MECKLENBURG,37119,2009-05-07T00:00:00.000Z,ALT REF,2009-05-07T00:00:00.000Z,CHURCHES,28228188,-80.8473078,35.2238663,CHRISTIAN,NOT AVAILABLE,NOT AVAILABLE,NOT AVAILABLE,N,Y
33109,10436481,WOODLAWN BAPTIST CHURCH,CHARLOTTE,NC,28217,1814,MECKLENBURG,37119,2009-05-19T00:00:00.000Z,ALT REF,2009-05-19T00:00:00.000Z,CHURCHES,28234027,-80.8811392,35.1818361,CHRISTIAN,SBC,963,NOT AVAILABLE,Y,N
33110,10587835,WEDGEWOOD BAPTIST CHURCH,CHARLOTTE,NC,28210,2909,MECKLENBURG,37119,2009-05-19T00:00:00.000Z,ALT REF,2009-05-19T00:00:00.000Z,CHURCHES,28235763,-80.8620174,35.1609862,CHRISTIAN,ABC,NOT AVAILABLE,NOT AVAILABLE,Y,N
33112,10429809,TEMPLE ISRAEL,CHARLOTTE,NC,28226,5847,MECKLENBURG,37119,2009-05-19T00:00:00.000Z,ALT REF,2009-05-19T00:00:00.000Z,SYNAGOGUES,709011699,-80.7889347,35.1479894,JUDAIC,NOT AVAILABLE,NOT AVAILABLE,NOT AVAILABLE,N,N
33114,10575247,TORRENCE GROVE AFRICAN METHODIST EPISCOPAL ZION CHURCH,CHARLOTTE,NC,28213,5777,MECKLENBURG,37119,2009-05-19T00:00:00.000Z,ALT REF,2009-05-19T00:00:00.000Z,CHURCHES,28216000,-80.7430065,35.2793237,CHRISTIAN,AMEZ,NOT AVAILABLE,NOT AVAILABLE,Y,N
33115,10432568,SAINT PAUL MISSIONARY BAPTIST CHURCH,CHARLOTTE,NC,28205,2832,MECKLENBURG,37119,2009-05-07T00:00:00.000Z,ALT REF,2009-05-07T00:00:00.000Z,CHURCHES,28226993,-80.8176323,35.2308435,CHRISTIAN,BAPT,NOT AVAILABLE,NOT AVAILABLE,Y,N
33116,10587830,ANTIOCH MISSIONARY BAPTIST CHURCH,CHARLOTTE,NC,28205,7564,MECKLENBURG,37119,2009-05-12T00:00:00.000Z,ALT REF,2009-05-12T00:00:00.000Z,CHURCHES,28232147,-80.8066429,35.1991606,CHRISTIAN,ABC,NOT AVAILABLE,NOT AVAILABLE,Y,N
33168,10683666,SOKA GAKKAI INTERNATIONAL - UNITED STATES OF AMERICA BUDDHIST ASSOCIATION,CHARLOTTE,NC,28262,8544,MECKLENBURG,37119,2009-08-04T00:00:00.000Z,ALT REF,2009-08-13T00:00:00.000Z,PLACES OF WORSHIP,28210293,-80.7602386,35.3208595,BUDDHIST,MAHAYANA,NOT AVAILABLE,NOT AVAILABLE,N,N