OBJECTID,ID,NAME,CITY,STATE,ZIP,ZIPP4,COUNTY,FIPS,CONTDATE,CONTHOW,GEODATE,NAICSDESCR,GEOLINKID,X,Y,SUBTYPE,DENOM,MEMBERS,LOC_TYPE,PROT,CATH
26003,10440602,CHURCH OF THE HOLY NATIVITY,CHICAGO,IL,60620,5644,COOK,17031,2009-04-06T00:00:00.000Z,ALT REF,2009-04-06T00:00:00.000Z,CHURCHES,19827010,-87.6701366,41.7246304,CHRISTIAN,EPIS,NOT AVAILABLE,NOT AVAILABLE,Y,N
26004,10444938,SAINT RICHARD ROMAN CATHOLIC CHURCH,CHICAGO,IL,60632,4531,COOK,17031,2009-04-09T00:00:00.000Z,ALT REF,2009-04-09T00:00:00.000Z,CHURCHES,19841867,-87.7335667,41.8018273,CHRISTIAN,NOT AVAILABLE,NOT AVAILABLE,NOT AVAILABLE,N,Y
26005,10444823,SAINT CLOTILDE CHURCH,CHICAGO,IL,60619,6032,COOK,17031,2009-04-09T00:00:00.000Z,ALT REF,2009-04-09T00:00:00.000Z,CHURCHES,19858403,-87.6167893,41.7415093,CHRISTIAN,NOT AVAILABLE,NOT AVAILABLE,NOT AVAILABLE,N,Y
26006,10576446,LOOP CHRISTIAN MINISTRIES,CHICAGO,IL,60605,7800,COOK,17031,2009-04-03T00:00:00.000Z,ALT REF,2009-04-03T00:00:00.000Z,CHURCHES,125112156,-87.6280532,41.8604156,CHRISTIAN,CRC,NOT AVAILABLE,NOT AVAILABLE,Y,N
26007,10576443,GRACE AND PEACE COMMUNITY CENTER,CHICAGO,IL,60639,4837,COOK,17031,2009-04-08T00:00:00.000Z,ALT REF,2009-04-08T00:00:00.000Z,CHURCHES,19806492,-87.735298,41.9127094,CHRISTIAN,CRC,NOT AVAILABLE,NOT AVAILABLE,Y,N
26009,10440587,GRACE EPISCOPAL CHURCH,CHICAGO,IL,60605,1839,COOK,17031,2009-04-09T00:00:00.000Z,ALT REF,2009-04-09T00:00:00.000Z,CHURCHES,19835781,-87.628876,41.8734571,CHRISTIAN,EPIS,NOT AVAILABLE,NOT AVAILABLE,Y,N
26010,10453778,GREATER ROCK MISSIONARY BAPTIST CHURCH,CHICAGO,IL,60624,3626,COOK,17031,2009-04-06T00:00:00.000Z,ALT REF,2009-04-06T00:00:00.000Z,CHURCHES,19835923,-87.7207462,41.8719082,CHRISTIAN,NBC,NOT AVAILABLE,NOT AVAILABLE,Y,N
26014,10444832,BLESSED SACRAMENT CATHOLIC CHURCH,CHICAGO,IL,60623,3162,COOK,17031,2009-04-08T00:00:00.000Z,ALT REF,2009-04-08T00:00:00.000Z,CHURCHES,19837970,-87.7152983,41.8519944,CHRISTIAN,NOT AVAILABLE,NOT AVAILABLE,NOT AVAILABLE,N,Y
26015,10444846,GOOD SHEPHERD CATHOLIC CHURCH,CHICAGO,IL,60623,4355,COOK,17031,2009-04-08T00:00:00.000Z,ALT REF,2009-04-08T00:00:00.000Z,CHURCHES,19838960,-87.7326315,41.8407258,CHRISTIAN,NOT AVAILABLE,NOT AVAILABLE,NOT AVAILABLE,N,Y
26017,10444812,SAINT BEDE THE VENERABLE,CHICAGO,IL,60652,2196,COOK,17031,2009-04-09T00:00:00.000Z,ALT REF,2009-04-09T00:00:00.000Z,CHURCHES,19825075,-87.731836,41.7423443,CHRISTIAN,NOT AVAILABLE,NOT AVAILABLE,NOT AVAILABLE,N,Y
26019,10454409,MOUNT CARMEL MISSIONARY BAPTIST CHURCH,CHICAGO,IL,60616,3227,COOK,17031,2009-04-06T00:00:00.000Z,ALT REF,2009-04-08T00:00:00.000Z,CHURCHES,19863074,-87.6255,41.8397159,CHRISTIAN,NBC,NOT AVAILABLE,NOT AVAILABLE,Y,N
26020,10442340,SAINT ANN CATHOLIC CHURCH,CHICAGO,IL,60608,2548,COOK,17031,2009-04-08T00:00:00.000Z,ALT REF,2009-04-08T00:00:00.000Z,CHURCHES,19837363,-87.681277,41.8568929,CHRISTIAN,NOT AVAILABLE,NOT AVAILABLE,NOT AVAILABLE,N,Y
26021,10440599,MESSIAH-SAINT BARTHOLOMEW CHURCH,CHICAGO,IL,60619,4623,COOK,17031,2009-04-09T00:00:00.000Z,ALT REF,2009-04-09T00:00:00.000Z,CHURCHES,19858101,-87.5888889,41.7443111,CHRISTIAN,EPIS,NOT AVAILABLE,NOT AVAILABLE,Y,N
26022,10444879,SAINT JULIANA CHURCH,CHICAGO,IL,60631,4352,COOK,17031,2009-04-06T00:00:00.000Z,ALT REF,2009-04-06T00:00:00.000Z,CHURCHES,19779491,-87.8108742,42.0119011,CHRISTIAN,NOT AVAILABLE,NOT AVAILABLE,NOT AVAILABLE,N,Y
26023,10444948,SAINT SYMPHOROSA CHURCH,CHICAGO,IL,60638,4319,COOK,17031,2009-04-06T00:00:00.000Z,ALT REF,2009-04-06T00:00:00.000Z,CHURCHES,19822946,-87.7713172,41.7800274,CHRISTIAN,NOT AVAILABLE,NOT AVAILABLE,NOT AVAILABLE,N,Y
26024,10442310,SAINTS PETER AND PAUL CHURCH,CHICAGO,IL,60628,7035,COOK,17031,2009-04-08T00:00:00.000Z,ALT REF,2009-04-08T00:00:00.000Z,CHURCHES,19832710,-87.6412077,41.6672975,CHRISTIAN,NOT AVAILABLE,NOT AVAILABLE,NOT AVAILABLE,N,Y
26026,10440591,ALL SAINTS EPISCOPAL CHURCH,CHICAGO,IL,60640,5304,COOK,17031,2009-04-06T00:00:00.000Z,ALT REF,2009-04-06T00:00:00.000Z,CHURCHES,19796619,-87.672933,41.9649936,CHRISTIAN,EPIS,NOT AVAILABLE,NOT AVAILABLE,Y,N
26028,10442342,SAINT MARY OF THE WOODS FAITH COMMUNITY,CHICAGO,IL,60646,1211,COOK,17031,2009-04-07T00:00:00.000Z,ALT REF,2009-04-07T00:00:00.000Z,CHURCHES,19791456,-87.7774149,42.0079501,CHRISTIAN,NOT AVAILABLE,NOT AVAILABLE,NOT AVAILABLE,N,Y
26031,10444951,SAINT THADDEUS CATHOLIC CHURCH,CHICAGO,IL,60628,1108,COOK,17031,2009-04-07T00:00:00.000Z,ALT REF,2009-04-07T00:00:00.000Z,CHURCHES,19827293,-87.6326371,41.720082,CHRISTIAN,NOT AVAILABLE,NOT AVAILABLE,NOT AVAILABLE,N,Y
26035,10762520,WAT PHRASRIRATANAMAHADATU,CHICAGO,IL,60640,4903,COOK,17031,2009-04-14T00:00:00.000Z,ALT REF,2009-04-14T00:00:00.000Z,PLACES OF WORSHIP,19796075,-87.6609361,41.9682954,BUDDHIST,NOT AVAILABLE,NOT AVAILABLE,NOT AVAILABLE,N,N
26036,10684005,BONG BOOLSA KOREAN BUDDHIST TEMPLE,CHICAGO,IL,60630,2429,COOK,17031,2009-04-14T00:00:00.000Z,ALT REF,2009-04-14T00:00:00.000Z,"TEMPLES, RELIGIOUS",19795149,-87.749903,41.9738605,BUDDHIST,CHOGYE BUDDHIST ORDER OF KOREA,NOT AVAILABLE,NOT AVAILABLE,N,N
26037,10684449,HEARTLAND SANGHA,CHICAGO,IL,60641,3418,COOK,17031,2009-04-03T00:00:00.000Z,ALT REF,2009-04-08T00:00:00.000Z,PLACES OF WORSHIP,19798914,-87.7538151,41.9485656,BUDDHIST,AMERICAN BUDDHISM,NOT AVAILABLE,NOT AVAILABLE,N,N
26038,10683916,AMERICAN BUDDHIST ASSOCIATION AND HARMONY ZEN CENTER,CHICAGO,IL,60625,3826,COOK,17031,2009-04-14T00:00:00.000Z,ALT REF,2009-04-14T00:00:00.000Z,PLACES OF WORSHIP,19796680,-87.7025655,41.9638356,BUDDHIST,JODO SHINSHU & RINZAI / SOTO ZEN,NOT AVAILABLE,NOT AVAILABLE,N,N
26039,10586607,LOGAN SQUARE BAPTIST CHURCH,CHICAGO,IL,60647,2309,COOK,17031,2009-04-08T00:00:00.000Z,ALT REF,2009-04-08T00:00:00.000Z,CHURCHES,19804362,-87.7190363,41.922911,CHRISTIAN,ABC,NOT AVAILABLE,NOT AVAILABLE,Y,N
26040,10574949,SAINT MARK AFRICAN METHODIST EPISCOPAL ZION CHURCH,CHICAGO,IL,60619,1910,COOK,17031,2009-04-10T00:00:00.000Z,ALT REF,2009-04-10T00:00:00.000Z,CHURCHES,19856636,-87.6057588,41.7605626,CHRISTIAN,AMEZ,NOT AVAILABLE,NOT AVAILABLE,Y,N
26041,10444839,SAINT FRANCIS OF ASSISI CHURCH,CHICAGO,IL,60608,1518,COOK,17031,2009-04-10T00:00:00.000Z,ALT REF,2009-04-10T00:00:00.000Z,CHURCHES,719551205,-87.6476777,41.866779,CHRISTIAN,NOT AVAILABLE,NOT AVAILABLE,NOT AVAILABLE,N,Y
26042,10457673,WAYMAN AFRICAN METHODIST EPISCOPAL CHURCH,CHICAGO,IL,60610,2428,COOK,17031,2009-04-08T00:00:00.000Z,ALT REF,2009-04-08T00:00:00.000Z,CHURCHES,19814907,-87.6414957,41.9024798,CHRISTIAN,AME,NOT AVAILABLE,NOT AVAILABLE,Y,N
26043,10683984,BLUE BERYL DHARMA CENTER,CHICAGO,IL,60626,4005,COOK,17031,2009-04-13T00:00:00.000Z,ALT REF,2009-04-13T00:00:00.000Z,PLACES OF WORSHIP,19786839,-87.6743203,42.0041382,BUDDHIST,"MAHAYANA, TIBETAN, RIME",NOT AVAILABLE,NOT AVAILABLE,N,N
26044,10683702,CHICAGO NICHIREN BUDDHIST CHURCH,CHICAGO,IL,60613,1218,COOK,17031,2009-04-13T00:00:00.000Z,ALT REF,2009-04-13T00:00:00.000Z,PLACES OF WORSHIP,19797411,-87.6711679,41.9584775,BUDDHIST,NICHIREN SHU,NOT AVAILABLE,NOT AVAILABLE,N,N
26046,10444868,SAINT JAMES CHURCH,CHICAGO,IL,60616,3227,COOK,17031,2009-04-10T00:00:00.000Z,ALT REF,2009-04-10T00:00:00.000Z,CHURCHES,19863074,-87.625797,41.8409245,CHRISTIAN,NOT AVAILABLE,NOT AVAILABLE,NOT AVAILABLE,N,Y
26047,10454686,NEW MOUNT MORIAH MISSIONARY BAPTIST CHURCH,CHICAGO,IL,60651,2050,COOK,17031,2009-04-13T00:00:00.000Z,ALT REF,2009-04-13T00:00:00.000Z,CHURCHES,19807195,-87.7248896,41.9082627,CHRISTIAN,NBC,NOT AVAILABLE,NOT AVAILABLE,Y,N
26049,10430794,AL-MADINA ISLAMIC CENTER,CHICAGO,IL,60626,3982,COOK,17031,2009-04-13T00:00:00.000Z,ALT REF,2009-04-13T00:00:00.000Z,"MOSQUES, RELIGIOUS",19786975,-87.6729898,42.0023152,MUSLIM,NOT AVAILABLE,NOT AVAILABLE,NOT AVAILABLE,N,N
26050,10454420,WARD MEMORIAL BAPTIST CHURCH,CHICAGO,IL,60615,1204,COOK,17031,2009-04-13T00:00:00.000Z,ALT REF,2009-04-13T00:00:00.000Z,CHURCHES,19854825,-87.6198837,41.8068466,CHRISTIAN,NBC,NOT AVAILABLE,NOT AVAILABLE,Y,N
26051,10685387,ZEN BUDDHIST TEMPLE - CHICAGO,CHICAGO,IL,60657,1219,COOK,17031,2009-04-10T00:00:00.000Z,ALT REF,2009-04-10T00:00:00.000Z,"TEMPLES, RELIGIOUS",19799563,-87.6717594,41.9453769,BUDDHIST,KOREAN CHOGYE ZEN,NOT AVAILABLE,NOT AVAILABLE,N,N
26052,10457475,ARNETT CHAPEL AFRICAN METHODIST EPISCOPAL CHURCH,CHICAGO,IL,60643,3634,COOK,17031,2009-04-13T00:00:00.000Z,ALT REF,2009-04-13T00:00:00.000Z,CHURCHES,19830503,-87.6587176,41.6895755,CHRISTIAN,AME,NOT AVAILABLE,NOT AVAILABLE,Y,N
26054,10685452,CHICAGO RATNA SHRI SANGHA,CHICAGO,IL,60641,1305,COOK,17031,2009-04-10T00:00:00.000Z,ALT REF,2009-04-13T00:00:00.000Z,PLACES OF WORSHIP,19797374,-87.7613254,41.9585176,BUDDHIST,"VAJRAYANA, DRIKUNG KAGYU",NOT AVAILABLE,NOT AVAILABLE,N,N
26055,10685367,WON BUDDHISM OF CHICAGO,CHICAGO,IL,60646,4422,COOK,17031,2009-04-10T00:00:00.000Z,ALT REF,2009-04-13T00:00:00.000Z,PLACES OF WORSHIP,125157280,-87.7486875,41.9966322,BUDDHIST,KOREAN WON,NOT AVAILABLE,NOT AVAILABLE,N,N
26058,10444872,SAINT JOACHIM,CHICAGO,IL,60619,7510,COOK,17031,2009-04-10T00:00:00.000Z,ALT REF,2009-04-10T00:00:00.000Z,CHURCHES,19859177,-87.6066871,41.7296245,CHRISTIAN,NOT AVAILABLE,NOT AVAILABLE,NOT AVAILABLE,N,Y
26059,10452555,ONE WAY MISSIONARY BAPTIST CHURCH,CHICAGO,IL,60623,1907,COOK,17031,2009-04-10T00:00:00.000Z,ALT REF,2009-04-10T00:00:00.000Z,CHURCHES,19837127,-87.7294445,41.8590352,CHRISTIAN,NBC,NOT AVAILABLE,NOT AVAILABLE,Y,N
26060,10440593,SAINTS GEORGE AND SAINT MATTHIAS CHURCH,CHICAGO,IL,60628,4346,COOK,17031,2009-04-01T00:00:00.000Z,ALT REF,2009-04-10T00:00:00.000Z,CHURCHES,19861026,-87.6185022,41.6929728,CHRISTIAN,EPIS,NOT AVAILABLE,NOT AVAILABLE,Y,N
26061,10448317,SAINTS VOLODYMYR AND OLHA UKRANIAN CATHOLIC CHURCH,CHICAGO,IL,60612,1327,COOK,17031,2009-04-08T00:00:00.000Z,ALT REF,2009-04-10T00:00:00.000Z,CHURCHES,19810057,-87.6838441,41.8951239,CHRISTIAN,NOT AVAILABLE,NOT AVAILABLE,NOT AVAILABLE,N,Y
26062,10583947,FIRST ROSELAND BAPTIST CHURCH,CHICAGO,IL,60628,4928,COOK,17031,2009-04-10T00:00:00.000Z,ALT REF,2009-04-10T00:00:00.000Z,CHURCHES,19861227,-87.6197853,41.6888599,CHRISTIAN,BAPT,NOT AVAILABLE,NOT AVAILABLE,Y,N
26063,10440321,CHURCH OF THE HOLY CROSS,CHICAGO,IL,60643,4513,COOK,17031,2009-04-13T00:00:00.000Z,ALT REF,2009-04-13T00:00:00.000Z,CHURCHES,19830273,-87.6523677,41.6911376,CHRISTIAN,EPIS,NOT AVAILABLE,NOT AVAILABLE,Y,N
26064,10455343,HELPING HAND MISSIONARY BAPTIST CHURCH,CHICAGO,IL,60644,1601,COOK,17031,2009-04-08T00:00:00.000Z,ALT REF,2009-04-08T00:00:00.000Z,CHURCHES,19811264,-87.7508398,41.890555,CHRISTIAN,NBC,NOT AVAILABLE,NOT AVAILABLE,Y,N
26065,10684516,INTERNATIONAL BUDDHISM FRIENDSHIP ASSOCIATION OF CHICAGO,CHICAGO,IL,60640,1704,COOK,17031,2009-04-14T00:00:00.000Z,ALT REF,2009-04-14T00:00:00.000Z,PLACES OF WORSHIP,19794109,-87.6602598,41.9805194,BUDDHIST,"MAHAYANA, ZEN",NOT AVAILABLE,NOT AVAILABLE,N,N
26066,10684058,DIAMOND WAY BUDDHIST CENTER - CHICAGO,CHICAGO,IL,60622,6781,COOK,17031,2009-04-14T00:00:00.000Z,ALT REF,2009-04-14T00:00:00.000Z,PLACES OF WORSHIP,19809700,-87.6712515,41.8969083,BUDDHIST,"TIBETAN, KARMA KAGYU, DIAMOND WAY",NOT AVAILABLE,NOT AVAILABLE,N,N
26067,10430785,MASJID E NOOR,CHICAGO,IL,60660,1829,COOK,17031,2009-04-13T00:00:00.000Z,ALT REF,2009-04-13T00:00:00.000Z,"MOSQUES, RELIGIOUS",19792270,-87.6674819,41.9940753,MUSLIM,NOT AVAILABLE,NOT AVAILABLE,NOT AVAILABLE,N,N
26068,10430799,AS SALAAM CENTER,CHICAGO,IL,60609,4234,COOK,17031,2009-04-14T00:00:00.000Z,ALT REF,2009-04-14T00:00:00.000Z,"MOSQUES, RELIGIOUS",125162623,-87.6646485,41.8061177,MUSLIM,NOT AVAILABLE,NOT AVAILABLE,NOT AVAILABLE,N,N
26069,10683737,BULTASA BUDDHIST TEMPLE OF CHICAGO,CHICAGO,IL,60641,2018,COOK,17031,2009-04-13T00:00:00.000Z,ALT REF,2009-04-13T00:00:00.000Z,"TEMPLES, RELIGIOUS",19797047,-87.7381091,41.9610236,BUDDHIST,KOREAN ZEN (SEON),NOT AVAILABLE,NOT AVAILABLE,N,N
26070,10576444,HYDE PARK CHRISTIAN REFORMED CHURCH,CHICAGO,IL,60615,4216,COOK,17031,2009-04-08T00:00:00.000Z,ALT REF,2009-04-08T00:00:00.000Z,CHURCHES,19855017,-87.5865044,41.8010935,CHRISTIAN,CRC,NOT AVAILABLE,NOT AVAILABLE,Y,N
26071,10685445,THE BUDDHIST TEMPLE OF CHICAGO,CHICAGO,IL,60640,5043,COOK,17031,2009-04-14T00:00:00.000Z,ALT REF,2009-04-14T00:00:00.000Z,"TEMPLES, RELIGIOUS",19796069,-87.6593166,41.9670007,BUDDHIST,"MAHAYANA, JODO SHINSHU (AKEGARASU, KIYOZAWA)",NOT AVAILABLE,NOT AVAILABLE,N,N
26072,10684163,CHUA TRUC LAM VIETNAMESE BUDDHIST TEMPLE,CHICAGO,IL,60640,6950,COOK,17031,2009-04-14T00:00:00.000Z,ALT REF,2009-04-14T00:00:00.000Z,"TEMPLES, RELIGIOUS",19795368,-87.6580045,41.9718452,BUDDHIST,VIETNAMESE MAHAYANA,NOT AVAILABLE,NOT AVAILABLE,N,N
26078,10761031,KENWOOD UNITED CHURCH OF CHRIST,CHICAGO,IL,60653,4414,COOK,17031,2009-04-10T00:00:00.000Z,ALT REF,2009-04-10T00:00:00.000Z,CHURCHES,19854690,-87.5996828,41.8112444,CHRISTIAN,UCC,414,NOT AVAILABLE,Y,N
26079,10685075,SOKA GAKKAI INTERNATIONAL - UNITED STATES OF AMERICA,CHICAGO,IL,60605,2806,COOK,17031,2009-04-10T00:00:00.000Z,ALT REF,2009-04-10T00:00:00.000Z,PLACES OF WORSHIP,125112157,-87.6253265,41.8624392,BUDDHIST,NOT AVAILABLE,NOT AVAILABLE,NOT AVAILABLE,N,N
26080,10430798,MASJID AL-ANSAR,CHICAGO,IL,60629,1618,COOK,17031,2009-04-13T00:00:00.000Z,ALT REF,2009-04-13T00:00:00.000Z,"MOSQUES, RELIGIOUS",19844046,-87.6864903,41.7794335,MUSLIM,NOT AVAILABLE,NOT AVAILABLE,NOT AVAILABLE,N,N
26082,10684583,CHICAGO KARMA THEGSUM CHOLING,CHICAGO,IL,60626,5109,COOK,17031,2009-04-14T00:00:00.000Z,ALT REF,2009-04-14T00:00:00.000Z,PLACES OF WORSHIP,19787139,-87.6636775,42.0001635,BUDDHIST,"TIBETAN, KARMA KAGYU",NOT AVAILABLE,NOT AVAILABLE,N,N
26084,10455525,TRINITY COMMUNITY BAPTIST CHURCH,CHICAGO,IL,60651,1149,COOK,17031,2009-04-10T00:00:00.000Z,ALT REF,2009-04-10T00:00:00.000Z,CHURCHES,19808364,-87.7684126,41.9025776,CHRISTIAN,NBC,NOT AVAILABLE,NOT AVAILABLE,Y,N
26085,10457584,MOUNT OLIVE AFRICAN METHODIST EPISCOPAL CHURCH,CHICAGO,IL,60653,4214,COOK,17031,2009-04-13T00:00:00.000Z,ALT REF,2009-04-10T00:00:00.000Z,CHURCHES,19854699,-87.6081428,41.8111516,CHRISTIAN,AME,NOT AVAILABLE,NOT AVAILABLE,Y,N
26091,10454837,EVENING STAR MISSIONARY BAPTIST CHURCH,CHICAGO,IL,60653,2929,COOK,17031,2009-04-10T00:00:00.000Z,ALT REF,2009-04-10T00:00:00.000Z,CHURCHES,19854512,-87.6063478,41.8175839,CHRISTIAN,NBC,NOT AVAILABLE,NOT AVAILABLE,Y,N
26092,10431974,FAITH TABERNACLE CHURCH,CHICAGO,IL,60613,3907,COOK,17031,2009-04-13T00:00:00.000Z,ALT REF,2009-04-13T00:00:00.000Z,CHURCHES,19798533,-87.6503421,41.9509913,CHRISTIAN,NONDENOM,NOT AVAILABLE,NOT AVAILABLE,Y,N
26093,10444854,HOLY FAMILY CHURCH,CHICAGO,IL,60608,1519,COOK,17031,2009-04-13T00:00:00.000Z,ALT REF,2009-04-13T00:00:00.000Z,CHURCHES,19836301,-87.6547232,41.8674178,CHRISTIAN,NOT AVAILABLE,NOT AVAILABLE,NOT AVAILABLE,N,Y
26094,10444881,SAINT LADISLAUS CHURCH,CHICAGO,IL,60641,4141,COOK,17031,2009-04-10T00:00:00.000Z,ALT REF,2009-04-10T00:00:00.000Z,CHURCHES,19800167,-87.7611336,41.9416775,CHRISTIAN,NOT AVAILABLE,NOT AVAILABLE,NOT AVAILABLE,N,Y
26095,10444919,SAINT PANCRATIUS CHURCH,CHICAGO,IL,60632,2437,COOK,17031,2009-04-10T00:00:00.000Z,ALT REF,2009-04-10T00:00:00.000Z,CHURCHES,19840394,-87.6991144,41.8197202,CHRISTIAN,NOT AVAILABLE,NOT AVAILABLE,NOT AVAILABLE,N,Y
26097,10442415,SAINT FRANCIS BORGIA CHURCH,CHICAGO,IL,60634,2006,COOK,17031,2009-04-07T00:00:00.000Z,ALT REF,2009-04-07T00:00:00.000Z,CHURCHES,19799753,-87.8281122,41.9443022,CHRISTIAN,NOT AVAILABLE,NOT AVAILABLE,NOT AVAILABLE,N,Y
26098,10457619,SAINT JAMES AFRICAN METHODIST EPISCOPAL CHURCH,CHICAGO,IL,60620,1406,COOK,17031,2009-04-10T00:00:00.000Z,ALT REF,2009-04-10T00:00:00.000Z,CHURCHES,19826738,-87.625487,41.7255458,CHRISTIAN,AME,NOT AVAILABLE,NOT AVAILABLE,Y,N
26099,10444870,SAINT JANE DE CHANTAL,CHICAGO,IL,60638,1421,COOK,17031,2009-04-07T00:00:00.000Z,ALT REF,2009-04-07T00:00:00.000Z,CHURCHES,19821887,-87.7729161,41.7965201,CHRISTIAN,NOT AVAILABLE,NOT AVAILABLE,NOT AVAILABLE,N,Y
26100,10444943,SACRED HEART CHURCH,CHICAGO,IL,60643,4838,COOK,17031,2009-04-08T00:00:00.000Z,ALT REF,2009-04-08T00:00:00.000Z,CHURCHES,19831478,-87.6710902,41.6817118,CHRISTIAN,NOT AVAILABLE,NOT AVAILABLE,NOT AVAILABLE,N,Y
26105,10762522,WATT KHMER METTA,CHICAGO,IL,60640,5034,COOK,17031,2009-04-14T00:00:00.000Z,ALT REF,2009-04-14T00:00:00.000Z,PLACES OF WORSHIP,19796063,-87.6579319,41.9677647,BUDDHIST,NOT AVAILABLE,NOT AVAILABLE,NOT AVAILABLE,N,N
26115,10574946,ISRAEL SAMUEL AFRICAN METHODIST EPISCOPAL ZION CHURCH,CHICAGO,IL,60623,1421,COOK,17031,2009-04-14T00:00:00.000Z,ALT REF,2009-04-14T00:00:00.000Z,CHURCHES,19836850,-87.7199839,41.8618736,CHRISTIAN,AMEZ,NOT AVAILABLE,NOT AVAILABLE,Y,N
26116,10430789,ISLAMIC CENTER OF CHICAGO,CHICAGO,IL,60659,3728,COOK,17031,2009-04-10T00:00:00.000Z,ALT REF,2009-04-13T00:00:00.000Z,"MOSQUES, RELIGIOUS",19792919,-87.7048887,41.9891195,MUSLIM,NOT AVAILABLE,NOT AVAILABLE,NOT AVAILABLE,N,N
26117,10444806,ASSUMPTION BLESSED MARY VIRGIN CHURCH,CHICAGO,IL,60608,4604,COOK,17031,2009-04-13T00:00:00.000Z,ALT REF,2009-04-13T00:00:00.000Z,CHURCHES,19838382,-87.6960873,41.8473291,CHRISTIAN,NOT AVAILABLE,NOT AVAILABLE,NOT AVAILABLE,N,Y
26118,10444849,SAINT HELENA OF THE CROSS CHURCH,CHICAGO,IL,60628,1848,COOK,17031,2009-04-10T00:00:00.000Z,ALT REF,2009-04-10T00:00:00.000Z,CHURCHES,19828358,-87.6360122,41.710172,CHRISTIAN,NOT AVAILABLE,NOT AVAILABLE,NOT AVAILABLE,N,Y
26122,10444894,SAINT MARY STAR OF THE SEA,CHICAGO,IL,60629,5503,COOK,17031,2009-04-10T00:00:00.000Z,ALT REF,2009-04-10T00:00:00.000Z,CHURCHES,19844541,-87.7343239,41.7756691,CHRISTIAN,NOT AVAILABLE,NOT AVAILABLE,NOT AVAILABLE,N,Y
26124,10586454,CHICAGO FELLOWSHIP CHRISTIAN CENTER,CHICAGO,IL,60640,5415,COOK,17031,2009-04-07T00:00:00.000Z,ALT REF,2009-04-07T00:00:00.000Z,CHURCHES,19796371,-87.6687534,41.9649703,CHRISTIAN,ABC,NOT AVAILABLE,NOT AVAILABLE,Y,N
26126,10454703,RISING SUN MISSIONARY BAPTIST CHURCH,CHICAGO,IL,60651,2719,COOK,17031,2009-04-10T00:00:00.000Z,ALT REF,2009-04-10T00:00:00.000Z,CHURCHES,723483592,-87.7657391,41.8956254,CHRISTIAN,NBC,NOT AVAILABLE,NOT AVAILABLE,Y,N
26127,10684929,QUAN AM TU BUDDHIST TEMPLE,CHICAGO,IL,60640,1405,COOK,17031,2009-04-08T00:00:00.000Z,ALT REF,2009-04-08T00:00:00.000Z,"TEMPLES, RELIGIOUS",716816392,-87.6597416,41.9831396,BUDDHIST,"MAHAYANA, PURE LAND",NOT AVAILABLE,NOT AVAILABLE,N,N
26129,10444831,SAINT BONAVENTURE CHURCH,CHICAGO,IL,60614,1027,COOK,17031,2009-04-09T00:00:00.000Z,ALT REF,2009-04-09T00:00:00.000Z,CHURCHES,19802188,-87.6693583,41.9321324,CHRISTIAN,NOT AVAILABLE,NOT AVAILABLE,NOT AVAILABLE,N,Y
26131,10762523,DHAMMAKAYA INTERNATIONAL MEDITATION CENTER OF CHICAGO,CHICAGO,IL,60630,2936,COOK,17031,2009-04-14T00:00:00.000Z,ALT REF,2009-04-15T00:00:00.000Z,PLACES OF WORSHIP,19795948,-87.7840356,41.9686991,BUDDHIST,NOT AVAILABLE,NOT AVAILABLE,NOT AVAILABLE,N,N
26155,10440430,CRISTO REY IGLESIA EPISCOPAL CHURCH,CHICAGO,IL,60659,5015,COOK,17031,2009-04-16T00:00:00.000Z,ALT REF,2009-04-14T00:00:00.000Z,CHURCHES,19792927,-87.6927478,41.9887802,CHRISTIAN,EPIS,NOT AVAILABLE,NOT AVAILABLE,Y,N
26156,10677438,GURDWARA SAHIB OF CHICAGO,CHICAGO,IL,60659,2012,COOK,17031,2009-04-16T00:00:00.000Z,ALT REF,2009-04-16T00:00:00.000Z,"TEMPLES, RELIGIOUS",19791746,-87.6891107,41.9975511,OTHER,NOT AVAILABLE,NOT AVAILABLE,NOT AVAILABLE,N,N
26157,10586585,GODS TRUE WAY MINISTRIES,CHICAGO,IL,60620,6051,COOK,17031,2009-04-16T00:00:00.000Z,ALT REF,2009-04-16T00:00:00.000Z,CHURCHES,19825690,-87.6712875,41.735417,CHRISTIAN,ABC,NOT AVAILABLE,NOT AVAILABLE,Y,N
26158,10430774,MAHDAVIA ISLAMIC CENTER OF CHICAGO,CHICAGO,IL,60645,1763,COOK,17031,2009-04-15T00:00:00.000Z,ALT REF,2009-04-15T00:00:00.000Z,"MOSQUES, RELIGIOUS",19786067,-87.6899049,42.01619,MUSLIM,NOT AVAILABLE,NOT AVAILABLE,NOT AVAILABLE,N,N
26174,10430795,MASA JID UMAR NORTH AMERICA INCORPORATED,CHICAGO,IL,60628,4931,COOK,17031,2009-04-15T00:00:00.000Z,ALT REF,2009-04-15T00:00:00.000Z,"MOSQUES, RELIGIOUS",19861229,-87.6206149,41.6868522,MUSLIM,NOT AVAILABLE,NOT AVAILABLE,NOT AVAILABLE,N,N
26175,10428623,CHABAD AT PARK PLACE,CHICAGO,IL,60613,5292,COOK,17031,2009-04-16T00:00:00.000Z,ALT REF,2009-04-16T00:00:00.000Z,SYNAGOGUES,721145275,-87.6468812,41.9538051,JUDAIC,CHABAD,NOT AVAILABLE,CHABAD,N,N
26184,10431823,MIDWEST ASSOCIATION OF SHIA ORGANIZED MUSLIMS MASOM,CHICAGO,IL,60634,4116,COOK,17031,2009-04-13T00:00:00.000Z,ALT REF,2009-04-17T00:00:00.000Z,"MOSQUES, RELIGIOUS",19799559,-87.7794677,41.9454912,MUSLIM,NOT AVAILABLE,NOT AVAILABLE,NOT AVAILABLE,N,N
26185,10430801,AL HAQAANI CENTER,CHICAGO,IL,60649,3207,COOK,17031,2009-04-15T00:00:00.000Z,ALT REF,2009-04-15T00:00:00.000Z,"MOSQUES, RELIGIOUS",19856708,-87.5704574,41.7592329,MUSLIM,NOT AVAILABLE,NOT AVAILABLE,NOT AVAILABLE,N,N
26194,11527248,BETHEL DELIVERANCE CENTER CHURCH OF GOD IN CHRIST,CHICAGO,IL,60651,1359,COOK,17031,2009-04-15T00:00:00.000Z,ALT REF,2009-04-15T00:00:00.000Z,CHURCHES,19808346,-87.7597653,41.9024317,CHRISTIAN,NOT AVAILABLE,NOT AVAILABLE,NOT AVAILABLE,Y,N
26195,10431767,MASJID AR RAHMAN,CHICAGO,IL,60651,1359,COOK,17031,2009-04-10T00:00:00.000Z,ALT REF,2009-04-15T00:00:00.000Z,"MOSQUES, RELIGIOUS",19808346,-87.7597665,41.9024333,MUSLIM,NOT AVAILABLE,NOT AVAILABLE,NOT AVAILABLE,N,N
26226,10684098,CAMBODIAN BUDDHIST ASSOCIATION WAT KHEMARARAN,CHICAGO,IL,60640,3509,COOK,17031,2009-04-15T00:00:00.000Z,ALT REF,2009-04-15T00:00:00.000Z,PLACES OF WORSHIP,19795247,-87.6621225,41.9728256,BUDDHIST,"THERAVADA, KHMER (CAMBODIAN)",NOT AVAILABLE,NOT AVAILABLE,N,N
26233,10586581,FIRST LATIN AMERICAN BAPTIST CHURCH,CHICAGO,IL,60632,1637,COOK,17031,2009-04-15T00:00:00.000Z,ALT REF,2009-04-15T00:00:00.000Z,CHURCHES,19840074,-87.692473,41.824812,CHRISTIAN,ABC,NOT AVAILABLE,NOT AVAILABLE,Y,N
26308,10583940,PRAIRIE AVENUE BAPTIST CHURCH,CHICAGO,IL,60637,2216,COOK,17031,2009-04-10T00:00:00.000Z,ALT REF,2009-04-15T00:00:00.000Z,CHURCHES,19855522,-87.6193789,41.7848892,CHRISTIAN,BAPT,NOT AVAILABLE,NOT AVAILABLE,Y,N
26311,10684437,HARMONY ZEN CENTER,CHICAGO,IL,60640,6875,COOK,17031,2009-04-16T00:00:00.000Z,ALT REF,2009-04-16T00:00:00.000Z,PLACES OF WORSHIP,19796332,-87.6593782,41.9664993,BUDDHIST,RINZAI/SOTO ZEN,NOT AVAILABLE,NOT AVAILABLE,N,N
26312,10685200,TIAN LONG TEMPLE,CHICAGO,IL,60616,2035,COOK,17031,2009-04-14T00:00:00.000Z,ALT REF,2009-04-16T00:00:00.000Z,"TEMPLES, RELIGIOUS",125159177,-87.6294352,41.8532698,BUDDHIST,NOT AVAILABLE,NOT AVAILABLE,NOT AVAILABLE,N,N
26313,10454002,GREATER MOUNT MORIAH BAPTIST CHURCH,CHICAGO,IL,60615,2204,COOK,17031,2009-04-15T00:00:00.000Z,ALT REF,2009-04-15T00:00:00.000Z,CHURCHES,19854877,-87.6203797,41.8040876,CHRISTIAN,NBC,NOT AVAILABLE,NOT AVAILABLE,Y,N
26330,10583951,ABUNDANT LOVE BAPTIST CHURCH,CHICAGO,IL,60620,2537,COOK,17031,2009-04-16T00:00:00.000Z,ALT REF,2009-04-16T00:00:00.000Z,CHURCHES,19846597,-87.6457651,41.7509013,CHRISTIAN,BAPT,NOT AVAILABLE,NOT AVAILABLE,Y,N
26337,10444886,SANTA MARIA ADDOLORATA CATHOLIC CHURCH,CHICAGO,IL,60622,6438,COOK,17031,2009-04-08T00:00:00.000Z,ALT REF,2009-04-15T00:00:00.000Z,CHURCHES,19810984,-87.6603499,41.8922127,CHRISTIAN,NOT AVAILABLE,NOT AVAILABLE,NOT AVAILABLE,N,Y
26348,10457473,ALLEN TEMPLE AFRICAN METHODIST EPISCOPAL CHURCH,CHICAGO,IL,60610,3006,COOK,17031,2008-02-29T00:00:00.000Z,ALT REF,2009-05-29T00:00:00.000Z,CHURCHES,720287912,-87.6361932,41.8962838,CHRISTIAN,AME,NOT AVAILABLE,NOT AVAILABLE,Y,N
26358,10574950,SAINT MATTHEW-GORDON AFRICAN METHODIST EPISCOPAL ZION CHURCH,CHICAGO,IL,60620,2313,COOK,17031,2009-04-07T00:00:00.000Z,ALT REF,2009-04-07T00:00:00.000Z,CHURCHES,19827104,-87.6350961,41.7220094,CHRISTIAN,AMEZ,NOT AVAILABLE,NOT AVAILABLE,Y,N
26365,10684466,BODHI PATH BUDDHIST CENTER OF CHICAGO,CHICAGO,IL,60613,1155,COOK,17031,2009-04-29T00:00:00.000Z,ALT REF,2009-04-29T00:00:00.000Z,PLACES OF WORSHIP,19797916,-87.6733746,41.9556458,BUDDHIST,FOUNDATIONAL BUDDHISM (PALI CANON BASED),NOT AVAILABLE,NOT AVAILABLE,N,N
26367,10685361,LOGAN SQUARE ZENDO,CHICAGO,IL,60647,1129,COOK,17031,2009-04-29T00:00:00.000Z,ALT REF,2009-04-29T00:00:00.000Z,PLACES OF WORSHIP,19803232,-87.7180886,41.9294085,BUDDHIST,"RINZAI ZEN, ZEN LAY-PRACTICE GROUP",NOT AVAILABLE,NOT AVAILABLE,N,N
26368,10444811,SAINT BASIL / VISITATION CHURCH,CHICAGO,IL,60621,2239,COOK,17031,2009-05-15T00:00:00.000Z,ALT REF,2009-05-15T00:00:00.000Z,CHURCHES,19842493,-87.6473133,41.7935929,CHRISTIAN,NOT AVAILABLE,NOT AVAILABLE,NOT AVAILABLE,N,Y
26370,10431503,MAKKI MASJID,CHICAGO,IL,60625,5106,COOK,17031,2009-05-19T00:00:00.000Z,ALT REF,2009-05-22T00:00:00.000Z,"MOSQUES, RELIGIOUS",19795590,-87.7143381,41.9703849,MUSLIM,NOT AVAILABLE,NOT AVAILABLE,NOT AVAILABLE,N,N
26371,10586586,EDGEWATER PRESBYTERIAN CHURCH,CHICAGO,IL,60660,4627,COOK,17031,2009-04-14T00:00:00.000Z,ALT REF,2009-04-14T00:00:00.000Z,CHURCHES,19793581,-87.6562199,41.9839537,CHRISTIAN,NOT AVAILABLE,NOT AVAILABLE,NOT AVAILABLE,Y,N
26374,10432440,SWEET HOLY SPIRIT CHURCH,CHICAGO,IL,60643,2348,COOK,17031,2007-09-10T00:00:00.000Z,ALT REF,2007-09-10T00:00:00.000Z,CHURCHES,19828665,-87.647099,41.7071792,CHRISTIAN,NOT AVAILABLE,NOT AVAILABLE,NOT AVAILABLE,Y,N
26376,10440588,SAINT JOHNS EPISCOPAL CHURCH,CHICAGO,IL,60641,2851,COOK,17031,2009-04-06T00:00:00.000Z,ALT REF,2009-04-06T00:00:00.000Z,CHURCHES,19798703,-87.7376809,41.9515598,CHRISTIAN,EPIS,NOT AVAILABLE,NOT AVAILABLE,Y,N
26378,10452786,RHEMA WORD CHURCH,CHICAGO,IL,60644,1517,COOK,17031,2008-03-05T00:00:00.000Z,ALT REF,2008-03-12T00:00:00.000Z,CHURCHES,19811133,-87.7631505,41.8913294,CHRISTIAN,NOT AVAILABLE,NOT AVAILABLE,NOT AVAILABLE,Y,N
26379,10685415,DAIYUZENJI RINZAI ZEN TEMPLE,CHICAGO,IL,60613,3880,COOK,17031,2009-04-16T00:00:00.000Z,ALT REF,2009-04-15T00:00:00.000Z,"TEMPLES, RELIGIOUS",19798834,-87.6733591,41.9496445,BUDDHIST,RINZAI ZEN,NOT AVAILABLE,NOT AVAILABLE,N,N
26381,10438020,FIRST BAPTIST CONGREGATIONAL CHURCH OF CHICAGO,CHICAGO,IL,60612,2612,COOK,17031,2007-09-25T00:00:00.000Z,ALT REF,2007-09-25T00:00:00.000Z,CHURCHES,19812837,-87.6673317,41.8830173,CHRISTIAN,NOT AVAILABLE,NOT AVAILABLE,NOT AVAILABLE,Y,N
26382,10430772,DEPAUL UNIVERSITY MUSLIM STUDENTS ASSOCIATION - UNITED MUSLIMS MOVING AHEAD,CHICAGO,IL,60614,3210,COOK,17031,2009-04-16T00:00:00.000Z,ALT REF,2009-04-16T00:00:00.000Z,"MOSQUES, RELIGIOUS",19804137,-87.655068,41.9240234,MUSLIM,NOT AVAILABLE,NOT AVAILABLE,NOT AVAILABLE,N,N
26383,10444853,HOLY CROSS CHURCH / IMMACULATE HEART OF MARY CHURCH,CHICAGO,IL,60609,3815,COOK,17031,2009-04-08T00:00:00.000Z,ALT REF,2009-04-08T00:00:00.000Z,CHURCHES,19841010,-87.6690229,41.8107488,CHRISTIAN,NOT AVAILABLE,NOT AVAILABLE,NOT AVAILABLE,N,Y
26384,10444869,SAINT JAMES THE APOSTLE ROMAN CATHOLIC CHURCH,CHICAGO,IL,60639,2354,COOK,17031,2009-04-10T00:00:00.000Z,ALT REF,2009-04-10T00:00:00.000Z,CHURCHES,19804192,-87.7704518,41.9243207,CHRISTIAN,NOT AVAILABLE,NOT AVAILABLE,NOT AVAILABLE,N,Y
26385,10444799,SAINT AMBROSE CHURCH,CHICAGO,IL,60653,3600,COOK,17031,2009-04-02T00:00:00.000Z,ALT REF,2009-04-02T00:00:00.000Z,CHURCHES,19854691,-87.6013532,41.8100071,CHRISTIAN,NOT AVAILABLE,NOT AVAILABLE,NOT AVAILABLE,N,Y
26387,10444827,CHRIST THE KING CATHOLIC CHURCH,CHICAGO,IL,60620,5660,COOK,17031,2009-04-06T00:00:00.000Z,ALT REF,2009-04-06T00:00:00.000Z,CHURCHES,19826847,-87.6756386,41.7250096,CHRISTIAN,NOT AVAILABLE,NOT AVAILABLE,NOT AVAILABLE,N,Y
26389,10444855,HOLY INNOCENTS CHURCH,CHICAGO,IL,60622,5225,COOK,17031,2009-04-06T00:00:00.000Z,ALT REF,2009-04-06T00:00:00.000Z,CHURCHES,19809924,-87.6651088,41.8953701,CHRISTIAN,NOT AVAILABLE,NOT AVAILABLE,NOT AVAILABLE,N,Y
26390,10444791,HOLY NAME CATHEDRAL CHURCH,CHICAGO,IL,60611,2510,COOK,17031,2009-04-06T00:00:00.000Z,ALT REF,2009-04-06T00:00:00.000Z,CHURCHES,19809722,-87.6276622,41.8959604,CHRISTIAN,NOT AVAILABLE,NOT AVAILABLE,NOT AVAILABLE,N,Y
26392,10444863,IMMACULATE CONCEPTION CHURCH,CHICAGO,IL,60631,3080,COOK,17031,2009-04-06T00:00:00.000Z,ALT REF,2009-04-06T00:00:00.000Z,CHURCHES,19788610,-87.8075879,41.9856858,CHRISTIAN,NOT AVAILABLE,NOT AVAILABLE,NOT AVAILABLE,N,Y
26393,10442970,MATERNITY OF THE BLESSED VIRGIN MARY CHURCH,CHICAGO,IL,60647,4745,COOK,17031,2009-04-14T00:00:00.000Z,ALT REF,2009-04-14T00:00:00.000Z,CHURCHES,19806789,-87.7182747,41.9096618,CHRISTIAN,NOT AVAILABLE,NOT AVAILABLE,NOT AVAILABLE,N,Y
26394,10444901,NATIVITY OF OUR LORD CHURCH,CHICAGO,IL,60609,1621,COOK,17031,2009-04-01T00:00:00.000Z,ALT REF,2009-04-01T00:00:00.000Z,CHURCHES,19839889,-87.6432923,41.8267514,CHRISTIAN,NOT AVAILABLE,NOT AVAILABLE,NOT AVAILABLE,N,Y
26395,10444900,NATIVITY OF THE BLESSED VIRGIN MARY CHURCH,CHICAGO,IL,60629,1826,COOK,17031,2009-04-10T00:00:00.000Z,ALT REF,2009-04-13T00:00:00.000Z,CHURCHES,19845192,-87.6912932,41.7686113,CHRISTIAN,NOT AVAILABLE,NOT AVAILABLE,NOT AVAILABLE,N,Y
26396,10444904,OUR LADY GATE OF HEAVEN CHURCH,CHICAGO,IL,60617,5228,COOK,17031,2009-04-15T00:00:00.000Z,ALT REF,2009-04-15T00:00:00.000Z,CHURCHES,19859988,-87.567177,41.7155981,CHRISTIAN,NOT AVAILABLE,NOT AVAILABLE,NOT AVAILABLE,N,Y
26397,10444918,OUR LADY OF AGLONA CHURCH,CHICAGO,IL,60647,5244,COOK,17031,2009-04-03T00:00:00.000Z,ALT REF,2009-04-03T00:00:00.000Z,CHURCHES,19806347,-87.691928,41.911963,CHRISTIAN,NOT AVAILABLE,NOT AVAILABLE,NOT AVAILABLE,N,Y
26398,10444905,OUR LADY OF GOOD COUNSEL CHURCH,CHICAGO,IL,60609,1217,COOK,17031,2009-04-15T00:00:00.000Z,ALT REF,2009-04-15T00:00:00.000Z,CHURCHES,19839805,-87.669507,41.8293329,CHRISTIAN,NOT AVAILABLE,NOT AVAILABLE,NOT AVAILABLE,N,Y
26399,10444910,OUR LADY OF LOURDES CHURCH,CHICAGO,IL,60623,1112,COOK,17031,2009-04-03T00:00:00.000Z,ALT REF,2009-04-03T00:00:00.000Z,CHURCHES,19836953,-87.730141,41.8608846,CHRISTIAN,NOT AVAILABLE,NOT AVAILABLE,NOT AVAILABLE,N,Y
26400,10444911,OUR LADY OF MERCY CHURCH,CHICAGO,IL,60625,4520,COOK,17031,2009-04-03T00:00:00.000Z,ALT REF,2009-04-03T00:00:00.000Z,CHURCHES,19796972,-87.7077236,41.9620794,CHRISTIAN,NOT AVAILABLE,NOT AVAILABLE,NOT AVAILABLE,N,Y
26401,10444916,OUR LADY OF TEPEYAC CHURCH,CHICAGO,IL,60623,3425,COOK,17031,2009-04-16T00:00:00.000Z,ALT REF,2009-04-16T00:00:00.000Z,CHURCHES,19838104,-87.7019261,41.8514853,CHRISTIAN,NOT AVAILABLE,NOT AVAILABLE,NOT AVAILABLE,N,Y
26403,10448655,OUR LADY OF THE SNOWS CHURCH,CHICAGO,IL,60638,2133,COOK,17031,2009-04-14T00:00:00.000Z,ALT REF,2009-04-14T00:00:00.000Z,CHURCHES,19821479,-87.7520444,41.8054448,CHRISTIAN,NOT AVAILABLE,NOT AVAILABLE,NOT AVAILABLE,N,Y
26404,10444933,PROVIDENCE OF GOD CHURCH,CHICAGO,IL,60616,1072,COOK,17031,2009-04-02T00:00:00.000Z,ALT REF,2009-04-02T00:00:00.000Z,CHURCHES,721175633,-87.6450977,41.8573219,CHRISTIAN,NOT AVAILABLE,NOT AVAILABLE,NOT AVAILABLE,N,Y
26405,10444935,QUEEN OF ANGELS CATHOLIC CHURCH,CHICAGO,IL,60625,2138,COOK,17031,2009-04-06T00:00:00.000Z,ALT REF,2009-04-06T00:00:00.000Z,CHURCHES,19796648,-87.6880138,41.9635324,CHRISTIAN,NOT AVAILABLE,NOT AVAILABLE,NOT AVAILABLE,N,Y
26406,10444936,QUEEN OF THE UNIVERSE CHURCH,CHICAGO,IL,60629,4321,COOK,17031,2009-04-01T00:00:00.000Z,ALT REF,2009-04-01T00:00:00.000Z,CHURCHES,19845716,-87.7178606,41.7629549,CHRISTIAN,NOT AVAILABLE,NOT AVAILABLE,NOT AVAILABLE,N,Y
26407,10444942,SACRED HEART CHURCH,CHICAGO,IL,60617,5008,COOK,17031,2009-04-10T00:00:00.000Z,ALT REF,2009-04-10T00:00:00.000Z,CHURCHES,19859706,-87.5534922,41.7212652,CHRISTIAN,NOT AVAILABLE,NOT AVAILABLE,NOT AVAILABLE,N,Y
26408,10444807,SAINT BARBARA CHURCH,CHICAGO,IL,60608,5922,COOK,17031,2009-04-06T00:00:00.000Z,ALT REF,2009-04-06T00:00:00.000Z,CHURCHES,19838853,-87.652767,41.8424683,CHRISTIAN,NOT AVAILABLE,NOT AVAILABLE,NOT AVAILABLE,N,Y
26409,10444808,SAINT BARNABAS CHURCH,CHICAGO,IL,60643,2057,COOK,17031,2009-04-03T00:00:00.000Z,ALT REF,2009-04-03T00:00:00.000Z,CHURCHES,19828447,-87.6704522,41.7093318,CHRISTIAN,NOT AVAILABLE,NOT AVAILABLE,NOT AVAILABLE,N,Y
26410,10444813,SAINT BENEDICT CHURCH,CHICAGO,IL,60618,3805,COOK,17031,2009-04-03T00:00:00.000Z,ALT REF,2009-04-03T00:00:00.000Z,CHURCHES,19797940,-87.6839894,41.9537481,CHRISTIAN,NOT AVAILABLE,NOT AVAILABLE,NOT AVAILABLE,N,Y
26412,10444829,SAINT CAJETAN CHURCH,CHICAGO,IL,60655,1351,COOK,17031,2009-04-02T00:00:00.000Z,ALT REF,2009-04-02T00:00:00.000Z,CHURCHES,19830470,-87.6827225,41.6893748,CHRISTIAN,NOT AVAILABLE,NOT AVAILABLE,NOT AVAILABLE,N,Y
26413,10444828,SAINT CAMILLUS CHURCH,CHICAGO,IL,60638,2916,COOK,17031,2009-04-08T00:00:00.000Z,ALT REF,2009-04-08T00:00:00.000Z,CHURCHES,19822154,-87.7553425,41.7931293,CHRISTIAN,NOT AVAILABLE,NOT AVAILABLE,NOT AVAILABLE,N,Y
26415,10444826,SAINT CHRISTINA CATHOLIC CHURCH,CHICAGO,IL,60655,2733,COOK,17031,2009-04-03T00:00:00.000Z,ALT REF,2009-04-03T00:00:00.000Z,CHURCHES,19830290,-87.704853,41.6918283,CHRISTIAN,NOT AVAILABLE,NOT AVAILABLE,NOT AVAILABLE,N,Y
26416,10444825,SAINT CLARE OF MONTEFALCO CHURCH,CHICAGO,IL,60632,2216,COOK,17031,2009-04-07T00:00:00.000Z,ALT REF,2009-04-07T00:00:00.000Z,CHURCHES,19842552,-87.6910897,41.7941863,CHRISTIAN,NOT AVAILABLE,NOT AVAILABLE,NOT AVAILABLE,N,Y
26417,10444820,SAINT CONSTANCE CHURCH,CHICAGO,IL,60630,2026,COOK,17031,2009-04-02T00:00:00.000Z,ALT REF,2009-04-02T00:00:00.000Z,CHURCHES,19795632,-87.7755125,41.9698793,CHRISTIAN,NOT AVAILABLE,NOT AVAILABLE,NOT AVAILABLE,N,Y
26418,10444817,SAINT DENIS CHURCH,CHICAGO,IL,60652,3223,COOK,17031,2009-04-01T00:00:00.000Z,ALT REF,2009-04-01T00:00:00.000Z,CHURCHES,19825133,-87.7091023,41.7418521,CHRISTIAN,NOT AVAILABLE,NOT AVAILABLE,NOT AVAILABLE,N,Y
26422,10444835,SAINT EUGENE CHURCH,CHICAGO,IL,60656,1651,COOK,17031,2009-04-01T00:00:00.000Z,ALT REF,2009-04-01T00:00:00.000Z,CHURCHES,19789491,-87.8277798,41.9744046,CHRISTIAN,NOT AVAILABLE,NOT AVAILABLE,NOT AVAILABLE,N,Y
26423,10444843,SAINT GALL CHURCH,CHICAGO,IL,60629,3125,COOK,17031,2009-04-08T00:00:00.000Z,ALT REF,2009-04-08T00:00:00.000Z,CHURCHES,19842767,-87.7040732,41.793091,CHRISTIAN,NOT AVAILABLE,NOT AVAILABLE,NOT AVAILABLE,N,Y
26424,10442969,SAINT GENEVIEVE CHURCH,CHICAGO,IL,60639,2501,COOK,17031,2009-04-02T00:00:00.000Z,ALT REF,2009-04-02T00:00:00.000Z,CHURCHES,19803676,-87.7483629,41.9257992,CHRISTIAN,NOT AVAILABLE,NOT AVAILABLE,NOT AVAILABLE,N,Y
26425,10444845,SAINT GERTRUDE CATHOLIC CHURCH,CHICAGO,IL,60660,1810,COOK,17031,2009-04-01T00:00:00.000Z,ALT REF,2009-04-01T00:00:00.000Z,CHURCHES,19792163,-87.6657014,41.994736,CHRISTIAN,NOT AVAILABLE,NOT AVAILABLE,NOT AVAILABLE,N,Y
26426,10442416,SAINT HEDWIG CATHOLIC CHURCH,CHICAGO,IL,60647,3310,COOK,17031,2009-04-07T00:00:00.000Z,ALT REF,2009-04-07T00:00:00.000Z,CHURCHES,19804670,-87.6806961,41.921806,CHRISTIAN,NOT AVAILABLE,NOT AVAILABLE,NOT AVAILABLE,N,Y
26427,10444851,SAINT HILARY CHURCH,CHICAGO,IL,60659,4817,COOK,17031,2009-04-01T00:00:00.000Z,ALT REF,2009-04-01T00:00:00.000Z,CHURCHES,19793673,-87.6986832,41.9833806,CHRISTIAN,NOT AVAILABLE,NOT AVAILABLE,NOT AVAILABLE,N,Y
26428,10442201,SAINT JEROME CHURCH,CHICAGO,IL,60626,3212,COOK,17031,2009-04-02T00:00:00.000Z,ALT REF,2009-04-02T00:00:00.000Z,CHURCHES,19786513,-87.6725302,42.0085968,CHRISTIAN,NOT AVAILABLE,NOT AVAILABLE,NOT AVAILABLE,N,Y
26429,10444877,SAINT JOSAPHAT CATHOLIC CHURCH,CHICAGO,IL,60614,3116,COOK,17031,2009-04-03T00:00:00.000Z,ALT REF,2009-04-03T00:00:00.000Z,CHURCHES,19804185,-87.6627777,41.9236209,CHRISTIAN,NOT AVAILABLE,NOT AVAILABLE,NOT AVAILABLE,N,Y
26431,10444883,SAINT MALACHY CHURCH,CHICAGO,IL,60612,2236,COOK,17031,2009-04-10T00:00:00.000Z,ALT REF,2009-04-10T00:00:00.000Z,CHURCHES,19812918,-87.6833522,41.8832868,CHRISTIAN,NOT AVAILABLE,NOT AVAILABLE,NOT AVAILABLE,N,Y
26432,10444884,SAINT MARGARET OF SCOTLAND CHURCH,CHICAGO,IL,60643,1445,COOK,17031,2009-03-31T00:00:00.000Z,ALT REF,2009-03-31T00:00:00.000Z,CHURCHES,19827919,-87.6549152,41.7144052,CHRISTIAN,NOT AVAILABLE,NOT AVAILABLE,NOT AVAILABLE,N,Y
26433,10444887,SAINT MARK CATHOLIC CHURCH,CHICAGO,IL,60622,3538,COOK,17031,2009-04-08T00:00:00.000Z,ALT REF,2009-04-08T00:00:00.000Z,CHURCHES,19808674,-87.6900269,41.9009169,CHRISTIAN,NOT AVAILABLE,NOT AVAILABLE,NOT AVAILABLE,N,Y
26435,10444891,SAINT MARY OF THE LAKE CHURCH,CHICAGO,IL,60613,1621,COOK,17031,2009-03-31T00:00:00.000Z,ALT REF,2009-03-31T00:00:00.000Z,CHURCHES,717070036,-87.6552508,41.9588082,CHRISTIAN,NOT AVAILABLE,NOT AVAILABLE,NOT AVAILABLE,N,Y
26437,10444895,SAINT MATTHIAS CHURCH,CHICAGO,IL,60625,1906,COOK,17031,2009-04-06T00:00:00.000Z,ALT REF,2009-04-06T00:00:00.000Z,CHURCHES,19795543,-87.6875095,41.9708247,CHRISTIAN,NOT AVAILABLE,NOT AVAILABLE,NOT AVAILABLE,N,Y
26438,10444898,SAINT MICHAEL THE ARCHANGEL CHURCH,CHICAGO,IL,60609,4050,COOK,17031,2009-04-03T00:00:00.000Z,ALT REF,2009-04-03T00:00:00.000Z,CHURCHES,125158142,-87.6744113,41.806943,CHRISTIAN,NOT AVAILABLE,NOT AVAILABLE,NOT AVAILABLE,N,Y
26439,10444902,SAINT NICHOLAS OF TOLENTINE CHURCH,CHICAGO,IL,60629,4014,COOK,17031,2009-03-31T00:00:00.000Z,ALT REF,2009-03-31T00:00:00.000Z,CHURCHES,19843893,-87.715981,41.7803879,CHRISTIAN,NOT AVAILABLE,NOT AVAILABLE,NOT AVAILABLE,N,Y
26440,10444920,SAINT PASCAL CHURCH,CHICAGO,IL,60634,2527,COOK,17031,2009-04-02T00:00:00.000Z,ALT REF,2009-04-02T00:00:00.000Z,CHURCHES,19798326,-87.7813502,41.9526672,CHRISTIAN,NOT AVAILABLE,NOT AVAILABLE,NOT AVAILABLE,N,Y
26441,10444922,SAINT PAUL CHURCH,CHICAGO,IL,60608,4003,COOK,17031,2009-03-31T00:00:00.000Z,ALT REF,2009-03-31T00:00:00.000Z,CHURCHES,19838008,-87.6789067,41.851001,CHRISTIAN,NOT AVAILABLE,NOT AVAILABLE,NOT AVAILABLE,N,Y
26442,10444927,SAINT PHILOMENA CHURCH,CHICAGO,IL,60639,4954,COOK,17031,2009-04-02T00:00:00.000Z,ALT REF,2009-04-02T00:00:00.000Z,CHURCHES,19805854,-87.7297885,41.9157119,CHRISTIAN,NOT AVAILABLE,NOT AVAILABLE,NOT AVAILABLE,N,Y
26443,10444939,SAINT RITA OF CASCIA CHURCH,CHICAGO,IL,60629,2309,COOK,17031,2009-04-06T00:00:00.000Z,ALT REF,2009-04-06T00:00:00.000Z,CHURCHES,19844064,-87.6916246,41.7796135,CHRISTIAN,NOT AVAILABLE,NOT AVAILABLE,NOT AVAILABLE,N,Y
26444,10444940,SAINT ROBERT BELLARMINE CHURCH,CHICAGO,IL,60630,3157,COOK,17031,2009-04-06T00:00:00.000Z,ALT REF,2009-04-06T00:00:00.000Z,CHURCHES,19796483,-87.7777154,41.9654349,CHRISTIAN,NOT AVAILABLE,NOT AVAILABLE,NOT AVAILABLE,N,Y
26445,10444941,SAINT ROMAN CHURCH,CHICAGO,IL,60608,3615,COOK,17031,2009-04-08T00:00:00.000Z,ALT REF,2009-04-08T00:00:00.000Z,CHURCHES,19838174,-87.6924804,41.8499225,CHRISTIAN,NOT AVAILABLE,NOT AVAILABLE,NOT AVAILABLE,N,Y
26446,10444944,SAINT SIMON THE APOSTLE CHURCH,CHICAGO,IL,60632,2124,COOK,17031,2009-04-07T00:00:00.000Z,ALT REF,2009-04-07T00:00:00.000Z,CHURCHES,19841981,-87.6933427,41.7993828,CHRISTIAN,NOT AVAILABLE,NOT AVAILABLE,NOT AVAILABLE,N,Y
26448,10443013,SAINT SYLVESTER CHURCH,CHICAGO,IL,60647,3856,COOK,17031,2009-03-31T00:00:00.000Z,ALT REF,2009-03-31T00:00:00.000Z,CHURCHES,19804709,-87.7012557,41.9214002,CHRISTIAN,NOT AVAILABLE,NOT AVAILABLE,NOT AVAILABLE,N,Y
26449,10444949,SAINT TARCISSUS CATHOLIC CHURCH,CHICAGO,IL,60646,5320,COOK,17031,2009-03-31T00:00:00.000Z,ALT REF,2009-03-31T00:00:00.000Z,CHURCHES,19793259,-87.779247,41.9868273,CHRISTIAN,NOT AVAILABLE,NOT AVAILABLE,NOT AVAILABLE,N,Y
26450,10444950,SAINT TERESA OF AVILA CHURCH,CHICAGO,IL,60614,4139,COOK,17031,2009-04-02T00:00:00.000Z,ALT REF,2009-04-02T00:00:00.000Z,CHURCHES,19805276,-87.6546777,41.9178044,CHRISTIAN,NOT AVAILABLE,NOT AVAILABLE,NOT AVAILABLE,N,Y
26452,10444955,SAINT THOMAS OF CANTERBURY CHURCH,CHICAGO,IL,60640,3705,COOK,17031,2009-04-14T00:00:00.000Z,ALT REF,2009-04-14T00:00:00.000Z,CHURCHES,19795741,-87.6557984,41.9697548,CHRISTIAN,NOT AVAILABLE,NOT AVAILABLE,NOT AVAILABLE,N,Y
26453,10444959,SAINT TURIBIUS CHURCH,CHICAGO,IL,60629,4441,COOK,17031,2009-04-03T00:00:00.000Z,ALT REF,2009-04-03T00:00:00.000Z,CHURCHES,19842990,-87.7259464,41.7898103,CHRISTIAN,NOT AVAILABLE,NOT AVAILABLE,NOT AVAILABLE,N,Y
26454,10444960,SAINT VINCENT DEPAUL CHURCH,CHICAGO,IL,60614,3503,COOK,17031,2009-03-31T00:00:00.000Z,ALT REF,2009-03-31T00:00:00.000Z,CHURCHES,19804539,-87.6538987,41.9221731,CHRISTIAN,NOT AVAILABLE,NOT AVAILABLE,NOT AVAILABLE,N,Y
26455,10444963,SAINT WILLIAM CHURCH,CHICAGO,IL,60707,1744,COOK,17031,2009-04-07T00:00:00.000Z,ALT REF,2009-04-07T00:00:00.000Z,CHURCHES,19803860,-87.8015146,41.926716,CHRISTIAN,NOT AVAILABLE,NOT AVAILABLE,NOT AVAILABLE,N,Y
26457,10444882,SANTA LUCIA-SANTA MARIA INCORONATA CHURCH,CHICAGO,IL,60616,2740,COOK,17031,2009-04-10T00:00:00.000Z,ALT REF,2009-04-10T00:00:00.000Z,CHURCHES,19839075,-87.6331741,41.8390513,CHRISTIAN,NOT AVAILABLE,NOT AVAILABLE,NOT AVAILABLE,N,Y
26459,10430777,MASJID E TAHOORA,CHICAGO,IL,60645,5645,COOK,17031,2009-05-28T00:00:00.000Z,ALT REF,2009-05-28T00:00:00.000Z,"MOSQUES, RELIGIOUS",19791721,-87.6817694,41.9993706,MUSLIM,NOT AVAILABLE,NOT AVAILABLE,NOT AVAILABLE,N,N
26461,10431747,MASJID AL LATIF,CHICAGO,IL,60609,4804,COOK,17031,2009-05-20T00:00:00.000Z,ALT REF,2009-05-20T00:00:00.000Z,"MOSQUES, RELIGIOUS",19841762,-87.6687816,41.8015009,MUSLIM,NOT AVAILABLE,NOT AVAILABLE,NOT AVAILABLE,N,N
26462,10684960,CHICAGO SHAOLIN TEMPLE,CHICAGO,IL,60608,5550,COOK,17031,2009-06-30T00:00:00.000Z,ALT REF,2009-06-30T00:00:00.000Z,"TEMPLES, RELIGIOUS",111809357,-87.660908,41.8404416,BUDDHIST,"TIBETAN, NYINGMA",NOT AVAILABLE,NOT AVAILABLE,N,N
26463,11532643,LINCOLN PARK ZEN,CHICAGO,IL,60604,2201,COOK,17031,2009-08-04T00:00:00.000Z,ALT REF,2009-08-04T00:00:00.000Z,PLACES OF WORSHIP,19757633,-87.6271782,41.8778264,BUDDHIST,NOT AVAILABLE,NOT AVAILABLE,NOT AVAILABLE,N,N
26465,10444841,SAINT FRANCIS DE SALES CHURCH,CHICAGO,IL,60617,6024,COOK,17031,2009-04-03T00:00:00.000Z,ALT REF,2009-04-03T00:00:00.000Z,CHURCHES,19860238,-87.5349112,41.7109074,CHRISTIAN,NOT AVAILABLE,NOT AVAILABLE,NOT AVAILABLE,N,Y
26466,10452556,PLEASANT GROVE BAPTIST CHURCH,CHICAGO,IL,60644,4602,COOK,17031,2009-07-30T00:00:00.000Z,ALT REF,2009-07-30T00:00:00.000Z,CHURCHES,19813746,-87.7424191,41.8802038,CHRISTIAN,NBC,NOT AVAILABLE,NOT AVAILABLE,Y,N
26467,10430812,DOWNTOWN ISLAMIC CENTER,CHICAGO,IL,60604,1901,COOK,17031,2009-04-16T00:00:00.000Z,ALT REF,2009-04-16T00:00:00.000Z,"MOSQUES, RELIGIOUS",19757634,-87.6272781,41.8786851,MUSLIM,NOT AVAILABLE,NOT AVAILABLE,NOT AVAILABLE,N,N
26468,10431816,MASJID E KAUSAR,CHICAGO,IL,60625,3838,COOK,17031,2007-10-09T00:00:00.000Z,ALT REF,2007-10-09T00:00:00.000Z,"MOSQUES, RELIGIOUS",19796687,-87.7050285,41.9637846,MUSLIM,NOT AVAILABLE,NOT AVAILABLE,NOT AVAILABLE,N,N
26470,10583945,NEW HOPE BIBLE CHURCH,CHICAGO,IL,60622,3505,COOK,17031,2009-04-08T00:00:00.000Z,ALT REF,2009-04-08T00:00:00.000Z,CHURCHES,130099717,-87.6818906,41.9023293,CHRISTIAN,NOT AVAILABLE,NOT AVAILABLE,NOT AVAILABLE,Y,N
26473,10583949,BETHANY UNITED METHODIST CHURCH,CHICAGO,IL,60618,3402,COOK,17031,2009-03-31T00:00:00.000Z,ALT REF,2009-04-02T00:00:00.000Z,CHURCHES,19798256,-87.7058868,41.9522685,CHRISTIAN,NOT AVAILABLE,NOT AVAILABLE,NOT AVAILABLE,Y,N
26475,10760029,SAINT LUKE CHURCH,CHICAGO,IL,60657,3108,COOK,17031,2009-04-06T00:00:00.000Z,ALT REF,2009-04-06T00:00:00.000Z,CHURCHES,716674054,-87.6666707,41.9399675,CHRISTIAN,NOT AVAILABLE,NOT AVAILABLE,NOT AVAILABLE,Y,N
26479,10444923,SAINT PETER'S CHURCH,CHICAGO,IL,60602,4196,COOK,17031,2007-10-04T00:00:00.000Z,ALT REF,2008-09-05T00:00:00.000Z,CHURCHES,20054571,-87.6312163,41.8821979,CHRISTIAN,NOT AVAILABLE,NOT AVAILABLE,NOT AVAILABLE,N,Y
26480,10432436,FOURTH PRESBYTERIAN CHURCH,CHICAGO,IL,60611,2014,COOK,17031,2007-09-10T00:00:00.000Z,ALT REF,2008-09-05T00:00:00.000Z,CHURCHES,130089446,-87.6247391,41.8986633,CHRISTIAN,PCUSA,NOT AVAILABLE,NOT AVAILABLE,Y,N
26487,10426650,CHICAGO LOOP SYNAGOGUE,CHICAGO,IL,60603,1801,COOK,17031,2007-08-03T00:00:00.000Z,PHONE,2008-09-05T00:00:00.000Z,SYNAGOGUES,19757582,-87.6310677,41.8814158,JUDAIC,ORTHODOX,NOT AVAILABLE,SYNAGOGUE,N,N
26488,10428851,LUBAVITCH CHABAD OF THE LOOP,CHICAGO,IL,60610,8341,COOK,17031,2007-08-02T00:00:00.000Z,PHONE,2008-09-05T00:00:00.000Z,SYNAGOGUES,19807860,-87.6304004,41.9047937,JUDAIC,CHABAD,NOT AVAILABLE,CHABAD,N,N
26489,10429694,ANSHE EMET SYNAGOGUE,CHICAGO,IL,60613,4104,COOK,17031,2007-08-03T00:00:00.000Z,PHONE,2008-09-05T00:00:00.000Z,SYNAGOGUES,19798734,-87.6488627,41.9507733,JUDAIC,NOT AVAILABLE,NOT AVAILABLE,NOT AVAILABLE,N,N
26490,10431918,UNITED MUSLIMS MOVING AHEAD,CHICAGO,IL,60614,3673,COOK,17031,2007-10-09T00:00:00.000Z,ALT REF,2008-09-05T00:00:00.000Z,"MOSQUES, RELIGIOUS",19804531,-87.6538643,41.9226613,MUSLIM,NOT AVAILABLE,NOT AVAILABLE,NOT AVAILABLE,N,N
25010,10440189,SAINT RICHARDS EPISCOPAL CHURCH,CHICAGO,IL,60646,4217,COOK,17031,2009-04-06T00:00:00.000Z,ALT REF,2009-04-06T00:00:00.000Z,CHURCHES,125167605,-87.7552478,41.997009,CHRISTIAN,EPIS,NOT AVAILABLE,NOT AVAILABLE,Y,N
25011,10444802,ANNUNCIATA CHURCH,CHICAGO,IL,60617,6925,COOK,17031,2009-04-01T00:00:00.000Z,ALT REF,2009-04-01T00:00:00.000Z,CHURCHES,19861053,-87.5322613,41.6931845,CHRISTIAN,NOT AVAILABLE,NOT AVAILABLE,NOT AVAILABLE,N,Y
25013,10431466,AL SHAHEED MOSQUE,CHICAGO,IL,60609,5002,COOK,17031,2007-10-09T00:00:00.000Z,ALT REF,2007-10-09T00:00:00.000Z,"MOSQUES, RELIGIOUS",19841902,-87.6510075,41.8007958,MUSLIM,NOT AVAILABLE,NOT AVAILABLE,NOT AVAILABLE,N,N
25014,10678011,VIVEKANANDA VEDANTA SOCIETY,CHICAGO,IL,60615,5801,COOK,17031,2009-04-13T00:00:00.000Z,ALT REF,2009-04-13T00:00:00.000Z,PLACES OF WORSHIP,19855147,-87.5836114,41.7974261,HINDU,NOT AVAILABLE,NOT AVAILABLE,NOT AVAILABLE,N,N
25018,10457607,THOMAS ROBERT SENIOR MEMORIAL AFRICAN METHODIST EPISCOPAL CHURCH,CHICAGO,IL,60643,5228,COOK,17031,2008-02-29T00:00:00.000Z,ALT REF,2008-02-29T00:00:00.000Z,CHURCHES,19831545,-87.6448079,41.6804006,CHRISTIAN,AME,NOT AVAILABLE,NOT AVAILABLE,Y,N
25025,10457481,BETHEL AFRICAN METHODIST EPISCOPAL CHURCH,CHICAGO,IL,60653,3117,COOK,17031,2009-04-02T00:00:00.000Z,ALT REF,2009-04-02T00:00:00.000Z,CHURCHES,19854612,-87.6234632,41.8137041,CHRISTIAN,AME,NOT AVAILABLE,NOT AVAILABLE,Y,N
25028,10454485,GREATER REVELATION BAPTIST CHURCH,CHICAGO,IL,60628,3428,COOK,17031,2009-04-08T00:00:00.000Z,ALT REF,2009-04-08T00:00:00.000Z,CHURCHES,19829513,-87.625392,41.6991357,CHRISTIAN,NBC,NOT AVAILABLE,NOT AVAILABLE,Y,N
25029,10430778,CHICAGO ISLAMIC CENTER - MASJID AL QASSAM,CHICAGO,IL,60629,3316,COOK,17031,2007-10-12T00:00:00.000Z,ALT REF,2007-10-12T00:00:00.000Z,"MOSQUES, RELIGIOUS",19844086,-87.7077648,41.7786947,MUSLIM,NOT AVAILABLE,NOT AVAILABLE,NOT AVAILABLE,N,N
25032,10431454,MASJID AL-TAQWA,CHICAGO,IL,60640,2536,COOK,17031,2007-10-09T00:00:00.000Z,ALT REF,2007-10-09T00:00:00.000Z,"MOSQUES, RELIGIOUS",19794695,-87.6532044,41.9761468,MUSLIM,NOT AVAILABLE,NOT AVAILABLE,NOT AVAILABLE,N,N
25033,10444819,CORPUS CHRISTI CHURCH,CHICAGO,IL,60615,2306,COOK,17031,2009-04-08T00:00:00.000Z,ALT REF,2009-04-08T00:00:00.000Z,CHURCHES,19854872,-87.61719,41.8055297,CHRISTIAN,NOT AVAILABLE,NOT AVAILABLE,NOT AVAILABLE,N,Y
25034,10586450,CENTRAL SPANISH BAPTIST CHURCH,CHICAGO,IL,60647,1912,COOK,17031,2009-04-07T00:00:00.000Z,ALT REF,2009-04-07T00:00:00.000Z,CHURCHES,19803858,-87.6898173,41.9255039,CHRISTIAN,ABC,NOT AVAILABLE,NOT AVAILABLE,Y,N
25037,10444857,HOLY ROSARY CHURCH,CHICAGO,IL,60612,1216,COOK,17031,2009-04-01T00:00:00.000Z,ALT REF,2009-04-01T00:00:00.000Z,CHURCHES,19810753,-87.6871889,41.8925138,CHRISTIAN,NOT AVAILABLE,NOT AVAILABLE,NOT AVAILABLE,N,Y
25038,11527234,CHUA TRUC LAM,CHICAGO,IL,60640,5415,COOK,17031,2009-04-15T00:00:00.000Z,ALT REF,2009-04-15T00:00:00.000Z,PLACES OF WORSHIP,19796371,-87.6687531,41.9649699,BUDDHIST,NOT AVAILABLE,NOT AVAILABLE,NOT AVAILABLE,N,N
25042,10454682,NEW MOUNT PILGRIM MISSIONARY BAPTIST CHURCH,CHICAGO,IL,60624,2232,COOK,17031,2009-04-06T00:00:00.000Z,ALT REF,2009-04-06T00:00:00.000Z,CHURCHES,19813206,-87.733307,41.8816208,CHRISTIAN,NBC,NOT AVAILABLE,NOT AVAILABLE,Y,N
25045,10586643,ROGERS PARK BAPTIST CHURCH,CHICAGO,IL,60626,2306,COOK,17031,2009-04-03T00:00:00.000Z,ALT REF,2009-04-03T00:00:00.000Z,CHURCHES,27660471,-87.6783543,42.0103983,CHRISTIAN,ABC,NOT AVAILABLE,NOT AVAILABLE,Y,N
25046,10574941,BLACKWELL MEMORIAL AFRICAN METHODIST EPISCOPAL ZION CHURCH,CHICAGO,IL,60653,2319,COOK,17031,2009-04-07T00:00:00.000Z,ALT REF,2009-04-07T00:00:00.000Z,CHURCHES,19854394,-87.6100883,41.8224041,CHRISTIAN,AMEZ,NOT AVAILABLE,NOT AVAILABLE,Y,N
25051,10440229,SAINT ALBANS EPISCOPAL CHURCH,CHICAGO,IL,60631,2452,COOK,17031,2009-04-02T00:00:00.000Z,ALT REF,2009-04-02T00:00:00.000Z,CHURCHES,19792362,-87.805041,41.9943991,CHRISTIAN,EPIS,NOT AVAILABLE,NOT AVAILABLE,Y,N
25052,10444815,EPIPHANY CATHOLIC CHURCH,CHICAGO,IL,60623,3609,COOK,17031,2009-04-02T00:00:00.000Z,ALT REF,2009-04-02T00:00:00.000Z,CHURCHES,19838541,-87.7297538,41.845674,CHRISTIAN,NOT AVAILABLE,NOT AVAILABLE,NOT AVAILABLE,N,Y
25059,10442200,SANTUARIO DEL DIVINO NINO JESUS DE CHICAGO,CHICAGO,IL,60617,2493,COOK,17031,2009-04-10T00:00:00.000Z,ALT REF,2009-04-10T00:00:00.000Z,CHURCHES,19858716,-87.5614569,41.7364788,CHRISTIAN,NOT AVAILABLE,NOT AVAILABLE,NOT AVAILABLE,N,Y
25064,10431975,APOSTOLIC FAITH CHURCH,CHICAGO,IL,60653,1712,COOK,17031,2007-09-10T00:00:00.000Z,ALT REF,2007-09-10T00:00:00.000Z,CHURCHES,19854360,-87.6211966,41.8246455,CHRISTIAN,NOT AVAILABLE,NOT AVAILABLE,NOT AVAILABLE,Y,N
25065,10431976,THE MOODY CHURCH,CHICAGO,IL,60614,NULL,COOK,17031,2007-09-10T00:00:00.000Z,ALT REF,2007-09-12T00:00:00.000Z,CHURCHES,125159031,-87.6325983,41.9117212,CHRISTIAN,NONDENOM,NOT AVAILABLE,NOT AVAILABLE,Y,N
25083,10433379,EVENING STAR MISSIONARY BAPTIST CHURCH,CHICAGO,IL,60636,1531,COOK,17031,2007-09-18T00:00:00.000Z,ALT REF,2007-09-18T00:00:00.000Z,CHURCHES,19843260,-87.6762642,41.7867941,CHRISTIAN,SBC,1400,NOT AVAILABLE,Y,N
25086,10426648,ANSHE SHOLOM BNAI ISRAEL,CHICAGO,IL,60657,3752,COOK,17031,2009-04-16T00:00:00.000Z,ALT REF,2009-04-15T00:00:00.000Z,SYNAGOGUES,722754573,-87.6434435,41.9414497,JUDAIC,ORTHODOX,NOT AVAILABLE,SYNAGOGUE,N,N
25099,10583938,WEST LAWN BAPTIST CHURCH,CHICAGO,IL,60629,4748,COOK,17031,2009-04-02T00:00:00.000Z,ALT REF,2009-04-02T00:00:00.000Z,CHURCHES,19844309,-87.7235805,41.7766488,CHRISTIAN,BAPT,NOT AVAILABLE,NOT AVAILABLE,Y,N
25102,10438021,SAINT PAULS UNITED CHURCH OF CHRIST,CHICAGO,IL,60614,3355,COOK,17031,2007-09-25T00:00:00.000Z,ALT REF,2007-09-26T00:00:00.000Z,CHURCHES,19803881,-87.6458751,41.9250513,CHRISTIAN,UCC,1609,NOT AVAILABLE,Y,N
25109,10443093,SAINT ADALBERTS CHURCH,CHICAGO,IL,60608,2038,COOK,17031,2009-04-02T00:00:00.000Z,ALT REF,2009-04-02T00:00:00.000Z,CHURCHES,19837089,-87.6678371,41.8590333,CHRISTIAN,NOT AVAILABLE,NOT AVAILABLE,NOT AVAILABLE,N,Y
25113,10438470,THE CHURCH OF JESUS CHRIST OF LATTER DAY SAINTS - LOGAN SQUARE WARD,CHICAGO,IL,60647,1454,COOK,17031,2007-10-16T00:00:00.000Z,ALT REF,2007-10-16T00:00:00.000Z,CHURCHES,19803162,-87.7089093,41.9280149,CHRISTIAN,LDS,NOT AVAILABLE,NOT AVAILABLE,Y,N
25115,10438626,THE CHURCH OF JESUS CHRIST OF LATTER DAY SAINTS - CHICAGO 7TH WARD,CHICAGO,IL,60623,4919,COOK,17031,2007-10-15T00:00:00.000Z,ALT REF,2007-10-15T00:00:00.000Z,CHURCHES,19839541,-87.7251931,41.8334237,CHRISTIAN,LDS,NOT AVAILABLE,NOT AVAILABLE,Y,N
25116,10438691,THE CHURCH OF JESUS CHRIST OF LATTER DAY SAINTS - HYDE PARK 1ST WARD,CHICAGO,IL,60615,4406,COOK,17031,2007-10-16T00:00:00.000Z,ALT REF,2007-10-15T00:00:00.000Z,CHURCHES,19855034,-87.5985951,41.800505,CHRISTIAN,LDS,NOT AVAILABLE,NOT AVAILABLE,Y,N
25117,10438693,THE CHURCH OF JESUS CHRIST OF LATTER DAY SAINTS - CHICAGO 3RD (SPANISH) WARD,CHICAGO,IL,60647,1454,COOK,17031,2007-10-16T00:00:00.000Z,ALT REF,2007-10-16T00:00:00.000Z,CHURCHES,19803162,-87.7089147,41.9279843,CHRISTIAN,LDS,NOT AVAILABLE,NOT AVAILABLE,Y,N
25118,10438754,THE CHURCH OF JESUS CHRIST OF LATTER DAY SAINTS - CHICAGO 2ND (SPANISH) WARD,CHICAGO,IL,60623,4919,COOK,17031,2007-10-15T00:00:00.000Z,ALT REF,2007-12-04T00:00:00.000Z,CHURCHES,19839541,-87.7251948,41.8334213,CHRISTIAN,LDS,NOT AVAILABLE,NOT AVAILABLE,Y,N
25121,10438915,THE CHURCH OF JESUS CHRIST OF LATTER DAY SAINTS - CHICAGO 5TH (SPANISH) WARD,CHICAGO,IL,60625,6024,COOK,17031,2007-10-16T00:00:00.000Z,ALT REF,2007-10-16T00:00:00.000Z,CHURCHES,19795121,-87.7261219,41.9737998,CHRISTIAN,LDS,NOT AVAILABLE,NOT AVAILABLE,Y,N
25125,10439327,THE CHURCH OF JESUS CHRIST OF LATTER DAY SAINTS - MORGAN PARK WARD,CHICAGO,IL,60643,3519,COOK,17031,2007-10-15T00:00:00.000Z,ALT REF,2007-10-15T00:00:00.000Z,CHURCHES,19830295,-87.6632469,41.6915913,CHRISTIAN,LDS,NOT AVAILABLE,NOT AVAILABLE,Y,N
25127,10439488,THE CHURCH OF JESUS CHRIST OF LATTER DAY SAINTS - CHICAGO 8TH (YOUNG SINGLE ADULT) BRANCH,CHICAGO,IL,60615,4406,COOK,17031,2007-10-16T00:00:00.000Z,ALT REF,2007-10-16T00:00:00.000Z,CHURCHES,19855034,-87.5986041,41.8004609,CHRISTIAN,LDS,NOT AVAILABLE,NOT AVAILABLE,Y,N
25129,10762295,KOREAN UNITED PRESBYTERIAN CHURCH OF CHICAGO,CHICAGO,IL,60646,6003,COOK,17031,2009-04-03T00:00:00.000Z,ALT REF,2009-04-03T00:00:00.000Z,CHURCHES,27674826,-87.7345337,41.9875018,CHRISTIAN,PCUSA,486,NOT AVAILABLE,Y,N
25130,10439641,THE CHURCH OF JESUS CHRIST OF LATTER DAY SAINTS - HYDE PARK 2ND (SPANISH) WARD,CHICAGO,IL,60615,4406,COOK,17031,2007-10-17T00:00:00.000Z,ALT REF,2007-10-17T00:00:00.000Z,CHURCHES,19855034,-87.5985922,41.800509,CHRISTIAN,LDS,NOT AVAILABLE,NOT AVAILABLE,Y,N
25135,10439797,THE CHURCH OF JESUS CHRIST OF LATTER DAY SAINTS - BLUE ISLAND (SPANISH) BRANCH,CHICAGO,IL,60643,3519,COOK,17031,2007-10-15T00:00:00.000Z,ALT REF,2007-10-15T00:00:00.000Z,CHURCHES,19830295,-87.6632164,41.6916372,CHRISTIAN,LDS,NOT AVAILABLE,NOT AVAILABLE,Y,N
25137,10439816,THE CHURCH OF JESUS CHRIST OF LATTER DAY SAINTS - CHICAGO 6TH (YOUNG SINGLE ADULT) BRANCH,CHICAGO,IL,60623,4919,COOK,17031,2007-10-15T00:00:00.000Z,ALT REF,2007-12-04T00:00:00.000Z,CHURCHES,19839541,-87.725199,41.8334203,CHRISTIAN,LDS,NOT AVAILABLE,NOT AVAILABLE,Y,N
25140,10440112,THE CHURCH OF JESUS CHRIST OF LATTER DAY SAINTS - CHICAGO 1ST WARD,CHICAGO,IL,60625,6024,COOK,17031,2007-10-16T00:00:00.000Z,ALT REF,2007-10-15T00:00:00.000Z,CHURCHES,19795121,-87.7261219,41.9738323,CHRISTIAN,LDS,NOT AVAILABLE,NOT AVAILABLE,Y,N
25144,10440210,CHURCH OF THE ASCENSION,CHICAGO,IL,60610,NULL,COOK,17031,2007-11-07T00:00:00.000Z,ALT REF,2007-11-07T00:00:00.000Z,CHURCHES,19808299,-87.632566,41.902961,CHRISTIAN,EPIS,NOT AVAILABLE,NOT AVAILABLE,Y,N
25145,10440304,CHURCH OF THE ADVENT,CHICAGO,IL,60647,1704,COOK,17031,2007-11-08T00:00:00.000Z,ALT REF,2007-11-08T00:00:00.000Z,CHURCHES,19803033,-87.7003016,41.9289322,CHRISTIAN,EPIS,NOT AVAILABLE,NOT AVAILABLE,Y,N
25146,10440595,NUESTRA SENORA DE LAS AMERICAS,CHICAGO,IL,60647,1704,COOK,17031,2007-11-08T00:00:00.000Z,ALT REF,2007-11-08T00:00:00.000Z,CHURCHES,19803033,-87.7003027,41.9289375,CHRISTIAN,EPIS,NOT AVAILABLE,NOT AVAILABLE,Y,N
25147,10440596,SAINT CHRYSOSTOM'S EPISCOPAL CHURCH,CHICAGO,IL,60610,1506,COOK,17031,2007-11-07T00:00:00.000Z,ALT REF,2007-11-07T00:00:00.000Z,CHURCHES,19807119,-87.6304903,41.9085122,CHRISTIAN,EPIS,NOT AVAILABLE,NOT AVAILABLE,Y,N
25148,10440598,CHURCH OF OUR SAVIOR,CHICAGO,IL,60614,5919,COOK,17031,2007-11-07T00:00:00.000Z,ALT REF,2007-11-07T00:00:00.000Z,CHURCHES,125167097,-87.6426701,41.9258273,CHRISTIAN,EPIS,NOT AVAILABLE,NOT AVAILABLE,Y,N
25149,10440600,EPISCOPAL CHURCH OF SAINT ELIZABETH AND SANTA TERESA DE AVILA,CHICAGO,IL,60629,3713,COOK,17031,2007-11-07T00:00:00.000Z,ALT REF,2007-11-08T00:00:00.000Z,CHURCHES,19843997,-87.7101531,41.7804783,CHRISTIAN,EPIS,NOT AVAILABLE,NOT AVAILABLE,Y,N
25153,10442417,OUR LADY OF FATIMA CHURCH,CHICAGO,IL,60632,1626,COOK,17031,2007-10-04T00:00:00.000Z,ALT REF,2007-10-04T00:00:00.000Z,CHURCHES,19840140,-87.6943331,41.8234733,CHRISTIAN,NOT AVAILABLE,NOT AVAILABLE,NOT AVAILABLE,N,Y
25155,10442851,SHRINE OF SAINT STEPHEN,CHICAGO,IL,60608,4302,COOK,17031,2007-10-04T00:00:00.000Z,ALT REF,2007-10-04T00:00:00.000Z,"SHRINES, RELIGIOUS",19837967,-87.6731345,41.8516284,CHRISTIAN,NOT AVAILABLE,NOT AVAILABLE,NOT AVAILABLE,N,Y
25156,10442913,SAINT ANGELA CATHOLIC CHURCH,CHICAGO,IL,60651,1132,COOK,17031,2007-10-04T00:00:00.000Z,ALT REF,2007-10-04T00:00:00.000Z,CHURCHES,19808035,-87.7698959,41.9041436,CHRISTIAN,NOT AVAILABLE,NOT AVAILABLE,NOT AVAILABLE,N,Y
25157,10443138,SAINT JOSEPH CHURCH,CHICAGO,IL,60609,4157,COOK,17031,2007-10-04T00:00:00.000Z,ALT REF,2007-10-09T00:00:00.000Z,CHURCHES,19841490,-87.6682947,41.8062951,CHRISTIAN,NOT AVAILABLE,NOT AVAILABLE,NOT AVAILABLE,N,Y
25167,10444792,SAINT ADRIAN'S CHURCH,CHICAGO,IL,60629,1915,COOK,17031,2007-10-04T00:00:00.000Z,ALT REF,2007-10-04T00:00:00.000Z,CHURCHES,19845506,-87.6910483,41.766199,CHRISTIAN,NOT AVAILABLE,NOT AVAILABLE,NOT AVAILABLE,N,Y
25168,10444804,SAINT ANTHONY OF PADUA CHURCH,CHICAGO,IL,60628,5611,COOK,17031,2007-10-03T00:00:00.000Z,ALT REF,2007-10-03T00:00:00.000Z,CHURCHES,19861309,-87.6177328,41.684352,CHRISTIAN,NOT AVAILABLE,NOT AVAILABLE,NOT AVAILABLE,N,Y
25169,10444838,FIVE HOLY MARTYRS CHURCH,CHICAGO,IL,60632,2504,COOK,17031,2007-10-03T00:00:00.000Z,ALT REF,2007-10-03T00:00:00.000Z,CHURCHES,19840738,-87.697826,41.8152417,CHRISTIAN,NOT AVAILABLE,NOT AVAILABLE,NOT AVAILABLE,N,Y
25170,10444842,SAINT GABRIEL CATHOLIC CHURCH,CHICAGO,IL,60609,3423,COOK,17031,2007-10-03T00:00:00.000Z,ALT REF,2007-10-03T00:00:00.000Z,CHURCHES,19840956,-87.6416313,41.8122003,CHRISTIAN,NOT AVAILABLE,NOT AVAILABLE,NOT AVAILABLE,N,Y
25171,10444847,SAINT GREGORY THE GREAT CHURCH,CHICAGO,IL,60640,1113,COOK,17031,2007-10-03T00:00:00.000Z,ALT REF,2007-10-03T00:00:00.000Z,CHURCHES,19793724,-87.6718511,41.982759,CHRISTIAN,NOT AVAILABLE,NOT AVAILABLE,NOT AVAILABLE,N,Y
25172,10444860,SAINT HYACINTH BASILICA CHURCH,CHICAGO,IL,60618,7318,COOK,17031,2007-10-03T00:00:00.000Z,ALT REF,2007-10-03T00:00:00.000Z,CHURCHES,19802142,-87.7186027,41.9332565,CHRISTIAN,NOT AVAILABLE,NOT AVAILABLE,NOT AVAILABLE,N,Y
25173,10444865,IMMACULATE CONCEPTION CHURCH,CHICAGO,IL,60617,3242,COOK,17031,2007-10-01T00:00:00.000Z,ALT REF,2007-10-01T00:00:00.000Z,CHURCHES,19858699,-87.5519451,41.735829,CHRISTIAN,NOT AVAILABLE,NOT AVAILABLE,NOT AVAILABLE,N,Y
25174,10444867,SAINT ITA CHURCH,CHICAGO,IL,60640,1406,COOK,17031,2007-10-03T00:00:00.000Z,ALT REF,2007-10-03T00:00:00.000Z,CHURCHES,19793856,-87.6608707,41.9824207,CHRISTIAN,NOT AVAILABLE,NOT AVAILABLE,NOT AVAILABLE,N,Y
25175,10444875,SAINT JOHN BOSCO CHURCH,CHICAGO,IL,60639,2723,COOK,17031,2007-10-03T00:00:00.000Z,ALT REF,2007-10-03T00:00:00.000Z,CHURCHES,19804633,-87.7762785,41.9222168,CHRISTIAN,NOT AVAILABLE,NOT AVAILABLE,NOT AVAILABLE,N,Y
25176,10444885,SAINT MARGARET MARY CHURCH,CHICAGO,IL,60645,1870,COOK,17031,2007-10-03T00:00:00.000Z,ALT REF,2007-10-03T00:00:00.000Z,CHURCHES,19786185,-87.6886181,42.0143515,CHRISTIAN,NOT AVAILABLE,NOT AVAILABLE,NOT AVAILABLE,N,Y
25177,10444888,SAINT MARTIN DEPORRES CATHOLIC CHURCH,CHICAGO,IL,60644,3440,COOK,17031,2007-10-03T00:00:00.000Z,ALT REF,2007-10-03T00:00:00.000Z,CHURCHES,125167427,-87.7536106,41.8819864,CHRISTIAN,NOT AVAILABLE,NOT AVAILABLE,NOT AVAILABLE,N,Y
25178,10444892,SAINT MARY MAGDALENE CHURCH,CHICAGO,IL,60617,2097,COOK,17031,2007-10-03T00:00:00.000Z,ALT REF,2007-10-03T00:00:00.000Z,CHURCHES,19858331,-87.5592074,41.7423611,CHRISTIAN,NOT AVAILABLE,NOT AVAILABLE,NOT AVAILABLE,N,Y
25179,10444899,SAINT MONICA CHURCH,CHICAGO,IL,60656,3639,COOK,17031,2007-10-03T00:00:00.000Z,ALT REF,2007-10-03T00:00:00.000Z,CHURCHES,19795199,-87.8042431,41.9751444,CHRISTIAN,NOT AVAILABLE,NOT AVAILABLE,NOT AVAILABLE,N,Y
25180,10444903,NOTRE DAME DE CHICAGO CHURCH,CHICAGO,IL,60607,NULL,COOK,17031,2007-10-03T00:00:00.000Z,ALT REF,2007-10-03T00:00:00.000Z,CHURCHES,19835692,-87.6604991,41.8734724,CHRISTIAN,NOT AVAILABLE,NOT AVAILABLE,NOT AVAILABLE,N,Y
25181,10444907,OUR LADY OF GUADALUPE CATHOLIC CHURCH,CHICAGO,IL,60617,4408,COOK,17031,2007-10-04T00:00:00.000Z,ALT REF,2007-10-04T00:00:00.000Z,CHURCHES,19859068,-87.5466987,41.7304011,CHRISTIAN,NOT AVAILABLE,NOT AVAILABLE,NOT AVAILABLE,N,Y
25182,10444909,OUR LADY OF LOURDES CHURCH,CHICAGO,IL,60640,4631,COOK,17031,2007-10-03T00:00:00.000Z,ALT REF,2007-10-03T00:00:00.000Z,CHURCHES,125162611,-87.6698178,41.966584,CHRISTIAN,NOT AVAILABLE,NOT AVAILABLE,NOT AVAILABLE,N,Y
25183,10444914,OUR LADY OF PEACE CHURCH,CHICAGO,IL,60649,5028,COOK,17031,2007-10-03T00:00:00.000Z,ALT REF,2007-10-03T00:00:00.000Z,CHURCHES,19857196,-87.5754094,41.752072,CHRISTIAN,NOT AVAILABLE,NOT AVAILABLE,NOT AVAILABLE,N,Y
25184,10444915,BASILICA OF OUR LADY OF SORROWS CHURCH,CHICAGO,IL,60612,2729,COOK,17031,2007-10-04T00:00:00.000Z,ALT REF,2007-10-04T00:00:00.000Z,CHURCHES,19814103,-87.70404,41.8770011,CHRISTIAN,NOT AVAILABLE,NOT AVAILABLE,NOT AVAILABLE,N,Y
25185,10444921,OLD SAINT PATRICK'S CHURCH,CHICAGO,IL,60661,3512,COOK,17031,2007-10-03T00:00:00.000Z,ALT REF,2007-10-03T00:00:00.000Z,CHURCHES,125165980,-87.6444226,41.8794308,CHRISTIAN,NOT AVAILABLE,NOT AVAILABLE,NOT AVAILABLE,N,Y
25186,10444926,SAINT PHILLIP NERI CHURCH,CHICAGO,IL,60649,3010,COOK,17031,2007-10-03T00:00:00.000Z,ALT REF,2007-10-03T00:00:00.000Z,CHURCHES,19856369,-87.5725966,41.7648638,CHRISTIAN,NOT AVAILABLE,NOT AVAILABLE,NOT AVAILABLE,N,Y
25187,10444937,SAINT RENE GOUPIL CATHOLIC CHURCH,CHICAGO,IL,60638,4836,COOK,17031,2007-10-03T00:00:00.000Z,ALT REF,2007-10-03T00:00:00.000Z,CHURCHES,19823205,-87.7944647,41.7760255,CHRISTIAN,NOT AVAILABLE,NOT AVAILABLE,NOT AVAILABLE,N,Y
25188,10444945,SAINT STANISLAUS BISHOP AND MARTYR CHURCH,CHICAGO,IL,60639,3055,COOK,17031,2007-10-03T00:00:00.000Z,ALT REF,2007-10-03T00:00:00.000Z,CHURCHES,19804553,-87.7603883,41.922658,CHRISTIAN,NOT AVAILABLE,NOT AVAILABLE,NOT AVAILABLE,N,Y
25189,10444946,SAINT STANISLAUS KOSTKA CHURCH,CHICAGO,IL,60622,NULL,COOK,17031,2007-10-03T00:00:00.000Z,ALT REF,2007-10-03T00:00:00.000Z,CHURCHES,19807625,-87.6622558,41.9059235,CHRISTIAN,NOT AVAILABLE,NOT AVAILABLE,NOT AVAILABLE,N,Y
25209,10448318,SAINT MICHAEL CHURCH,CHICAGO,IL,60628,6405,COOK,17031,2007-10-04T00:00:00.000Z,ALT REF,2007-10-04T00:00:00.000Z,CHURCHES,19832374,-87.6354146,41.6722212,CHRISTIAN,NOT AVAILABLE,NOT AVAILABLE,NOT AVAILABLE,N,Y
25211,10448340,SAINT EPHREM CHURCH,CHICAGO,IL,60659,4963,COOK,17031,2007-10-04T00:00:00.000Z,ALT REF,2007-10-04T00:00:00.000Z,CHURCHES,19793667,-87.6934266,41.982902,CHRISTIAN,NOT AVAILABLE,NOT AVAILABLE,NOT AVAILABLE,N,Y
25212,10448341,MART MARIAM CATHOLIC CHURCH,CHICAGO,IL,60645,1211,COOK,17031,2007-10-04T00:00:00.000Z,ALT REF,2007-10-04T00:00:00.000Z,CHURCHES,19786207,-87.7019234,42.0135331,CHRISTIAN,NOT AVAILABLE,NOT AVAILABLE,NOT AVAILABLE,N,Y
25213,10448408,NATIONAL SHRINE OF SAINT JUDE,CHICAGO,IL,60617,4408,COOK,17031,2007-10-04T00:00:00.000Z,ALT REF,2007-10-04T00:00:00.000Z,"SHRINES, RELIGIOUS",19859068,-87.5466999,41.7304129,CHRISTIAN,NOT AVAILABLE,NOT AVAILABLE,NOT AVAILABLE,N,Y
25214,10448410,SHRINE OF OUR LADY OF POMPEII,CHICAGO,IL,60607,4111,COOK,17031,2007-10-04T00:00:00.000Z,ALT REF,2007-10-04T00:00:00.000Z,"SHRINES, RELIGIOUS",19835809,-87.6580864,41.8724544,CHRISTIAN,NOT AVAILABLE,NOT AVAILABLE,NOT AVAILABLE,N,Y
25215,10448414,BLESSED ALOJZIJE CARDINAL STETINAC MISSION CHURCH,CHICAGO,IL,60660,1017,COOK,17031,2007-10-04T00:00:00.000Z,ALT REF,2007-10-04T00:00:00.000Z,CHURCHES,125166168,-87.6771499,41.9975264,CHRISTIAN,NOT AVAILABLE,NOT AVAILABLE,NOT AVAILABLE,N,Y
25216,10448417,SAINT THERESE CHINESE CATHOLIC CHURCH,CHICAGO,IL,60616,1910,COOK,17031,2007-10-04T00:00:00.000Z,ALT REF,2007-10-04T00:00:00.000Z,CHURCHES,19837946,-87.6326173,41.8516569,CHRISTIAN,NOT AVAILABLE,NOT AVAILABLE,NOT AVAILABLE,N,Y
25217,10448653,SAINT FLORIAN CHURCH,CHICAGO,IL,60633,1706,COOK,17031,2007-10-04T00:00:00.000Z,ALT REF,2007-10-04T00:00:00.000Z,CHURCHES,19861739,-87.5478312,41.6565206,CHRISTIAN,NOT AVAILABLE,NOT AVAILABLE,NOT AVAILABLE,N,Y
25221,10442271,THE FAITH COMMUNITY OF SAINT SABINA,CHICAGO,IL,60620,3701,COOK,17031,2009-04-06T00:00:00.000Z,ALT REF,2009-04-06T00:00:00.000Z,CHURCHES,19846534,-87.6548644,41.7516416,CHRISTIAN,NOT AVAILABLE,NOT AVAILABLE,NOT AVAILABLE,N,Y
25223,10452552,FIRST UNITY MISSIONARY BAPTIST CHURCH,CHICAGO,IL,60615,3407,COOK,17031,2008-02-29T00:00:00.000Z,ALT REF,2008-02-29T00:00:00.000Z,CHURCHES,19855041,-87.6205919,41.8010389,CHRISTIAN,NBC,NOT AVAILABLE,NOT AVAILABLE,Y,N
25224,10452546,MOUNT CALVARY BAPTIST CHURCH,CHICAGO,IL,60643,4509,COOK,17031,2008-03-03T00:00:00.000Z,ALT REF,2008-03-03T00:00:00.000Z,CHURCHES,19830186,-87.6542785,41.6919547,CHRISTIAN,NBC,NOT AVAILABLE,NOT AVAILABLE,Y,N
25225,10440590,TRINITY EPISCOPAL CHURCH OF CHICAGO,CHICAGO,IL,60616,2310,COOK,17031,2009-04-02T00:00:00.000Z,ALT REF,2009-04-02T00:00:00.000Z,CHURCHES,19854102,-87.6228774,41.8454211,CHRISTIAN,EPIS,NOT AVAILABLE,NOT AVAILABLE,Y,N
25226,10454583,NEW GREATER SAINT JOHNS COMMUNITY MISSION BAPTIST CHURCH,CHICAGO,IL,60612,1817,COOK,17031,2008-03-03T00:00:00.000Z,ALT REF,2008-03-03T00:00:00.000Z,CHURCHES,19813168,-87.7039751,41.881682,CHRISTIAN,NBC,NOT AVAILABLE,NOT AVAILABLE,Y,N
25235,10457608,ROBINSON CHAPEL AFRICAN METHODIST EPISCOPAL CHURCH,CHICAGO,IL,60617,1322,COOK,17031,2008-02-29T00:00:00.000Z,ALT REF,2008-02-29T00:00:00.000Z,CHURCHES,19857574,-87.5567947,41.7503309,CHRISTIAN,AME,NOT AVAILABLE,NOT AVAILABLE,Y,N
25236,10453071,TRUE LIGHT BAPTIST CHURCH,CHICAGO,IL,60619,1920,COOK,17031,2008-02-29T00:00:00.000Z,ALT REF,2008-02-29T00:00:00.000Z,CHURCHES,19856634,-87.6045641,41.7620485,CHRISTIAN,NBC,NOT AVAILABLE,NOT AVAILABLE,Y,N
25237,10454834,MOUNT MORIAH MISSIONARY BAPTIST CHURCH,CHICAGO,IL,60621,3148,COOK,17031,2008-02-29T00:00:00.000Z,ALT REF,2008-02-29T00:00:00.000Z,CHURCHES,19844119,-87.6366241,41.7782488,CHRISTIAN,NBC,NOT AVAILABLE,NOT AVAILABLE,Y,N
25239,10453744,CHRISTIAN YOUTH CHURCH MISSIONARY BAPTIST CHURCH,CHICAGO,IL,60620,4941,COOK,17031,2008-02-28T00:00:00.000Z,ALT REF,2008-02-28T00:00:00.000Z,CHURCHES,19826051,-87.6661732,41.7337388,CHRISTIAN,NBC,NOT AVAILABLE,NOT AVAILABLE,Y,N
25241,10455257,CHRISTIAN GREATER ROCK MISSIONARY BAPTIST CHURCH,CHICAGO,IL,60612,3629,COOK,17031,2008-02-28T00:00:00.000Z,ALT REF,2008-02-28T00:00:00.000Z,CHURCHES,19814392,-87.6947556,41.8761969,CHRISTIAN,NBC,NOT AVAILABLE,NOT AVAILABLE,Y,N
25242,10457540,D C COLEMAN TEMPLE AFRICAN METHODIST EPISCOPAL CHURCH,CHICAGO,IL,60617,5761,COOK,17031,2008-02-29T00:00:00.000Z,ALT REF,2008-02-29T00:00:00.000Z,CHURCHES,19860342,-87.5600072,41.7085209,CHRISTIAN,AME,NOT AVAILABLE,NOT AVAILABLE,Y,N
25243,10460614,CITYVIEW PRESBYTERIAN CHURCH,CHICAGO,IL,60607,2628,COOK,17031,2008-02-29T00:00:00.000Z,ALT REF,2008-02-29T00:00:00.000Z,CHURCHES,19813404,-87.6499961,41.8808043,CHRISTIAN,PCA,NOT AVAILABLE,NOT AVAILABLE,Y,N
25244,10455501,CHRISTIAN FELLOWSHIP MISSIONARY BAPTIST CHURCH,CHICAGO,IL,60628,5949,COOK,17031,2008-02-28T00:00:00.000Z,ALT REF,2008-02-28T00:00:00.000Z,CHURCHES,19831699,-87.6340036,41.6776374,CHRISTIAN,NBC,NOT AVAILABLE,NOT AVAILABLE,Y,N
25245,10457547,EMMANUEL TEMPLE AFRICAN METHODIST EPISCOPAL CHURCH,CHICAGO,IL,60644,1615,COOK,17031,2008-02-29T00:00:00.000Z,ALT REF,2008-02-29T00:00:00.000Z,CHURCHES,19811590,-87.7533294,41.8911345,CHRISTIAN,AME,NOT AVAILABLE,NOT AVAILABLE,Y,N
25246,10454198,1ST CORINTHIAN MISSIONARY BAPTIST CHURCH,CHICAGO,IL,60620,2436,COOK,17031,2008-03-03T00:00:00.000Z,ALT REF,2008-03-03T00:00:00.000Z,CHURCHES,19846136,-87.6446314,41.7574847,CHRISTIAN,NBC,NOT AVAILABLE,NOT AVAILABLE,Y,N
25248,10453691,GREATER MOUNT SINAI MISSIONARY BAPTIST CHURCH,CHICAGO,IL,60608,1370,COOK,17031,2008-02-29T00:00:00.000Z,ALT REF,2008-02-29T00:00:00.000Z,CHURCHES,19836415,-87.6624014,41.8657837,CHRISTIAN,NBC,NOT AVAILABLE,NOT AVAILABLE,Y,N
25249,10457528,CAREY AFRICAN METHODIST EPISCOPAL TEMPLE CHURCH,CHICAGO,IL,60619,1354,COOK,17031,2008-02-28T00:00:00.000Z,ALT REF,2008-02-28T00:00:00.000Z,CHURCHES,19856404,-87.5979435,41.7643081,CHRISTIAN,AME,NOT AVAILABLE,NOT AVAILABLE,Y,N
25250,10457564,GREATER SAINT PAUL AFRICAN METHODIST EPISCOPAL CHURCH,CHICAGO,IL,60623,2932,COOK,17031,2008-02-29T00:00:00.000Z,ALT REF,2008-02-29T00:00:00.000Z,CHURCHES,19838022,-87.7312239,41.8517568,CHRISTIAN,AME,NOT AVAILABLE,NOT AVAILABLE,Y,N
25251,10454906,GREATER MOUNT VERNON BAPTIST CHURCH,CHICAGO,IL,60621,3122,COOK,17031,2008-02-29T00:00:00.000Z,ALT REF,2008-02-29T00:00:00.000Z,CHURCHES,19844288,-87.6338243,41.7770962,CHRISTIAN,NBC,NOT AVAILABLE,NOT AVAILABLE,Y,N
25252,10453631,HIGH MOUNTAIN MISSIONARY BAPTIST CHURCH,CHICAGO,IL,60651,3121,COOK,17031,2008-02-29T00:00:00.000Z,ALT REF,2008-02-29T00:00:00.000Z,CHURCHES,19809609,-87.7505722,41.8975133,CHRISTIAN,NBC,NOT AVAILABLE,NOT AVAILABLE,Y,N
25253,10444821,SAINT COLUMBANUS CHURCH,CHICAGO,IL,60619,1122,COOK,17031,2009-04-02T00:00:00.000Z,ALT REF,2009-04-02T00:00:00.000Z,CHURCHES,19856324,-87.6179012,41.7652158,CHRISTIAN,NOT AVAILABLE,NOT AVAILABLE,NOT AVAILABLE,N,Y
25254,10455148,LILYDALE PROGRESSIVE MISSIONARY BAPTIST CHURCH,CHICAGO,IL,60628,3510,COOK,17031,2008-02-29T00:00:00.000Z,ALT REF,2008-02-29T00:00:00.000Z,CHURCHES,19860831,-87.6213573,41.6997082,CHRISTIAN,NBC,NOT AVAILABLE,NOT AVAILABLE,Y,N
25255,10456513,SAINT MARY AFRICAN METHODIST EPISCOPAL CHURCH,CHICAGO,IL,60609,6345,COOK,17031,2008-03-03T00:00:00.000Z,ALT REF,2008-03-03T00:00:00.000Z,CHURCHES,19842366,-87.6266035,41.7988166,CHRISTIAN,AME,NOT AVAILABLE,NOT AVAILABLE,Y,N
25257,10453692,THE NEW GREATER EXODUS MISSIONARY BAPTIST CHURCH,CHICAGO,IL,60612,3604,COOK,17031,2008-02-29T00:00:00.000Z,ALT REF,2008-02-29T00:00:00.000Z,CHURCHES,19813879,-87.6989332,41.8784868,CHRISTIAN,NBC,NOT AVAILABLE,NOT AVAILABLE,Y,N
25260,10455134,SHEPHERDS TEMPLE MISSIONARY BAPTIST CHURCH,CHICAGO,IL,60623,1624,COOK,17031,2008-03-05T00:00:00.000Z,ALT REF,2008-03-05T00:00:00.000Z,CHURCHES,19836795,-87.7111438,41.8621698,CHRISTIAN,NBC,NOT AVAILABLE,NOT AVAILABLE,Y,N
25261,10454570,ALPHA TEMPLE MISSIONARY BAPTIST CHURCH,CHICAGO,IL,60621,2509,COOK,17031,2008-03-05T00:00:00.000Z,ALT REF,2008-03-05T00:00:00.000Z,CHURCHES,19844937,-87.6428627,41.7722997,CHRISTIAN,NBC,NOT AVAILABLE,NOT AVAILABLE,Y,N
25264,10453592,BETHLEHEM UNITY MISSIONARY BAPTIST CHURCH,CHICAGO,IL,60644,3940,COOK,17031,2008-03-05T00:00:00.000Z,ALT REF,2008-03-05T00:00:00.000Z,CHURCHES,19813557,-87.7671288,41.8798252,CHRISTIAN,NBC,NOT AVAILABLE,NOT AVAILABLE,Y,N
25265,10455015,SAINT JOHN BAPTIST CHURCH,CHICAGO,IL,60615,1004,COOK,17031,2008-03-05T00:00:00.000Z,ALT REF,2008-03-06T00:00:00.000Z,CHURCHES,19854829,-87.6223458,41.8066842,CHRISTIAN,NBC,NOT AVAILABLE,NOT AVAILABLE,Y,N
25266,10453298,PLEASANT GROVE MISSIONARY BAPTIST CHURCH,CHICAGO,IL,60612,3365,COOK,17031,2008-03-05T00:00:00.000Z,ALT REF,2008-03-05T00:00:00.000Z,CHURCHES,19835976,-87.7005875,41.8717363,CHRISTIAN,NBC,NOT AVAILABLE,NOT AVAILABLE,Y,N
25267,10454009,HOPEWELL MISSIONARY BAPTIST CHURCH,CHICAGO,IL,60612,3523,COOK,17031,2008-03-04T00:00:00.000Z,ALT REF,2008-03-04T00:00:00.000Z,CHURCHES,19835619,-87.6842896,41.8741028,CHRISTIAN,NBC,NOT AVAILABLE,NOT AVAILABLE,Y,N
25274,10453351,CANAAN BAPTIST CHURCH OF CHRIST,CHICAGO,IL,60621,3125,COOK,17031,2008-03-05T00:00:00.000Z,ALT REF,2008-03-05T00:00:00.000Z,CHURCHES,19844714,-87.6328095,41.772879,CHRISTIAN,NBC,NOT AVAILABLE,NOT AVAILABLE,Y,N
25276,10452545,GREATER METROPOLITAN BAPTIST CHURCH,CHICAGO,IL,60637,1108,COOK,17031,2008-03-04T00:00:00.000Z,ALT REF,2008-03-04T00:00:00.000Z,CHURCHES,19857339,-87.6243532,41.7876422,CHRISTIAN,NBC,NOT AVAILABLE,NOT AVAILABLE,Y,N
25277,10457570,HYDE PARK AFRICAN METHODIST EPISCOPAL CHURCH,CHICAGO,IL,60628,6304,COOK,17031,2008-02-29T00:00:00.000Z,ALT REF,2008-02-29T00:00:00.000Z,CHURCHES,19832043,-87.6338881,41.674491,CHRISTIAN,AME,NOT AVAILABLE,NOT AVAILABLE,Y,N
25279,10454635,NEW BETHLEHEM NUMBER 4 MISSIONARY BAPTIST CHURCH,CHICAGO,IL,60619,6930,COOK,17031,2008-03-05T00:00:00.000Z,ALT REF,2008-03-05T00:00:00.000Z,CHURCHES,19858907,-87.6051938,41.7334116,CHRISTIAN,NBC,NOT AVAILABLE,NOT AVAILABLE,Y,N
25280,10453364,SAINT JOHN EVANGELIST MISSIONARY BAPTIST CHURCH,CHICAGO,IL,60636,1945,COOK,17031,2008-03-05T00:00:00.000Z,ALT REF,2008-03-05T00:00:00.000Z,CHURCHES,19843982,-87.6562981,41.7799133,CHRISTIAN,NBC,NOT AVAILABLE,NOT AVAILABLE,Y,N
25281,10453780,SAINT REST MISSIONARY BAPTIST CHURCH,CHICAGO,IL,60639,4013,COOK,17031,2008-03-04T00:00:00.000Z,ALT REF,2008-03-03T00:00:00.000Z,CHURCHES,19806977,-87.7737198,41.9095468,CHRISTIAN,NBC,NOT AVAILABLE,NOT AVAILABLE,Y,N
25282,10455467,TRAVELERS REST MISSIONARY BAPTIST CHURCH,CHICAGO,IL,60636,3428,COOK,17031,2008-03-05T00:00:00.000Z,ALT REF,2008-03-05T00:00:00.000Z,CHURCHES,19845140,-87.6621678,41.7683683,CHRISTIAN,NBC,NOT AVAILABLE,NOT AVAILABLE,Y,N
25284,10453851,UNION TABERNACLE BAPTIST CHURCH,CHICAGO,IL,60621,3111,COOK,17031,2008-03-04T00:00:00.000Z,ALT REF,2008-03-04T00:00:00.000Z,CHURCHES,19844635,-87.6344424,41.7734795,CHRISTIAN,NBC,NOT AVAILABLE,NOT AVAILABLE,Y,N
25285,10452374,WEST POINT BAPTIST CHURCH,CHICAGO,IL,60653,1471,COOK,17031,2008-03-04T00:00:00.000Z,ALT REF,2008-03-04T00:00:00.000Z,CHURCHES,706844332,-87.6100213,41.829275,CHRISTIAN,NBC,NOT AVAILABLE,NOT AVAILABLE,Y,N
25286,10574945,GREATER WALTERS AFRICAN METHODIST EPISCOPAL ZION CHURCH,CHICAGO,IL,60620,6022,COOK,17031,2009-04-03T00:00:00.000Z,ALT REF,2009-04-03T00:00:00.000Z,CHURCHES,125158153,-87.6732524,41.7404482,CHRISTIAN,AMEZ,NOT AVAILABLE,NOT AVAILABLE,Y,N
25289,10443078,SAINT KILIAN CATHOLIC CHURCH,CHICAGO,IL,60620,3450,COOK,17031,2009-04-02T00:00:00.000Z,ALT REF,2009-04-02T00:00:00.000Z,CHURCHES,19825828,-87.6517498,41.7354993,CHRISTIAN,NOT AVAILABLE,NOT AVAILABLE,NOT AVAILABLE,N,Y
25290,10454753,OLIVET BAPTIST CHURCH,CHICAGO,IL,60616,NULL,COOK,17031,2008-02-29T00:00:00.000Z,ALT REF,2008-02-29T00:00:00.000Z,CHURCHES,19854167,-87.6167248,41.838139,CHRISTIAN,NBC,NOT AVAILABLE,NOT AVAILABLE,Y,N
25292,10455114,SOUL SAVING MISSION BAPTIST CHURCH,CHICAGO,IL,60651,3158,COOK,17031,2008-03-03T00:00:00.000Z,ALT REF,2008-03-03T00:00:00.000Z,CHURCHES,19808321,-87.7494248,41.902491,CHRISTIAN,NBC,NOT AVAILABLE,NOT AVAILABLE,Y,N
25294,10453407,SAINT MICHAEL BAPTIST CHURCH,CHICAGO,IL,60624,2719,COOK,17031,2008-03-05T00:00:00.000Z,ALT REF,2008-03-11T00:00:00.000Z,CHURCHES,19813599,-87.7296121,41.8799803,CHRISTIAN,NBC,NOT AVAILABLE,NOT AVAILABLE,Y,N
25295,10454387,MOUNT VERNON MISSION BAPTIST CHURCH,CHICAGO,IL,60624,1346,COOK,17031,2008-02-29T00:00:00.000Z,ALT REF,2008-02-29T00:00:00.000Z,CHURCHES,19810420,-87.7157515,41.8932453,CHRISTIAN,NBC,NOT AVAILABLE,NOT AVAILABLE,Y,N
25296,10457529,CAREY TERCENTENARY AFRICAN METHODIST EPISCOPAL TEMPLE CHURCH,CHICAGO,IL,60623,1647,COOK,17031,2008-02-28T00:00:00.000Z,ALT REF,2008-02-28T00:00:00.000Z,CHURCHES,19836909,-87.7107243,41.8610152,CHRISTIAN,AME,NOT AVAILABLE,NOT AVAILABLE,Y,N
25297,10452553,MONUMENTAL BAPTIST CHURCH,CHICAGO,IL,60653,2311,COOK,17031,2008-03-04T00:00:00.000Z,ALT REF,2008-03-04T00:00:00.000Z,CHURCHES,19854372,-87.6085648,41.822411,CHRISTIAN,NBC,NOT AVAILABLE,NOT AVAILABLE,Y,N
25298,10454668,NEW HOME BAPTIST CHURCH,CHICAGO,IL,60644,5237,COOK,17031,2008-03-12T00:00:00.000Z,ALT REF,2008-03-12T00:00:00.000Z,CHURCHES,19836068,-87.7452563,41.8706268,CHRISTIAN,NBC,NOT AVAILABLE,NOT AVAILABLE,Y,N
25299,10455396,PLEASANT GROVE BAPTIST CHURCH,CHICAGO,IL,60612,3669,COOK,17031,2008-03-03T00:00:00.000Z,ALT REF,2008-03-03T00:00:00.000Z,CHURCHES,19814397,-87.6959854,41.8764367,CHRISTIAN,NBC,NOT AVAILABLE,NOT AVAILABLE,Y,N
25301,10454109,ORIGINAL MOUNT PROVIDENCE BAPTIST CHURCH,CHICAGO,IL,60644,1527,COOK,17031,2008-03-04T00:00:00.000Z,ALT REF,2008-03-04T00:00:00.000Z,CHURCHES,19811682,-87.7631075,41.8892067,CHRISTIAN,NBC,NOT AVAILABLE,NOT AVAILABLE,Y,N
25302,10452432,ANTIOCH BAPTIST CHURCH SOUTH,CHICAGO,IL,60621,2402,COOK,17031,2008-03-04T00:00:00.000Z,ALT REF,2008-03-04T00:00:00.000Z,CHURCHES,19845232,-87.6343902,41.767341,CHRISTIAN,NBC,NOT AVAILABLE,NOT AVAILABLE,Y,N
25303,10453866,ZION HILL MISSIONARY BAPTIST CHURCH,CHICAGO,IL,60620,4121,COOK,17031,2008-03-04T00:00:00.000Z,ALT REF,2008-03-04T00:00:00.000Z,CHURCHES,19846471,-87.6615334,41.7526035,CHRISTIAN,NBC,NOT AVAILABLE,NOT AVAILABLE,Y,N
25304,10453358,UNITY FELLOWSHIP BAPTIST CHURCH,CHICAGO,IL,60644,2621,COOK,17031,2008-03-04T00:00:00.000Z,ALT REF,2008-03-04T00:00:00.000Z,CHURCHES,19812692,-87.7451454,41.8847422,CHRISTIAN,NBC,NOT AVAILABLE,NOT AVAILABLE,Y,N
25305,10460613,CHURCH OF THE NATIONS,CHICAGO,IL,60630,NULL,COOK,17031,2008-02-29T00:00:00.000Z,ALT REF,2008-02-29T00:00:00.000Z,CHURCHES,19794983,-87.751424,41.9755045,CHRISTIAN,PCA,NOT AVAILABLE,NOT AVAILABLE,Y,N
25306,10456359,LOVE OUTREACH AFRICAN METHODIST EPISCOPAL CHURCH,CHICAGO,IL,60623,1015,COOK,17031,2008-02-29T00:00:00.000Z,ALT REF,2008-02-29T00:00:00.000Z,CHURCHES,19837140,-87.7367609,41.8589475,CHRISTIAN,AME,NOT AVAILABLE,NOT AVAILABLE,Y,N
25309,10459909,BETHEL CHRISTIAN CHURCH,CHICAGO,IL,60641,2602,COOK,17031,2008-02-28T00:00:00.000Z,ALT REF,2008-02-28T00:00:00.000Z,CHURCHES,19798547,-87.7500329,41.9504057,CHRISTIAN,PCA,NOT AVAILABLE,NOT AVAILABLE,Y,N
25310,10455244,PLEASANT GREEN MISSIONARY BAPTIST CHURCH,CHICAGO,IL,60620,1620,COOK,17031,2008-02-29T00:00:00.000Z,ALT REF,2008-03-11T00:00:00.000Z,CHURCHES,19846113,-87.6316448,41.7567473,CHRISTIAN,NBC,NOT AVAILABLE,NOT AVAILABLE,Y,N
25311,10454312,GREAT TRUE VINE MISSION BAPTIST CHURCH,CHICAGO,IL,60651,1033,COOK,17031,2008-03-05T00:00:00.000Z,ALT REF,2008-03-05T00:00:00.000Z,CHURCHES,19808401,-87.7744314,41.9021924,CHRISTIAN,NBC,NOT AVAILABLE,NOT AVAILABLE,Y,N
25314,10453849,GREATER GARFIELD PARK MISSIONARY BAPTIST CHURCH,CHICAGO,IL,60647,3917,COOK,17031,2008-03-05T00:00:00.000Z,ALT REF,2008-03-05T00:00:00.000Z,CHURCHES,19804819,-87.7003527,41.9208648,CHRISTIAN,NBC,NOT AVAILABLE,NOT AVAILABLE,Y,N
25315,10453327,WAY OF THE TRUTH BAPTIST CHURCH,CHICAGO,IL,60629,2836,COOK,17031,2008-03-04T00:00:00.000Z,ALT REF,2008-03-04T00:00:00.000Z,CHURCHES,19844458,-87.6936064,41.7756482,CHRISTIAN,NBC,NOT AVAILABLE,NOT AVAILABLE,Y,N
25316,10457671,WARD CHAPEL AFRICAN METHODIST EPISCOPAL CHURCH,CHICAGO,IL,60619,7732,COOK,17031,2008-03-04T00:00:00.000Z,ALT REF,2008-03-04T00:00:00.000Z,CHURCHES,19859538,-87.6054897,41.7251902,CHRISTIAN,AME,NOT AVAILABLE,NOT AVAILABLE,Y,N
25332,10453175,LILYDALE FIRST BAPTIST CHURCH,CHICAGO,IL,60628,4701,COOK,17031,2009-04-08T00:00:00.000Z,ALT REF,2009-04-08T00:00:00.000Z,CHURCHES,19830563,-87.6395677,41.6885345,CHRISTIAN,NBC,NOT AVAILABLE,NOT AVAILABLE,Y,N
25333,10440601,CHURCH OF THE MEDIATOR,CHICAGO,IL,60643,3322,COOK,17031,2009-04-08T00:00:00.000Z,ALT REF,2009-04-08T00:00:00.000Z,CHURCHES,19829978,-87.673783,41.6943977,CHRISTIAN,EPIS,NOT AVAILABLE,NOT AVAILABLE,Y,N
25334,10444836,SAINT FERDINAND CHURCH,CHICAGO,IL,60634,5128,COOK,17031,2009-04-02T00:00:00.000Z,ALT REF,2009-04-02T00:00:00.000Z,CHURCHES,19801371,-87.7744317,41.9369047,CHRISTIAN,NOT AVAILABLE,NOT AVAILABLE,NOT AVAILABLE,N,Y
25335,10444862,IMMACULATE CONCEPTION CHURCH,CHICAGO,IL,60610,1226,COOK,17031,2009-04-03T00:00:00.000Z,ALT REF,2009-04-03T00:00:00.000Z,CHURCHES,19807182,-87.6359326,41.9085484,CHRISTIAN,NOT AVAILABLE,NOT AVAILABLE,NOT AVAILABLE,N,Y
25338,10444864,IMMACULATE CONCEPTION CHURCH,CHICAGO,IL,60632,1946,COOK,17031,2009-04-08T00:00:00.000Z,ALT REF,2009-04-08T00:00:00.000Z,CHURCHES,19840731,-87.6939366,41.8132867,CHRISTIAN,NOT AVAILABLE,NOT AVAILABLE,NOT AVAILABLE,N,Y
25341,10453740,SHILOH BAPTIST CHURCH,CHICAGO,IL,60636,3509,COOK,17031,2009-04-02T00:00:00.000Z,ALT REF,2009-04-03T00:00:00.000Z,CHURCHES,19845428,-87.6544806,41.7653105,CHRISTIAN,NBC,NOT AVAILABLE,NOT AVAILABLE,Y,N
25343,10460056,GRACE CHICAGO CHURCH,CHICAGO,IL,60622,5470,COOK,17031,2008-02-29T00:00:00.000Z,ALT REF,2008-02-29T00:00:00.000Z,CHURCHES,19809799,-87.6485062,41.8959268,CHRISTIAN,PCA,NOT AVAILABLE,NOT AVAILABLE,Y,N
25344,10444896,SAINT MAURICE CHURCH,CHICAGO,IL,60609,1147,COOK,17031,2009-04-09T00:00:00.000Z,ALT REF,2009-04-09T00:00:00.000Z,CHURCHES,19839953,-87.6772021,41.8283128,CHRISTIAN,NOT AVAILABLE,NOT AVAILABLE,NOT AVAILABLE,N,Y
25346,10455513,PROVIDENCE MISSIONARY BAPTIST CHURCH,CHICAGO,IL,60620,4708,COOK,17031,2009-04-06T00:00:00.000Z,ALT REF,2009-04-06T00:00:00.000Z,CHURCHES,19825295,-87.662727,41.7410748,CHRISTIAN,NBC,NOT AVAILABLE,NOT AVAILABLE,Y,N
25354,10457637,SAINT MARK AFRICAN METHODIST EPISCOPAL CHURCH,CHICAGO,IL,60612,1839,COOK,17031,2008-02-29T00:00:00.000Z,ALT REF,2008-03-03T00:00:00.000Z,CHURCHES,19813005,-87.7031379,41.8833971,CHRISTIAN,AME,NOT AVAILABLE,NOT AVAILABLE,Y,N
25355,10576447,PULLMAN CHRISTIAN REFORMED CHURCH,CHICAGO,IL,60628,2974,COOK,17031,2009-04-07T00:00:00.000Z,ALT REF,2009-04-07T00:00:00.000Z,CHURCHES,19860400,-87.6128995,41.7074892,CHRISTIAN,CRC,NOT AVAILABLE,NOT AVAILABLE,Y,N
25361,10444837,SAINT FIDELIS CHURCH,CHICAGO,IL,60622,1631,COOK,17031,2009-04-08T00:00:00.000Z,ALT REF,2009-04-08T00:00:00.000Z,CHURCHES,19807440,-87.6947954,41.9069077,CHRISTIAN,NOT AVAILABLE,NOT AVAILABLE,NOT AVAILABLE,N,Y
25363,10440604,THE CHURCH OF SAINT PAUL AND THE REDEEMER,CHICAGO,IL,60615,2907,COOK,17031,2009-04-02T00:00:00.000Z,ALT REF,2009-04-02T00:00:00.000Z,CHURCHES,19854841,-87.5914641,41.8044514,CHRISTIAN,EPIS,NOT AVAILABLE,NOT AVAILABLE,Y,N
25364,10444880,SAINT KEVIN CHURCH,CHICAGO,IL,60617,6154,COOK,17031,2009-04-03T00:00:00.000Z,ALT REF,2009-04-03T00:00:00.000Z,CHURCHES,19860635,-87.559157,41.7043545,CHRISTIAN,NOT AVAILABLE,NOT AVAILABLE,NOT AVAILABLE,N,Y
25365,10444793,SAINT AGATHA CATHOLIC CHURCH,CHICAGO,IL,60623,1816,COOK,17031,2009-04-01T00:00:00.000Z,ALT REF,2009-04-01T00:00:00.000Z,CHURCHES,16881703,-87.70496,41.8622931,CHRISTIAN,NOT AVAILABLE,NOT AVAILABLE,NOT AVAILABLE,N,Y
25366,10444800,SAINT ANDREW CHURCH,CHICAGO,IL,60657,1227,COOK,17031,2009-04-02T00:00:00.000Z,ALT REF,2009-04-02T00:00:00.000Z,CHURCHES,19799556,-87.6718201,41.9467834,CHRISTIAN,NOT AVAILABLE,NOT AVAILABLE,NOT AVAILABLE,N,Y
25368,10444932,SAINT PROCOPIUS CATHOLIC CHURCH,CHICAGO,IL,60608,2131,COOK,17031,2009-04-02T00:00:00.000Z,ALT REF,2009-04-02T00:00:00.000Z,CHURCHES,19837186,-87.6573817,41.8582401,CHRISTIAN,NOT AVAILABLE,NOT AVAILABLE,NOT AVAILABLE,N,Y
25371,10453391,LOVE AND FAITH MISSIONARY CHURCH,CHICAGO,IL,60612,3437,COOK,17031,2008-03-05T00:00:00.000Z,ALT REF,2008-03-05T00:00:00.000Z,CHURCHES,19835650,-87.6940837,41.8744338,CHRISTIAN,NBC,NOT AVAILABLE,NOT AVAILABLE,Y,N
25372,10453571,LOGOS BAPTIST ASSEMBLY,CHICAGO,IL,60628,3125,COOK,17031,2008-03-03T00:00:00.000Z,ALT REF,2008-03-03T00:00:00.000Z,CHURCHES,19829745,-87.6420702,41.696806,CHRISTIAN,NBC,NOT AVAILABLE,NOT AVAILABLE,Y,N
25377,10457657,SAINT STEPHENS AFRICAN METHODIST EPISCOPAL CHURCH,CHICAGO,IL,60612,2235,COOK,17031,2008-03-04T00:00:00.000Z,ALT REF,2008-03-04T00:00:00.000Z,CHURCHES,19812918,-87.6832217,41.8827531,CHRISTIAN,AME,NOT AVAILABLE,NOT AVAILABLE,Y,N
25382,10448274,SAINTS PETER AND PAUL MISSION CHURCH,CHICAGO,IL,60647,2809,COOK,17031,2007-10-09T00:00:00.000Z,ALT REF,2007-10-09T00:00:00.000Z,CHURCHES,19803921,-87.705141,41.9244478,CHRISTIAN,NOT AVAILABLE,NOT AVAILABLE,NOT AVAILABLE,N,Y
25383,10457600,QUINN CHAPEL AFRICAN METHODIST EPISCOPAL CHURCH,CHICAGO,IL,60616,2306,COOK,17031,2008-02-29T00:00:00.000Z,ALT REF,2008-02-29T00:00:00.000Z,CHURCHES,19838191,-87.6251505,41.8490329,CHRISTIAN,AME,NOT AVAILABLE,NOT AVAILABLE,Y,N
25384,10427327,MAKOM SHALOM THE COMMUNITY,CHICAGO,IL,60618,4908,COOK,17031,2007-07-23T00:00:00.000Z,PHONE,2007-07-23T00:00:00.000Z,SYNAGOGUES,19798710,-87.6788757,41.9498527,JUDAIC,LIBERAL,NOT AVAILABLE,SYNAGOGUE,N,N
25390,10457653,SAINT PAUL AFRICAN METHODIST EPISCOPAL CHURCH - SOUTH,CHICAGO,IL,60617,3444,COOK,17031,2008-03-03T00:00:00.000Z,ALT REF,2008-03-03T00:00:00.000Z,CHURCHES,19858932,-87.5426888,41.7333756,CHRISTIAN,AME,NOT AVAILABLE,NOT AVAILABLE,Y,N
25391,10448415,O'HARE AIRPORT CHAPEL,CHICAGO,IL,60666,5037,COOK,17031,2007-10-02T00:00:00.000Z,ALT REF,2007-10-02T00:00:00.000Z,CHURCHES,19789088,-87.9049217,41.9764817,OTHER,NOT AVAILABLE,NOT AVAILABLE,NOT AVAILABLE,Y,Y
25393,10437850,SAINT MARK UNITED METHODIST CHURCH,CHICAGO,IL,60619,6022,COOK,17031,2007-09-24T00:00:00.000Z,ALT REF,2007-09-24T00:00:00.000Z,CHURCHES,19858395,-87.6093812,41.7405268,CHRISTIAN,UMC,NOT AVAILABLE,NOT AVAILABLE,Y,N
25396,10444822,SAINT COLUMBA CHURCH,CHICAGO,IL,60633,1509,COOK,17031,2007-10-03T00:00:00.000Z,ALT REF,2007-10-03T00:00:00.000Z,CHURCHES,19861871,-87.5407007,41.6531325,CHRISTIAN,NOT AVAILABLE,NOT AVAILABLE,NOT AVAILABLE,N,Y
25402,10444956,SAINT THOMAS MORE CHURCH,CHICAGO,IL,60652,2722,COOK,17031,2007-10-03T00:00:00.000Z,ALT REF,2007-10-03T00:00:00.000Z,CHURCHES,19824638,-87.6930157,41.7460021,CHRISTIAN,NOT AVAILABLE,NOT AVAILABLE,NOT AVAILABLE,N,Y
25408,10427737,CONGREGATION KOL AMI,CHICAGO,IL,60611,2252,COOK,17031,2007-07-20T00:00:00.000Z,PHONE,2007-07-20T00:00:00.000Z,SYNAGOGUES,19809218,-87.623614,41.897972,JUDAIC,REFORM,135,NOT AVAILABLE,N,N
25412,10453320,FELLOWSHIP MISSIONARY BAPTIST CHURCH,CHICAGO,IL,60609,3620,COOK,17031,2008-02-29T00:00:00.000Z,ALT REF,2008-02-29T00:00:00.000Z,CHURCHES,19840928,-87.6330239,41.8114065,CHRISTIAN,NBC,NOT AVAILABLE,NOT AVAILABLE,Y,N
25413,10428431,CHABAD ISRAELI CENTER,CHICAGO,IL,60659,1417,COOK,17031,2007-08-06T00:00:00.000Z,ALT REF,2007-08-06T00:00:00.000Z,SYNAGOGUES,19792266,-87.7052205,41.9947531,JUDAIC,CHABAD,NOT AVAILABLE,CHABAD,N,N
25414,10448681,MIDWAY AIRPORT CHAPEL,CHICAGO,IL,60638,3831,COOK,17031,2007-10-02T00:00:00.000Z,ALT REF,2007-10-02T00:00:00.000Z,CHURCHES,125156668,-87.7418989,41.7893427,OTHER,NOT AVAILABLE,NOT AVAILABLE,NOT AVAILABLE,Y,Y
25420,10456262,RUBY MEMORIAL AFRICAN METHODIST EPISCOPAL CHURCH,CHICAGO,IL,60651,3641,COOK,17031,2008-02-29T00:00:00.000Z,ALT REF,2008-02-29T00:00:00.000Z,CHURCHES,19809021,-87.7258182,41.8999623,CHRISTIAN,AME,NOT AVAILABLE,NOT AVAILABLE,Y,N
25421,10453552,SUNSHINE MISSIONARY BAPTIST CHURCH,CHICAGO,IL,60624,4225,COOK,17031,2008-03-05T00:00:00.000Z,ALT REF,2008-03-05T00:00:00.000Z,CHURCHES,19836433,-87.7176446,41.8665698,CHRISTIAN,NBC,NOT AVAILABLE,NOT AVAILABLE,Y,N
25427,10444814,SAINT BENEDICT THE AFRICAN WEST CHURCH,CHICAGO,IL,60636,3707,COOK,17031,2007-10-03T00:00:00.000Z,ALT REF,2007-10-03T00:00:00.000Z,CHURCHES,19845464,-87.6692921,41.7651548,CHRISTIAN,NOT AVAILABLE,NOT AVAILABLE,NOT AVAILABLE,N,Y
25428,10444797,SAINT ALOYSIUS CATHOLIC CHURCH,CHICAGO,IL,60622,1729,COOK,17031,2007-10-03T00:00:00.000Z,ALT REF,2007-10-03T00:00:00.000Z,CHURCHES,19807023,-87.6854186,41.9087841,CHRISTIAN,NOT AVAILABLE,NOT AVAILABLE,NOT AVAILABLE,N,Y
25442,10455246,GREATER GALILEE MISSIONARY BAPTIST CHURCH,CHICAGO,IL,60623,1447,COOK,17031,2008-03-04T00:00:00.000Z,ALT REF,2008-03-04T00:00:00.000Z,CHURCHES,19836711,-87.720611,41.8639942,CHRISTIAN,NBC,NOT AVAILABLE,NOT AVAILABLE,Y,N
25443,10454567,MOUNT EBENEZER MISSIONARY BAPTIST CHURCH,CHICAGO,IL,60623,2169,COOK,17031,2008-02-29T00:00:00.000Z,ALT REF,2008-02-29T00:00:00.000Z,CHURCHES,19837084,-87.7137338,41.8598054,CHRISTIAN,NBC,NOT AVAILABLE,NOT AVAILABLE,Y,N
25444,10433693,FIRST CORINTHIANS BAPTIST CHURCH,CHICAGO,IL,60628,4835,COOK,17031,2007-09-18T00:00:00.000Z,ALT REF,2007-09-18T00:00:00.000Z,CHURCHES,19861207,-87.6225692,41.6875837,CHRISTIAN,SBC,1412,NOT AVAILABLE,Y,N
25448,10431973,NEW LIFE COMMUNITY CHURCH - MIDWAY,CHICAGO,IL,60632,4205,COOK,17031,2007-09-10T00:00:00.000Z,ALT REF,2007-09-10T00:00:00.000Z,CHURCHES,19842043,-87.7278614,41.8001418,CHRISTIAN,NOT AVAILABLE,NOT AVAILABLE,NOT AVAILABLE,Y,N
25452,10444961,SAINT WALTER CATHOLIC CHURCH,CHICAGO,IL,60643,4726,COOK,17031,2009-04-02T00:00:00.000Z,ALT REF,2009-04-02T00:00:00.000Z,CHURCHES,19831602,-87.6801802,41.6794317,CHRISTIAN,NOT AVAILABLE,NOT AVAILABLE,NOT AVAILABLE,N,Y
25453,10457683,WOODLAWN AFRICAN METHODIST EPISCOPAL CHURCH,CHICAGO,IL,60637,3412,COOK,17031,2009-04-10T00:00:00.000Z,ALT REF,2009-04-10T00:00:00.000Z,CHURCHES,19855740,-87.607411,41.7769142,CHRISTIAN,AME,NOT AVAILABLE,NOT AVAILABLE,Y,N
25455,10444873,SAINT JOHN DE LA SALLE CATHOLIC CHURCH,CHICAGO,IL,60628,2109,COOK,17031,2009-04-03T00:00:00.000Z,ALT REF,2009-04-03T00:00:00.000Z,CHURCHES,125165004,-87.61307,41.7089611,CHRISTIAN,NOT AVAILABLE,NOT AVAILABLE,NOT AVAILABLE,N,Y
25456,10684657,LINCOLN PARK ZEN,CHICAGO,IL,60614,3673,COOK,17031,2009-07-29T00:00:00.000Z,ALT REF,2009-07-29T00:00:00.000Z,PLACES OF WORSHIP,19804531,-87.6541516,41.9232021,BUDDHIST,KWAN UM ZEN,NOT AVAILABLE,NOT AVAILABLE,N,N
25458,10444917,OUR LADY OF VICTORY CHURCH,CHICAGO,IL,60630,3704,COOK,17031,2009-04-03T00:00:00.000Z,ALT REF,2009-04-03T00:00:00.000Z,CHURCHES,19796969,-87.7586116,41.9618497,CHRISTIAN,NOT AVAILABLE,NOT AVAILABLE,NOT AVAILABLE,N,Y
25459,10444798,SAINT ALPHONSUS CHURCH,CHICAGO,IL,60657,4121,COOK,17031,2009-04-03T00:00:00.000Z,ALT REF,2009-04-03T00:00:00.000Z,CHURCHES,19801365,-87.6642999,41.9358291,CHRISTIAN,NOT AVAILABLE,NOT AVAILABLE,NOT AVAILABLE,N,Y
25462,10444952,SAINT THECLA CATHOLIC CHURCH,CHICAGO,IL,60631,2005,COOK,17031,2009-04-02T00:00:00.000Z,ALT REF,2009-04-02T00:00:00.000Z,CHURCHES,19791958,-87.7961084,41.9968456,CHRISTIAN,NOT AVAILABLE,NOT AVAILABLE,NOT AVAILABLE,N,Y
25471,10459910,KOREAN BETHEL PRESBYTERIAN CHURCH,CHICAGO,IL,60641,2937,COOK,17031,2009-04-06T00:00:00.000Z,ALT REF,2009-04-06T00:00:00.000Z,CHURCHES,19798053,-87.7342255,41.9538352,CHRISTIAN,PCA,NOT AVAILABLE,NOT AVAILABLE,Y,N
25472,10440589,EPIPHANY EPISCOPAL CHICAGO,CHICAGO,IL,60607,5301,COOK,17031,2009-04-03T00:00:00.000Z,ALT REF,2009-04-03T00:00:00.000Z,CHURCHES,721167406,-87.6662139,41.878698,CHRISTIAN,EPIS,NOT AVAILABLE,NOT AVAILABLE,Y,N
25474,10443094,SAINT MICHAEL CHURCH,CHICAGO,IL,60617,2152,COOK,17031,2009-04-02T00:00:00.000Z,ALT REF,2009-04-02T00:00:00.000Z,CHURCHES,125164971,-87.5474682,41.74514,CHRISTIAN,NOT AVAILABLE,NOT AVAILABLE,NOT AVAILABLE,N,Y
25479,10762518,WAT THAI WAT DHAMMARAM,CHICAGO,IL,60638,5934,COOK,17031,2009-04-14T00:00:00.000Z,ALT REF,2009-04-14T00:00:00.000Z,PLACES OF WORSHIP,19823798,-87.7962888,41.7551661,BUDDHIST,NOT AVAILABLE,NOT AVAILABLE,NOT AVAILABLE,N,N
25481,10444913,OUR LADY OF MOUNT CARMEL CHURCH,CHICAGO,IL,60657,4513,COOK,17031,2009-04-03T00:00:00.000Z,ALT REF,2009-04-03T00:00:00.000Z,CHURCHES,722756183,-87.6470368,41.9403417,CHRISTIAN,NOT AVAILABLE,NOT AVAILABLE,NOT AVAILABLE,N,Y
25484,10761711,SHELDON HEIGHTS CHURCH OF CHRIST,CHICAGO,IL,60628,4712,COOK,17031,2009-04-01T00:00:00.000Z,ALT REF,2009-04-01T00:00:00.000Z,CHURCHES,19830771,-87.6418694,41.6879167,CHRISTIAN,COC,600+,NOT AVAILABLE,Y,N
25486,10448316,SAINT JOSEPH THE BETROTHED UKRANIAN BYZANTINE CATHOLIC CHURCH,CHICAGO,IL,60656,2971,COOK,17031,2009-04-07T00:00:00.000Z,ALT REF,2009-04-07T00:00:00.000Z,CHURCHES,19789821,-87.8373904,41.9705035,CHRISTIAN,NOT AVAILABLE,NOT AVAILABLE,NOT AVAILABLE,N,Y
25490,10433217,LIBERTY TEMPLE FULL GOSPEL CHURCH,CHICAGO,IL,60620,5803,COOK,17031,2009-04-03T00:00:00.000Z,ALT REF,2009-04-03T00:00:00.000Z,CHURCHES,19846691,-87.679843,41.7494911,CHRISTIAN,NOT AVAILABLE,NOT AVAILABLE,NOT AVAILABLE,Y,N
25493,10586589,GREATER BETHESDA BAPTIST CHURCH,CHICAGO,IL,60615,4604,COOK,17031,2009-04-01T00:00:00.000Z,ALT REF,2009-04-01T00:00:00.000Z,CHURCHES,19855196,-87.622002,41.7979285,CHRISTIAN,ABC,NOT AVAILABLE,NOT AVAILABLE,Y,N
25498,10442239,KOREAN CATHOLIC MISSION OF CHICAGO,CHICAGO,IL,60641,2247,COOK,17031,2009-04-06T00:00:00.000Z,ALT REF,2009-04-06T00:00:00.000Z,CHURCHES,19797797,-87.7305094,41.956131,CHRISTIAN,NOT AVAILABLE,NOT AVAILABLE,NOT AVAILABLE,N,Y
25501,10586626,NORMAL PARK BAPTIST CHURCH,CHICAGO,IL,60628,3727,COOK,17031,2009-04-08T00:00:00.000Z,ALT REF,2009-04-08T00:00:00.000Z,CHURCHES,19860818,-87.6139089,41.6998074,CHRISTIAN,ABC,NOT AVAILABLE,NOT AVAILABLE,Y,N
25503,10442418,RESURRECTION CATHOLIC CHURCH,CHICAGO,IL,60618,7012,COOK,17031,2009-04-01T00:00:00.000Z,ALT REF,2009-04-01T00:00:00.000Z,CHURCHES,19801293,-87.6997871,41.9368428,CHRISTIAN,NOT AVAILABLE,NOT AVAILABLE,NOT AVAILABLE,N,Y
25508,10444924,SAINT PETER CANISIUS,CHICAGO,IL,60639,4565,COOK,17031,2009-04-03T00:00:00.000Z,ALT REF,2009-04-03T00:00:00.000Z,CHURCHES,19806909,-87.7529466,41.9092228,CHRISTIAN,NOT AVAILABLE,NOT AVAILABLE,NOT AVAILABLE,N,Y
25516,10444818,SAINT DANIEL THE PROPHET,CHICAGO,IL,60638,1224,COOK,17031,2009-04-02T00:00:00.000Z,ALT REF,2009-04-02T00:00:00.000Z,CHURCHES,19822058,-87.7871413,41.7945893,CHRISTIAN,NOT AVAILABLE,NOT AVAILABLE,NOT AVAILABLE,N,Y
25524,10586617,MORGAN PARK BAPTIST CHURCH,CHICAGO,IL,60643,3926,COOK,17031,2009-04-02T00:00:00.000Z,ALT REF,2009-03-31T00:00:00.000Z,CHURCHES,19830057,-87.6775871,41.6937937,CHRISTIAN,ABC,NOT AVAILABLE,NOT AVAILABLE,Y,N
25525,10583950,CHURCH OF SOUTH INDIA CHRIST CHURCH OF CHICAGO,CHICAGO,IL,60630,3205,COOK,17031,2009-07-28T00:00:00.000Z,ALT REF,2009-07-28T00:00:00.000Z,CHURCHES,19796204,-87.7745649,41.9665267,CHRISTIAN,NOT AVAILABLE,NOT AVAILABLE,NOT AVAILABLE,Y,N
25534,10583952,58TH AVENUE BAPTIST CHURCH,CHICAGO,IL,60804,2655,COOK,17031,2009-04-14T00:00:00.000Z,ALT REF,2009-04-14T00:00:00.000Z,CHURCHES,19817548,-87.7692056,41.8496931,CHRISTIAN,BAPT,NOT AVAILABLE,NOT AVAILABLE,Y,N
25536,10457563,GREATER SAINT JOHN AFRICAN METHODIST EPISCOPAL CHURCH,CHICAGO,IL,60636,1828,COOK,17031,2009-04-02T00:00:00.000Z,ALT REF,2009-04-02T00:00:00.000Z,CHURCHES,19843986,-87.6567633,41.7812432,CHRISTIAN,AME,NOT AVAILABLE,NOT AVAILABLE,Y,N
25539,10583943,MAPLEWOOD BIBLE BAPTIST CHURCH,CHICAGO,IL,60641,5136,COOK,17031,2009-04-03T00:00:00.000Z,ALT REF,2009-04-03T00:00:00.000Z,CHURCHES,19802079,-87.7513491,41.9336694,CHRISTIAN,BAPT,NOT AVAILABLE,NOT AVAILABLE,Y,N
25553,10442770,SAINT DOROTHY CHURCH,CHICAGO,IL,60619,2994,COOK,17031,2009-04-06T00:00:00.000Z,ALT REF,2009-04-06T00:00:00.000Z,CHURCHES,19857150,-87.6134555,41.7532678,CHRISTIAN,NOT AVAILABLE,NOT AVAILABLE,NOT AVAILABLE,N,Y
25554,10444934,QUEEN OF ALL SAINTS BASILICA,CHICAGO,IL,60646,4944,COOK,17031,2009-04-01T00:00:00.000Z,ALT REF,2009-04-01T00:00:00.000Z,CHURCHES,19814720,-87.7448172,41.9951942,CHRISTIAN,NOT AVAILABLE,NOT AVAILABLE,NOT AVAILABLE,N,Y
25555,10430807,MUSLIM COMMUNITY CENTER,CHICAGO,IL,60641,2146,COOK,17031,2009-04-14T00:00:00.000Z,ALT REF,2009-04-14T00:00:00.000Z,"MOSQUES, RELIGIOUS",19797225,-87.7290863,41.9602439,MUSLIM,NOT AVAILABLE,NOT AVAILABLE,NOT AVAILABLE,N,N
25564,10444874,SAINT JOHN BERCHMANS CATHOLIC CHURCH,CHICAGO,IL,60647,1926,COOK,17031,2009-04-03T00:00:00.000Z,ALT REF,2009-04-03T00:00:00.000Z,CHURCHES,19803156,-87.6912388,41.927796,CHRISTIAN,NOT AVAILABLE,NOT AVAILABLE,NOT AVAILABLE,N,Y
25570,10442914,SAINT ELIZABETH CHURCH,CHICAGO,IL,60653,2124,COOK,17031,2009-04-02T00:00:00.000Z,ALT REF,2009-04-02T00:00:00.000Z,CHURCHES,19854437,-87.6235677,41.8204402,CHRISTIAN,NOT AVAILABLE,NOT AVAILABLE,NOT AVAILABLE,N,Y
25584,10684148,RIME FOUNDATION,CHICAGO,IL,60660,3651,COOK,17031,2009-05-26T00:00:00.000Z,ALT REF,2009-05-26T00:00:00.000Z,PLACES OF WORSHIP,19793061,-87.6571408,41.9893402,BUDDHIST,TIBETAN (NON-SECTARIAN),NOT AVAILABLE,NOT AVAILABLE,N,N
25587,10576199,MANY PEOPLES CHURCH,CHICAGO,IL,60626,3306,COOK,17031,2009-04-03T00:00:00.000Z,ALT REF,2009-04-03T00:00:00.000Z,CHURCHES,19786576,-87.668177,42.0076313,CHRISTIAN,CRC,NOT AVAILABLE,NOT AVAILABLE,Y,N
25588,10444803,SAINT ANSELM CHURCH,CHICAGO,IL,60637,2164,COOK,17031,2009-04-02T00:00:00.000Z,ALT REF,2009-04-02T00:00:00.000Z,CHURCHES,19855526,-87.6216995,41.7840511,CHRISTIAN,NOT AVAILABLE,NOT AVAILABLE,NOT AVAILABLE,N,Y
25591,10576448,ROSELAND CHRISTIAN MINISTRIES,CHICAGO,IL,60628,2015,COOK,17031,2009-04-01T00:00:00.000Z,ALT REF,2009-04-06T00:00:00.000Z,CHURCHES,19860368,-87.623168,41.7078111,CHRISTIAN,CRC,NOT AVAILABLE,NOT AVAILABLE,Y,N
25592,10444795,SAINT AILBE CATHOLIC CHURCH,CHICAGO,IL,60619,7901,COOK,17031,2009-04-01T00:00:00.000Z,ALT REF,2009-04-01T00:00:00.000Z,CHURCHES,19859155,-87.5864753,41.73009,CHRISTIAN,NOT AVAILABLE,NOT AVAILABLE,NOT AVAILABLE,N,Y
25595,10444889,OLD SAINT MARYS CATHOLIC CHURCH,CHICAGO,IL,60605,2813,COOK,17031,2009-04-02T00:00:00.000Z,ALT REF,2009-04-02T00:00:00.000Z,CHURCHES,125112159,-87.6244705,41.8613586,CHRISTIAN,NOT AVAILABLE,NOT AVAILABLE,NOT AVAILABLE,N,Y
25596,10431432,MASJID MUMINUN,CHICAGO,IL,60620,4830,COOK,17031,2009-04-16T00:00:00.000Z,ALT REF,2009-04-16T00:00:00.000Z,"MOSQUES, RELIGIOUS",723486746,-87.6628502,41.7371879,MUSLIM,NOT AVAILABLE,NOT AVAILABLE,NOT AVAILABLE,N,N
25599,10457667,TURNER MEMORIAL AFRICAN METHODIST EPISCOPAL CHURCH,CHICAGO,IL,60653,1108,COOK,17031,2009-04-02T00:00:00.000Z,ALT REF,2009-04-02T00:00:00.000Z,CHURCHES,19854281,-87.6196457,41.8289107,CHRISTIAN,AME,NOT AVAILABLE,NOT AVAILABLE,Y,N
25600,10583948,TRAVELERS REST BAPTIST CHURCH,CHICAGO,IL,60629,1531,COOK,17031,2009-04-08T00:00:00.000Z,ALT REF,2009-04-08T00:00:00.000Z,CHURCHES,19843675,-87.6931098,41.7841819,CHRISTIAN,BAPT,NOT AVAILABLE,NOT AVAILABLE,Y,N
25602,10440594,SAINT PETERS EPISCOPAL CHURCH,CHICAGO,IL,60657,4510,COOK,17031,2009-04-02T00:00:00.000Z,ALT REF,2009-04-02T00:00:00.000Z,CHURCHES,125166893,-87.6451657,41.9397558,CHRISTIAN,EPIS,NOT AVAILABLE,NOT AVAILABLE,Y,N
25607,10583939,SAINT LUKE MISSIONARY BAPTIST CHURCH,CHICAGO,IL,60649,2615,COOK,17031,2009-04-07T00:00:00.000Z,ALT REF,2009-04-07T00:00:00.000Z,CHURCHES,19856420,-87.5624268,41.7634307,CHRISTIAN,BAPT,NOT AVAILABLE,NOT AVAILABLE,Y,N
25610,10586436,BETH EDEN BAPTIST CHURCH,CHICAGO,IL,60643,3635,COOK,17031,2009-04-06T00:00:00.000Z,ALT REF,2009-04-06T00:00:00.000Z,CHURCHES,19830280,-87.656712,41.6915245,CHRISTIAN,ABC,NOT AVAILABLE,NOT AVAILABLE,Y,N
25616,10444850,SAINT HENRY CHURCH,CHICAGO,IL,60659,2119,COOK,17031,2009-04-08T00:00:00.000Z,ALT REF,2009-04-08T00:00:00.000Z,CHURCHES,19792201,-87.6818595,41.997067,CHRISTIAN,NOT AVAILABLE,NOT AVAILABLE,NOT AVAILABLE,N,Y
25620,10684150,CHICAGO VIPASSANA SITTING GROUP,CHICAGO,IL,60614,3104,COOK,17031,2009-04-15T00:00:00.000Z,ALT REF,2009-04-10T00:00:00.000Z,PLACES OF WORSHIP,19804570,-87.6597621,41.9228674,BUDDHIST,NOT AVAILABLE,NOT AVAILABLE,NOT AVAILABLE,N,N
25623,10444805,ASSUMPTION CATHOLIC CHURCH,CHICAGO,IL,60654,4112,COOK,17031,2009-04-01T00:00:00.000Z,ALT REF,2009-04-01T00:00:00.000Z,CHURCHES,19811056,-87.6364101,41.8904669,CHRISTIAN,NOT AVAILABLE,NOT AVAILABLE,NOT AVAILABLE,N,Y
25626,10429697,NER TAMID EZRA HABONIM CONGREGATION,CHICAGO,IL,60659,1781,COOK,17031,2007-07-26T00:00:00.000Z,PHONE,2007-07-26T00:00:00.000Z,SYNAGOGUES,19792017,-87.6994078,41.9959915,JUDAIC,NOT AVAILABLE,NOT AVAILABLE,NOT AVAILABLE,N,N
25628,10426633,CONGREGATION EZRAS ISRAEL,CHICAGO,IL,60645,3009,COOK,17031,2007-07-23T00:00:00.000Z,PHONE,2007-07-20T00:00:00.000Z,SYNAGOGUES,19786555,-87.6995332,42.0086999,JUDAIC,ORTHODOX-ASHKENAZ,NOT AVAILABLE,SYNAGOGUE,N,N
25629,10426635,CONGREGATION KINS OF WEST ROGERS PARK,CHICAGO,IL,60645,4312,COOK,17031,2007-08-06T00:00:00.000Z,PHONE,2007-08-06T00:00:00.000Z,SYNAGOGUES,19786943,-87.7001795,42.0032747,JUDAIC,ORTHODOX,NOT AVAILABLE,SYNAGOGUE,N,N
25633,10429011,CONGREGATION BETH ITZCHOK,CHICAGO,IL,60645,4123,COOK,17031,2007-07-26T00:00:00.000Z,PHONE,2007-07-25T00:00:00.000Z,SYNAGOGUES,19786953,-87.706199,42.0034806,JUDAIC,ORTHODOX,NOT AVAILABLE,NOT AVAILABLE,N,N
25637,10426663,MIKRO KODESH ANSHE TIKTIN,CHICAGO,IL,60625,3506,COOK,17031,2007-08-06T00:00:00.000Z,PHONE,2007-08-06T00:00:00.000Z,SYNAGOGUES,19794817,-87.7001618,41.9761095,JUDAIC,ORTHODOX,NOT AVAILABLE,SYNAGOGUE,N,N
25638,10426659,JEWISH THEOLOGICAL SEMINARY,CHICAGO,IL,60601,7241,COOK,17031,2007-08-08T00:00:00.000Z,ALT REF,2007-08-08T00:00:00.000Z,SYNAGOGUES,19757426,-87.6257093,41.8865649,JUDAIC,NOT AVAILABLE,NOT AVAILABLE,SYNAGOGUE,N,N
25653,10427769,EMANUEL CONGREGATION,CHICAGO,IL,60660,3643,COOK,17031,2007-07-20T00:00:00.000Z,PHONE,2007-07-20T00:00:00.000Z,SYNAGOGUES,19792716,-87.6547608,41.9905651,JUDAIC,REFORM,428,NOT AVAILABLE,N,N
25654,10428041,TEMPLE SHOLOM OF CHICAGO,CHICAGO,IL,60657,2869,COOK,17031,2007-08-07T00:00:00.000Z,PHONE,2007-08-07T00:00:00.000Z,SYNAGOGUES,19799300,-87.6426407,41.9463246,JUDAIC,REFORM,1052,NOT AVAILABLE,N,N
25655,10426641,CONGREGATION SHAAREI TZEDEK,CHICAGO,IL,60645,2901,COOK,17031,2007-08-03T00:00:00.000Z,PHONE,2007-08-03T00:00:00.000Z,SYNAGOGUES,125162567,-87.7005805,42.0117805,JUDAIC,NOT AVAILABLE,NOT AVAILABLE,SYNAGOGUE,N,N
25656,10426651,CHICAGO MIKVAH ASSOCIATION,CHICAGO,IL,60645,2836,COOK,17031,2007-08-07T00:00:00.000Z,ALT REF,2007-08-07T00:00:00.000Z,SYNAGOGUES,125162554,-87.7073087,42.0121927,JUDAIC,NOT AVAILABLE,NOT AVAILABLE,SYNAGOGUE,N,N
25659,10429252,CONGREGATION KEHILATH JACOB BETH SAMUEL,CHICAGO,IL,60659,1101,COOK,17031,2007-07-26T00:00:00.000Z,PHONE,2007-07-26T00:00:00.000Z,SYNAGOGUES,19791830,-87.7218449,41.9969248,JUDAIC,ORTHODOX,NOT AVAILABLE,NOT AVAILABLE,N,N
25660,10426658,CONGREGATION ANSHE MIZRACH,CHICAGO,IL,60657,2666,COOK,17031,2007-08-07T00:00:00.000Z,ALT REF,2007-08-07T00:00:00.000Z,SYNAGOGUES,19799579,-87.6430649,41.9460154,JUDAIC,NOT AVAILABLE,NOT AVAILABLE,SYNAGOGUE,N,N
25662,10429249,YESHIVA MIGDAL TORAH,CHICAGO,IL,60645,4507,COOK,17031,2007-07-30T00:00:00.000Z,PHONE,2007-07-30T00:00:00.000Z,SYNAGOGUES,19786802,-87.6985578,42.0051471,JUDAIC,ORTHODOX,NOT AVAILABLE,NOT AVAILABLE,N,N
25663,10429245,ANSHE MOTELE CONGREGATION,CHICAGO,IL,60645,4402,COOK,17031,2007-07-26T00:00:00.000Z,PHONE,2007-07-26T00:00:00.000Z,SYNAGOGUES,19791553,-87.7000615,42.0000225,JUDAIC,ORTHODOX,NOT AVAILABLE,NOT AVAILABLE,N,N
25665,10427534,CONGREGATION OR CHADASH,CHICAGO,IL,60660,3643,COOK,17031,2007-07-20T00:00:00.000Z,PHONE,2007-07-31T00:00:00.000Z,SYNAGOGUES,19792716,-87.6546961,41.9905947,JUDAIC,REFORM,59,NOT AVAILABLE,N,N
25667,10427463,KEHILATH ANSHE MA'ARAZ ISAIAH ISRAEL CONGREGATION,CHICAGO,IL,60615,2810,COOK,17031,2007-08-03T00:00:00.000Z,PHONE,2007-08-03T00:00:00.000Z,SYNAGOGUES,19854925,-87.5986294,41.8026666,JUDAIC,REFORM,472,NOT AVAILABLE,N,N
25670,10428141,BERNARD HORWICH JEWISH COMMUNITY CENTER,CHICAGO,IL,60645,2833,COOK,17031,2007-08-03T00:00:00.000Z,PHONE,2007-08-03T00:00:00.000Z,SYNAGOGUES,19786315,-87.705354,42.0112801,JUDAIC,NOT AVAILABLE,NOT AVAILABLE,NOT AVAILABLE,N,N
25671,10428140,HYDE PARK JEWISH COMMUNITY CENTER,CHICAGO,IL,60615,4213,COOK,17031,2007-07-30T00:00:00.000Z,PHONE,2007-07-30T00:00:00.000Z,SYNAGOGUES,19855015,-87.5850357,41.80088,JUDAIC,NOT AVAILABLE,NOT AVAILABLE,NOT AVAILABLE,N,N
25672,10426666,TORAH CENTER OF SUBURBAN CHICAGO,CHICAGO,IL,60659,3200,COOK,17031,2007-08-08T00:00:00.000Z,ALT REF,2007-08-08T00:00:00.000Z,SYNAGOGUES,19792758,-87.7184485,41.9899969,JUDAIC,NOT AVAILABLE,NOT AVAILABLE,SYNAGOGUE,N,N
25673,10430176,CONGREGATION SHAARE TIKVAH B'NAI ZION,CHICAGO,IL,60659,3504,COOK,17031,2007-08-03T00:00:00.000Z,PHONE,2007-08-03T00:00:00.000Z,SYNAGOGUES,19793205,-87.7141864,41.9870328,JUDAIC,NOT AVAILABLE,NOT AVAILABLE,NOT AVAILABLE,N,N
25674,10684720,MIDWEST BUDDHIST TEMPLE,CHICAGO,IL,60614,5244,COOK,17031,2009-04-06T00:00:00.000Z,ALT REF,2009-04-06T00:00:00.000Z,"TEMPLES, RELIGIOUS",19805883,-87.6399443,41.9143839,BUDDHIST,"JODO SHINSHU, PURE LAND SCHOOL",NOT AVAILABLE,NOT AVAILABLE,N,N
25675,10426630,CONGREGATION BETH SHOLOM OF WEST ROGERS PARK,CHICAGO,IL,60626,4329,COOK,17031,2007-08-08T00:00:00.000Z,ALT REF,2007-08-08T00:00:00.000Z,SYNAGOGUES,19786744,-87.6619368,42.005235,JUDAIC,NOT AVAILABLE,NOT AVAILABLE,SYNAGOGUE,N,N
25678,10429255,SEPHARDIC COMMUNITY SHAARE MIZRAH,CHICAGO,IL,60645,2937,COOK,17031,2007-07-27T00:00:00.000Z,PHONE,2007-07-30T00:00:00.000Z,SYNAGOGUES,19786313,-87.7033534,42.0117128,JUDAIC,ORTHODOX,NOT AVAILABLE,NOT AVAILABLE,N,N
25679,10426629,CONGREGATION BETH SHALOM,CHICAGO,IL,60659,3609,COOK,17031,2007-08-06T00:00:00.000Z,PHONE,2007-08-06T00:00:00.000Z,SYNAGOGUES,19793576,-87.7088912,41.9845841,JUDAIC,NOT AVAILABLE,NOT AVAILABLE,SYNAGOGUE,N,N
25680,10429264,YOUNG ISRAEL OF WEST ROGERS PARK,CHICAGO,IL,60645,3008,COOK,17031,2007-08-02T00:00:00.000Z,PHONE,2007-08-02T00:00:00.000Z,SYNAGOGUES,19786310,-87.6985702,42.0124037,JUDAIC,YOUNG ISRAEL,NOT AVAILABLE,NOT AVAILABLE,N,N
25683,10428727,CONGREGATION B'NEI RUVEN,CHICAGO,IL,60659,1420,COOK,17031,2007-07-25T00:00:00.000Z,PHONE,2007-07-25T00:00:00.000Z,SYNAGOGUES,19792047,-87.7060448,41.9965862,JUDAIC,CHABAD,NOT AVAILABLE,CHABAD,N,N
25684,10429072,ADAS BNAI ISRAEL CONGREGATION,CHICAGO,IL,60659,2226,COOK,17031,2007-07-30T00:00:00.000Z,PHONE,2007-08-02T00:00:00.000Z,SYNAGOGUES,19792284,-87.7144687,41.9940978,JUDAIC,ORTHODOX,NOT AVAILABLE,NOT AVAILABLE,N,N
25685,10428312,FRIENDS OF REFUGEES OF EASTERN EUROPE,CHICAGO,IL,60659,1555,COOK,17031,2007-08-06T00:00:00.000Z,PHONE,2007-08-06T00:00:00.000Z,SYNAGOGUES,19791793,-87.7038551,41.9972054,JUDAIC,CHABAD,NOT AVAILABLE,CHABAD,N,N
25686,10426642,CONGREGATION SHEARITH ISRAEL,CHICAGO,IL,60645,4226,COOK,17031,2007-08-06T00:00:00.000Z,PHONE,2007-08-06T00:00:00.000Z,SYNAGOGUES,19791570,-87.7037699,41.9996026,JUDAIC,NOT AVAILABLE,NOT AVAILABLE,SYNAGOGUE,N,N
25688,10426652,CHICAGO MIKVAH ASSOCIATES,CHICAGO,IL,60659,3212,COOK,17031,2007-08-08T00:00:00.000Z,ALT REF,2007-08-08T00:00:00.000Z,SYNAGOGUES,19792758,-87.7179968,41.9900041,JUDAIC,NOT AVAILABLE,NOT AVAILABLE,SYNAGOGUE,N,N
25694,10426654,CONGREGATION ACHAY BAIS YITZCHOK,CHICAGO,IL,60625,5813,COOK,17031,2007-08-07T00:00:00.000Z,ALT REF,2007-08-07T00:00:00.000Z,SYNAGOGUES,19796464,-87.7165262,41.965582,JUDAIC,NOT AVAILABLE,NOT AVAILABLE,SYNAGOGUE,N,N
25699,10428473,BUCKTOWN WICKER PARK CHABAD JEWISH CENTER,CHICAGO,IL,60614,3915,COOK,17031,2007-08-02T00:00:00.000Z,PHONE,2007-08-02T00:00:00.000Z,SYNAGOGUES,19805008,-87.6768855,41.9206118,JUDAIC,CHABAD,NOT AVAILABLE,CHABAD,N,N
25700,10427521,TEMPLE MENORAH,CHICAGO,IL,60645,1238,COOK,17031,2007-08-02T00:00:00.000Z,PHONE,2007-08-02T00:00:00.000Z,SYNAGOGUES,19786161,-87.700762,42.0150669,JUDAIC,REFORM,41,NOT AVAILABLE,N,N
25705,10429007,AGUDAS ACHIMNORTH SHORE CONGREGATION,CHICAGO,IL,60640,3119,COOK,17031,2007-07-30T00:00:00.000Z,PHONE,2007-07-30T00:00:00.000Z,SYNAGOGUES,19795114,-87.6558669,41.9741078,JUDAIC,ORTHODOX,NOT AVAILABLE,NOT AVAILABLE,N,N
25706,10583944,INDEPENDENT BAPTIST CHURCH OF CHICAGO,CHICAGO,IL,60632,1727,COOK,17031,2009-04-08T00:00:00.000Z,ALT REF,2009-04-14T00:00:00.000Z,CHURCHES,19840082,-87.6950066,41.8244028,CHRISTIAN,BAPT,NOT AVAILABLE,NOT AVAILABLE,Y,N
25709,10432437,TRINITY UNITED CHURCH OF CHRIST,CHICAGO,IL,60628,1120,COOK,17031,2009-04-02T00:00:00.000Z,ALT REF,2009-04-02T00:00:00.000Z,CHURCHES,19827103,-87.6342504,41.7219459,CHRISTIAN,UCC,NOT AVAILABLE,NOT AVAILABLE,Y,N
25710,10426656,CONGREGATION ADAS YESHURUN,CHICAGO,IL,60645,2834,COOK,17031,2007-08-07T00:00:00.000Z,PHONE,2007-08-07T00:00:00.000Z,SYNAGOGUES,19786315,-87.706068,42.0122217,JUDAIC,ORTHODOX,NOT AVAILABLE,SYNAGOGUE,N,N
25711,10426660,LAKE SHORE DRIVE SYNAGOGUE,CHICAGO,IL,60611,1016,COOK,17031,2007-08-03T00:00:00.000Z,PHONE,2007-08-03T00:00:00.000Z,SYNAGOGUES,19807997,-87.6260563,41.903513,JUDAIC,ORTHODOX,NOT AVAILABLE,SYNAGOGUE,N,N
25712,10444876,SAINT JOHN CANTIUS CHURCH,CHICAGO,IL,60622,5405,COOK,17031,2009-04-06T00:00:00.000Z,ALT REF,2009-04-06T00:00:00.000Z,CHURCHES,19809603,-87.6530588,41.8968221,CHRISTIAN,NOT AVAILABLE,NOT AVAILABLE,NOT AVAILABLE,N,Y
25713,10428603,CONGREGATION BAIS MENACHEM,CHICAGO,IL,60645,1228,COOK,17031,2007-08-03T00:00:00.000Z,PHONE,2007-08-03T00:00:00.000Z,SYNAGOGUES,19785833,-87.7007639,42.0190151,JUDAIC,CHABAD,NOT AVAILABLE,CHABAD,N,N
25715,10428655,CHABAD OF HYDE PARK,CHICAGO,IL,60637,1613,COOK,17031,2007-08-03T00:00:00.000Z,PHONE,2007-08-03T00:00:00.000Z,SYNAGOGUES,19855303,-87.5952617,41.7917446,JUDAIC,CHABAD,NOT AVAILABLE,CHABAD,N,N
25716,10426200,MOSDOS MACHZIKAIHADAS,CHICAGO,IL,60659,1413,COOK,17031,2007-08-03T00:00:00.000Z,PHONE,2007-08-07T00:00:00.000Z,SYNAGOGUES,19792053,-87.7076799,41.9967016,JUDAIC,NOT AVAILABLE,NOT AVAILABLE,SYNAGOGUE,N,N
25717,10428966,CONGREGATION POALIE ZEDEK,CHICAGO,IL,60645,4345,COOK,17031,2007-07-27T00:00:00.000Z,PHONE,2007-07-27T00:00:00.000Z,SYNAGOGUES,19787070,-87.7003424,42.0009004,JUDAIC,ORTHODOX,NOT AVAILABLE,NOT AVAILABLE,N,N
25719,10428852,LUBAVITCH CHABAD OF ILLINOIS,CHICAGO,IL,60645,1228,COOK,17031,2007-08-02T00:00:00.000Z,PHONE,2007-08-02T00:00:00.000Z,SYNAGOGUES,19785833,-87.7008425,42.0190135,JUDAIC,CHABAD,NOT AVAILABLE,CHABAD,N,N
25723,10426632,CONGREGATION CHEVRO KADISHO,CHICAGO,IL,60659,2128,COOK,17031,2007-08-07T00:00:00.000Z,PHONE,2007-08-07T00:00:00.000Z,SYNAGOGUES,19791725,-87.6820031,41.9981741,JUDAIC,ORTHODOX,NOT AVAILABLE,SYNAGOGUE,N,N
25726,10430317,TAWHEED ISLAMIC CENTER INCORPORATED,CHICAGO,IL,60620,2646,COOK,17031,2007-07-17T00:00:00.000Z,PHONE,2007-07-17T00:00:00.000Z,"MOSQUES, RELIGIOUS",19947029,-87.643916,41.7354057,MUSLIM,NOT AVAILABLE,NOT AVAILABLE,NOT AVAILABLE,N,N
25728,10429254,MISHNE UGMORA CONGREGATION,CHICAGO,IL,60659,3915,COOK,17031,2007-07-30T00:00:00.000Z,PHONE,2007-07-30T00:00:00.000Z,SYNAGOGUES,19792708,-87.6990334,41.9912358,JUDAIC,ORTHODOX,NOT AVAILABLE,NOT AVAILABLE,N,N
25729,10429253,CONGREGATION TIFERETH MOSHE,CHICAGO,IL,60659,1504,COOK,17031,2007-07-27T00:00:00.000Z,PHONE,2007-07-27T00:00:00.000Z,SYNAGOGUES,19792035,-87.7023869,41.9965212,JUDAIC,ORTHODOX,NOT AVAILABLE,NOT AVAILABLE,N,N
25730,10429056,CONGREGATION ATERETH YEHOSHUA,CHICAGO,IL,60645,2937,COOK,17031,2007-08-03T00:00:00.000Z,PHONE,2007-08-03T00:00:00.000Z,SYNAGOGUES,19786313,-87.7027591,42.0117254,JUDAIC,ORTHODOX,NOT AVAILABLE,NOT AVAILABLE,N,N
25732,10429250,CONGREGATION AGUDATH ISRAELBIKUR CHOLIM WARSAW,CHICAGO,IL,60659,3212,COOK,17031,2007-07-30T00:00:00.000Z,PHONE,2007-07-30T00:00:00.000Z,SYNAGOGUES,19792758,-87.7182464,41.9900001,JUDAIC,ORTHODOX,NOT AVAILABLE,NOT AVAILABLE,N,N
25735,10428146,EZRA MULTI-SERVICE CENTER,CHICAGO,IL,60640,5706,COOK,17031,2007-08-03T00:00:00.000Z,PHONE,2007-08-03T00:00:00.000Z,SYNAGOGUES,19796313,-87.6534724,41.9651265,JUDAIC,NOT AVAILABLE,NOT AVAILABLE,NOT AVAILABLE,N,N
25736,10452550,ZION HILL MISSIONARY BAPTIST CHURCH,CHICAGO,IL,60608,1356,COOK,17031,2009-04-02T00:00:00.000Z,ALT REF,2009-04-02T00:00:00.000Z,CHURCHES,19836509,-87.6659377,41.8652698,CHRISTIAN,NBC,NOT AVAILABLE,NOT AVAILABLE,Y,N
25738,10442968,CHURCH OF SAINT BRIDE,CHICAGO,IL,60649,4807,COOK,17031,2009-04-01T00:00:00.000Z,ALT REF,2009-04-01T00:00:00.000Z,CHURCHES,19857094,-87.5524305,41.7544869,CHRISTIAN,NOT AVAILABLE,NOT AVAILABLE,NOT AVAILABLE,N,Y
25745,10586628,NORTH SHORE BAPTIST CHURCH,CHICAGO,IL,60640,2221,COOK,17031,2009-04-01T00:00:00.000Z,ALT REF,2009-04-01T00:00:00.000Z,CHURCHES,19794728,-87.6628036,41.9776581,CHRISTIAN,ABC,NOT AVAILABLE,NOT AVAILABLE,Y,N
25757,10429695,CONGREGATION RODFEI ZEDEK,CHICAGO,IL,60615,4213,COOK,17031,2007-07-25T00:00:00.000Z,PHONE,2007-07-25T00:00:00.000Z,SYNAGOGUES,19855015,-87.5850347,41.8008794,JUDAIC,NOT AVAILABLE,NOT AVAILABLE,NOT AVAILABLE,N,N
25759,10429693,CHICAGO'S CENTRAL SYNAGOGUE,CHICAGO,IL,60610,3306,COOK,17031,2007-07-30T00:00:00.000Z,PHONE,2007-07-30T00:00:00.000Z,SYNAGOGUES,19808868,-87.6288598,41.8988394,JUDAIC,NOT AVAILABLE,NOT AVAILABLE,NOT AVAILABLE,N,N
25760,10427642,CHICAGO SINAI CONGREGATION,CHICAGO,IL,60610,3306,COOK,17031,2007-08-03T00:00:00.000Z,PHONE,2007-08-03T00:00:00.000Z,SYNAGOGUES,19808868,-87.6288584,41.8988364,JUDAIC,REFORM,696,NOT AVAILABLE,N,N
25761,10586444,CALVARY BAPTIST CHURCH OF CHICAGO,CHICAGO,IL,60617,1139,COOK,17031,2009-04-06T00:00:00.000Z,ALT REF,2009-04-06T00:00:00.000Z,CHURCHES,19857654,-87.5681345,41.7496462,CHRISTIAN,ABC,NOT AVAILABLE,NOT AVAILABLE,Y,N
25762,10430781,JAMIA MASJID OF CHICAGO,CHICAGO,IL,60659,1905,COOK,17031,2007-07-16T00:00:00.000Z,PHONE,2007-07-16T00:00:00.000Z,"MOSQUES, RELIGIOUS",19792000,-87.6931292,41.9968876,MUSLIM,NOT AVAILABLE,NOT AVAILABLE,NOT AVAILABLE,N,N
25763,10430779,MASJID AL-MUHAJIREEN,CHICAGO,IL,60629,5035,COOK,17031,2007-07-17T00:00:00.000Z,PHONE,2007-07-17T00:00:00.000Z,"MOSQUES, RELIGIOUS",19844120,-87.7268214,41.7789164,MUSLIM,NOT AVAILABLE,NOT AVAILABLE,NOT AVAILABLE,N,N
25764,10431872,MUSLIM WOMEN ASSOCIATION - UNIVERSITY OF ILLINOIS,CHICAGO,IL,60618,6802,COOK,17031,2007-10-09T00:00:00.000Z,ALT REF,2007-10-09T00:00:00.000Z,"MOSQUES, RELIGIOUS",19801095,-87.7083981,41.9379946,MUSLIM,NOT AVAILABLE,NOT AVAILABLE,NOT AVAILABLE,N,N
25765,10430322,MADARSA-E-RAHMAT,CHICAGO,IL,60645,5355,COOK,17031,2007-07-17T00:00:00.000Z,PHONE,2007-07-17T00:00:00.000Z,"MOSQUES, RELIGIOUS",19791768,-87.6964006,41.99861,MUSLIM,NOT AVAILABLE,NOT AVAILABLE,NOT AVAILABLE,N,N
25768,10430393,ISMAILI CENTER OF CHICAGO,CHICAGO,IL,60660,1902,COOK,17031,2007-07-17T00:00:00.000Z,PHONE,2007-07-16T00:00:00.000Z,"MOSQUES, RELIGIOUS",19792147,-87.6600531,41.9953592,MUSLIM,NOT AVAILABLE,NOT AVAILABLE,NOT AVAILABLE,N,N
25779,10430773,ILLINOIS INSTITUTE OF TECHNOLOGY MUSLIM STUDENTS ASSOCIATION (MSA),CHICAGO,IL,60616,3818,COOK,17031,2007-07-16T00:00:00.000Z,PHONE,2007-07-16T00:00:00.000Z,"MOSQUES, RELIGIOUS",19854220,-87.6236907,41.8343732,MUSLIM,NOT AVAILABLE,NOT AVAILABLE,NOT AVAILABLE,N,N
25781,10430810,UNIVERSITY OF CHICAGO MUSLIM STUDENTS ASSOCIATION,CHICAGO,IL,60637,1514,COOK,17031,2007-07-16T00:00:00.000Z,PHONE,2007-07-16T00:00:00.000Z,"MOSQUES, RELIGIOUS",19855343,-87.5982718,41.7911945,MUSLIM,NOT AVAILABLE,NOT AVAILABLE,NOT AVAILABLE,N,N
25784,10576445,LAWNDALE CHRISTIAN REFORMED CHURCH,CHICAGO,IL,60623,1233,COOK,17031,2009-04-08T00:00:00.000Z,ALT REF,2009-04-08T00:00:00.000Z,CHURCHES,719378872,-87.7255203,41.8652501,CHRISTIAN,CRC,NOT AVAILABLE,NOT AVAILABLE,Y,N
25786,10440603,SAINT EDMUND EPISCOPAL CHURCH,CHICAGO,IL,60637,2119,COOK,17031,2009-04-02T00:00:00.000Z,ALT REF,2009-04-02T00:00:00.000Z,CHURCHES,19855572,-87.6215628,41.7834798,CHRISTIAN,EPIS,NOT AVAILABLE,NOT AVAILABLE,Y,N
25790,10430811,UNIVERSITY OF ILLINOIS-CHICAGO MUSLIM STUDENTS ASSOCIATION,CHICAGO,IL,60607,NULL,COOK,17031,2007-07-19T00:00:00.000Z,PHONE,2007-07-19T00:00:00.000Z,"MOSQUES, RELIGIOUS",19835838,-87.6479275,41.8719206,MUSLIM,NOT AVAILABLE,NOT AVAILABLE,NOT AVAILABLE,N,N
25793,10430335,MUHAMMADS HOLY TEMPLE OF ISLAM,CHICAGO,IL,60624,2215,COOK,17031,2007-07-17T00:00:00.000Z,PHONE,2007-07-17T00:00:00.000Z,"MOSQUES, RELIGIOUS",19813436,-87.7316999,41.8803709,MUSLIM,NOT AVAILABLE,NOT AVAILABLE,NOT AVAILABLE,N,N
25797,10430797,MOORISH SCIENCE TEMPLE OF AMERICA - SUBORDINATE TEMPLE 1,CHICAGO,IL,60617,3256,COOK,17031,2007-07-16T00:00:00.000Z,PHONE,2007-07-16T00:00:00.000Z,"MOSQUES, RELIGIOUS",19858702,-87.554461,41.7372003,MUSLIM,NOT AVAILABLE,NOT AVAILABLE,NOT AVAILABLE,N,N
25802,10430783,AL-SALAM,CHICAGO,IL,60629,3301,COOK,17031,2007-10-12T00:00:00.000Z,ALT REF,2007-10-12T00:00:00.000Z,"MOSQUES, RELIGIOUS",19844084,-87.7042866,41.778666,MUSLIM,NOT AVAILABLE,NOT AVAILABLE,NOT AVAILABLE,N,N
25805,10457477,BABER MEMORIAL AFRICAN METHODIST EPISCOPAL CHURCH,CHICAGO,IL,60612,3693,COOK,17031,2008-02-28T00:00:00.000Z,ALT REF,2008-03-13T00:00:00.000Z,CHURCHES,19814223,-87.6965443,41.8768501,CHRISTIAN,AME,NOT AVAILABLE,NOT AVAILABLE,Y,N
25825,10444816,SAINT EDWARD CHURCH,CHICAGO,IL,60630,4146,COOK,17031,2009-04-02T00:00:00.000Z,ALT REF,2009-04-02T00:00:00.000Z,CHURCHES,19796750,-87.7381667,41.9629823,CHRISTIAN,NOT AVAILABLE,NOT AVAILABLE,NOT AVAILABLE,N,Y
25827,10579505,SHILOH BAPTIST CHURCH,CHICAGO,IL,60639,1101,COOK,17031,2009-03-31T00:00:00.000Z,ALT REF,2009-03-31T00:00:00.000Z,CHURCHES,19803417,-87.7755685,41.929187,CHRISTIAN,BAPT,NOT AVAILABLE,NOT AVAILABLE,Y,N
25828,10586615,MONTROSE BAPTIST CHURCH,CHICAGO,IL,60630,3011,COOK,17031,2009-03-31T00:00:00.000Z,ALT REF,2009-03-31T00:00:00.000Z,CHURCHES,19797167,-87.7816463,41.9605559,CHRISTIAN,ABC,NOT AVAILABLE,NOT AVAILABLE,Y,N
25829,10586655,THIRD BAPTIST CHURCH OF CHICAGO,CHICAGO,IL,60643,1329,COOK,17031,2009-03-31T00:00:00.000Z,ALT REF,2009-03-31T00:00:00.000Z,CHURCHES,19946866,-87.6617455,41.7208293,CHRISTIAN,ABC,NOT AVAILABLE,NOT AVAILABLE,Y,N
25831,10586600,IRVING PARK BAPTIST CHURCH,CHICAGO,IL,60641,2804,COOK,17031,2009-03-31T00:00:00.000Z,ALT REF,2009-03-31T00:00:00.000Z,CHURCHES,721086982,-87.738318,41.9532015,CHRISTIAN,ABC,NOT AVAILABLE,NOT AVAILABLE,Y,N
25832,10586590,GREATER UNION BAPTIST CHURCH,CHICAGO,IL,60612,2413,COOK,17031,2009-03-31T00:00:00.000Z,ALT REF,2009-03-31T00:00:00.000Z,CHURCHES,718175102,-87.6764305,41.8824978,CHRISTIAN,ABC,NOT AVAILABLE,NOT AVAILABLE,Y,N
25846,10586568,THE FIRST BAPTIST CHURCH OF CHICAGO,CHICAGO,IL,60615,2701,COOK,17031,2009-03-31T00:00:00.000Z,ALT REF,2009-03-31T00:00:00.000Z,CHURCHES,19854850,-87.6026052,41.8035843,CHRISTIAN,ABC,NOT AVAILABLE,NOT AVAILABLE,Y,N
25847,10453594,FRIENDSHIP BAPTIST CHURCH,CHICAGO,IL,60644,4334,COOK,17031,2009-03-31T00:00:00.000Z,ALT REF,2009-03-31T00:00:00.000Z,CHURCHES,19814340,-87.7553601,41.8769143,CHRISTIAN,NBC,NOT AVAILABLE,NOT AVAILABLE,Y,N
25853,10457559,GRANT MEMORIAL AFRICAN METHODIST EPISCOPAL CHURCH,CHICAGO,IL,60653,2416,COOK,17031,2009-03-31T00:00:00.000Z,ALT REF,2009-03-31T00:00:00.000Z,CHURCHES,16897495,-87.6045694,41.821011,CHRISTIAN,AME,NOT AVAILABLE,NOT AVAILABLE,Y,N
25855,10444897,SAINT MICHAEL IN OLD TOWN,CHICAGO,IL,60614,5685,COOK,17031,2009-03-31T00:00:00.000Z,ALT REF,2009-03-31T00:00:00.000Z,CHURCHES,19806445,-87.6408955,41.9124219,CHRISTIAN,NOT AVAILABLE,NOT AVAILABLE,NOT AVAILABLE,N,Y
25859,10444890,SAINT MARY OF THE ANGELS CHURCH,CHICAGO,IL,60622,1101,COOK,17031,2009-03-31T00:00:00.000Z,ALT REF,2009-03-31T00:00:00.000Z,CHURCHES,19805941,-87.6721113,41.9157494,CHRISTIAN,NOT AVAILABLE,NOT AVAILABLE,NOT AVAILABLE,N,Y
25861,10440605,CHURCH OF THE ATONEMENT,CHICAGO,IL,60660,4541,COOK,17031,2009-03-31T00:00:00.000Z,ALT REF,2009-03-31T00:00:00.000Z,CHURCHES,19793303,-87.6562764,41.9870184,CHRISTIAN,EPIS,NOT AVAILABLE,NOT AVAILABLE,Y,N
25862,10432438,APOSTOLIC CHURCH OF GOD,CHICAGO,IL,60637,3714,COOK,17031,2009-03-31T00:00:00.000Z,ALT REF,2009-03-31T00:00:00.000Z,CHURCHES,19855672,-87.5923298,41.7795202,CHRISTIAN,PAW,NOT AVAILABLE,NOT AVAILABLE,Y,N
25863,10432434,SALEM BAPTIST CHURCH OF CHICAGO,CHICAGO,IL,60628,NULL,COOK,17031,2009-03-31T00:00:00.000Z,ALT REF,2009-03-31T00:00:00.000Z,CHURCHES,19861192,-87.6037614,41.6881533,CHRISTIAN,BAPT,NOT AVAILABLE,NOT AVAILABLE,Y,N
25865,10440586,SAINT PAULS CHURCH BY THE LAKE,CHICAGO,IL,60626,2502,COOK,17031,2009-03-31T00:00:00.000Z,ALT REF,2009-03-31T00:00:00.000Z,CHURCHES,19786336,-87.6704758,42.0117335,CHRISTIAN,EPIS,NOT AVAILABLE,NOT AVAILABLE,Y,N
25871,10586584,GARFIELD PARK BAPTIST CHURCH,CHICAGO,IL,60624,2731,COOK,17031,2009-03-31T00:00:00.000Z,ALT REF,2009-03-31T00:00:00.000Z,CHURCHES,19814201,-87.728242,41.8773142,CHRISTIAN,ABC,NOT AVAILABLE,NOT AVAILABLE,Y,N
25872,10576441,BACK TO GOD CHURCH,CHICAGO,IL,60636,4112,COOK,17031,2009-03-31T00:00:00.000Z,ALT REF,2009-03-31T00:00:00.000Z,CHURCHES,19845839,-87.6543607,41.7606291,CHRISTIAN,CRC,NOT AVAILABLE,NOT AVAILABLE,Y,N
25876,10585285,HYDE PARK UNION CHURCH,CHICAGO,IL,60637,1623,COOK,17031,2009-03-31T00:00:00.000Z,ALT REF,2009-03-31T00:00:00.000Z,CHURCHES,19855304,-87.596927,41.7930194,CHRISTIAN,ABC,NOT AVAILABLE,NOT AVAILABLE,Y,N
25881,10453797,CHRIST FIRST MISSIONARY BAPTIST CHURCH,CHICAGO,IL,60621,4038,COOK,17031,2008-02-28T00:00:00.000Z,ALT REF,2009-03-31T00:00:00.000Z,CHURCHES,709741200,-87.6299593,41.7885455,CHRISTIAN,NBC,NOT AVAILABLE,NOT AVAILABLE,Y,N
25884,10444929,PRECIOUS BLOOD CHURCH,CHICAGO,IL,60612,3534,COOK,17031,2009-03-31T00:00:00.000Z,ALT REF,2009-03-31T00:00:00.000Z,CHURCHES,721165299,-87.6866106,41.8746472,CHRISTIAN,NOT AVAILABLE,NOT AVAILABLE,NOT AVAILABLE,N,Y
25885,10444931,SAINT PRISCILLA CHURCH,CHICAGO,IL,60634,3705,COOK,17031,2009-03-31T00:00:00.000Z,ALT REF,2009-03-31T00:00:00.000Z,CHURCHES,19799634,-87.8008652,41.9449167,CHRISTIAN,NOT AVAILABLE,NOT AVAILABLE,NOT AVAILABLE,N,Y
25886,10444830,SAINT BRUNO CATHOLIC CHURCH,CHICAGO,IL,60632,3628,COOK,17031,2009-03-31T00:00:00.000Z,ALT REF,2009-03-31T00:00:00.000Z,CHURCHES,19841535,-87.7217526,41.8057867,CHRISTIAN,NOT AVAILABLE,NOT AVAILABLE,NOT AVAILABLE,N,Y
25887,10586642,RIVERS OF LIVING WATER CHRISTIAN CENTER,CHICAGO,IL,60625,3924,COOK,17031,2009-04-01T00:00:00.000Z,ALT REF,2009-04-01T00:00:00.000Z,CHURCHES,19793979,-87.7091936,41.9814434,CHRISTIAN,ABC,NOT AVAILABLE,NOT AVAILABLE,Y,N
25888,10444893,SAINT MARY OF PERPETUAL HELP,CHICAGO,IL,60608,6505,COOK,17031,2009-04-01T00:00:00.000Z,ALT REF,2009-04-01T00:00:00.000Z,CHURCHES,19839320,-87.6524485,41.8357799,CHRISTIAN,NOT AVAILABLE,NOT AVAILABLE,NOT AVAILABLE,N,Y
25889,10444957,SAINT TIMOTHY CHURCH,CHICAGO,IL,60659,1782,COOK,17031,2009-04-01T00:00:00.000Z,ALT REF,2009-04-01T00:00:00.000Z,CHURCHES,19792010,-87.6975502,41.996543,CHRISTIAN,NOT AVAILABLE,NOT AVAILABLE,NOT AVAILABLE,N,Y
25890,10444852,HOLY ANGELS CHURCH,CHICAGO,IL,60653,2309,COOK,17031,2009-04-01T00:00:00.000Z,ALT REF,2009-04-01T00:00:00.000Z,CHURCHES,125161326,-87.6119175,41.8223659,CHRISTIAN,NOT AVAILABLE,NOT AVAILABLE,NOT AVAILABLE,N,Y
25891,10444958,TRANSFIGURATION OF OUR LORD CHURCH,CHICAGO,IL,60625,2701,COOK,17031,2009-04-01T00:00:00.000Z,ALT REF,2009-04-01T00:00:00.000Z,CHURCHES,19795062,-87.6942605,41.9736849,CHRISTIAN,NOT AVAILABLE,NOT AVAILABLE,NOT AVAILABLE,N,Y
25892,10579036,RAVENSWOOD BAPTIST CHURCH,CHICAGO,IL,60625,1703,COOK,17031,2009-04-01T00:00:00.000Z,ALT REF,2009-04-01T00:00:00.000Z,CHURCHES,19796900,-87.6803554,41.9630155,CHRISTIAN,BAPT,NOT AVAILABLE,NOT AVAILABLE,Y,N
25901,10444861,SAINT IGNATIUS CHURCH,CHICAGO,IL,60626,5121,COOK,17031,2009-04-01T00:00:00.000Z,ALT REF,2009-04-01T00:00:00.000Z,CHURCHES,19787052,-87.6651476,42.0015917,CHRISTIAN,NOT AVAILABLE,NOT AVAILABLE,NOT AVAILABLE,N,Y
25903,10580300,GARFIELD RIDGE BAPTIST CHURCH,CHICAGO,IL,60638,2514,COOK,17031,2009-04-01T00:00:00.000Z,ALT REF,2009-04-01T00:00:00.000Z,CHURCHES,19822323,-87.7821414,41.7916234,CHRISTIAN,BAPT,NOT AVAILABLE,NOT AVAILABLE,Y,N
25909,10454509,EMMANUEL BAPTIST CHURCH,CHICAGO,IL,60620,6021,COOK,17031,2009-04-06T00:00:00.000Z,ALT REF,2009-04-06T00:00:00.000Z,CHURCHES,19825164,-87.6725587,41.7426559,CHRISTIAN,NBC,NOT AVAILABLE,NOT AVAILABLE,Y,N
25912,10444912,OUR LADY MOTHER OF THE CHURCH,CHICAGO,IL,60656,2937,COOK,17031,2009-04-03T00:00:00.000Z,ALT REF,2009-04-03T00:00:00.000Z,CHURCHES,19790122,-87.844519,41.9657762,CHRISTIAN,NOT AVAILABLE,NOT AVAILABLE,NOT AVAILABLE,N,Y
25913,10444906,OUR LADY OF GRACE CHURCH,CHICAGO,IL,60647,2325,COOK,17031,2009-04-03T00:00:00.000Z,ALT REF,2009-04-03T00:00:00.000Z,CHURCHES,19803976,-87.7211071,41.9261216,CHRISTIAN,NOT AVAILABLE,NOT AVAILABLE,NOT AVAILABLE,N,Y
25914,10444856,HOLY NAME OF MARY CHURCH,CHICAGO,IL,60643,3653,COOK,17031,2009-04-01T00:00:00.000Z,ALT REF,2009-04-03T00:00:00.000Z,CHURCHES,19830501,-87.657228,41.6901187,CHRISTIAN,NOT AVAILABLE,NOT AVAILABLE,NOT AVAILABLE,N,Y
25915,10457578,BUTLER MEMORIAL AFRICAN METHODIST EPISCOPAL CHURCH,CHICAGO,IL,60632,2715,COOK,17031,2009-04-03T00:00:00.000Z,ALT REF,2009-04-03T00:00:00.000Z,CHURCHES,19840095,-87.7091649,41.8245307,CHRISTIAN,AME,NOT AVAILABLE,NOT AVAILABLE,Y,N
25916,10444824,SAINT CLEMENT CHURCH,CHICAGO,IL,60614,2618,COOK,17031,2009-04-03T00:00:00.000Z,ALT REF,2009-04-03T00:00:00.000Z,CHURCHES,19803222,-87.6460989,41.9282176,CHRISTIAN,NOT AVAILABLE,NOT AVAILABLE,NOT AVAILABLE,N,Y
25917,10444810,SAINT BARTHOLOMEW CATHOLIC CHURCH,CHICAGO,IL,60641,3512,COOK,17031,2009-04-03T00:00:00.000Z,ALT REF,2009-04-03T00:00:00.000Z,CHURCHES,19799242,-87.7514619,41.946324,CHRISTIAN,NOT AVAILABLE,NOT AVAILABLE,NOT AVAILABLE,N,Y
25918,10444871,SAINT JEROME CROATIAN CATHOLIC CHURCH,CHICAGO,IL,60616,2602,COOK,17031,2009-04-03T00:00:00.000Z,ALT REF,2009-04-03T00:00:00.000Z,CHURCHES,19838865,-87.6338258,41.8419704,CHRISTIAN,NOT AVAILABLE,NOT AVAILABLE,NOT AVAILABLE,N,Y
25920,10440592,SAINT MARGARET OF SCOTLAND EPISCOPAL CHURCH,CHICAGO,IL,60649,2616,COOK,17031,2009-04-03T00:00:00.000Z,ALT REF,2009-04-03T00:00:00.000Z,CHURCHES,19856454,-87.5623086,41.7628462,CHRISTIAN,EPIS,NOT AVAILABLE,NOT AVAILABLE,Y,N
25922,10583941,PILGRIM REST BAPTIST CHURCH,CHICAGO,IL,60612,2426,COOK,17031,2009-04-03T00:00:00.000Z,ALT REF,2009-04-03T00:00:00.000Z,CHURCHES,19812874,-87.6744908,41.8829262,CHRISTIAN,BAPT,NOT AVAILABLE,NOT AVAILABLE,Y,N
25923,10574947,MARTIN TEMPLE AFRICAN METHODIST EPISCOPAL ZION CHURCH,CHICAGO,IL,60637,4116,COOK,17031,2009-04-03T00:00:00.000Z,ALT REF,2009-04-03T00:00:00.000Z,CHURCHES,19857382,-87.6061392,41.7688023,CHRISTIAN,AMEZ,NOT AVAILABLE,NOT AVAILABLE,Y,N
25924,10583942,NEW EDEN EVANGELICAL BAPTIST CHURCH,CHICAGO,IL,60629,1104,COOK,17031,2009-04-03T00:00:00.000Z,ALT REF,2009-04-03T00:00:00.000Z,CHURCHES,19843288,-87.6868849,41.7866783,CHRISTIAN,BAPT,NOT AVAILABLE,NOT AVAILABLE,Y,N
25925,10442414,SAINT CORNELIUS CHURCH,CHICAGO,IL,60630,2230,COOK,17031,2009-04-03T00:00:00.000Z,ALT REF,2009-04-03T00:00:00.000Z,CHURCHES,19795018,-87.7639517,41.9754767,CHRISTIAN,NOT AVAILABLE,NOT AVAILABLE,NOT AVAILABLE,N,Y
25926,10448315,SAINT NICHOLAS UKRANIAN CATHOLIC CATHEDRAL,CHICAGO,IL,60622,4811,COOK,17031,2009-03-31T00:00:00.000Z,ALT REF,2009-03-31T00:00:00.000Z,CHURCHES,19809559,-87.6839257,41.8969643,CHRISTIAN,NOT AVAILABLE,NOT AVAILABLE,NOT AVAILABLE,N,Y
25927,10452746,HERMON BAPTIST CHURCH,CHICAGO,IL,60614,5815,COOK,17031,2009-04-01T00:00:00.000Z,ALT REF,2009-04-01T00:00:00.000Z,CHURCHES,727357983,-87.6339932,41.9144455,CHRISTIAN,NBC,NOT AVAILABLE,NOT AVAILABLE,Y,N
25928,10444878,SAINT JOSEPH CHURCH,CHICAGO,IL,60610,2511,COOK,17031,2009-04-06T00:00:00.000Z,ALT REF,2009-04-06T00:00:00.000Z,CHURCHES,19808272,-87.6369941,41.9022297,CHRISTIAN,NOT AVAILABLE,NOT AVAILABLE,NOT AVAILABLE,N,Y
25932,10685036,SHAMBHALA MEDITATION CENTER CHICAGO,CHICAGO,IL,60626,2215,COOK,17031,2009-04-06T00:00:00.000Z,ALT REF,2009-04-06T00:00:00.000Z,PLACES OF WORSHIP,19786180,-87.6641624,42.0148122,BUDDHIST,"TIBETAN, KAGYU-NYINGMA",NOT AVAILABLE,NOT AVAILABLE,N,N
25933,10442341,SAINT FELICITAS CATHOLIC CHURCH,CHICAGO,IL,60619,6591,COOK,17031,2009-04-03T00:00:00.000Z,ALT REF,2009-04-03T00:00:00.000Z,CHURCHES,19858256,-87.5874723,41.7425628,CHRISTIAN,NOT AVAILABLE,NOT AVAILABLE,NOT AVAILABLE,N,Y
25936,10444908,OUR LADY HELP OF CHRISTIANS,CHICAGO,IL,60651,3014,COOK,17031,2009-04-03T00:00:00.000Z,ALT REF,2009-04-03T00:00:00.000Z,CHURCHES,19810127,-87.7535663,41.8963841,CHRISTIAN,NOT AVAILABLE,NOT AVAILABLE,NOT AVAILABLE,N,Y
25937,10444794,SAINT AGNES OF BOHEMIA,CHICAGO,IL,60623,4631,COOK,17031,2009-04-03T00:00:00.000Z,ALT REF,2009-04-03T00:00:00.000Z,CHURCHES,19838779,-87.7144189,41.8427363,CHRISTIAN,NOT AVAILABLE,NOT AVAILABLE,NOT AVAILABLE,N,Y
25938,10444866,IMMACULATE HEART OF MARY,CHICAGO,IL,60618,4413,COOK,17031,2009-04-03T00:00:00.000Z,ALT REF,2009-04-03T00:00:00.000Z,CHURCHES,19798597,-87.7108109,41.9517025,CHRISTIAN,NOT AVAILABLE,NOT AVAILABLE,NOT AVAILABLE,N,Y
25946,10586656,TRINITY BAPTIST CHURCH,CHICAGO,IL,60629,4154,COOK,17031,2009-04-06T00:00:00.000Z,ALT REF,2009-04-06T00:00:00.000Z,CHURCHES,19845010,-87.7173392,41.7708684,CHRISTIAN,ABC,NOT AVAILABLE,NOT AVAILABLE,Y,N
25950,10440268,SAINT MARTINS EPISCOPAL CHURCH,CHICAGO,IL,60644,1818,COOK,17031,2009-04-06T00:00:00.000Z,ALT REF,2009-04-06T00:00:00.000Z,CHURCHES,19811654,-87.7679702,41.8893603,CHRISTIAN,EPIS,NOT AVAILABLE,NOT AVAILABLE,Y,N
25951,10444858,HOLY TRINITY CROATIAN CHURCH,CHICAGO,IL,60608,3149,COOK,17031,2009-04-06T00:00:00.000Z,ALT REF,2009-04-06T00:00:00.000Z,CHURCHES,19837401,-87.6591571,41.8565431,CHRISTIAN,NOT AVAILABLE,NOT AVAILABLE,NOT AVAILABLE,N,Y
25952,10430786,MUHAMMADS MOSQUE,CHICAGO,IL,60637,1012,COOK,17031,2009-04-06T00:00:00.000Z,ALT REF,2009-04-06T00:00:00.000Z,"MOSQUES, RELIGIOUS",19855273,-87.6221384,41.7933669,MUSLIM,NOT AVAILABLE,NOT AVAILABLE,NOT AVAILABLE,N,N
25953,10440597,SAINT JAMES CATHEDRAL,CHICAGO,IL,60611,2728,COOK,17031,2009-04-07T00:00:00.000Z,ALT REF,2009-04-07T00:00:00.000Z,CHURCHES,19809953,-87.6264277,41.8946284,CHRISTIAN,EPIS,NOT AVAILABLE,NOT AVAILABLE,Y,N
25954,10444859,POLAND PASTORAL MISSION IN CHICAGO,CHICAGO,IL,60622,4015,COOK,17031,2009-04-03T00:00:00.000Z,ALT REF,2009-04-03T00:00:00.000Z,CHURCHES,19857636,-87.6629903,41.9023337,CHRISTIAN,NOT AVAILABLE,NOT AVAILABLE,NOT AVAILABLE,N,Y
25955,10452543,CHRISTIAN HOPE MISSIONARY BAPTIST CHURCH,CHICAGO,IL,60620,2951,COOK,17031,2009-04-08T00:00:00.000Z,ALT REF,2009-04-08T00:00:00.000Z,CHURCHES,19846153,-87.6511182,41.7562331,CHRISTIAN,NBC,NOT AVAILABLE,NOT AVAILABLE,Y,N
25956,10444840,SAINT FRANCIS OF ASSISI / OUR LADY OF ANGELS,CHICAGO,IL,60651,3450,COOK,17031,2009-04-07T00:00:00.000Z,ALT REF,2009-04-07T00:00:00.000Z,CHURCHES,19809301,-87.7364805,41.8986101,CHRISTIAN,NOT AVAILABLE,NOT AVAILABLE,NOT AVAILABLE,N,Y
25957,10444796,ALL SAINTS SAINT ANTHONY CHURCH,CHICAGO,IL,60616,2508,COOK,17031,2009-04-06T00:00:00.000Z,ALT REF,2009-04-06T00:00:00.000Z,CHURCHES,19838735,-87.6409805,41.8429702,CHRISTIAN,NOT AVAILABLE,NOT AVAILABLE,NOT AVAILABLE,N,Y
25958,10444844,SAINT GEORGE ROMAN CATHOLIC CHURCH,CHICAGO,IL,60617,5155,COOK,17031,2009-04-08T00:00:00.000Z,ALT REF,2009-04-08T00:00:00.000Z,CHURCHES,125156522,-87.5358491,41.7215247,CHRISTIAN,NOT AVAILABLE,NOT AVAILABLE,NOT AVAILABLE,N,Y
25959,10453551,LIVELY STONE MISSIONARY BAPTIST CHURCH,CHICAGO,IL,60651,3142,COOK,17031,2009-04-06T00:00:00.000Z,ALT REF,2009-04-06T00:00:00.000Z,CHURCHES,125167425,-87.7498674,41.8952654,CHRISTIAN,NBC,NOT AVAILABLE,NOT AVAILABLE,Y,N
25960,10460616,COVENANT PRESBYTERIAN CHURCH OF CHICAGO,CHICAGO,IL,60647,4531,COOK,17031,2009-04-06T00:00:00.000Z,ALT REF,2009-04-06T00:00:00.000Z,CHURCHES,19805079,-87.6783842,41.9195925,CHRISTIAN,PCA,NOT AVAILABLE,NOT AVAILABLE,Y,N
25961,10684931,QUANG MINH VIETNAMESE BUDDHIST TEMPLE,CHICAGO,IL,60625,1701,COOK,17031,2009-04-06T00:00:00.000Z,ALT REF,2009-04-06T00:00:00.000Z,"TEMPLES, RELIGIOUS",19796892,-87.6787365,41.9624288,BUDDHIST,VIETNAMESE MAHAYANA,NOT AVAILABLE,NOT AVAILABLE,N,N
25962,10453609,FIRST COMMUNITY BAPTIST CHURCH,CHICAGO,IL,60636,3554,COOK,17031,2009-04-06T00:00:00.000Z,ALT REF,2009-04-06T00:00:00.000Z,CHURCHES,19845134,-87.6582015,41.7687871,CHRISTIAN,NBC,NOT AVAILABLE,NOT AVAILABLE,Y,N
25963,10442419,SAINT VIATOR CHURCH,CHICAGO,IL,60641,3913,COOK,17031,2009-04-08T00:00:00.000Z,ALT REF,2009-04-08T00:00:00.000Z,CHURCHES,19799396,-87.7316267,41.946672,CHRISTIAN,NOT AVAILABLE,NOT AVAILABLE,NOT AVAILABLE,N,Y
25966,10457539,COPPIN MEMORIAL AFRICAN METHODIST EPISCOPAL CHURCH,CHICAGO,IL,60637,1103,COOK,17031,2009-04-06T00:00:00.000Z,ALT REF,2009-04-06T00:00:00.000Z,CHURCHES,125161073,-87.6219811,41.7919348,CHRISTIAN,AME,NOT AVAILABLE,NOT AVAILABLE,Y,N
25967,10444928,SAINT PIUS V CHURCH,CHICAGO,IL,60608,2903,COOK,17031,2009-04-07T00:00:00.000Z,ALT REF,2009-04-07T00:00:00.000Z,CHURCHES,19837544,-87.6656401,41.8557439,CHRISTIAN,NOT AVAILABLE,NOT AVAILABLE,NOT AVAILABLE,N,Y
25969,10432439,CHRIST UNIVERSAL TEMPLE,CHICAGO,IL,60643,5495,COOK,17031,2009-04-06T00:00:00.000Z,ALT REF,2009-04-06T00:00:00.000Z,CHURCHES,19831854,-87.6601577,41.6766931,CHRISTIAN,NONDENOM,NOT AVAILABLE,NOT AVAILABLE,Y,N
25970,10683936,ANCIENT DRAGON ZEN GATE,CHICAGO,IL,60613,2408,COOK,17031,2009-04-06T00:00:00.000Z,ALT REF,2009-04-06T00:00:00.000Z,PLACES OF WORSHIP,716543544,-87.6773264,41.9543846,BUDDHIST,"SOTO ZEN, SHUNRYU SUZUKI LINEAGE",NOT AVAILABLE,NOT AVAILABLE,N,N
25971,10444925,SAINTS PETER AND PAUL CHURCH,CHICAGO,IL,60609,2047,COOK,17031,2009-04-08T00:00:00.000Z,ALT REF,2009-04-08T00:00:00.000Z,CHURCHES,19840037,-87.6673747,41.8252136,CHRISTIAN,NOT AVAILABLE,NOT AVAILABLE,NOT AVAILABLE,N,Y
25974,10444848,SAINT HELEN CATHOLIC CHURCH,CHICAGO,IL,60622,4841,COOK,17031,2009-04-07T00:00:00.000Z,ALT REF,2009-04-07T00:00:00.000Z,CHURCHES,19808874,-87.6849028,41.8991127,CHRISTIAN,NOT AVAILABLE,NOT AVAILABLE,NOT AVAILABLE,N,Y
25975,10444582,SAINT JOHN FISHER CATHOLIC CHURCH,CHICAGO,IL,60655,1654,COOK,17031,2009-04-09T00:00:00.000Z,ALT REF,2009-04-09T00:00:00.000Z,CHURCHES,19828745,-87.689863,41.7071091,CHRISTIAN,NOT AVAILABLE,NOT AVAILABLE,NOT AVAILABLE,N,Y
25976,10457560,GREATER INSTITUTIONAL AFRICAN METHODIST EPISCOPAL CHURCH,CHICAGO,IL,60619,2333,COOK,17031,2009-04-07T00:00:00.000Z,ALT REF,2009-04-07T00:00:00.000Z,CHURCHES,19857238,-87.6201645,41.7526522,CHRISTIAN,AME,NOT AVAILABLE,NOT AVAILABLE,Y,N
25977,10444962,SAINT WENCESLAUS CATHOLIC CHURCH,CHICAGO,IL,60618,5356,COOK,17031,2009-04-06T00:00:00.000Z,ALT REF,2009-04-06T00:00:00.000Z,CHURCHES,19800005,-87.7196046,41.9432046,CHRISTIAN,NOT AVAILABLE,NOT AVAILABLE,NOT AVAILABLE,N,Y
25980,10586594,IGLESIA CRISTIANA DE LA FAMILIA,CHICAGO,IL,60641,4814,COOK,17031,2009-04-09T00:00:00.000Z,ALT REF,2009-04-09T00:00:00.000Z,CHURCHES,19801722,-87.76369,41.9365015,CHRISTIAN,ABC,NOT AVAILABLE,NOT AVAILABLE,Y,N
25981,10583946,GREATER SAINT JOHN BAPTIST CHURCH,CHICAGO,IL,60651,1149,COOK,17031,2009-04-08T00:00:00.000Z,ALT REF,2009-04-08T00:00:00.000Z,CHURCHES,19808364,-87.768449,41.9037642,CHRISTIAN,BAPT,NOT AVAILABLE,NOT AVAILABLE,Y,N
25984,10444954,SAINT THOMAS THE APOSTLE CATHOLIC CHURCH,CHICAGO,IL,60615,5290,COOK,17031,2009-04-06T00:00:00.000Z,ALT REF,2009-04-06T00:00:00.000Z,CHURCHES,724440726,-87.5955128,41.7959252,CHRISTIAN,NOT AVAILABLE,NOT AVAILABLE,NOT AVAILABLE,N,Y
25985,10440408,SAINT THOMAS EPISCOPAL CHURCH,CHICAGO,IL,60653,1520,COOK,17031,2009-04-06T00:00:00.000Z,ALT REF,2009-04-06T00:00:00.000Z,CHURCHES,19857308,-87.6244236,41.8253997,CHRISTIAN,EPIS,NOT AVAILABLE,NOT AVAILABLE,Y,N
25986,10586618,MOUNT SINAI BAPTIST CHURCH,CHICAGO,IL,60612,1921,COOK,17031,2009-04-06T00:00:00.000Z,ALT REF,2009-04-06T00:00:00.000Z,CHURCHES,19812979,-87.6979185,41.8825757,CHRISTIAN,ABC,NOT AVAILABLE,NOT AVAILABLE,Y,N
25987,10452818,ORIGINAL MOUNT PLEASANT MISSIONARY BAPTIST CHURCH,CHICAGO,IL,60637,4429,COOK,17031,2009-04-06T00:00:00.000Z,ALT REF,2009-04-06T00:00:00.000Z,CHURCHES,19855817,-87.5890141,41.7744561,CHRISTIAN,NBC,NOT AVAILABLE,NOT AVAILABLE,Y,N
25988,10585592,FIRST ROMANIAN BAPTIST CHURCH,CHICAGO,IL,60614,1102,COOK,17031,2009-04-06T00:00:00.000Z,ALT REF,2009-04-06T00:00:00.000Z,CHURCHES,19802953,-87.6685971,41.9295394,CHRISTIAN,ABC,NOT AVAILABLE,NOT AVAILABLE,Y,N
25989,10444947,SAINT STEPHEN KING OF HUNGARY ROMAN CATHOLIC CHURCH,CHICAGO,IL,60622,4947,COOK,17031,2009-04-06T00:00:00.000Z,ALT REF,2009-04-06T00:00:00.000Z,CHURCHES,19808839,-87.6779691,41.8992822,CHRISTIAN,NOT AVAILABLE,NOT AVAILABLE,NOT AVAILABLE,N,Y
25990,10579305,MISSION INDEPENDENT BAPTIST CHURCH,CHICAGO,IL,60625,2922,COOK,17031,2009-04-03T00:00:00.000Z,ALT REF,2009-04-09T00:00:00.000Z,CHURCHES,19796156,-87.6941253,41.9664502,CHRISTIAN,BAPT,NOT AVAILABLE,NOT AVAILABLE,Y,N
25991,10444833,SAINT BENEDICT THE AFRICAN EAST,CHICAGO,IL,60621,3145,COOK,17031,2009-04-07T00:00:00.000Z,ALT REF,2009-04-07T00:00:00.000Z,CHURCHES,19844518,-87.634358,41.7746745,CHRISTIAN,NOT AVAILABLE,NOT AVAILABLE,NOT AVAILABLE,N,Y
25997,10586651,SOUTH PARK BAPTIST CHURCH,CHICAGO,IL,60653,1608,COOK,17031,2009-04-09T00:00:00.000Z,ALT REF,2009-04-09T00:00:00.000Z,CHURCHES,19854308,-87.6177086,41.8266316,CHRISTIAN,ABC,NOT AVAILABLE,NOT AVAILABLE,Y,N