OBJECTID,ID,NAME,CITY,STATE,ZIP,ZIPP4,COUNTY,FIPS,CONTDATE,CONTHOW,GEODATE,NAICSDESCR,GEOLINKID,X,Y,SUBTYPE,DENOM,MEMBERS,LOC_TYPE,PROT,CATH
28149,10444050,SAINT THOMAS THE APOSTLE CHURCH,COLUMBUS,OH,43219,2752,FRANKLIN,39049,2009-05-08T00:00:00.000Z,ALT REF,2009-05-08T00:00:00.000Z,CHURCHES,28523434,-82.9317089,39.9857647,CHRISTIAN,NOT AVAILABLE,NOT AVAILABLE,NOT AVAILABLE,N,Y
28155,10446302,SAINT JAMES THE LESS CATHOLIC CHURCH,COLUMBUS,OH,43224,3552,FRANKLIN,39049,2009-05-05T00:00:00.000Z,ALT REF,2009-05-05T00:00:00.000Z,CHURCHES,28519363,-82.9694498,40.0319772,CHRISTIAN,NOT AVAILABLE,NOT AVAILABLE,NOT AVAILABLE,N,Y
28156,10446303,SAINT JOHN THE BAPTIST ITALIAN CATHOLIC CHURCH,COLUMBUS,OH,43215,1534,FRANKLIN,39049,2009-05-05T00:00:00.000Z,ALT REF,2009-05-05T00:00:00.000Z,CHURCHES,28554014,-82.9991092,39.9774025,CHRISTIAN,NOT AVAILABLE,NOT AVAILABLE,NOT AVAILABLE,N,Y
28163,10683993,BUDDHIST BODHI ASSOCIATION OF COLUMBUS,COLUMBUS,OH,43220,5200,FRANKLIN,39049,2009-05-11T00:00:00.000Z,ALT REF,2009-05-11T00:00:00.000Z,PLACES OF WORSHIP,115935869,-83.0738505,40.0624915,BUDDHIST,OPEN,NOT AVAILABLE,NOT AVAILABLE,N,N
28165,10457418,SAINT MARK AFRICAN METHODIST EPISCOPAL CHURCH,COLUMBUS,OH,43203,1110,FRANKLIN,39049,2009-05-11T00:00:00.000Z,ALT REF,2009-05-11T00:00:00.000Z,CHURCHES,28524178,-82.9704996,39.9758085,CHRISTIAN,AME,NOT AVAILABLE,NOT AVAILABLE,Y,N
28166,10446300,HOLY SPIRIT CATHOLIC CHURCH,COLUMBUS,OH,43213,1357,FRANKLIN,39049,2009-05-11T00:00:00.000Z,ALT REF,2009-05-11T00:00:00.000Z,CHURCHES,28546119,-82.88374,39.9746492,CHRISTIAN,NOT AVAILABLE,NOT AVAILABLE,NOT AVAILABLE,N,Y
28169,10457315,BETHEL AFRICAN METHODIST EPISCOPAL CHURCH,COLUMBUS,OH,43211,2213,FRANKLIN,39049,2009-05-05T00:00:00.000Z,ALT REF,2009-05-05T00:00:00.000Z,CHURCHES,28522179,-82.9714782,40.0078269,CHRISTIAN,AME,NOT AVAILABLE,NOT AVAILABLE,Y,N
28170,10582073,CALVARY TREMONT MISSIONARY BAPTIST CHURCH,COLUMBUS,OH,43203,1139,FRANKLIN,39049,2009-05-05T00:00:00.000Z,ALT REF,2009-05-05T00:00:00.000Z,CHURCHES,28523875,-82.9696419,39.9782201,CHRISTIAN,BAPT,NOT AVAILABLE,NOT AVAILABLE,Y,N
28174,10432662,COLUMBUS CHRISTIAN CENTER CHURCH,COLUMBUS,OH,43219,1508,FRANKLIN,39049,2007-09-10T00:00:00.000Z,ALT REF,2007-09-10T00:00:00.000Z,CHURCHES,28521060,-82.9272497,40.019074,CHRISTIAN,NOT AVAILABLE,NOT AVAILABLE,NOT AVAILABLE,Y,N
28179,10433226,UPPER ARLINGTON LUTHERN CHURCH - THE CHURCH ON LYTHAM,COLUMBUS,OH,43220,4638,FRANKLIN,39049,2007-09-10T00:00:00.000Z,ALT REF,2007-09-10T00:00:00.000Z,CHURCHES,28518983,-83.0787625,40.0365673,CHRISTIAN,ELCA,NOT AVAILABLE,NOT AVAILABLE,Y,N
28186,10448191,SAINT JOHN CHRYSOSTOM BYZANTINE CATHOLIC CHURCH,COLUMBUS,OH,43231,2862,FRANKLIN,39049,2009-05-11T00:00:00.000Z,ALT REF,2009-05-11T00:00:00.000Z,CHURCHES,28555015,-82.9498007,40.0898396,CHRISTIAN,NOT AVAILABLE,NOT AVAILABLE,NOT AVAILABLE,N,Y
28191,10442725,SAINT CATHARINE CHURCH,COLUMBUS,OH,43209,2221,FRANKLIN,39049,2007-10-03T00:00:00.000Z,ALT REF,2007-10-03T00:00:00.000Z,CHURCHES,28525639,-82.9233739,39.9607257,CHRISTIAN,NOT AVAILABLE,NOT AVAILABLE,NOT AVAILABLE,N,Y
28192,10445863,VIETNAMESE CATHOLIC COMMUNITY,COLUMBUS,OH,43209,2221,FRANKLIN,39049,2008-03-27T00:00:00.000Z,ALT REF,2008-03-27T00:00:00.000Z,CHURCHES,28525639,-82.9233729,39.9607252,CHRISTIAN,NOT AVAILABLE,NOT AVAILABLE,NOT AVAILABLE,N,Y
28195,10438025,FIRST COMMUNITY CHURCH - NORTH CAMPUS,COLUMBUS,OH,43221,4915,FRANKLIN,39049,2007-09-25T00:00:00.000Z,ALT REF,2007-09-25T00:00:00.000Z,CHURCHES,28549169,-83.1047711,40.0305316,CHRISTIAN,UCC,4232,NOT AVAILABLE,Y,N
28196,10438026,FIRST COMMUNITY CHURCH - SOUTH CAMPUS,COLUMBUS,OH,43212,3207,FRANKLIN,39049,2007-09-25T00:00:00.000Z,ALT REF,2007-09-25T00:00:00.000Z,CHURCHES,28508928,-83.0574995,39.9831836,CHRISTIAN,UCC,4293,NOT AVAILABLE,Y,N
28197,10438027,FIRST CONGREGATIONAL CHURCH,COLUMBUS,OH,43215,3821,FRANKLIN,39049,2007-09-25T00:00:00.000Z,ALT REF,2007-09-25T00:00:00.000Z,CHURCHES,28525231,-82.9889439,39.9641145,CHRISTIAN,UCC,787,NOT AVAILABLE,Y,N
28207,10438240,WORTHINGTON CHRISTIAN CHURCH,COLUMBUS,OH,43235,1441,FRANKLIN,39049,2007-10-10T00:00:00.000Z,ALT REF,2007-10-10T00:00:00.000Z,CHURCHES,28545568,-83.018312,40.1314143,CHRISTIAN,CHRISTIAN,NOT AVAILABLE,NOT AVAILABLE,Y,N
28209,10438635,THE CHURCH OF JESUS CHRIST OF LATTER DAY SAINTS - MARBLE CLIFF WARD,COLUMBUS,OH,43228,9747,FRANKLIN,39049,2007-10-16T00:00:00.000Z,ALT REF,2007-10-16T00:00:00.000Z,CHURCHES,28508426,-83.1132339,39.9940951,CHRISTIAN,LDS,NOT AVAILABLE,NOT AVAILABLE,Y,N
28212,10439448,THE CHURCH OF JESUS CHRIST OF LATTER DAY SAINTS - HILLIARD WARD,COLUMBUS,OH,43228,9747,FRANKLIN,39049,2007-10-16T00:00:00.000Z,ALT REF,2007-10-16T00:00:00.000Z,CHURCHES,28508426,-83.113234,39.9940957,CHRISTIAN,LDS,NOT AVAILABLE,NOT AVAILABLE,Y,N
28214,10439827,THE CHURCH OF JESUS CHRIST OF LATTER DAY SAINTS - RIVERSIDE WARD,COLUMBUS,OH,43228,9747,FRANKLIN,39049,2007-10-16T00:00:00.000Z,ALT REF,2007-10-16T00:00:00.000Z,CHURCHES,28508426,-83.1132361,39.9940951,CHRISTIAN,LDS,NOT AVAILABLE,NOT AVAILABLE,Y,N
28248,10445566,SAINT ANTHONY CATHOLIC CHURCH,COLUMBUS,OH,43229,5132,FRANKLIN,39049,2007-10-03T00:00:00.000Z,ALT REF,2007-10-03T00:00:00.000Z,CHURCHES,28516787,-82.9835949,40.0678177,CHRISTIAN,NOT AVAILABLE,NOT AVAILABLE,NOT AVAILABLE,N,Y
28249,10446301,IMMACULATE CONCEPTION CHURCH,COLUMBUS,OH,43214,4114,FRANKLIN,39049,2007-10-03T00:00:00.000Z,ALT REF,2007-10-03T00:00:00.000Z,CHURCHES,28519375,-83.0046566,40.0319316,CHRISTIAN,NOT AVAILABLE,NOT AVAILABLE,NOT AVAILABLE,N,Y
28250,10446305,SAINT MARGARET OF CORTONA CHURCH,COLUMBUS,OH,43204,1606,FRANKLIN,39049,2007-10-03T00:00:00.000Z,ALT REF,2007-10-03T00:00:00.000Z,CHURCHES,28538318,-83.0883625,39.9874752,CHRISTIAN,NOT AVAILABLE,NOT AVAILABLE,NOT AVAILABLE,N,Y
28251,10446311,SAINT PATRICK CHURCH,COLUMBUS,OH,43215,2652,FRANKLIN,39049,2007-10-03T00:00:00.000Z,ALT REF,2007-10-03T00:00:00.000Z,CHURCHES,28524698,-82.991896,39.9688519,CHRISTIAN,NOT AVAILABLE,NOT AVAILABLE,NOT AVAILABLE,N,Y
28252,10446312,SAINT PETER CHURCH,COLUMBUS,OH,43235,2034,FRANKLIN,39049,2007-10-03T00:00:00.000Z,ALT REF,2007-10-03T00:00:00.000Z,CHURCHES,28558313,-83.0654248,40.1060528,CHRISTIAN,NOT AVAILABLE,NOT AVAILABLE,NOT AVAILABLE,N,Y
28266,10448159,HOLY RESURRECTION MELKITE CATHOLIC CHURCH,COLUMBUS,OH,43224,1050,FRANKLIN,39049,2007-10-03T00:00:00.000Z,ALT REF,2007-10-03T00:00:00.000Z,CHURCHES,28552268,-82.9973014,40.0595404,CHRISTIAN,NOT AVAILABLE,NOT AVAILABLE,NOT AVAILABLE,N,Y
28267,10448753,SAINT THOMAS MORE NEWMAN CENTER,COLUMBUS,OH,43201,1021,FRANKLIN,39049,2007-10-03T00:00:00.000Z,ALT REF,2007-10-03T00:00:00.000Z,CHURCHES,28522258,-83.0111221,40.0064964,CHRISTIAN,NOT AVAILABLE,NOT AVAILABLE,NOT AVAILABLE,N,Y
28319,10439771,THE CHURCH OF JESUS CHRIST OF LATTER DAY SAINTS - COLUMBUS 2ND (YOUNG SINGLE ADULT) WARD,COLUMBUS,OH,43201,1803,FRANKLIN,39049,2007-10-16T00:00:00.000Z,ALT REF,2007-10-16T00:00:00.000Z,CHURCHES,28538463,-83.0053007,39.9964308,CHRISTIAN,LDS,NOT AVAILABLE,NOT AVAILABLE,Y,N
28327,10439033,THE CHURCH OF JESUS CHRIST OF LATTER DAY SAINTS - COLUMBUS 1ST (YOUNG SINGLE ADULT) WARD,COLUMBUS,OH,43201,1803,FRANKLIN,39049,2007-10-16T00:00:00.000Z,ALT REF,2007-10-16T00:00:00.000Z,CHURCHES,28538463,-83.0053034,39.9964309,CHRISTIAN,LDS,NOT AVAILABLE,NOT AVAILABLE,Y,N
28345,10441336,SAINT PHILIP EPISCOPAL CHURCH,COLUMBUS,OH,43203,1774,FRANKLIN,39049,2007-11-06T00:00:00.000Z,ALT REF,2007-11-06T00:00:00.000Z,CHURCHES,28524587,-82.9568627,39.9708333,CHRISTIAN,EPIS,NOT AVAILABLE,NOT AVAILABLE,Y,N
28358,10588773,HILLCREST BAPTIST CHURCH,COLUMBUS,OH,43204,3321,FRANKLIN,39049,2009-05-07T00:00:00.000Z,ALT REF,2009-05-07T00:00:00.000Z,CHURCHES,28509831,-83.0666458,39.9556107,CHRISTIAN,ABC,NOT AVAILABLE,NOT AVAILABLE,Y,N
28363,10445570,SAINT CHRISTOPHER CHURCH,COLUMBUS,OH,43212,2806,FRANKLIN,39049,2009-05-07T00:00:00.000Z,ALT REF,2009-05-07T00:00:00.000Z,CHURCHES,28508807,-83.043965,39.9869017,CHRISTIAN,NOT AVAILABLE,NOT AVAILABLE,NOT AVAILABLE,N,Y
28374,10453963,UNION GROVE BAPTIST CHURCH,COLUMBUS,OH,43203,1540,FRANKLIN,39049,2009-05-07T00:00:00.000Z,ALT REF,2009-05-07T00:00:00.000Z,CHURCHES,28524445,-82.9678647,39.9716002,CHRISTIAN,NBC,NOT AVAILABLE,NOT AVAILABLE,Y,N
28375,10588762,GOOD SHEPHERD BAPTIST CHURCH,COLUMBUS,OH,43211,1543,FRANKLIN,39049,2009-05-07T00:00:00.000Z,ALT REF,2009-05-07T00:00:00.000Z,CHURCHES,28521442,-82.9683059,40.0134511,CHRISTIAN,ABC,NOT AVAILABLE,NOT AVAILABLE,Y,N
28376,10446307,SAINT MARY MAGDALENE CHURCH,COLUMBUS,OH,43204,2551,FRANKLIN,39049,2009-05-07T00:00:00.000Z,ALT REF,2009-05-07T00:00:00.000Z,CHURCHES,28510604,-83.0774069,39.9453101,CHRISTIAN,NOT AVAILABLE,NOT AVAILABLE,NOT AVAILABLE,N,Y
28377,10446309,OUR LADY OF PEACE CHURCH,COLUMBUS,OH,43214,2737,FRANKLIN,39049,2009-05-07T00:00:00.000Z,ALT REF,2009-05-07T00:00:00.000Z,CHURCHES,28547070,-83.0193849,40.0540317,CHRISTIAN,NOT AVAILABLE,NOT AVAILABLE,NOT AVAILABLE,N,Y
28386,10588665,CORINTHIAN MISSIONARY BAPTIST CHURCH,COLUMBUS,OH,43219,2804,FRANKLIN,39049,2009-05-07T00:00:00.000Z,ALT REF,2009-05-07T00:00:00.000Z,CHURCHES,28523480,-82.9195254,39.9841727,CHRISTIAN,ABC,NOT AVAILABLE,NOT AVAILABLE,Y,N
28387,10445564,SAINT AGNES CHURCH,COLUMBUS,OH,43204,2903,FRANKLIN,39049,2009-05-07T00:00:00.000Z,ALT REF,2009-05-07T00:00:00.000Z,CHURCHES,28511153,-83.0608085,39.9393979,CHRISTIAN,NOT AVAILABLE,NOT AVAILABLE,NOT AVAILABLE,N,Y
28388,10446310,OUR LADY OF VICTORY CHURCH,COLUMBUS,OH,43212,2723,FRANKLIN,39049,2009-05-07T00:00:00.000Z,ALT REF,2009-05-07T00:00:00.000Z,CHURCHES,28508708,-83.061725,39.9874899,CHRISTIAN,NOT AVAILABLE,NOT AVAILABLE,NOT AVAILABLE,N,Y
28390,10454568,MOUNT CARMEL COMMUNITY BAPTIST CHURCH,COLUMBUS,OH,43207,2564,FRANKLIN,39049,2009-05-05T00:00:00.000Z,ALT REF,2009-05-05T00:00:00.000Z,CHURCHES,28529511,-82.9782738,39.9186056,CHRISTIAN,NBC,NOT AVAILABLE,NOT AVAILABLE,Y,N
28408,10446308,CHURCH OF OUR LADY OF THE MIRACULOUS MEDAL,COLUMBUS,OH,43232,5354,FRANKLIN,39049,2009-05-07T00:00:00.000Z,ALT REF,2009-05-07T00:00:00.000Z,CHURCHES,28529404,-82.8502472,39.9203877,CHRISTIAN,NOT AVAILABLE,NOT AVAILABLE,NOT AVAILABLE,N,Y
28409,10453714,PILGRIM MISSIONARY BAPTIST CHURCH,COLUMBUS,OH,43203,1907,FRANKLIN,39049,2009-05-07T00:00:00.000Z,ALT REF,2009-05-07T00:00:00.000Z,CHURCHES,28553549,-82.9722375,39.9663085,CHRISTIAN,NBC,NOT AVAILABLE,NOT AVAILABLE,Y,N
28413,10588775,HOSACK STREET BAPTIST CHURCH,COLUMBUS,OH,43207,2606,FRANKLIN,39049,2009-05-07T00:00:00.000Z,ALT REF,2009-05-07T00:00:00.000Z,CHURCHES,28529980,-82.964006,39.906213,CHRISTIAN,ABC,NOT AVAILABLE,NOT AVAILABLE,Y,N
28418,10585227,SECOND BAPTIST CHURCH,COLUMBUS,OH,43203,1418,FRANKLIN,39049,2009-05-07T00:00:00.000Z,ALT REF,2009-05-07T00:00:00.000Z,CHURCHES,28524782,-82.9767065,39.9688857,CHRISTIAN,ABC,NOT AVAILABLE,NOT AVAILABLE,Y,N
28426,10588674,EAST BAPTIST CHURCH,COLUMBUS,OH,43213,1217,FRANKLIN,39049,2009-05-07T00:00:00.000Z,ALT REF,2009-05-07T00:00:00.000Z,CHURCHES,28524202,-82.8865381,39.9743497,CHRISTIAN,ABC,NOT AVAILABLE,NOT AVAILABLE,Y,N
28443,10683878,ZEN COLUMBUS SANGHA,COLUMBUS,OH,43214,2544,FRANKLIN,39049,2009-05-04T00:00:00.000Z,ALT REF,2009-05-04T00:00:00.000Z,PLACES OF WORSHIP,28546962,-83.0224273,40.0543411,BUDDHIST,SOTO/RINZAI ZEN,NOT AVAILABLE,NOT AVAILABLE,N,N
28445,10445840,SAINT MATTHIAS CATHOLIC CHURCH,COLUMBUS,OH,43224,2115,FRANKLIN,39049,2009-05-07T00:00:00.000Z,ALT REF,2009-05-11T00:00:00.000Z,CHURCHES,28517896,-82.9749679,40.051484,CHRISTIAN,NOT AVAILABLE,NOT AVAILABLE,NOT AVAILABLE,N,Y
28446,10457427,SAINT PAUL AFRICAN METHODIST EPISCOPAL CHURCH,COLUMBUS,OH,43215,1746,FRANKLIN,39049,2009-05-08T00:00:00.000Z,ALT REF,2009-05-08T00:00:00.000Z,CHURCHES,28553741,-82.9842237,39.9665986,CHRISTIAN,AME,NOT AVAILABLE,NOT AVAILABLE,Y,N
28447,10431157,MUHAMMAD MOSQUE NUMBER 43,COLUMBUS,OH,43203,1133,FRANKLIN,39049,2009-05-08T00:00:00.000Z,ALT REF,2009-05-08T00:00:00.000Z,"MOSQUES, RELIGIOUS",28524131,-82.9668801,39.9754834,MUSLIM,NOT AVAILABLE,NOT AVAILABLE,NOT AVAILABLE,N,N
28457,10454457,TRAVELERS REST BAPTIST CHURCH,COLUMBUS,OH,43211,2743,FRANKLIN,39049,2009-05-07T00:00:00.000Z,ALT REF,2009-05-07T00:00:00.000Z,CHURCHES,28522900,-82.9788481,39.9968455,CHRISTIAN,NBC,NOT AVAILABLE,NOT AVAILABLE,Y,N
28460,10761546,BEECHWOLD CHRISTIAN CHURCH,COLUMBUS,OH,43214,1740,FRANKLIN,39049,2009-05-07T00:00:00.000Z,ALT REF,2009-05-07T00:00:00.000Z,CHURCHES,28517066,-83.0117601,40.0627525,CHRISTIAN,CHRISTIAN,NOT AVAILABLE,NOT AVAILABLE,Y,N
28466,10761043,ADVENT UNITED CHURCH OF CHRIST,COLUMBUS,OH,43219,1512,FRANKLIN,39049,2009-05-08T00:00:00.000Z,ALT REF,2009-05-08T00:00:00.000Z,CHURCHES,28521060,-82.9298049,40.0180415,CHRISTIAN,UCC,668,NOT AVAILABLE,Y,N
28477,10429358,COLUMBUS COMMUNITY KOLLEL,COLUMBUS,OH,43209,2470,FRANKLIN,39049,2007-08-06T00:00:00.000Z,PHONE,2007-08-06T00:00:00.000Z,SYNAGOGUES,28525924,-82.9318023,39.9567607,JUDAIC,ORTHODOX,NOT AVAILABLE,NOT AVAILABLE,N,N
28480,10427987,TEMPLE ISRAEL,COLUMBUS,OH,43213,1407,FRANKLIN,39049,2007-08-07T00:00:00.000Z,PHONE,2007-08-06T00:00:00.000Z,SYNAGOGUES,28523925,-82.8560425,39.9773247,JUDAIC,REFORM,690,NOT AVAILABLE,N,N
28484,10429357,CONGREGATION TIFERETH ISRAEL,COLUMBUS,OH,43205,1539,FRANKLIN,39049,2007-07-30T00:00:00.000Z,PHONE,2007-07-30T00:00:00.000Z,SYNAGOGUES,28524900,-82.9644404,39.9668369,JUDAIC,EGALITARIAN CONSERVATIVE,NOT AVAILABLE,NOT AVAILABLE,N,N
28504,10428375,SCHOTTENSTEIN CHABAD HOUSE,COLUMBUS,OH,43201,1603,FRANKLIN,39049,2007-08-06T00:00:00.000Z,PHONE,2007-08-06T00:00:00.000Z,SYNAGOGUES,28508169,-83.0022625,39.9994907,JUDAIC,CHABAD,NOT AVAILABLE,CHABAD,N,N
28506,10429359,BETH JACOB CONGREGATION,COLUMBUS,OH,43209,2828,FRANKLIN,39049,2007-08-07T00:00:00.000Z,PHONE,2007-08-07T00:00:00.000Z,SYNAGOGUES,28527658,-82.9348141,39.9440882,JUDAIC,MODERN ORTHODOX,NOT AVAILABLE,NOT AVAILABLE,N,N
28507,10429021,BRESLOV KABBALAH CENTER,COLUMBUS,OH,43209,2533,FRANKLIN,39049,2007-07-27T00:00:00.000Z,PHONE,2007-07-27T00:00:00.000Z,SYNAGOGUES,28525950,-82.9269987,39.9566073,JUDAIC,ORTHODOX,NOT AVAILABLE,NOT AVAILABLE,N,N
28512,10428230,LEO YASSENOFF JEWISH COMMUNITY CENTER OF GREATER COLUMBUS,COLUMBUS,OH,43209,7802,FRANKLIN,39049,2007-08-06T00:00:00.000Z,PHONE,2007-08-07T00:00:00.000Z,SYNAGOGUES,28547054,-82.9375081,39.9462277,JUDAIC,NOT AVAILABLE,NOT AVAILABLE,NOT AVAILABLE,N,N
28513,10429360,CONGREGATION AHAVAS SHOLOM,COLUMBUS,OH,43209,1760,FRANKLIN,39049,2007-08-07T00:00:00.000Z,PHONE,2007-08-07T00:00:00.000Z,SYNAGOGUES,28524604,-82.9323187,39.9704125,JUDAIC,ORTHODOX,NOT AVAILABLE,NOT AVAILABLE,N,N
28514,10579636,NORTH COLUMBUS BAPTIST CHURCH,COLUMBUS,OH,43235,2777,FRANKLIN,39049,2009-05-05T00:00:00.000Z,ALT REF,2009-05-05T00:00:00.000Z,CHURCHES,28543150,-83.0878157,40.1050392,CHRISTIAN,BAPT,NOT AVAILABLE,NOT AVAILABLE,Y,N
28525,10431743,MASJID AL-ISLAM OF COLUMBUS,COLUMBUS,OH,43205,2143,FRANKLIN,39049,2007-10-05T00:00:00.000Z,ALT REF,2007-10-05T00:00:00.000Z,"MOSQUES, RELIGIOUS",28556985,-82.9556105,39.9620054,MUSLIM,NOT AVAILABLE,NOT AVAILABLE,NOT AVAILABLE,N,N
28535,10431158,ISLAMIC SOCIETY OF GREATER COLUMBUS,COLUMBUS,OH,43214,1950,FRANKLIN,39049,2007-07-20T00:00:00.000Z,PHONE,2007-07-20T00:00:00.000Z,"MOSQUES, RELIGIOUS",28517599,-83.0344556,40.0565559,MUSLIM,NOT AVAILABLE,NOT AVAILABLE,NOT AVAILABLE,N,N
28562,10582080,CAPITOL CITY BAPTIST CHURCH,COLUMBUS,OH,43230,1144,FRANKLIN,39049,2009-05-04T00:00:00.000Z,ALT REF,2009-05-04T00:00:00.000Z,CHURCHES,28552224,-82.904827,40.0705312,CHRISTIAN,BAPT,NOT AVAILABLE,NOT AVAILABLE,Y,N
28563,10446294,SAINT DOMINIC CATHOLIC CHURCH,COLUMBUS,OH,43203,1371,FRANKLIN,39049,2009-05-05T00:00:00.000Z,ALT REF,2009-05-05T00:00:00.000Z,CHURCHES,27646790,-82.9733563,39.9747612,CHRISTIAN,NOT AVAILABLE,NOT AVAILABLE,NOT AVAILABLE,N,Y
28564,10445567,SAINT AUGUSTINE AND GABRIEL CHURCH,COLUMBUS,OH,43211,1507,FRANKLIN,39049,2009-05-05T00:00:00.000Z,ALT REF,2009-05-05T00:00:00.000Z,CHURCHES,28521327,-82.9682972,40.0140898,CHRISTIAN,NOT AVAILABLE,NOT AVAILABLE,NOT AVAILABLE,N,Y
28566,10575721,VICTORIOUS REDEEMER FULL GOSPEL AFRICAN METHODIST EPISCOPAL ZION CHURCH,COLUMBUS,OH,43205,2035,FRANKLIN,39049,2009-05-04T00:00:00.000Z,ALT REF,2009-05-04T00:00:00.000Z,CHURCHES,28525841,-82.9617027,39.9574294,CHRISTIAN,AMEZ,NOT AVAILABLE,NOT AVAILABLE,Y,N
28567,10582079,CENTRAL BAPTIST CHURCH,COLUMBUS,OH,43223,3731,FRANKLIN,39049,2009-05-04T00:00:00.000Z,ALT REF,2009-05-04T00:00:00.000Z,CHURCHES,28511810,-83.0545145,39.9194683,CHRISTIAN,BAPT,NOT AVAILABLE,NOT AVAILABLE,Y,N
28580,10582082,ANCHOR BAPTIST CHURCH,COLUMBUS,OH,43228,3709,FRANKLIN,39049,2009-05-04T00:00:00.000Z,ALT REF,2009-05-04T00:00:00.000Z,CHURCHES,28552432,-83.0953522,39.928056,CHRISTIAN,BAPT,NOT AVAILABLE,NOT AVAILABLE,Y,N
28581,10582077,GRACE INDEPENDENT BAPTIST CHURCH,COLUMBUS,OH,43231,6019,FRANKLIN,39049,2009-05-04T00:00:00.000Z,ALT REF,2009-05-04T00:00:00.000Z,CHURCHES,28516934,-82.9353289,40.0647321,CHRISTIAN,BAPT,NOT AVAILABLE,NOT AVAILABLE,Y,N
28582,10582074,LIBERTY BAPTIST CHURCH OF THE DEAF,COLUMBUS,OH,43224,2835,FRANKLIN,39049,2009-05-04T00:00:00.000Z,ALT REF,2009-05-04T00:00:00.000Z,CHURCHES,28555415,-82.9736313,40.0425643,CHRISTIAN,BAPT,NOT AVAILABLE,NOT AVAILABLE,Y,N
28583,10588799,MOUNTVIEW BAPTIST CHURCH,COLUMBUS,OH,43221,1249,FRANKLIN,39049,2009-05-06T00:00:00.000Z,ALT REF,2009-05-06T00:00:00.000Z,CHURCHES,28519507,-83.0729659,40.0299648,CHRISTIAN,ABC,NOT AVAILABLE,NOT AVAILABLE,Y,N
28584,10588806,MOUNT OLIVET BAPTIST CHURCH,COLUMBUS,OH,43215,5344,FRANKLIN,39049,2009-05-05T00:00:00.000Z,ALT REF,2009-05-07T00:00:00.000Z,CHURCHES,28525874,-82.9879915,39.957753,CHRISTIAN,ABC,NOT AVAILABLE,NOT AVAILABLE,Y,N
28585,10588801,MOUNT GERIZIM BAPTIST CHURCH,COLUMBUS,OH,43219,1353,FRANKLIN,39049,2009-05-05T00:00:00.000Z,ALT REF,2009-05-05T00:00:00.000Z,CHURCHES,28521781,-82.9382582,40.0098145,CHRISTIAN,ABC,NOT AVAILABLE,NOT AVAILABLE,Y,N
28586,10588794,LOCKBOURNE ROAD BAPTIST CHURCH,COLUMBUS,OH,43207,1476,FRANKLIN,39049,2009-05-06T00:00:00.000Z,ALT REF,2009-05-06T00:00:00.000Z,CHURCHES,28528810,-82.9649884,39.9312422,CHRISTIAN,ABC,NOT AVAILABLE,NOT AVAILABLE,Y,N
28587,10588795,LOVING CHARITY BAPTIST CHURCH,COLUMBUS,OH,43211,2475,FRANKLIN,39049,2009-05-06T00:00:00.000Z,ALT REF,2009-05-06T00:00:00.000Z,CHURCHES,28522719,-82.9797166,40.0001794,CHRISTIAN,ABC,NOT AVAILABLE,NOT AVAILABLE,Y,N
28589,10454257,LOVE ZION BAPTIST CHURCH,COLUMBUS,OH,43205,1538,FRANKLIN,39049,2009-05-05T00:00:00.000Z,ALT REF,2009-05-05T00:00:00.000Z,CHURCHES,28525067,-82.9614971,39.9644538,CHRISTIAN,NBC,NOT AVAILABLE,NOT AVAILABLE,Y,N
28591,10442804,SAINT ALOYSIUS CHURCH,COLUMBUS,OH,43223,1002,FRANKLIN,39049,2009-05-07T00:00:00.000Z,ALT REF,2009-05-07T00:00:00.000Z,CHURCHES,28509810,-83.0582402,39.9553575,CHRISTIAN,NOT AVAILABLE,NOT AVAILABLE,NOT AVAILABLE,N,Y
28605,10454919,MACEDONIA BAPTIST CHURCH,COLUMBUS,OH,43205,1936,FRANKLIN,39049,2009-05-04T00:00:00.000Z,ALT REF,2009-05-04T00:00:00.000Z,CHURCHES,28526112,-82.9678992,39.955563,CHRISTIAN,NBC,NOT AVAILABLE,NOT AVAILABLE,Y,N
28606,10454851,TABERNACLE BAPTIST CHURCH,COLUMBUS,OH,43219,2185,FRANKLIN,39049,2009-05-04T00:00:00.000Z,ALT REF,2009-05-04T00:00:00.000Z,CHURCHES,28523122,-82.9470144,39.9925656,CHRISTIAN,NBC,NOT AVAILABLE,NOT AVAILABLE,Y,N
28611,10582083,AMAZING GRACE BAPTIST CHURCH,COLUMBUS,OH,43222,1362,FRANKLIN,39049,2009-05-04T00:00:00.000Z,ALT REF,2009-05-04T00:00:00.000Z,CHURCHES,28509667,-83.0349093,39.9582287,CHRISTIAN,BAPT,NOT AVAILABLE,NOT AVAILABLE,Y,N
28612,10582078,COLUMBUS BAPTIST TEMPLE,COLUMBUS,OH,43231,4734,FRANKLIN,39049,2009-05-04T00:00:00.000Z,ALT REF,2009-05-04T00:00:00.000Z,CHURCHES,28549072,-82.9525866,40.0726448,CHRISTIAN,BAPT,NOT AVAILABLE,NOT AVAILABLE,Y,N
28613,10582075,NEW FAITH BAPTIST CHURCH OF CHRIST,COLUMBUS,OH,43205,1251,FRANKLIN,39049,2009-05-04T00:00:00.000Z,ALT REF,2009-05-04T00:00:00.000Z,CHURCHES,28553446,-82.9747137,39.9626696,CHRISTIAN,BAPT,NOT AVAILABLE,NOT AVAILABLE,Y,N
28614,10582076,HIGH STREET BAPTIST CHURCH,COLUMBUS,OH,43235,1405,FRANKLIN,39049,2009-05-04T00:00:00.000Z,ALT REF,2009-05-04T00:00:00.000Z,CHURCHES,28513710,-83.0175626,40.1141329,CHRISTIAN,BAPT,NOT AVAILABLE,NOT AVAILABLE,Y,N
28618,10455610,BETHANY BAPTIST CHURCH,COLUMBUS,OH,43206,1805,FRANKLIN,39049,2009-05-05T00:00:00.000Z,ALT REF,2009-05-05T00:00:00.000Z,CHURCHES,127039398,-82.9524172,39.947591,CHRISTIAN,NBC,NOT AVAILABLE,NOT AVAILABLE,Y,N
28619,10588824,NEW SALEM MISSIONARY BAPTIST CHURCH,COLUMBUS,OH,43224,4417,FRANKLIN,39049,2009-05-05T00:00:00.000Z,ALT REF,2009-05-05T00:00:00.000Z,CHURCHES,28519770,-82.9639472,40.0278614,CHRISTIAN,ABC,NOT AVAILABLE,NOT AVAILABLE,Y,N
28620,10441340,TRINITY EPISCOPAL CHURCH,COLUMBUS,OH,43215,3605,FRANKLIN,39049,2009-05-05T00:00:00.000Z,ALT REF,2009-05-05T00:00:00.000Z,CHURCHES,28553692,-82.997538,39.9623144,CHRISTIAN,EPIS,NOT AVAILABLE,NOT AVAILABLE,Y,N
28622,10454338,REEB HOSACK COMMUNITY BAPTIST CHURCH,COLUMBUS,OH,43207,2351,FRANKLIN,39049,2009-05-04T00:00:00.000Z,ALT REF,2009-05-04T00:00:00.000Z,CHURCHES,27601989,-82.988532,39.9227274,CHRISTIAN,NBC,NOT AVAILABLE,NOT AVAILABLE,Y,N
28624,10582081,BIBLE BELIEVERS BAPTIST CHURCH,COLUMBUS,OH,43227,1206,FRANKLIN,39049,2009-05-04T00:00:00.000Z,ALT REF,2009-05-04T00:00:00.000Z,CHURCHES,28526391,-82.8939961,39.9533738,CHRISTIAN,BAPT,NOT AVAILABLE,NOT AVAILABLE,Y,N
28625,10455255,SPRINGHILL BAPTIST CHURCH,COLUMBUS,OH,43219,2013,FRANKLIN,39049,2009-05-04T00:00:00.000Z,ALT REF,2009-05-04T00:00:00.000Z,CHURCHES,127039649,-82.9535641,39.9996902,CHRISTIAN,NBC,NOT AVAILABLE,NOT AVAILABLE,Y,N
28627,10442899,SAINT AGATHA CHURCH,COLUMBUS,OH,43221,3258,FRANKLIN,39049,2009-05-05T00:00:00.000Z,ALT REF,2009-05-05T00:00:00.000Z,CHURCHES,28521615,-83.0608107,40.0124511,CHRISTIAN,NOT AVAILABLE,NOT AVAILABLE,NOT AVAILABLE,N,Y
28629,10588873,BARNETT ROAD BAPTIST CHURCH,COLUMBUS,OH,43227,3204,FRANKLIN,39049,2009-05-06T00:00:00.000Z,ALT REF,2009-05-05T00:00:00.000Z,CHURCHES,28528039,-82.906389,39.9412889,CHRISTIAN,ABC,NOT AVAILABLE,NOT AVAILABLE,Y,N
28630,10446304,THE COMMUNITY OF HOLY ROSARY AND SAINT JOHN,COLUMBUS,OH,43205,2742,FRANKLIN,39049,2009-05-05T00:00:00.000Z,ALT REF,2009-05-05T00:00:00.000Z,CHURCHES,28526525,-82.9709995,39.9516448,CHRISTIAN,NOT AVAILABLE,NOT AVAILABLE,NOT AVAILABLE,N,Y
28633,10576798,OLENTANGY CHURCH,COLUMBUS,OH,43214,3454,FRANKLIN,39049,2009-05-05T00:00:00.000Z,ALT REF,2009-05-05T00:00:00.000Z,CHURCHES,127039515,-83.0313296,40.0349554,CHRISTIAN,CRC,NOT AVAILABLE,NOT AVAILABLE,Y,N
28640,10588816,NEW FELLOWSHIP BAPTIST CHURCH,COLUMBUS,OH,43232,4002,FRANKLIN,39049,2009-05-05T00:00:00.000Z,ALT REF,2009-05-05T00:00:00.000Z,CHURCHES,28528960,-82.9015855,39.9284027,CHRISTIAN,ABC,NOT AVAILABLE,NOT AVAILABLE,Y,N
28641,10588797,MAYNARD AVENUE BAPTIST CHURCH,COLUMBUS,OH,43211,2016,FRANKLIN,39049,2009-05-06T00:00:00.000Z,ALT REF,2009-05-06T00:00:00.000Z,CHURCHES,28521828,-82.9801783,40.0107895,CHRISTIAN,ABC,NOT AVAILABLE,NOT AVAILABLE,Y,N
28646,10588870,TREE OF LIFE COMMUNITY CHURCH,COLUMBUS,OH,43215,5754,FRANKLIN,39049,2009-05-05T00:00:00.000Z,ALT REF,2009-05-05T00:00:00.000Z,CHURCHES,28526688,-82.9949032,39.9504054,CHRISTIAN,ABC,NOT AVAILABLE,NOT AVAILABLE,Y,N
28647,10588828,NORTH BAPTIST CHURCH,COLUMBUS,OH,43214,1166,FRANKLIN,39049,2009-05-05T00:00:00.000Z,ALT REF,2009-05-05T00:00:00.000Z,CHURCHES,28516436,-83.0164881,40.072737,CHRISTIAN,ABC,NOT AVAILABLE,NOT AVAILABLE,Y,N
28648,10588783,KARL ROAD BAPTIST CHURCH,COLUMBUS,OH,43229,3604,FRANKLIN,39049,2009-05-04T00:00:00.000Z,ALT REF,2009-05-04T00:00:00.000Z,CHURCHES,28515796,-82.9745466,40.0842283,CHRISTIAN,ABC,NOT AVAILABLE,NOT AVAILABLE,Y,N
28649,10443369,SAINT JOSEPH CATHEDRAL,COLUMBUS,OH,43215,3702,FRANKLIN,39049,2009-05-05T00:00:00.000Z,ALT REF,2009-05-05T00:00:00.000Z,CHURCHES,28525311,-82.9946849,39.9633757,CHRISTIAN,NOT AVAILABLE,NOT AVAILABLE,NOT AVAILABLE,N,Y
28650,10446295,SAINT FRANCIS OF ASSISI CHURCH,COLUMBUS,OH,43215,1361,FRANKLIN,39049,2009-05-05T00:00:00.000Z,ALT REF,2009-05-05T00:00:00.000Z,CHURCHES,28509161,-83.0142992,39.9779051,CHRISTIAN,NOT AVAILABLE,NOT AVAILABLE,NOT AVAILABLE,N,Y
28651,10452803,MOUNT HERMAN BAPTIST CHURCH,COLUMBUS,OH,43219,3528,FRANKLIN,39049,2009-05-04T00:00:00.000Z,ALT REF,2009-05-04T00:00:00.000Z,CHURCHES,107396828,-82.9351383,40.0168221,CHRISTIAN,NBC,NOT AVAILABLE,NOT AVAILABLE,Y,N
28652,10441339,CYPRIAN OF CARTHAGE EPISCOPAL CHURCH,COLUMBUS,OH,43205,1013,FRANKLIN,39049,2009-05-05T00:00:00.000Z,ALT REF,2009-05-05T00:00:00.000Z,CHURCHES,28553515,-82.9794416,39.9643114,CHRISTIAN,EPIS,NOT AVAILABLE,NOT AVAILABLE,Y,N
28653,10453400,GREATER 12TH BAPTIST CHURCH,COLUMBUS,OH,43211,2819,FRANKLIN,39049,2009-05-05T00:00:00.000Z,ALT REF,2009-05-05T00:00:00.000Z,CHURCHES,127039620,-82.9741441,39.997898,CHRISTIAN,NBC,NOT AVAILABLE,NOT AVAILABLE,Y,N
28655,10461029,WEST SECOND AVENUE PRESBYTERIAN CHURCH,COLUMBUS,OH,43201,3471,FRANKLIN,39049,2009-05-07T00:00:00.000Z,ALT REF,2009-05-07T00:00:00.000Z,CHURCHES,28508978,-83.0111199,39.9818279,CHRISTIAN,PCA,NOT AVAILABLE,NOT AVAILABLE,Y,N
28657,10446299,HOLY NAME ROMAN CATHOLIC CHURCH,COLUMBUS,OH,43202,3029,FRANKLIN,39049,2009-05-05T00:00:00.000Z,ALT REF,2009-05-05T00:00:00.000Z,CHURCHES,28521911,-83.0062017,40.0101105,CHRISTIAN,NOT AVAILABLE,NOT AVAILABLE,NOT AVAILABLE,N,Y
28658,10432660,MOUNT PERIOD BAPTIST CHURCH,COLUMBUS,OH,43205,2406,FRANKLIN,39049,2009-05-05T00:00:00.000Z,ALT REF,2009-05-05T00:00:00.000Z,CHURCHES,28525992,-82.9630539,39.9567525,CHRISTIAN,BAPT,NOT AVAILABLE,NOT AVAILABLE,Y,N
28659,10443434,SACRED HEART ROMAN CATHOLIC CHURCH,COLUMBUS,OH,43201,3536,FRANKLIN,39049,2009-05-05T00:00:00.000Z,ALT REF,2009-05-05T00:00:00.000Z,CHURCHES,28523734,-83.0000186,39.980916,CHRISTIAN,NOT AVAILABLE,NOT AVAILABLE,NOT AVAILABLE,N,Y
28661,10445569,CHRIST THE KING CATHOLIC CHURCH,COLUMBUS,OH,43209,3039,FRANKLIN,39049,2009-05-05T00:00:00.000Z,ALT REF,2009-05-05T00:00:00.000Z,CHURCHES,28527115,-82.9226324,39.9466804,CHRISTIAN,NOT AVAILABLE,NOT AVAILABLE,NOT AVAILABLE,N,Y
28716,10446313,SAINT PHILLIP THE APOSTLE CATHOLIC CHURCH,COLUMBUS,OH,43227,2347,FRANKLIN,39049,2009-05-07T00:00:00.000Z,ALT REF,2009-05-07T00:00:00.000Z,CHURCHES,28546330,-82.886307,39.9422727,CHRISTIAN,NOT AVAILABLE,NOT AVAILABLE,NOT AVAILABLE,N,Y
28717,10443095,SAINT LADISLAS CHURCH,COLUMBUS,OH,43207,1978,FRANKLIN,39049,2009-05-07T00:00:00.000Z,ALT REF,2009-05-07T00:00:00.000Z,CHURCHES,28529165,-82.9881905,39.9246578,CHRISTIAN,NOT AVAILABLE,NOT AVAILABLE,NOT AVAILABLE,N,Y
28718,10761044,SAINT JOHNS EVANGELICAL PROTESTANT CHURCH,COLUMBUS,OH,43215,5121,FRANKLIN,39049,2009-05-08T00:00:00.000Z,ALT REF,2009-05-08T00:00:00.000Z,CHURCHES,28551176,-82.9972882,39.9547676,CHRISTIAN,UCC,538,NOT AVAILABLE,Y,N
28724,10442984,SAINT STEPHEN THE MARTYR CATHOLIC CHURCH,COLUMBUS,OH,43228,3537,FRANKLIN,39049,2009-05-07T00:00:00.000Z,ALT REF,2009-05-07T00:00:00.000Z,CHURCHES,28552540,-83.1061681,39.9297785,CHRISTIAN,NOT AVAILABLE,NOT AVAILABLE,NOT AVAILABLE,N,Y
28725,10446314,SAINT TIMOTHY CATHOLIC CHURCH,COLUMBUS,OH,43220,5047,FRANKLIN,39049,2009-05-08T00:00:00.000Z,ALT REF,2009-05-08T00:00:00.000Z,CHURCHES,28519199,-83.0453098,40.0339759,CHRISTIAN,NOT AVAILABLE,NOT AVAILABLE,NOT AVAILABLE,N,Y
28726,10588742,FIRST BAPTIST CHURCH,COLUMBUS,OH,43215,3953,FRANKLIN,39049,2009-05-11T00:00:00.000Z,ALT REF,2009-05-11T00:00:00.000Z,CHURCHES,28525168,-82.9849548,39.963497,CHRISTIAN,ABC,NOT AVAILABLE,NOT AVAILABLE,Y,N
28727,10441337,SAINT STEPHENS EPISCOPAL CHURCH,COLUMBUS,OH,43210,1118,FRANKLIN,39049,2009-05-11T00:00:00.000Z,ALT REF,2009-05-11T00:00:00.000Z,CHURCHES,28522434,-83.0095405,40.0040519,CHRISTIAN,EPIS,NOT AVAILABLE,NOT AVAILABLE,Y,N
28729,10684153,CHING TER MAITREYA TEMPLE,COLUMBUS,OH,43231,4037,FRANKLIN,39049,2009-05-11T00:00:00.000Z,ALT REF,2009-05-11T00:00:00.000Z,"TEMPLES, RELIGIOUS",28515803,-82.9396024,40.0814935,BUDDHIST,"MAHAYANA, CHINESE",NOT AVAILABLE,NOT AVAILABLE,N,N
28730,10431174,MASJID OMAR IBN ELKHATTAB,COLUMBUS,OH,43202,1602,FRANKLIN,39049,2009-05-11T00:00:00.000Z,ALT REF,2009-05-11T00:00:00.000Z,"MOSQUES, RELIGIOUS",127038823,-83.0287324,40.0244516,MUSLIM,NOT AVAILABLE,NOT AVAILABLE,NOT AVAILABLE,N,N
28732,10431163,ISLAMIC FOUNDATION OF CENTRAL OHIO,COLUMBUS,OH,43205,1505,FRANKLIN,39049,2009-05-11T00:00:00.000Z,ALT REF,2009-05-11T00:00:00.000Z,"MOSQUES, RELIGIOUS",28524890,-82.9628322,39.9669722,MUSLIM,NOT AVAILABLE,NOT AVAILABLE,NOT AVAILABLE,N,N
28733,10677499,GURU NANAK RELIGIOUS SOCIETY,COLUMBUS,OH,43235,2711,FRANKLIN,39049,2009-05-11T00:00:00.000Z,ALT REF,2009-05-11T00:00:00.000Z,PLACES OF WORSHIP,28544803,-83.0600932,40.0913537,OTHER,NOT AVAILABLE,NOT AVAILABLE,NOT AVAILABLE,N,N
28734,10684190,COLUMBUS KARMA THEGSUM CHOLING,COLUMBUS,OH,43215,4422,FRANKLIN,39049,2009-05-11T00:00:00.000Z,ALT REF,2009-05-11T00:00:00.000Z,PLACES OF WORSHIP,28509932,-83.0170735,39.9552244,BUDDHIST,"TIBETAN, KARMA KAGYU",NOT AVAILABLE,NOT AVAILABLE,N,N
28736,10457372,MOUNT VERNON AVENUE AFRICAN METHODIST EPISCOPAL CHURCH,COLUMBUS,OH,43203,1522,FRANKLIN,39049,2009-05-11T00:00:00.000Z,ALT REF,2009-05-11T00:00:00.000Z,CHURCHES,28524387,-82.971865,39.9721372,CHRISTIAN,AME,NOT AVAILABLE,NOT AVAILABLE,Y,N
28737,10454871,SHILOH BAPTIST CHURCH,COLUMBUS,OH,43203,1403,FRANKLIN,39049,2009-05-11T00:00:00.000Z,ALT REF,2009-05-11T00:00:00.000Z,CHURCHES,28524536,-82.9826327,39.9708672,CHRISTIAN,NBC,NOT AVAILABLE,NOT AVAILABLE,Y,N
28738,10457413,SAINT JOHN AFRICAN METHODIST EPISCOPAL CHURCH,COLUMBUS,OH,43235,5693,FRANKLIN,39049,2009-05-07T00:00:00.000Z,ALT REF,2009-05-11T00:00:00.000Z,CHURCHES,28545231,-83.0092859,40.1205537,CHRISTIAN,AME,NOT AVAILABLE,NOT AVAILABLE,Y,N
28739,10685322,WAT LAO BUDDHAMAMAKARAM,COLUMBUS,OH,43227,3769,FRANKLIN,39049,2009-05-11T00:00:00.000Z,ALT REF,2009-05-11T00:00:00.000Z,PLACES OF WORSHIP,28528518,-82.905567,39.9357324,BUDDHIST,"THERAVADA, LAOTIAN",NOT AVAILABLE,NOT AVAILABLE,N,N
28740,10431171,MUSLIM STUDENTS ASSOCIATION - THE OHIO STATE UNIVERSITY - RHODES HALL,COLUMBUS,OH,43210,1240,FRANKLIN,39049,2009-05-11T00:00:00.000Z,ALT REF,2009-05-11T00:00:00.000Z,"MOSQUES, RELIGIOUS",28508411,-83.0176231,39.9952915,MUSLIM,NOT AVAILABLE,NOT AVAILABLE,NOT AVAILABLE,N,N
28741,10440222,SAINT JOHNS EPISCOPAL CHURCH,COLUMBUS,OH,43222,1438,FRANKLIN,39049,2009-05-11T00:00:00.000Z,ALT REF,2009-05-11T00:00:00.000Z,CHURCHES,28509832,-83.0266579,39.9554106,CHRISTIAN,EPIS,NOT AVAILABLE,NOT AVAILABLE,Y,N
28742,10432661,FIRST CHURCH OF GOD,COLUMBUS,OH,43232,4814,FRANKLIN,39049,2009-05-11T00:00:00.000Z,ALT REF,2009-05-11T00:00:00.000Z,CHURCHES,28529582,-82.9083324,39.9188629,CHRISTIAN,COGA,NOT AVAILABLE,NOT AVAILABLE,Y,N
28743,11531328,XENOS CHRISTIAN FELLOWSHIP - FORTH STREET PAVILION AND CAMPUS BIBLE STUDY,COLUMBUS,OH,43201,1706,FRANKLIN,39049,2009-05-11T00:00:00.000Z,ALT REF,2009-05-11T00:00:00.000Z,CHURCHES,28522575,-82.9977025,40.0028423,CHRISTIAN,NOT AVAILABLE,NOT AVAILABLE,NOT AVAILABLE,Y,N
28744,10433348,BRIGGS ROAD BAPTIST CHURCH,COLUMBUS,OH,43204,1701,FRANKLIN,39049,2009-05-11T00:00:00.000Z,ALT REF,2009-05-11T00:00:00.000Z,CHURCHES,28549666,-83.0841641,39.9316714,CHRISTIAN,SBC,1263,NOT AVAILABLE,Y,N
28745,11531326,ISLAMIC FOUNDATION OF CENTRAL OHIO - COOKE ROAD MASJID,COLUMBUS,OH,43224,2058,FRANKLIN,39049,2009-05-11T00:00:00.000Z,ALT REF,2009-05-11T00:00:00.000Z,"MOSQUES, RELIGIOUS",28518099,-82.9874819,40.0480625,MUSLIM,NOT AVAILABLE,NOT AVAILABLE,NOT AVAILABLE,N,N
28746,10432663,XENOS CHRISTIAN FELLOWSHIP - MAIN CAMPUS,COLUMBUS,OH,43229,2232,FRANKLIN,39049,2009-05-11T00:00:00.000Z,ALT REF,2009-05-11T00:00:00.000Z,CHURCHES,28554592,-82.9558248,40.1049503,CHRISTIAN,NONDENOM,NOT AVAILABLE,NOT AVAILABLE,Y,N
28747,11531330,XENOS CHRISTIAN FELLOWSHIP - WEST SIDE,COLUMBUS,OH,43222,1132,FRANKLIN,39049,2009-05-11T00:00:00.000Z,ALT REF,2009-05-11T00:00:00.000Z,CHURCHES,28509657,-83.0339338,39.9589874,CHRISTIAN,NOT AVAILABLE,NOT AVAILABLE,NOT AVAILABLE,Y,N
28758,10445571,CORPUS CHRISTI CHURCH,COLUMBUS,OH,43206,3265,FRANKLIN,39049,2009-05-11T00:00:00.000Z,ALT REF,2009-05-11T00:00:00.000Z,CHURCHES,28527994,-82.9659404,39.9403772,CHRISTIAN,NOT AVAILABLE,NOT AVAILABLE,NOT AVAILABLE,N,Y
28777,10446296,SAINT ELIZABETH CATHOLIC CHURCH,COLUMBUS,OH,43229,2646,FRANKLIN,39049,2009-05-12T00:00:00.000Z,ALT REF,2009-05-12T00:00:00.000Z,CHURCHES,28556238,-82.9725873,40.09193,CHRISTIAN,NOT AVAILABLE,NOT AVAILABLE,NOT AVAILABLE,N,Y
28778,10441338,SAINT JAMES EPISCOPAL CHURCH,COLUMBUS,OH,43214,4106,FRANKLIN,39049,2009-05-12T00:00:00.000Z,ALT REF,2009-05-12T00:00:00.000Z,CHURCHES,28519367,-83.0076398,40.0324504,CHRISTIAN,EPIS,NOT AVAILABLE,NOT AVAILABLE,Y,N
28779,10445565,SAINT ANDREW CHURCH,COLUMBUS,OH,43220,4407,FRANKLIN,39049,2009-05-12T00:00:00.000Z,ALT REF,2009-05-12T00:00:00.000Z,CHURCHES,28518600,-83.0673229,40.0400753,CHRISTIAN,NOT AVAILABLE,NOT AVAILABLE,NOT AVAILABLE,N,Y
28780,10445568,SAINT CECILIA CATHOLIC CHURCH,COLUMBUS,OH,43228,7602,FRANKLIN,39049,2009-05-12T00:00:00.000Z,ALT REF,2009-05-12T00:00:00.000Z,CHURCHES,107405549,-83.1411252,39.9423589,CHRISTIAN,NOT AVAILABLE,NOT AVAILABLE,NOT AVAILABLE,N,Y
28781,10446298,HOLY FAMILY CHURCH,COLUMBUS,OH,43215,2712,FRANKLIN,39049,2009-05-12T00:00:00.000Z,ALT REF,2009-05-12T00:00:00.000Z,CHURCHES,28509552,-83.0166693,39.9605733,CHRISTIAN,NOT AVAILABLE,NOT AVAILABLE,NOT AVAILABLE,N,Y
28782,10446306,SAINT MARYS CATHOLIC CHURCH,COLUMBUS,OH,43206,1028,FRANKLIN,39049,2009-05-12T00:00:00.000Z,ALT REF,2009-05-12T00:00:00.000Z,CHURCHES,28552156,-82.9948222,39.9487576,CHRISTIAN,NOT AVAILABLE,NOT AVAILABLE,NOT AVAILABLE,N,Y
28784,10455211,CHRIST MEMORIAL BAPTIST CHURCH,COLUMBUS,OH,43227,1946,FRANKLIN,39049,2009-05-12T00:00:00.000Z,ALT REF,2009-05-12T00:00:00.000Z,CHURCHES,28527257,-82.9074021,39.9468632,CHRISTIAN,NBC,NOT AVAILABLE,NOT AVAILABLE,Y,N
28785,10588877,UNIVERSITY BAPTIST CHURCH,COLUMBUS,OH,43201,1021,FRANKLIN,39049,2009-05-12T00:00:00.000Z,ALT REF,2009-05-12T00:00:00.000Z,CHURCHES,28522258,-83.0102035,40.0064266,CHRISTIAN,ABC,NOT AVAILABLE,NOT AVAILABLE,Y,N
28786,10585149,FLINTRIDGE MISSIONARY BAPTIST CHURCH,COLUMBUS,OH,43227,3564,FRANKLIN,39049,2009-05-12T00:00:00.000Z,ALT REF,2009-05-12T00:00:00.000Z,CHURCHES,28528056,-82.9060402,39.9406207,CHRISTIAN,ABC,NOT AVAILABLE,NOT AVAILABLE,Y,N
28787,10446297,HOLY CROSS CATHOLIC CHURCH,COLUMBUS,OH,43215,5202,FRANKLIN,39049,2009-05-12T00:00:00.000Z,ALT REF,2009-05-12T00:00:00.000Z,CHURCHES,28525755,-82.9931706,39.9584805,CHRISTIAN,NOT AVAILABLE,NOT AVAILABLE,NOT AVAILABLE,N,Y
28788,10685037,SHAMBHALA MEDITATION GROUP OF COLUMBUS,COLUMBUS,OH,43214,2243,FRANKLIN,39049,2009-05-12T00:00:00.000Z,ALT REF,2009-05-14T00:00:00.000Z,PLACES OF WORSHIP,28517567,-83.0007459,40.0565043,BUDDHIST,"SHAMBHALA, TIBETAN KAGYU, NINGMA",NOT AVAILABLE,NOT AVAILABLE,N,N
28823,11531325,MUSLIM STUDENTS ASSOCIATION - THE OHIO STATE UNIVERSITY - POMERENE HALL,COLUMBUS,OH,43210,1221,FRANKLIN,39049,2009-05-11T00:00:00.000Z,ALT REF,2009-05-11T00:00:00.000Z,"MOSQUES, RELIGIOUS",28508279,-83.0144426,39.9973446,MUSLIM,NOT AVAILABLE,NOT AVAILABLE,NOT AVAILABLE,N,N
28826,11531253,FIRST UNITARIAN UNIVERSALIST CHURCH,COLUMBUS,OH,43214,2544,FRANKLIN,39049,2009-05-06T00:00:00.000Z,ALT REF,2009-05-06T00:00:00.000Z,PLACES OF WORSHIP,28546962,-83.0224253,40.0543381,OTHER,NOT AVAILABLE,NOT AVAILABLE,NOT AVAILABLE,N,N