OBJECTID,ID,NAME,CITY,STATE,ZIP,ZIPP4,COUNTY,FIPS,CONTDATE,CONTHOW,GEODATE,NAICSDESCR,GEOLINKID,X,Y,SUBTYPE,DENOM,MEMBERS,LOC_TYPE,PROT,CATH
13018,11531361,SOUTHERN METHODIST UNIVERSITY - PERKINS CHAPEL,DALLAS,TX,75205,NULL,DALLAS,48113,2009-05-13T00:00:00.000Z,ALT REF,2009-05-13T00:00:00.000Z,CHURCHES,721180116,-96.7861345,32.8397225,CHRISTIAN,NOT AVAILABLE,NOT AVAILABLE,NOT AVAILABLE,N,Y
13028,10683813,KARMA THEGSUM CHOLING,DALLAS,TX,75208,5901,DALLAS,48113,2009-03-27T00:00:00.000Z,ALT REF,2009-03-27T00:00:00.000Z,PLACES OF WORSHIP,17744441,-96.8414332,32.7427261,BUDDHIST,MAHAYANA,NOT AVAILABLE,NOT AVAILABLE,N,N
13045,11531322,UNITY CHURCH OF DALLAS,DALLAS,TX,75230,2807,DALLAS,48113,2009-05-08T00:00:00.000Z,ALT REF,2009-05-08T00:00:00.000Z,CHURCHES,25018495,-96.7939887,32.9102019,CHRISTIAN,NOT AVAILABLE,NOT AVAILABLE,NOT AVAILABLE,Y,N
13055,10430189,CHABAD OF DALLAS - SHUL,DALLAS,TX,75252,5925,COLLIN,48085,2007-08-08T00:00:00.000Z,ALT REF,2007-08-08T00:00:00.000Z,SYNAGOGUES,17659820,-96.7923166,32.9884618,JUDAIC,NOT AVAILABLE,NOT AVAILABLE,NOT AVAILABLE,N,N
13058,10452430,GREATER EL BETHEL BAPTIST CHURCH,DALLAS,TX,75203,2418,DALLAS,48113,2009-05-18T00:00:00.000Z,ALT REF,2009-05-18T00:00:00.000Z,CHURCHES,17743318,-96.807113,32.7494677,CHRISTIAN,NBC,NOT AVAILABLE,NOT AVAILABLE,Y,N
13060,10430253,CONGREGATION BETH EL BINAH,DALLAS,TX,75219,3403,DALLAS,48113,2007-08-08T00:00:00.000Z,ALT REF,2007-08-08T00:00:00.000Z,SYNAGOGUES,17640168,-96.8138244,32.8079301,JUDAIC,NOT AVAILABLE,NOT AVAILABLE,NOT AVAILABLE,N,N
13066,10430198,CONGREGATION SHEARITH ISRAEL,DALLAS,TX,75225,1612,DALLAS,48113,2007-08-07T00:00:00.000Z,ALT REF,2007-08-10T00:00:00.000Z,SYNAGOGUES,17668803,-96.8087964,32.8769652,JUDAIC,NOT AVAILABLE,NOT AVAILABLE,NOT AVAILABLE,N,N
13068,10430245,CONGREGATION OHEV SHALOM,DALLAS,TX,75252,5932,COLLIN,48085,2007-08-08T00:00:00.000Z,ALT REF,2007-08-08T00:00:00.000Z,SYNAGOGUES,126601478,-96.7845747,32.9883102,JUDAIC,NOT AVAILABLE,NOT AVAILABLE,NOT AVAILABLE,N,N
13069,10430270,YOUNG ISRAEL OF DALLAS,DALLAS,TX,75230,1930,DALLAS,48113,2007-08-07T00:00:00.000Z,ALT REF,2007-08-07T00:00:00.000Z,SYNAGOGUES,17740457,-96.7942253,32.9193514,JUDAIC,NOT AVAILABLE,NOT AVAILABLE,NOT AVAILABLE,N,N
13070,10430223,CONGREGATION OHR HA TORAH,DALLAS,TX,75230,1808,DALLAS,48113,2007-08-07T00:00:00.000Z,ALT REF,2007-08-08T00:00:00.000Z,SYNAGOGUES,17665379,-96.7962848,32.9167375,JUDAIC,NOT AVAILABLE,NOT AVAILABLE,NOT AVAILABLE,N,N
13074,10430258,ISRAEL OF YAHWEH ASSEMBLY HOUSE OF PRAYER FOR ALL,DALLAS,TX,75232,4110,DALLAS,48113,2007-08-08T00:00:00.000Z,ALT REF,2007-08-08T00:00:00.000Z,SYNAGOGUES,17751945,-96.8490086,32.6559633,JUDAIC,NOT AVAILABLE,NOT AVAILABLE,NOT AVAILABLE,N,N
13075,10430278,SHAARE TEFILA CONGREGATION,DALLAS,TX,75230,1803,DALLAS,48113,2007-08-08T00:00:00.000Z,ALT REF,2007-08-08T00:00:00.000Z,SYNAGOGUES,17665400,-96.8005177,32.9172651,JUDAIC,NOT AVAILABLE,NOT AVAILABLE,NOT AVAILABLE,N,N
13078,10430218,BARUCH HA SHEM CONGREGATION,DALLAS,TX,75254,7867,DALLAS,48113,2007-08-07T00:00:00.000Z,ALT REF,2007-08-07T00:00:00.000Z,SYNAGOGUES,17662893,-96.796584,32.9492984,JUDAIC,NOT AVAILABLE,NOT AVAILABLE,NOT AVAILABLE,N,N
13088,10443686,CHRIST THE KING CATHOLIC CHURCH,DALLAS,TX,75225,6304,DALLAS,48113,2009-05-14T00:00:00.000Z,ALT REF,2009-05-14T00:00:00.000Z,CHURCHES,17634793,-96.8050828,32.8601375,CHRISTIAN,NOT AVAILABLE,NOT AVAILABLE,NOT AVAILABLE,N,Y
13107,10431389,MASJID AL-ISLAM,DALLAS,TX,75215,2728,DALLAS,48113,2007-10-09T00:00:00.000Z,ALT REF,2007-10-09T00:00:00.000Z,"MOSQUES, RELIGIOUS",17645404,-96.7789122,32.7672605,MUSLIM,NOT AVAILABLE,NOT AVAILABLE,NOT AVAILABLE,N,N
13112,10437111,COCKRELL HILL BAPTIST CHURCH,DALLAS,TX,75211,6210,DALLAS,48113,2007-11-15T00:00:00.000Z,ALT REF,2007-11-15T00:00:00.000Z,CHURCHES,17586609,-96.8911031,32.7341823,CHRISTIAN,SBC,1203,NOT AVAILABLE,Y,N
13113,10440672,SAINT ALBAN'S COLLEGIATE CHAPEL,DALLAS,TX,75205,1440,DALLAS,48113,2007-11-07T00:00:00.000Z,ALT REF,2007-11-28T00:00:00.000Z,CHURCHES,122907171,-96.785735,32.8469313,CHRISTIAN,EPIS,NOT AVAILABLE,NOT AVAILABLE,Y,N
13130,10454579,SAINT JOHN MISSIONARY BAPTIST CHURCH,DALLAS,TX,75216,3021,DALLAS,48113,2009-05-13T00:00:00.000Z,ALT REF,2009-05-13T00:00:00.000Z,CHURCHES,129381789,-96.8127331,32.7162883,CHRISTIAN,NBC,NOT AVAILABLE,NOT AVAILABLE,Y,N
13132,10759978,KING OF GLORY LUTHERAN CHURCH,DALLAS,TX,75240,6406,DALLAS,48113,2009-05-12T00:00:00.000Z,ALT REF,2009-05-12T00:00:00.000Z,CHURCHES,17664553,-96.794748,32.9260979,CHRISTIAN,ELCA,NOT AVAILABLE,NOT AVAILABLE,Y,N
13134,10443690,OUR LADY OF SAN JUAN DE LOS LAGOS AND SANTA THERESA CHURCH,DALLAS,TX,75212,3742,DALLAS,48113,2009-05-13T00:00:00.000Z,ALT REF,2009-05-13T00:00:00.000Z,CHURCHES,18332911,-96.8641208,32.7792053,CHRISTIAN,NOT AVAILABLE,NOT AVAILABLE,NOT AVAILABLE,N,Y
13136,10441956,SANTA CLARA OF ASSISI CATHOLIC CHURCH,DALLAS,TX,75211,3547,DALLAS,48113,2009-05-14T00:00:00.000Z,ALT REF,2009-05-14T00:00:00.000Z,CHURCHES,17583456,-96.8974641,32.7439796,CHRISTIAN,NOT AVAILABLE,NOT AVAILABLE,NOT AVAILABLE,N,Y
13142,10430215,TEMPLE EMANU-EL,DALLAS,TX,75225,4204,DALLAS,48113,2009-05-08T00:00:00.000Z,ALT REF,2009-05-08T00:00:00.000Z,SYNAGOGUES,17634097,-96.7853326,32.8680014,JUDAIC,NOT AVAILABLE,NOT AVAILABLE,NOT AVAILABLE,N,N
13144,10445820,SAINT RITA CATHOLIC CHURCH,DALLAS,TX,75244,6909,DALLAS,48113,2009-05-14T00:00:00.000Z,ALT REF,2009-05-14T00:00:00.000Z,CHURCHES,17665134,-96.8197763,32.919224,CHRISTIAN,NOT AVAILABLE,NOT AVAILABLE,NOT AVAILABLE,N,Y
13148,10589509,TRUE VINE OF HOLINESS MISSIONARY BAPTIST CHURCH,DALLAS,TX,75241,3407,DALLAS,48113,2009-05-15T00:00:00.000Z,ALT REF,2009-05-15T00:00:00.000Z,CHURCHES,17751287,-96.8208596,32.6664406,CHRISTIAN,ABC,NOT AVAILABLE,NOT AVAILABLE,Y,N
13151,10762431,FIRST PRESBYTERIAN CHURCH OF DALLAS,DALLAS,TX,75201,5610,DALLAS,48113,2009-05-15T00:00:00.000Z,ALT REF,2009-05-15T00:00:00.000Z,CHURCHES,17643839,-96.7935835,32.7793737,CHRISTIAN,PCUSA,1582,NOT AVAILABLE,Y,N
13153,10441789,SAINT ANDREW KIM CATHOLIC CHURCH,DALLAS,TX,75204,5924,DALLAS,48113,2009-05-13T00:00:00.000Z,ALT REF,2009-05-13T00:00:00.000Z,CHURCHES,17642615,-96.7868588,32.7874734,CHRISTIAN,NOT AVAILABLE,NOT AVAILABLE,NOT AVAILABLE,N,Y
13154,10678046,BOCHASANWASI SHRI AKSHAR PURUSHOTTAM SWAMINARAYAN TEMPLE,DALLAS,TX,75229,2525,DALLAS,48113,2009-05-08T00:00:00.000Z,ALT REF,2009-05-08T00:00:00.000Z,"TEMPLES, RELIGIOUS",17666520,-96.8728892,32.9036076,HINDU,NOT AVAILABLE,NOT AVAILABLE,NOT AVAILABLE,N,N
13156,10448389,NEUHOFF CATHOLIC STUDENT COMMUNITY CENTER,DALLAS,TX,75205,1944,DALLAS,48113,2009-05-13T00:00:00.000Z,ALT REF,2009-05-13T00:00:00.000Z,CHURCHES,719873187,-96.7814313,32.8453751,CHRISTIAN,NOT AVAILABLE,NOT AVAILABLE,NOT AVAILABLE,N,Y
13157,10581120,MARSH LANE BAPTIST CHURCH,DALLAS,TX,75229,5145,DALLAS,48113,2009-05-11T00:00:00.000Z,ALT REF,2009-05-11T00:00:00.000Z,CHURCHES,724130651,-96.8555992,32.8941448,CHRISTIAN,BAPT,NOT AVAILABLE,NOT AVAILABLE,Y,N
13160,10761879,WEBB CHAPEL CHURCH OF CHRIST,DALLAS,TX,75234,5020,DALLAS,48113,2009-05-13T00:00:00.000Z,ALT REF,2009-05-13T00:00:00.000Z,CHURCHES,17664403,-96.873901,32.9286201,CHRISTIAN,COC,650,NOT AVAILABLE,Y,N
13161,10683883,DALLAS CULTURE CENTER,DALLAS,TX,75219,4108,DALLAS,48113,2009-05-12T00:00:00.000Z,ALT REF,2009-05-12T00:00:00.000Z,PLACES OF WORSHIP,17640328,-96.8112809,32.8070624,BUDDHIST,NOT AVAILABLE,NOT AVAILABLE,NOT AVAILABLE,N,N
13163,10684515,AWAKENING HEART - INTERFAITH MINDFULNESS MINISTRIES,DALLAS,TX,75230,2807,DALLAS,48113,2009-05-08T00:00:00.000Z,ALT REF,2009-05-08T00:00:00.000Z,PLACES OF WORSHIP,25018495,-96.7939912,32.9101998,BUDDHIST,"MAHAYANA, ORDER OF INTERBEING, THICH NHAT HANH",NOT AVAILABLE,NOT AVAILABLE,N,N
13175,10441924,NUESTRA SENORA DEL PILAR CATHOLIC CHURCH,DALLAS,TX,75211,7750,DALLAS,48113,2009-05-19T00:00:00.000Z,ALT REF,2009-05-19T00:00:00.000Z,CHURCHES,17591317,-96.8940596,32.720785,CHRISTIAN,NOT AVAILABLE,NOT AVAILABLE,NOT AVAILABLE,N,Y
13177,10442715,BLESSED SACRAMENT CATHOLIC CHURCH,DALLAS,TX,75203,2351,DALLAS,48113,2009-05-20T00:00:00.000Z,ALT REF,2009-05-20T00:00:00.000Z,CHURCHES,723605920,-96.8161076,32.7510098,CHRISTIAN,NOT AVAILABLE,NOT AVAILABLE,NOT AVAILABLE,N,Y
13178,10453808,KOINONIA MISSIONARY BAPTIST CHURCH,DALLAS,TX,75224,3457,DALLAS,48113,2009-05-21T00:00:00.000Z,ALT REF,2009-05-21T00:00:00.000Z,CHURCHES,17748405,-96.8353778,32.7048966,CHRISTIAN,NBC,NOT AVAILABLE,NOT AVAILABLE,Y,N
13185,10443372,CATHEDRAL SHRINE OF THE VIRGIN OF GUADALUPE,DALLAS,TX,75201,2707,DALLAS,48113,2009-05-19T00:00:00.000Z,ALT REF,2009-05-19T00:00:00.000Z,"SHRINES, RELIGIOUS",727955059,-96.7978641,32.7887154,CHRISTIAN,NOT AVAILABLE,NOT AVAILABLE,NOT AVAILABLE,N,Y
13192,10455282,MARSALIS AVENUE BAPTIST CHURCH,DALLAS,TX,75216,3022,DALLAS,48113,2009-05-21T00:00:00.000Z,ALT REF,2009-05-21T00:00:00.000Z,CHURCHES,17747671,-96.814934,32.7143909,CHRISTIAN,NBC,NOT AVAILABLE,NOT AVAILABLE,Y,N
13193,10452733,DENLEY DRIVE MISSIONARY BAPTIST CHURCH,DALLAS,TX,75216,1624,DALLAS,48113,2009-05-19T00:00:00.000Z,ALT REF,2009-05-19T00:00:00.000Z,CHURCHES,17745919,-96.8058819,32.728891,CHRISTIAN,NBC,NOT AVAILABLE,NOT AVAILABLE,Y,N
13194,10443693,SAINT CECILIAS CHURCH,DALLAS,TX,75208,5454,DALLAS,48113,2009-05-19T00:00:00.000Z,ALT REF,2009-05-19T00:00:00.000Z,CHURCHES,135340383,-96.848474,32.7498614,CHRISTIAN,NOT AVAILABLE,NOT AVAILABLE,NOT AVAILABLE,N,Y
13196,10452418,GREATER EMMANUEL BAPTIST CHURCH,DALLAS,TX,75203,2025,DALLAS,48113,2009-05-19T00:00:00.000Z,ALT REF,2009-05-19T00:00:00.000Z,CHURCHES,17743837,-96.7945312,32.7459993,CHRISTIAN,NBC,NOT AVAILABLE,NOT AVAILABLE,Y,N
13198,10761878,WALNUT HILL CHURCH OF CHRIST,DALLAS,TX,75229,5141,DALLAS,48113,2009-05-21T00:00:00.000Z,ALT REF,2009-05-21T00:00:00.000Z,CHURCHES,17667658,-96.8553688,32.8901572,CHRISTIAN,COC,400,NOT AVAILABLE,Y,N
13199,10761873,CEDAR CREST CHURCH OF CHRIST,DALLAS,TX,75203,4316,DALLAS,48113,2009-05-22T00:00:00.000Z,ALT REF,2009-05-22T00:00:00.000Z,CHURCHES,17745849,-96.7947636,32.7303396,CHRISTIAN,COC,500+,NOT AVAILABLE,Y,N
13200,10761875,CHURCH OF CHRIST AT MOUNTAIN VIEW,DALLAS,TX,75211,8456,DALLAS,48113,2009-05-21T00:00:00.000Z,ALT REF,2009-05-21T00:00:00.000Z,CHURCHES,17591315,-96.8872777,32.7208414,CHRISTIAN,COC,400+,NOT AVAILABLE,Y,N
13201,10761876,PRESTON ROAD CHURCH OF CHRIST,DALLAS,TX,75205,1610,DALLAS,48113,2009-05-21T00:00:00.000Z,ALT REF,2009-05-21T00:00:00.000Z,CHURCHES,17636197,-96.8048381,32.844533,CHRISTIAN,COC,500,NOT AVAILABLE,Y,N
13202,10761874,CLIFF VIEW CHURCH OF CHRIST,DALLAS,TX,75241,4811,DALLAS,48113,2009-05-21T00:00:00.000Z,ALT REF,2009-05-21T00:00:00.000Z,CHURCHES,17751445,-96.782288,32.6627954,CHRISTIAN,COC,400,NOT AVAILABLE,Y,N
13203,10441820,OUR LADY OF LOURDES CHURCH,DALLAS,TX,75212,4410,DALLAS,48113,2009-05-21T00:00:00.000Z,ALT REF,2009-05-21T00:00:00.000Z,CHURCHES,17628585,-96.9119976,32.775438,CHRISTIAN,NOT AVAILABLE,NOT AVAILABLE,NOT AVAILABLE,N,Y
13204,10441784,SAINT MONICA CATHOLIC CHURCH,DALLAS,TX,75220,1918,DALLAS,48113,2009-05-21T00:00:00.000Z,ALT REF,2009-05-21T00:00:00.000Z,CHURCHES,17668560,-96.8391249,32.87965,CHRISTIAN,NOT AVAILABLE,NOT AVAILABLE,NOT AVAILABLE,N,Y
13207,10443695,SAINT ELIZABETH OF HUNGARY CATHOLIC CHURCH,DALLAS,TX,75224,4701,DALLAS,48113,2009-05-20T00:00:00.000Z,ALT REF,2009-05-20T00:00:00.000Z,CHURCHES,135340477,-96.8579521,32.6930485,CHRISTIAN,NOT AVAILABLE,NOT AVAILABLE,NOT AVAILABLE,N,Y
13208,10443697,SAINT MARY OF CARMEL CATHOLIC CHURCH,DALLAS,TX,75212,5137,DALLAS,48113,2009-05-20T00:00:00.000Z,ALT REF,2009-05-20T00:00:00.000Z,CHURCHES,17644081,-96.8474264,32.7774585,CHRISTIAN,NOT AVAILABLE,NOT AVAILABLE,NOT AVAILABLE,N,Y
13210,10437958,FIRST UNITED METHODIST CHURCH,DALLAS,TX,75201,3220,DALLAS,48113,2007-09-24T00:00:00.000Z,ALT REF,2007-09-24T00:00:00.000Z,CHURCHES,17642762,-96.7991548,32.7864888,CHRISTIAN,UMC,NOT AVAILABLE,NOT AVAILABLE,Y,N
13211,10762744,UNIVERSITY PARK UNITED METHODIST CHURCH,DALLAS,TX,75225,5403,DALLAS,48113,2009-05-15T00:00:00.000Z,ALT REF,2009-05-15T00:00:00.000Z,CHURCHES,17634919,-96.8037682,32.8586358,CHRISTIAN,UMC,NOT AVAILABLE,NOT AVAILABLE,Y,N
13288,10460077,BETHEL CHURCH PRESBYTERIAN CHURCH IN AMERICA,DALLAS,TX,75287,6628,COLLIN,48085,2009-05-08T00:00:00.000Z,ALT REF,2009-05-08T00:00:00.000Z,CHURCHES,17659533,-96.8431419,32.9942444,CHRISTIAN,PCA,NOT AVAILABLE,NOT AVAILABLE,Y,N
13331,10683775,DALLAS SHAMBHALA MEDITATION CENTER,DALLAS,TX,75205,1750,DALLAS,48113,2009-08-03T00:00:00.000Z,ALT REF,2009-08-03T00:00:00.000Z,PLACES OF WORSHIP,17636626,-96.8040422,32.8391268,BUDDHIST,"TIBETAN, KAGYU, SHAMBHALA",NOT AVAILABLE,NOT AVAILABLE,N,N
13332,11549143,FIRST UNITARIAN CHURCH OF DALLAS,DALLAS,TX,75205,1750,DALLAS,48113,2009-08-03T00:00:00.000Z,ALT REF,2009-08-03T00:00:00.000Z,PLACES OF WORSHIP,17636626,-96.8040422,32.8391268,OTHER,NOT AVAILABLE,NOT AVAILABLE,NOT AVAILABLE,N,N
13572,10589501,CHURCH IN THE CLIFF,DALLAS,TX,75208,3917,DALLAS,48113,2009-05-19T00:00:00.000Z,ALT REF,2009-05-19T00:00:00.000Z,CHURCHES,17647148,-96.8339895,32.7530994,CHRISTIAN,NOT AVAILABLE,NOT AVAILABLE,NOT AVAILABLE,Y,N
13576,10581118,ZION APOSTOLIC TEMPLE,DALLAS,TX,75233,2402,DALLAS,48113,2009-05-18T00:00:00.000Z,ALT REF,2009-05-18T00:00:00.000Z,CHURCHES,17597177,-96.886372,32.6998654,CHRISTIAN,NOT AVAILABLE,NOT AVAILABLE,NOT AVAILABLE,Y,N
13637,10432839,GOSPEL TABERNACLE CHURCH,DALLAS,TX,75217,7730,DALLAS,48113,2007-09-10T00:00:00.000Z,ALT REF,2007-09-10T00:00:00.000Z,CHURCHES,17735439,-96.6489797,32.706209,CHRISTIAN,NOT AVAILABLE,NOT AVAILABLE,NOT AVAILABLE,Y,N
13777,10443526,SAINT PIUS X CHURCH,DALLAS,TX,75228,3104,DALLAS,48113,2009-05-18T00:00:00.000Z,ALT REF,2009-05-18T00:00:00.000Z,CHURCHES,17694179,-96.6659795,32.8343923,CHRISTIAN,NOT AVAILABLE,NOT AVAILABLE,NOT AVAILABLE,N,Y
13838,10434031,GASTON OAKS BAPTIST CHURCH,DALLAS,TX,75243,7018,DALLAS,48113,2007-11-14T00:00:00.000Z,ALT REF,2007-11-14T00:00:00.000Z,CHURCHES,129408921,-96.7539905,32.8944249,CHRISTIAN,SBC,1644,NOT AVAILABLE,Y,N
13840,10434214,LAKESIDE BAPTIST CHURCH,DALLAS,TX,75218,3901,DALLAS,48113,2007-11-14T00:00:00.000Z,ALT REF,2007-11-14T00:00:00.000Z,CHURCHES,17694874,-96.7070071,32.8289027,CHRISTIAN,SBC,4008,NOT AVAILABLE,Y,N
13850,10434530,PLEASANT TERRACE BAPTIST CHURCH,DALLAS,TX,75217,1907,DALLAS,48113,2007-11-14T00:00:00.000Z,ALT REF,2007-11-14T00:00:00.000Z,CHURCHES,17732897,-96.6762142,32.7493048,CHRISTIAN,SBC,992,NOT AVAILABLE,Y,N
13856,10434706,NORTHLAKE BAPTIST CHURCH,DALLAS,TX,75238,3543,DALLAS,48113,2007-11-14T00:00:00.000Z,ALT REF,2007-11-14T00:00:00.000Z,CHURCHES,17689709,-96.7100184,32.8714138,CHRISTIAN,SBC,1228,NOT AVAILABLE,Y,N
13859,10434970,CASA VIEW BAPTIST CHURCH,DALLAS,TX,75228,3019,DALLAS,48113,2007-11-14T00:00:00.000Z,ALT REF,2007-11-14T00:00:00.000Z,CHURCHES,17694194,-96.6695874,32.8344235,CHRISTIAN,SBC,4458,NOT AVAILABLE,Y,N
13882,10435650,FERGUSON ROAD BAPTIST CHURCH,DALLAS,TX,75228,5855,DALLAS,48113,2007-11-14T00:00:00.000Z,ALT REF,2007-11-14T00:00:00.000Z,CHURCHES,17697336,-96.7083348,32.8058883,CHRISTIAN,SBC,906,NOT AVAILABLE,Y,N
13886,10435758,RYLIE FIRST BAPTIST CHURCH,DALLAS,TX,75217,8073,DALLAS,48113,2007-09-20T00:00:00.000Z,ALT REF,2007-09-20T00:00:00.000Z,CHURCHES,129405618,-96.6358086,32.6921488,CHRISTIAN,SBC,790,NOT AVAILABLE,Y,N
13900,10436531,SHILOH TERRACE BAPTIST CHURCH,DALLAS,TX,75228,3908,DALLAS,48113,2007-11-14T00:00:00.000Z,ALT REF,2007-11-14T00:00:00.000Z,CHURCHES,17695625,-96.6647798,32.8221074,CHRISTIAN,SBC,2817,NOT AVAILABLE,Y,N
13907,10436913,URBAN PARK BAPTIST CHURCH,DALLAS,TX,75227,3703,DALLAS,48113,2007-11-08T00:00:00.000Z,ALT REF,2007-11-08T00:00:00.000Z,CHURCHES,17700436,-96.7065559,32.7733959,CHRISTIAN,SBC,953,NOT AVAILABLE,Y,N
13909,10436987,LAKE HIGHLANDS BAPTIST CHURCH,DALLAS,TX,75218,2191,DALLAS,48113,2007-11-08T00:00:00.000Z,ALT REF,2007-11-08T00:00:00.000Z,CHURCHES,17692416,-96.7083491,32.8503257,CHRISTIAN,SBC,1550,NOT AVAILABLE,Y,N
13915,10437249,BETHANY BAPTIST CHURCH,DALLAS,TX,75217,1447,DALLAS,48113,2007-11-28T00:00:00.000Z,ALT REF,2007-11-08T00:00:00.000Z,CHURCHES,17732950,-96.694093,32.7482827,CHRISTIAN,SBC,2067,NOT AVAILABLE,Y,N
13917,10437256,SECOND BAPTIST CHURCH,DALLAS,TX,75228,3818,DALLAS,48113,2007-11-15T00:00:00.000Z,ALT REF,2007-11-15T00:00:00.000Z,CHURCHES,135337027,-96.6794588,32.8200088,CHRISTIAN,SBC,966,NOT AVAILABLE,Y,N
13920,10437612,LOCHWOOD BAPTIST CHURCH DALLAS,DALLAS,TX,75218,2510,DALLAS,48113,2007-09-20T00:00:00.000Z,ALT REF,2007-09-20T00:00:00.000Z,CHURCHES,17692844,-96.6855175,32.8467631,CHRISTIAN,SBC,1348,NOT AVAILABLE,Y,N
13942,10438591,THE CHURCH OF JESUS CHRIST OF LATTER DAY SAINTS - GARLAND 1ST WARD,DALLAS,TX,75218,1159,DALLAS,48113,2007-10-16T00:00:00.000Z,ALT REF,2007-10-16T00:00:00.000Z,CHURCHES,17691707,-96.7018803,32.856538,CHRISTIAN,LDS,NOT AVAILABLE,NOT AVAILABLE,Y,N
13943,10438595,THE CHURCH OF JESUS CHRIST OF LATTER DAY SAINTS - LAKEWOOD WARD,DALLAS,TX,75206,7513,DALLAS,48113,2007-10-16T00:00:00.000Z,ALT REF,2007-10-16T00:00:00.000Z,CHURCHES,17640188,-96.7761287,32.808287,CHRISTIAN,LDS,NOT AVAILABLE,NOT AVAILABLE,Y,N
13949,10438962,THE CHURCH OF JESUS CHRIST OF LATTER DAY SAINTS - LAKE HIGHLANDS WARD,DALLAS,TX,75218,1159,DALLAS,48113,2007-10-16T00:00:00.000Z,ALT REF,2007-10-16T00:00:00.000Z,CHURCHES,17691707,-96.7019046,32.8565368,CHRISTIAN,LDS,NOT AVAILABLE,NOT AVAILABLE,Y,N
13953,10439293,THE CHURCH OF JESUS CHRIST OF LATTER DAY SAINTS - CASA LINDA (SPANISH) WARD,DALLAS,TX,75218,1159,DALLAS,48113,2007-10-16T00:00:00.000Z,ALT REF,2007-10-16T00:00:00.000Z,CHURCHES,17691707,-96.7018539,32.8565351,CHRISTIAN,LDS,NOT AVAILABLE,NOT AVAILABLE,Y,N
13963,10439728,THE CHURCH OF JESUS CHRIST OF LATTER DAY SAINTS - DALLAS 12TH (YOUNG SINGLE ADULT) WARD,DALLAS,TX,75206,7513,DALLAS,48113,2007-10-16T00:00:00.000Z,ALT REF,2007-10-16T00:00:00.000Z,CHURCHES,17640188,-96.7761368,32.8082767,CHRISTIAN,LDS,NOT AVAILABLE,NOT AVAILABLE,Y,N
13975,10440212,EPISCOPAL CHURCH OF OUR SAVIOR,DALLAS,TX,75217,1320,DALLAS,48113,2007-11-07T00:00:00.000Z,ALT REF,2007-11-07T00:00:00.000Z,CHURCHES,135340698,-96.6992519,32.74022,CHRISTIAN,EPIS,NOT AVAILABLE,NOT AVAILABLE,Y,N
13976,10440284,THE CHURCH OF THE GOOD SAMARITAN,DALLAS,TX,75218,4420,DALLAS,48113,2007-11-14T00:00:00.000Z,ALT REF,2007-11-14T00:00:00.000Z,CHURCHES,27802532,-96.7210194,32.8085432,CHRISTIAN,EPIS,NOT AVAILABLE,NOT AVAILABLE,Y,N
13977,10440312,EPISCOPAL CHURCH OF THE ASCENSION,DALLAS,TX,75243,7140,DALLAS,48113,2007-11-14T00:00:00.000Z,ALT REF,2007-11-14T00:00:00.000Z,CHURCHES,135345470,-96.7519537,32.8965278,CHRISTIAN,EPIS,NOT AVAILABLE,NOT AVAILABLE,Y,N
13984,10440665,ALL SAINTS EPISCOPAL CHURCH,DALLAS,TX,75214,3009,DALLAS,48113,2007-11-07T00:00:00.000Z,ALT REF,2007-11-27T00:00:00.000Z,CHURCHES,135353937,-96.7544823,32.8308623,CHRISTIAN,EPIS,NOT AVAILABLE,NOT AVAILABLE,Y,N
13985,10440667,THE CATHEDRAL CHURCH OF SAINT MATTHEW,DALLAS,TX,75206,7709,DALLAS,48113,2007-11-14T00:00:00.000Z,ALT REF,2007-11-27T00:00:00.000Z,CHURCHES,135360778,-96.7726786,32.8083246,CHRISTIAN,EPIS,NOT AVAILABLE,NOT AVAILABLE,Y,N
13986,10440669,SAINT JAMES EPISCOPAL CHURCH,DALLAS,TX,75238,3444,DALLAS,48113,2007-11-14T00:00:00.000Z,ALT REF,2007-11-14T00:00:00.000Z,CHURCHES,17689751,-96.7168965,32.8721564,CHRISTIAN,EPIS,NOT AVAILABLE,NOT AVAILABLE,Y,N
13988,10440677,SAINT CHRISTOPHER'S EPISCOPAL CHURCH,DALLAS,TX,75225,8200,DALLAS,48113,2007-11-14T00:00:00.000Z,ALT REF,2007-11-14T00:00:00.000Z,CHURCHES,27796506,-96.7723944,32.850649,CHRISTIAN,EPIS,NOT AVAILABLE,NOT AVAILABLE,Y,N
13989,10440679,SAINT JOHN'S EPISCOPAL CHURCH,DALLAS,TX,75218,2751,DALLAS,48113,2007-11-14T00:00:00.000Z,ALT REF,2007-11-14T00:00:00.000Z,CHURCHES,17692970,-96.7073013,32.8450243,CHRISTIAN,EPIS,NOT AVAILABLE,NOT AVAILABLE,Y,N
12368,10428936,FOREST LANE SHUL,DALLAS,TX,75230,2305,DALLAS,48113,2007-08-07T00:00:00.000Z,ALT REF,2007-08-07T00:00:00.000Z,SYNAGOGUES,17665891,-96.7836946,32.9094497,JUDAIC,CHABAD,NOT AVAILABLE,CHABAD,N,N
12369,10428736,CHABAD KESHER FOUNDATION,DALLAS,TX,75252,5925,COLLIN,48085,2007-08-07T00:00:00.000Z,ALT REF,2007-08-07T00:00:00.000Z,SYNAGOGUES,17659820,-96.7923499,32.9884632,JUDAIC,CHABAD,NOT AVAILABLE,CHABAD,N,N
12375,10461321,PROVIDENCE PRESBYTERIAN CHURCH,DALLAS,TX,75230,5333,DALLAS,48113,2008-03-11T00:00:00.000Z,ALT REF,2008-03-11T00:00:00.000Z,CHURCHES,17667900,-96.7857812,32.8860547,CHRISTIAN,PCA,NOT AVAILABLE,NOT AVAILABLE,Y,N
12377,10441944,SACRED HEART OF JESUS CHRIST VIETNAMESE CHURCH,DALLAS,TX,75234,3535,DALLAS,48113,2007-09-05T00:00:00.000Z,ALT REF,2007-09-05T00:00:00.000Z,CHURCHES,17686816,-96.884789,32.936736,CHRISTIAN,NOT AVAILABLE,NOT AVAILABLE,NOT AVAILABLE,N,Y
12379,10432826,FRIENDSHIP-WEST BAPTIST CHURCH,DALLAS,TX,75232,4517,DALLAS,48113,2007-09-13T00:00:00.000Z,ALT REF,2007-09-13T00:00:00.000Z,CHURCHES,18252574,-96.8504529,32.6472566,CHRISTIAN,BAPT,NOT AVAILABLE,NOT AVAILABLE,Y,N
12380,10432842,NEW BIRTH BAPTIST CHURCH,DALLAS,TX,75224,5134,DALLAS,48113,2007-09-13T00:00:00.000Z,ALT REF,2007-09-18T00:00:00.000Z,CHURCHES,25013812,-96.8301504,32.6890937,CHRISTIAN,BAPT,NOT AVAILABLE,NOT AVAILABLE,Y,N
12388,10443696,SAINT JAMES CATHOLIC CHURCH,DALLAS,TX,75216,3138,DALLAS,48113,2007-08-31T00:00:00.000Z,ALT REF,2007-08-31T00:00:00.000Z,CHURCHES,17747652,-96.810264,32.7128798,CHRISTIAN,NOT AVAILABLE,NOT AVAILABLE,NOT AVAILABLE,N,Y
12391,10432841,WATERMARK COMMUNITY CHURCH,DALLAS,TX,75251,1007,DALLAS,48113,2007-09-10T00:00:00.000Z,ALT REF,2007-09-10T00:00:00.000Z,CHURCHES,122925757,-96.7764421,32.9233875,CHRISTIAN,NONDENOM,NOT AVAILABLE,NOT AVAILABLE,Y,N
12392,10432840,NORTHWEST BIBLE CHURCH,DALLAS,TX,75225,3211,DALLAS,48113,2007-09-12T00:00:00.000Z,ALT REF,2007-09-10T00:00:00.000Z,CHURCHES,17634342,-96.8089515,32.8665718,CHRISTIAN,NOT AVAILABLE,NOT AVAILABLE,NOT AVAILABLE,Y,N
12395,10429422,CONGREGATION TIFERET ISRAEL,DALLAS,TX,75230,3538,DALLAS,48113,2007-07-26T00:00:00.000Z,PHONE,2007-07-26T00:00:00.000Z,SYNAGOGUES,17667061,-96.7883663,32.8964275,JUDAIC,TRADITIONAL,NOT AVAILABLE,NOT AVAILABLE,N,N
12404,10432825,OAK CLIFF BIBLE FELLOWSHIP CHURCH,DALLAS,TX,75232,3332,DALLAS,48113,2007-09-10T00:00:00.000Z,ALT REF,2007-09-12T00:00:00.000Z,CHURCHES,17751595,-96.8475969,32.6616143,CHRISTIAN,NONDENOM,NOT AVAILABLE,NOT AVAILABLE,Y,N
12424,10575968,SAINT MARK AFRICAN METHODIST EPISCOPAL ZION CHURCH,DALLAS,TX,75212,1338,DALLAS,48113,2009-05-12T00:00:00.000Z,ALT REF,2009-05-12T00:00:00.000Z,CHURCHES,17628271,-96.8758287,32.7893748,CHRISTIAN,AMEZ,NOT AVAILABLE,NOT AVAILABLE,Y,N
12426,10431266,MASJID AL-HAQQ,DALLAS,TX,75216,3055,DALLAS,48113,2009-05-12T00:00:00.000Z,ALT REF,2009-05-12T00:00:00.000Z,"MOSQUES, RELIGIOUS",17747675,-96.8160755,32.714168,MUSLIM,NOT AVAILABLE,NOT AVAILABLE,NOT AVAILABLE,N,N
12447,10432827,PARK CITIES BAPTIST CHURCH,DALLAS,TX,75225,3333,DALLAS,48113,2007-09-20T00:00:00.000Z,ALT REF,2007-09-20T00:00:00.000Z,CHURCHES,17634401,-96.8007184,32.8649733,CHRISTIAN,SBC,NOT AVAILABLE,NOT AVAILABLE,Y,N
12448,10432828,LOVERS LANE UNITED METHODIST CHURCH,DALLAS,TX,75220,3901,DALLAS,48113,2007-09-13T00:00:00.000Z,ALT REF,2007-09-13T00:00:00.000Z,CHURCHES,17634243,-96.82096,32.8667735,CHRISTIAN,UMC,NOT AVAILABLE,NOT AVAILABLE,Y,N
12449,10432830,CONCORD CHURCH,DALLAS,TX,75237,2602,DALLAS,48113,2007-09-13T00:00:00.000Z,ALT REF,2007-09-13T00:00:00.000Z,CHURCHES,704512320,-96.8738752,32.6661779,CHRISTIAN,PNB,NOT AVAILABLE,NOT AVAILABLE,Y,N
12450,10432831,GOLDEN GATE MISSIONARY BAPTIST CHURCH,DALLAS,TX,75203,1535,DALLAS,48113,2007-09-13T00:00:00.000Z,ALT REF,2007-09-13T00:00:00.000Z,CHURCHES,17646758,-96.8081672,32.7558921,CHRISTIAN,NBC,NOT AVAILABLE,NOT AVAILABLE,Y,N
12451,10432832,THE POTTER'S HOUSE,DALLAS,TX,75236,3006,DALLAS,48113,2007-09-13T00:00:00.000Z,ALT REF,2007-09-18T00:00:00.000Z,CHURCHES,17595844,-96.9395557,32.7075029,CHRISTIAN,NONDENOM,NOT AVAILABLE,NOT AVAILABLE,Y,N
12452,10432835,HIGHLAND PARK UNITED METHODIST CHURCH,DALLAS,TX,75205,2327,DALLAS,48113,2007-09-13T00:00:00.000Z,ALT REF,2007-09-13T00:00:00.000Z,CHURCHES,17636912,-96.7860009,32.8372065,CHRISTIAN,UMC,NOT AVAILABLE,NOT AVAILABLE,Y,N
12453,10432836,FIRST BAPTIST CHURCH,DALLAS,TX,75201,3213,DALLAS,48113,2007-09-10T00:00:00.000Z,ALT REF,2007-09-12T00:00:00.000Z,CHURCHES,17642956,-96.7996357,32.7847331,CHRISTIAN,SBC,NOT AVAILABLE,NOT AVAILABLE,Y,N
12454,10432837,CATHEDRAL OF HOPE,DALLAS,TX,75235,6806,DALLAS,48113,2007-09-13T00:00:00.000Z,ALT REF,2007-09-19T00:00:00.000Z,CHURCHES,135362862,-96.8321681,32.8286068,CHRISTIAN,MCC/UCC,NOT AVAILABLE,NOT AVAILABLE,Y,N
12455,10432838,GOOD STREET BAPTIST CHURCH,DALLAS,TX,75216,3425,DALLAS,48113,2007-09-10T00:00:00.000Z,ALT REF,2007-09-10T00:00:00.000Z,CHURCHES,17747010,-96.7801772,32.7203733,CHRISTIAN,NBC,NOT AVAILABLE,NOT AVAILABLE,Y,N
12456,10432843,PARK CITIES PRESBYTERIAN CHURCH,DALLAS,TX,75219,3136,DALLAS,48113,2007-09-13T00:00:00.000Z,ALT REF,2007-09-13T00:00:00.000Z,CHURCHES,17638798,-96.8019673,32.8194155,CHRISTIAN,PRESB,NOT AVAILABLE,NOT AVAILABLE,Y,N
12475,10433232,THE OAKS FELLOWSHIP - OAK CLIFF,DALLAS,TX,75224,NULL,DALLAS,48113,2007-09-10T00:00:00.000Z,ALT REF,2007-09-10T00:00:00.000Z,CHURCHES,129399972,-96.8214748,32.6904257,CHRISTIAN,NOT AVAILABLE,NOT AVAILABLE,NOT AVAILABLE,Y,N
12477,10433367,SINGING HILLS BAPTIST CHURCH,DALLAS,TX,75241,3607,DALLAS,48113,2007-11-14T00:00:00.000Z,ALT REF,2007-11-14T00:00:00.000Z,CHURCHES,17751502,-96.8053669,32.667838,CHRISTIAN,SBC,1558,NOT AVAILABLE,Y,N
12478,10433370,ROYAL HAVEN BAPTIST CHURCH,DALLAS,TX,75229,3732,DALLAS,48113,2007-11-14T00:00:00.000Z,ALT REF,2007-11-14T00:00:00.000Z,CHURCHES,17667092,-96.8728634,32.8972385,CHRISTIAN,SBC,1975,NOT AVAILABLE,Y,N
12479,10433406,CALVARY BAPTIST CHURCH OF OAK CLIFF,DALLAS,TX,75208,5731,DALLAS,48113,2007-11-27T00:00:00.000Z,ALT REF,2007-11-27T00:00:00.000Z,CHURCHES,17744029,-96.8498954,32.7449646,CHRISTIAN,SBC,1862,NOT AVAILABLE,Y,N
12506,10435007,ROYAL LANE BAPTIST CHURCH,DALLAS,TX,75230,4145,DALLAS,48113,2007-11-14T00:00:00.000Z,ALT REF,2007-11-27T00:00:00.000Z,CHURCHES,17667133,-96.7888717,32.8952855,CHRISTIAN,SBC,790,NOT AVAILABLE,Y,N
12521,10435832,NORTHWAY BAPTIST CHURCH,DALLAS,TX,75229,6159,DALLAS,48113,2007-11-14T00:00:00.000Z,ALT REF,2007-11-14T00:00:00.000Z,CHURCHES,17668361,-96.8495768,32.8812639,CHRISTIAN,SBC,2623,NOT AVAILABLE,Y,N
12524,10435948,CLIFF TEMPLE BAPTIST CHURCH,DALLAS,TX,75208,4516,DALLAS,48113,2007-11-14T00:00:00.000Z,ALT REF,2007-11-14T00:00:00.000Z,CHURCHES,17744173,-96.824041,32.7445729,CHRISTIAN,SBC,5131,NOT AVAILABLE,Y,N
12549,10437041,GRACE TEMPLE BAPTIST CHURCH,DALLAS,TX,75208,4912,DALLAS,48113,2007-11-08T00:00:00.000Z,ALT REF,2007-11-08T00:00:00.000Z,CHURCHES,17744058,-96.8369819,32.7456067,CHRISTIAN,SBC,1347,NOT AVAILABLE,Y,N
12559,10437408,KOREAN FIRST BAPTIST CHURCH,DALLAS,TX,75229,2540,DALLAS,48113,2007-11-14T00:00:00.000Z,ALT REF,2007-11-14T00:00:00.000Z,CHURCHES,17666166,-96.8635799,32.9087467,CHRISTIAN,SBC,900,NOT AVAILABLE,Y,N
12575,10438248,PRESTONCREST CHURCH OF CHRIST,DALLAS,TX,75230,1864,DALLAS,48113,2007-10-10T00:00:00.000Z,ALT REF,2007-10-10T00:00:00.000Z,CHURCHES,17665171,-96.8027652,32.9209206,CHRISTIAN,COC,1200,NOT AVAILABLE,Y,N
12577,10438271,FARMERS BRANCH CHURCH OF CHRIST,DALLAS,TX,75234,5059,DALLAS,48113,2007-10-10T00:00:00.000Z,ALT REF,2007-10-18T00:00:00.000Z,CHURCHES,17664765,-96.8743066,32.9252111,CHRISTIAN,COC,1200+,NOT AVAILABLE,Y,N
12581,10438324,CENTRAL POINTE CHURCH OF CHRIST,DALLAS,TX,75237,3308,DALLAS,48113,2007-10-10T00:00:00.000Z,ALT REF,2007-10-10T00:00:00.000Z,CHURCHES,122927252,-96.8832091,32.6551932,CHRISTIAN,COC,800,NOT AVAILABLE,Y,N
12584,10438387,HIGHLAND PARK PRESBYTERIAN CHURCH,DALLAS,TX,75205,1710,DALLAS,48113,2007-10-10T00:00:00.000Z,ALT REF,2007-10-10T00:00:00.000Z,CHURCHES,17636087,-96.7994467,32.8446703,CHRISTIAN,PCUSA,4376,NOT AVAILABLE,Y,N
12585,10438408,PRESTON HOLLOW PRESBYTERIAN CHURCH,DALLAS,TX,75230,5044,DALLAS,48113,2007-10-10T00:00:00.000Z,ALT REF,2007-10-10T00:00:00.000Z,CHURCHES,17668274,-96.803266,32.8813913,CHRISTIAN,PCUSA,2787,NOT AVAILABLE,Y,N
12588,10438466,THE CHURCH OF JESUS CHRIST OF LATTER DAY SAINTS - OAK CLIFF 3RD BRANCH,DALLAS,TX,75224,1332,DALLAS,48113,2007-10-16T00:00:00.000Z,ALT REF,2007-10-16T00:00:00.000Z,CHURCHES,17745766,-96.8374988,32.7316172,CHRISTIAN,LDS,NOT AVAILABLE,NOT AVAILABLE,Y,N
12598,10438895,THE CHURCH OF JESUS CHRIST OF LATTER DAY SAINTS - DALLAS 9TH WARD,DALLAS,TX,75220,3851,DALLAS,48113,2007-10-16T00:00:00.000Z,ALT REF,2007-10-16T00:00:00.000Z,CHURCHES,17634024,-96.838772,32.8688203,CHRISTIAN,LDS,NOT AVAILABLE,NOT AVAILABLE,Y,N
12599,10438931,THE CHURCH OF JESUS CHRIST OF LATTER DAY SAINTS - RICHARDSON 2ND WARD,DALLAS,TX,75254,8019,DALLAS,48113,2007-10-16T00:00:00.000Z,ALT REF,2007-10-16T00:00:00.000Z,CHURCHES,17663007,-96.7781008,32.9494596,CHRISTIAN,LDS,NOT AVAILABLE,NOT AVAILABLE,Y,N
12600,10438942,THE CHURCH OF JESUS CHRIST OF LATTER DAY SAINTS - DALLAS 11TH (YOUNG SINGLE ADULT) WARD,DALLAS,TX,75254,8019,DALLAS,48113,2007-10-16T00:00:00.000Z,ALT REF,2007-10-16T00:00:00.000Z,CHURCHES,17663007,-96.7780944,32.9494696,CHRISTIAN,LDS,NOT AVAILABLE,NOT AVAILABLE,Y,N
12604,10439267,THE CHURCH OF JESUS CHRIST OF LATTER DAY SAINTS - OAK CLIFF 1ST (SPANISH) WARD,DALLAS,TX,75224,1332,DALLAS,48113,2007-10-16T00:00:00.000Z,ALT REF,2007-10-16T00:00:00.000Z,CHURCHES,17745766,-96.8375475,32.7316131,CHRISTIAN,LDS,NOT AVAILABLE,NOT AVAILABLE,Y,N
12613,10439746,THE CHURCH OF JESUS CHRIST OF LATTER DAY SAINTS - DALLAS 4TH WARD,DALLAS,TX,75254,8019,DALLAS,48113,2007-10-16T00:00:00.000Z,ALT REF,2007-10-16T00:00:00.000Z,CHURCHES,17663007,-96.7781354,32.9494722,CHRISTIAN,LDS,NOT AVAILABLE,NOT AVAILABLE,Y,N
12615,10439759,THE CHURCH OF JESUS CHRIST OF LATTER DAY SAINTS - DALLAS 1ST WARD,DALLAS,TX,75220,3851,DALLAS,48113,2007-10-16T00:00:00.000Z,ALT REF,2007-10-16T00:00:00.000Z,CHURCHES,17634024,-96.8388002,32.8688185,CHRISTIAN,LDS,NOT AVAILABLE,NOT AVAILABLE,Y,N
12633,10440187,TRINITY HILLCREST CHURCH,DALLAS,TX,75230,2007,DALLAS,48113,2007-11-14T00:00:00.000Z,ALT REF,2007-11-14T00:00:00.000Z,CHURCHES,17665118,-96.7869877,32.9217042,CHRISTIAN,EPIS,NOT AVAILABLE,NOT AVAILABLE,Y,N
12636,10440271,SAINT PAUL'S EPISCOPAL CHURCH,DALLAS,TX,75224,3235,DALLAS,48113,2007-11-07T00:00:00.000Z,ALT REF,2007-11-28T00:00:00.000Z,CHURCHES,17748339,-96.8433626,32.7051965,CHRISTIAN,EPIS,NOT AVAILABLE,NOT AVAILABLE,Y,N
12641,10440385,EPIPHANY EPISCOPAL CHURCH,DALLAS,TX,75216,2720,DALLAS,48113,2007-11-14T00:00:00.000Z,ALT REF,2007-11-14T00:00:00.000Z,CHURCHES,17746636,-96.7827811,32.7215893,CHRISTIAN,EPIS,NOT AVAILABLE,NOT AVAILABLE,Y,N
12645,10440663,THE EPISCOPAL CHURCH OF THE GOOD SHEPHERD,DALLAS,TX,75229,4118,DALLAS,48113,2007-11-14T00:00:00.000Z,ALT REF,2007-11-14T00:00:00.000Z,CHURCHES,129428278,-96.8374389,32.9015599,CHRISTIAN,EPIS,NOT AVAILABLE,NOT AVAILABLE,Y,N
12646,10440664,CHURCH OF THE INCARNATION,DALLAS,TX,75204,2018,DALLAS,48113,2007-11-14T00:00:00.000Z,ALT REF,2007-11-27T00:00:00.000Z,CHURCHES,135349862,-96.7931222,32.8110727,CHRISTIAN,EPIS,NOT AVAILABLE,NOT AVAILABLE,Y,N
12647,10440666,SAINT MATTHIAS' CHURCH,DALLAS,TX,75234,7714,DALLAS,48113,2007-11-15T00:00:00.000Z,ALT REF,2007-11-15T00:00:00.000Z,CHURCHES,17666078,-96.8620331,32.9088716,CHRISTIAN,EPIS,NOT AVAILABLE,NOT AVAILABLE,Y,N
12648,10440670,THE EPISCOPAL CHURCH OF SAINT THOMAS THE APOSTLE,DALLAS,TX,75209,5314,DALLAS,48113,2007-11-07T00:00:00.000Z,ALT REF,2007-11-07T00:00:00.000Z,CHURCHES,135365694,-96.8221401,32.8376397,CHRISTIAN,EPIS,NOT AVAILABLE,NOT AVAILABLE,Y,N
12649,10440671,CHRIST EPISCOPAL CHURCH,DALLAS,TX,75208,4720,DALLAS,48113,2007-11-07T00:00:00.000Z,ALT REF,2007-11-07T00:00:00.000Z,CHURCHES,17744055,-96.8318037,32.7448298,CHRISTIAN,EPIS,NOT AVAILABLE,NOT AVAILABLE,Y,N
12650,10440675,SAINT GEORGE'S EPISCOPAL CHURCH,DALLAS,TX,75224,2005,DALLAS,48113,2007-11-14T00:00:00.000Z,ALT REF,2007-11-14T00:00:00.000Z,CHURCHES,17746122,-96.8232239,32.7269461,CHRISTIAN,EPIS,NOT AVAILABLE,NOT AVAILABLE,Y,N
12651,10440676,SAINT FRANCIS EPISCOPAL CHURCH,DALLAS,TX,75229,6140,DALLAS,48113,2007-11-14T00:00:00.000Z,ALT REF,2007-11-14T00:00:00.000Z,CHURCHES,17668476,-96.8515461,32.879752,CHRISTIAN,EPIS,NOT AVAILABLE,NOT AVAILABLE,Y,N
12652,10440678,THE EPISCOPAL CHURCH OF THE TRANSFIGURATION,DALLAS,TX,75254,8622,DALLAS,48113,2007-11-08T00:00:00.000Z,ALT REF,2007-11-08T00:00:00.000Z,CHURCHES,17663643,-96.7875398,32.9411137,CHRISTIAN,EPIS,NOT AVAILABLE,NOT AVAILABLE,Y,N
12653,10440680,SAINT MICHAEL AND ALL ANGELS,DALLAS,TX,75225,6502,DALLAS,48113,2007-11-07T00:00:00.000Z,ALT REF,2007-11-07T00:00:00.000Z,CHURCHES,17634789,-96.8099322,32.8603584,CHRISTIAN,EPIS,NOT AVAILABLE,NOT AVAILABLE,Y,N
12698,10443373,ALL SAINTS CATHOLIC CHURCH,DALLAS,TX,75248,4046,DALLAS,48113,2007-08-31T00:00:00.000Z,ALT REF,2007-08-31T00:00:00.000Z,CHURCHES,17661814,-96.7919798,32.9631033,CHRISTIAN,NOT AVAILABLE,NOT AVAILABLE,NOT AVAILABLE,N,Y
12724,10453519,GREATER MOUNT PLEASANT BAPTIST CHURCH,DALLAS,TX,75203,3626,DALLAS,48113,2008-03-05T00:00:00.000Z,ALT REF,2008-03-05T00:00:00.000Z,CHURCHES,17744851,-96.8020404,32.7394647,CHRISTIAN,NBC,NOT AVAILABLE,NOT AVAILABLE,Y,N
12729,10461297,CRISTO REY PRESBYTERIAN CHURCH,DALLAS,TX,75234,NULL,DALLAS,48113,2008-03-05T00:00:00.000Z,ALT REF,2008-03-05T00:00:00.000Z,CHURCHES,17666078,-96.8610298,32.9089206,CHRISTIAN,PCA,NOT AVAILABLE,NOT AVAILABLE,Y,N
12730,10455420,SWEET HOME BAPTIST CHURCH,DALLAS,TX,75212,1833,DALLAS,48113,2008-03-05T00:00:00.000Z,ALT REF,2008-03-05T00:00:00.000Z,CHURCHES,17642479,-96.8475859,32.7890009,CHRISTIAN,NBC,NOT AVAILABLE,NOT AVAILABLE,Y,N
12731,10453062,SHEKINAH TABERNACLE BAPTIST CHURCH,DALLAS,TX,75224,2211,DALLAS,48113,2008-03-05T00:00:00.000Z,ALT REF,2008-03-05T00:00:00.000Z,CHURCHES,17746647,-96.8232089,32.7218034,CHRISTIAN,NBC,NOT AVAILABLE,NOT AVAILABLE,Y,N
12732,10452702,MUNGER AVENUE BAPTIST CHURCH,DALLAS,TX,75204,4263,DALLAS,48113,2008-03-05T00:00:00.000Z,ALT REF,2008-03-05T00:00:00.000Z,CHURCHES,17641014,-96.7866671,32.8007678,CHRISTIAN,NBC,NOT AVAILABLE,NOT AVAILABLE,Y,N
12733,10455227,DAVIDS CHAPEL MISSIONARY BAPTIST CHURCH,DALLAS,TX,75232,1058,DALLAS,48113,2008-03-05T00:00:00.000Z,ALT REF,2008-03-05T00:00:00.000Z,CHURCHES,17749798,-96.8585877,32.6890116,CHRISTIAN,NBC,NOT AVAILABLE,NOT AVAILABLE,Y,N
12738,10459237,WARREN CHAPEL AFRICAN METHODIST EPISCOPAL CHURCH,DALLAS,TX,75212,3853,DALLAS,48113,2008-03-11T00:00:00.000Z,ALT REF,2008-03-11T00:00:00.000Z,CHURCHES,17643694,-96.8461355,32.7803658,CHRISTIAN,AME,NOT AVAILABLE,NOT AVAILABLE,Y,N
12789,10432834,INSPIRING BODY OF CHRIST CHURCH,DALLAS,TX,75237,3302,DALLAS,48113,2007-09-13T00:00:00.000Z,ALT REF,2007-09-13T00:00:00.000Z,CHURCHES,17608384,-96.8870921,32.6499877,CHRISTIAN,NONDENOM,NOT AVAILABLE,NOT AVAILABLE,Y,N
12794,10443698,SAINT PETER THE APOSTLE CHURCH,DALLAS,TX,75204,2739,DALLAS,48113,2007-08-31T00:00:00.000Z,ALT REF,2007-09-04T00:00:00.000Z,CHURCHES,17641633,-96.7950192,32.7951922,CHRISTIAN,NOT AVAILABLE,NOT AVAILABLE,NOT AVAILABLE,N,Y
12881,10443687,HOLY TRINITY CATHOLIC CHURCH,DALLAS,TX,75219,4604,DALLAS,48113,2007-08-30T00:00:00.000Z,ALT REF,2007-08-30T00:00:00.000Z,CHURCHES,17639296,-96.8026937,32.8148999,CHRISTIAN,NOT AVAILABLE,NOT AVAILABLE,NOT AVAILABLE,N,Y
12901,10440668,SAINT LUKE'S CHURCH,DALLAS,TX,75230,3812,DALLAS,48113,2007-11-14T00:00:00.000Z,ALT REF,2007-11-14T00:00:00.000Z,CHURCHES,17761798,-96.8067876,32.895187,CHRISTIAN,EPIS,NOT AVAILABLE,NOT AVAILABLE,Y,N
12905,10440422,CHURCH OF THE HOLY CROSS,DALLAS,TX,75219,2930,DALLAS,48113,2007-11-14T00:00:00.000Z,ALT REF,2007-11-14T00:00:00.000Z,CHURCHES,17638654,-96.8073794,32.8204116,CHRISTIAN,EPIS,NOT AVAILABLE,NOT AVAILABLE,Y,N
12913,10443689,OUR LADY OF PERPETUAL HELP CATHOLIC CHURCH,DALLAS,TX,75235,3734,DALLAS,48113,2009-05-13T00:00:00.000Z,ALT REF,2009-05-13T00:00:00.000Z,CHURCHES,17637076,-96.8520414,32.835782,CHRISTIAN,NOT AVAILABLE,NOT AVAILABLE,NOT AVAILABLE,N,Y
12919,10441887,SAINT JUDE CHAPEL,DALLAS,TX,75201,4814,DALLAS,48113,2009-05-13T00:00:00.000Z,ALT REF,2009-05-13T00:00:00.000Z,CHURCHES,718171859,-96.7986358,32.7809977,CHRISTIAN,NOT AVAILABLE,NOT AVAILABLE,NOT AVAILABLE,N,Y
12924,10589504,EASTGATE BAPTIST CHURCH,DALLAS,TX,75232,3415,DALLAS,48113,2009-05-18T00:00:00.000Z,ALT REF,2009-05-18T00:00:00.000Z,CHURCHES,17751559,-96.8390271,32.6636273,CHRISTIAN,ABC,NOT AVAILABLE,NOT AVAILABLE,Y,N
12930,10683864,INSIGHT MEDITATION DALLAS,DALLAS,TX,75244,4310,DALLAS,48113,2009-05-19T00:00:00.000Z,ALT REF,2009-05-15T00:00:00.000Z,PLACES OF WORSHIP,724725972,-96.8384772,32.9340442,BUDDHIST,MEDITATION PRACTICE GROUP,NOT AVAILABLE,NOT AVAILABLE,N,N
12945,10460118,DALLAS SAMIL KOREAN PRESBYTERIAN CHURCH,DALLAS,TX,75229,7913,DALLAS,48113,2009-05-14T00:00:00.000Z,ALT REF,2009-05-14T00:00:00.000Z,CHURCHES,17689075,-96.890131,32.8856336,CHRISTIAN,PCA,NOT AVAILABLE,NOT AVAILABLE,Y,N
12954,10575969,SAINT MARK AFRICAN METHODIST EPISCOPAL ZION CHURCH,DALLAS,TX,75216,3407,DALLAS,48113,2009-05-12T00:00:00.000Z,ALT REF,2009-05-12T00:00:00.000Z,CHURCHES,25013941,-96.7840669,32.7176226,CHRISTIAN,AMEZ,NOT AVAILABLE,NOT AVAILABLE,Y,N
12970,10433697,PILGRIM REST MISSIONARY BAPTIST CHURCH,DALLAS,TX,75204,4217,DALLAS,48113,2009-05-26T00:00:00.000Z,ALT REF,2009-05-26T00:00:00.000Z,CHURCHES,17641216,-96.7877383,32.7986786,CHRISTIAN,SBC,1166,NOT AVAILABLE,Y,N
12971,10441917,SAN JUAN DIEGO CHURCH,DALLAS,TX,75229,5705,DALLAS,48113,2009-05-26T00:00:00.000Z,ALT REF,2009-05-26T00:00:00.000Z,CHURCHES,17689073,-96.8780469,32.8839191,CHRISTIAN,NOT AVAILABLE,NOT AVAILABLE,NOT AVAILABLE,N,Y
12982,10581122,ILLINOIS AVENUE BAPTIST CHURCH,DALLAS,TX,75216,5613,DALLAS,48113,2009-05-11T00:00:00.000Z,ALT REF,2009-05-11T00:00:00.000Z,CHURCHES,17748414,-96.8013735,32.7052696,CHRISTIAN,BAPT,NOT AVAILABLE,NOT AVAILABLE,Y,N
15050,10581124,FAITH CHURCH IN ACTION,DALLAS,TX,75217,1964,DALLAS,48113,2009-05-11T00:00:00.000Z,ALT REF,2009-05-11T00:00:00.000Z,CHURCHES,17733131,-96.6750503,32.745355,CHRISTIAN,NOT AVAILABLE,NOT AVAILABLE,NOT AVAILABLE,Y,N
14153,10461320,NEW SAINT PETERS PRESBYTERIAN CHURCH,DALLAS,TX,75231,7608,DALLAS,48113,2008-03-05T00:00:00.000Z,ALT REF,2008-03-05T00:00:00.000Z,CHURCHES,17634701,-96.7515563,32.8598866,CHRISTIAN,PCA,NOT AVAILABLE,NOT AVAILABLE,Y,N
14156,10453978,GRIGGS CHAPEL MISSIONARY BAPTIST CHURCH,DALLAS,TX,75223,3411,DALLAS,48113,2008-03-05T00:00:00.000Z,ALT REF,2008-03-05T00:00:00.000Z,CHURCHES,17699610,-96.7478499,32.78201,CHRISTIAN,NBC,NOT AVAILABLE,NOT AVAILABLE,Y,N
14158,10452995,MOUNT TABOR BAPTIST CHURCH,DALLAS,TX,75241,4328,DALLAS,48113,2008-03-11T00:00:00.000Z,ALT REF,2008-03-11T00:00:00.000Z,CHURCHES,25013562,-96.7589287,32.6740624,CHRISTIAN,NBC,NOT AVAILABLE,NOT AVAILABLE,Y,N
14159,10454076,OLIVET MISSIONARY BAPTIST CHURCH,DALLAS,TX,75215,2950,DALLAS,48113,2008-03-07T00:00:00.000Z,ALT REF,2008-03-07T00:00:00.000Z,CHURCHES,17645539,-96.7660419,32.765356,CHRISTIAN,NBC,NOT AVAILABLE,NOT AVAILABLE,Y,N
14161,10452707,TRUE LEE MISSIONARY BAPTIST CHURCH,DALLAS,TX,75210,2204,DALLAS,48113,2008-03-11T00:00:00.000Z,ALT REF,2008-03-11T00:00:00.000Z,CHURCHES,135375484,-96.7446095,32.7675411,CHRISTIAN,NBC,NOT AVAILABLE,NOT AVAILABLE,Y,N
14162,10453083,SALEM INSTITUTIONAL BAPTIST CHURCH,DALLAS,TX,75215,4025,DALLAS,48113,2008-03-11T00:00:00.000Z,ALT REF,2008-03-11T00:00:00.000Z,CHURCHES,17646572,-96.7629522,32.7574855,CHRISTIAN,NBC,NOT AVAILABLE,NOT AVAILABLE,Y,N
14190,10577541,DALLAS BIBLE BAPTIST CHURCH,DALLAS,TX,75223,1818,DALLAS,48113,2009-05-18T00:00:00.000Z,ALT REF,2009-05-18T00:00:00.000Z,CHURCHES,17641269,-96.7544265,32.7987724,CHRISTIAN,BAPT,NOT AVAILABLE,NOT AVAILABLE,Y,N
14196,10437464,PARK CENTRAL BAPTIST CHURCH,DALLAS,TX,75251,1201,DALLAS,48113,2007-09-20T00:00:00.000Z,ALT REF,2007-09-20T00:00:00.000Z,CHURCHES,122925954,-96.7737866,32.9249757,CHRISTIAN,SBC,1332,NOT AVAILABLE,Y,N
14260,10448515,SAINT JOSEPH MISSIONARY CENTER,DALLAS,TX,75204,4829,DALLAS,48113,2007-08-31T00:00:00.000Z,ALT REF,2007-08-31T00:00:00.000Z,CHURCHES,17640487,-96.7753785,32.8046307,CHRISTIAN,NOT AVAILABLE,NOT AVAILABLE,NOT AVAILABLE,N,Y
14353,10443691,SAINT ANTHONY CATHOLIC CHURCH,DALLAS,TX,75215,3858,DALLAS,48113,2007-08-30T00:00:00.000Z,ALT REF,2007-08-30T00:00:00.000Z,CHURCHES,17645927,-96.7614374,32.7623619,CHRISTIAN,NOT AVAILABLE,NOT AVAILABLE,NOT AVAILABLE,N,Y
14356,10443699,SAINT THOMAS AQUINAS CATHOLIC CHURCH,DALLAS,TX,75214,3018,DALLAS,48113,2007-08-31T00:00:00.000Z,ALT REF,2007-08-31T00:00:00.000Z,CHURCHES,17637327,-96.7545383,32.832627,CHRISTIAN,NOT AVAILABLE,NOT AVAILABLE,NOT AVAILABLE,N,Y
14373,10432833,HIGHLAND OAKS CHURCH OF CHRIST,DALLAS,TX,75238,2331,DALLAS,48113,2007-10-10T00:00:00.000Z,ALT REF,2007-10-18T00:00:00.000Z,CHURCHES,17682407,-96.6955584,32.8791514,CHRISTIAN,COC,NOT AVAILABLE,NOT AVAILABLE,Y,N
14383,10434079,COLONIAL BAPTIST CHURCH,DALLAS,TX,75227,6118,DALLAS,48113,2007-11-14T00:00:00.000Z,ALT REF,2007-11-14T00:00:00.000Z,CHURCHES,17701852,-96.7100551,32.7637347,CHRISTIAN,SBC,1666,NOT AVAILABLE,Y,N
14427,10441793,SAINT PATRICK CATHOLIC CHURCH,DALLAS,TX,75238,2736,DALLAS,48113,2007-08-29T00:00:00.000Z,ALT REF,2007-08-29T00:00:00.000Z,CHURCHES,17682603,-96.7088066,32.878014,CHRISTIAN,NOT AVAILABLE,NOT AVAILABLE,NOT AVAILABLE,N,Y
14428,10440336,SAINT PETER'S ANGLICAN CHURCH,DALLAS,TX,75228,1825,DALLAS,48113,2007-11-07T00:00:00.000Z,ALT REF,2007-11-07T00:00:00.000Z,CHURCHES,17692249,-96.6532919,32.8515672,CHRISTIAN,EPIS,NOT AVAILABLE,NOT AVAILABLE,Y,N
14464,10577055,TRINITY BAPTIST CHURCH,DALLAS,TX,75215,4610,DALLAS,48113,2009-05-15T00:00:00.000Z,ALT REF,2009-05-15T00:00:00.000Z,CHURCHES,17647250,-96.7529412,32.7514415,CHRISTIAN,BAPT,NOT AVAILABLE,NOT AVAILABLE,Y,N
14474,10684216,DALLAS COMMUNITY OF MINDFUL LIVING,DALLAS,TX,75238,4126,DALLAS,48113,2009-05-08T00:00:00.000Z,ALT REF,2009-05-08T00:00:00.000Z,PLACES OF WORSHIP,17690313,-96.7253557,32.8665074,BUDDHIST,ZEN BUDDHIST MASTER THICH NHAT HAHN,NOT AVAILABLE,NOT AVAILABLE,N,N
14476,10432829,SAINT LUKE COMMUNITY UNITED METHODIST CHURCH,DALLAS,TX,75223,NULL,DALLAS,48113,2007-09-10T00:00:00.000Z,ALT REF,2007-09-10T00:00:00.000Z,CHURCHES,17726543,-96.7438365,32.7907826,CHRISTIAN,UMC,NOT AVAILABLE,NOT AVAILABLE,Y,N
14485,10677856,NORTH TEXAS HINDU MANDIR,DALLAS,TX,75218,1031,DALLAS,48113,2009-05-11T00:00:00.000Z,ALT REF,2009-05-11T00:00:00.000Z,"TEMPLES, RELIGIOUS",17691011,-96.7055089,32.8607072,HINDU,NOT AVAILABLE,NOT AVAILABLE,NOT AVAILABLE,N,N
14522,10581121,INDEPENDENT MISSIONARY BAPTIST CHURCH,DALLAS,TX,75215,5407,DALLAS,48113,2009-05-11T00:00:00.000Z,ALT REF,2009-05-11T00:00:00.000Z,CHURCHES,17745279,-96.7532856,32.7355205,CHRISTIAN,BAPT,NOT AVAILABLE,NOT AVAILABLE,Y,N
14523,10581119,NEW INDEPENDENT BAPTIST CHURCH,DALLAS,TX,75216,3604,DALLAS,48113,2009-05-11T00:00:00.000Z,ALT REF,2009-05-11T00:00:00.000Z,CHURCHES,135362787,-96.7709148,32.715538,CHRISTIAN,BAPT,NOT AVAILABLE,NOT AVAILABLE,Y,N
14524,10581123,EBENEZER MISSIONARY BAPTIST CHURCH,DALLAS,TX,75227,6839,DALLAS,48113,2009-05-11T00:00:00.000Z,ALT REF,2009-05-11T00:00:00.000Z,CHURCHES,17702287,-96.6839766,32.7595244,CHRISTIAN,BAPT,NOT AVAILABLE,NOT AVAILABLE,Y,N
14556,10577453,PLEASANT VALLEY BAPTIST CHURCH,DALLAS,TX,75253,3504,DALLAS,48113,2009-06-29T00:00:00.000Z,ALT REF,2009-06-29T00:00:00.000Z,CHURCHES,17736338,-96.6416777,32.6729789,CHRISTIAN,BAPT,NOT AVAILABLE,NOT AVAILABLE,Y,N
14558,10577340,GRACE BAPTIST CHURCH,DALLAS,TX,75217,7533,DALLAS,48113,2009-05-18T00:00:00.000Z,ALT REF,2009-05-18T00:00:00.000Z,CHURCHES,17735691,-96.6653393,32.6975315,CHRISTIAN,BAPT,NOT AVAILABLE,NOT AVAILABLE,Y,N
14570,10762548,BUDDHIST CENTER OF DALLAS,DALLAS,TX,75243,4021,DALLAS,48113,2009-05-08T00:00:00.000Z,ALT REF,2009-05-08T00:00:00.000Z,PLACES OF WORSHIP,17666305,-96.7605104,32.9065941,BUDDHIST,NOT AVAILABLE,NOT AVAILABLE,NOT AVAILABLE,N,N
14583,10428257,AARON FAMILY JEWISH COMMUNITY CENTER OF DALLAS,DALLAS,TX,75230,3352,DALLAS,48113,2007-08-07T00:00:00.000Z,ALT REF,2007-08-07T00:00:00.000Z,SYNAGOGUES,17666630,-96.77202,32.9012725,JUDAIC,NOT AVAILABLE,NOT AVAILABLE,NOT AVAILABLE,N,N
14586,10430229,TALMIDEY YESHUA,DALLAS,TX,75254,2823,DALLAS,48113,2007-08-09T00:00:00.000Z,ALT REF,2007-08-10T00:00:00.000Z,SYNAGOGUES,17663448,-96.7741184,32.9433367,JUDAIC,NOT AVAILABLE,NOT AVAILABLE,NOT AVAILABLE,N,N
14600,10431254,MUHAMMAD MOSQUE NUMBER 48,DALLAS,TX,75215,2304,DALLAS,48113,2007-10-09T00:00:00.000Z,ALT REF,2007-10-09T00:00:00.000Z,"MOSQUES, RELIGIOUS",17645559,-96.7727791,32.7657804,MUSLIM,NOT AVAILABLE,NOT AVAILABLE,NOT AVAILABLE,N,N
14614,10431390,MASJID ANSAR ALLAH,DALLAS,TX,75210,2711,DALLAS,48113,2007-10-09T00:00:00.000Z,ALT REF,2007-10-09T00:00:00.000Z,"MOSQUES, RELIGIOUS",17701850,-96.7480106,32.7643767,MUSLIM,NOT AVAILABLE,NOT AVAILABLE,NOT AVAILABLE,N,N
14670,10461315,LAKEWOOD PRESBYTERIAN CHURCH,DALLAS,TX,75214,3846,DALLAS,48113,2009-05-14T00:00:00.000Z,ALT REF,2009-05-14T00:00:00.000Z,CHURCHES,17696483,-96.7366391,32.8144461,CHRISTIAN,PCA,NOT AVAILABLE,NOT AVAILABLE,Y,N
14687,10589506,NEW HOPE BAPTIST CHURCH,DALLAS,TX,75215,4950,DALLAS,48113,2009-05-18T00:00:00.000Z,ALT REF,2009-05-18T00:00:00.000Z,CHURCHES,718124662,-96.758895,32.7481832,CHRISTIAN,ABC,NOT AVAILABLE,NOT AVAILABLE,Y,N
14688,10761877,SOUTHERN HILLS CHURCH OF CHRIST,DALLAS,TX,75217,4810,DALLAS,48113,2009-05-18T00:00:00.000Z,ALT REF,2009-05-18T00:00:00.000Z,CHURCHES,17734423,-96.7048525,32.7261864,CHRISTIAN,COC,400,NOT AVAILABLE,Y,N
14689,10431439,ALLAH'S HOUSE OF ISLAM,DALLAS,TX,75216,4151,DALLAS,48113,2009-05-11T00:00:00.000Z,ALT REF,2009-05-11T00:00:00.000Z,"MOSQUES, RELIGIOUS",17734969,-96.7434226,32.7157592,MUSLIM,NOT AVAILABLE,NOT AVAILABLE,NOT AVAILABLE,N,N
14697,10678045,SRI SRI RADHA KALACHANDJIS HARE KRISHNA TEMPLE,DALLAS,TX,75223,1851,DALLAS,48113,2009-05-08T00:00:00.000Z,ALT REF,2009-05-08T00:00:00.000Z,"TEMPLES, RELIGIOUS",17641766,-96.7497951,32.7941824,HINDU,NOT AVAILABLE,NOT AVAILABLE,NOT AVAILABLE,N,N
14698,10430445,MASJID ANSAR-ALLAH,DALLAS,TX,75215,3057,DALLAS,48113,2009-05-12T00:00:00.000Z,ALT REF,2009-05-12T00:00:00.000Z,"MOSQUES, RELIGIOUS",17645128,-96.7596088,32.7685872,MUSLIM,NOT AVAILABLE,NOT AVAILABLE,NOT AVAILABLE,N,N
14701,10585333,PENIEL BAPTIST CHURCH,DALLAS,TX,75216,4925,DALLAS,48113,2009-05-15T00:00:00.000Z,ALT REF,2009-05-15T00:00:00.000Z,CHURCHES,17747887,-96.7649001,32.7113517,CHRISTIAN,ABC,NOT AVAILABLE,NOT AVAILABLE,Y,N
14702,10448514,SAINT PETER VIETNAMESE CATHOLIC CHURCH,DALLAS,TX,75218,2920,DALLAS,48113,2009-05-13T00:00:00.000Z,ALT REF,2009-05-13T00:00:00.000Z,CHURCHES,722627616,-96.6952356,32.8403465,CHRISTIAN,NOT AVAILABLE,NOT AVAILABLE,NOT AVAILABLE,N,Y
14703,10443374,HOLY CROSS CATHOLIC CHURCH,DALLAS,TX,75241,1601,DALLAS,48113,2009-05-13T00:00:00.000Z,ALT REF,2009-05-13T00:00:00.000Z,CHURCHES,718106914,-96.7705851,32.6934607,CHRISTIAN,NOT AVAILABLE,NOT AVAILABLE,NOT AVAILABLE,N,Y
14704,10460059,NEW COVENANT PRESBYTERIAN CHURCH,DALLAS,TX,75228,4220,DALLAS,48113,2009-05-14T00:00:00.000Z,ALT REF,2009-05-14T00:00:00.000Z,CHURCHES,17696056,-96.6907086,32.8178979,CHRISTIAN,PCA,NOT AVAILABLE,NOT AVAILABLE,Y,N
14705,10443375,SAINT BERNARD OF CLAIRVAUX CATHOLIC CHURCH,DALLAS,TX,75218,4103,DALLAS,48113,2009-05-18T00:00:00.000Z,ALT REF,2009-05-18T00:00:00.000Z,CHURCHES,17695165,-96.7050581,32.8259548,CHRISTIAN,NOT AVAILABLE,NOT AVAILABLE,NOT AVAILABLE,N,Y
14706,10684695,MARIA KANNON ZEN CENTER,DALLAS,TX,75227,3020,DALLAS,48113,2009-05-18T00:00:00.000Z,ALT REF,2009-05-18T00:00:00.000Z,PLACES OF WORSHIP,17699831,-96.7197127,32.7795842,BUDDHIST,"MAHAYANA, SANBO KYODAN, ZEN",NOT AVAILABLE,NOT AVAILABLE,N,N
14712,10442600,SAINT PHILIP THE APOSTLE CATHOLIC CHURCH,DALLAS,TX,75227,4302,DALLAS,48113,2009-05-19T00:00:00.000Z,ALT REF,2009-05-19T00:00:00.000Z,CHURCHES,122933154,-96.6802142,32.7698931,CHRISTIAN,NOT AVAILABLE,NOT AVAILABLE,NOT AVAILABLE,N,Y
14725,10443692,SAINT AUGUSTINE CATHOLIC CHURCH,DALLAS,TX,75217,4014,DALLAS,48113,2009-05-19T00:00:00.000Z,ALT REF,2009-05-19T00:00:00.000Z,CHURCHES,17734145,-96.6564226,32.7306812,CHRISTIAN,NOT AVAILABLE,NOT AVAILABLE,NOT AVAILABLE,N,Y
14733,10762800,HAMILTON PARK UNITED METHODIST CHURCH,DALLAS,TX,75243,3656,DALLAS,48113,2009-05-22T00:00:00.000Z,ALT REF,2009-05-22T00:00:00.000Z,CHURCHES,17665846,-96.7636343,32.9108581,CHRISTIAN,UMC,NOT AVAILABLE,NOT AVAILABLE,Y,N
14735,10443694,SAINT EDWARDS CHURCH,DALLAS,TX,75226,1221,DALLAS,48113,2009-05-19T00:00:00.000Z,ALT REF,2009-05-19T00:00:00.000Z,CHURCHES,17642446,-96.772845,32.7888601,CHRISTIAN,NOT AVAILABLE,NOT AVAILABLE,NOT AVAILABLE,N,Y
14878,10762743,LAKE HIGHLANDS UNITED METHODIST CHURCH,DALLAS,TX,75238,3655,DALLAS,48113,2009-05-14T00:00:00.000Z,ALT REF,2009-05-14T00:00:00.000Z,CHURCHES,135355557,-96.7006594,32.871369,CHRISTIAN,UMC,NOT AVAILABLE,NOT AVAILABLE,Y,N
19558,10434291,PUMPKINVINE BAPTIST CHURCH,DALLAS,GA,30157,4571,PAULDING,13223,2007-09-19T00:00:00.000Z,ALT REF,2007-09-19T00:00:00.000Z,CHURCHES,123760023,-84.8825766,33.8946084,CHRISTIAN,SBC,823,NOT AVAILABLE,Y,N
19640,10437826,HOPE CHURCH,DALLAS,GA,30157,1177,PAULDING,13223,2007-09-24T00:00:00.000Z,ALT REF,2007-10-01T00:00:00.000Z,CHURCHES,123768525,-84.7583427,33.9207734,CHRISTIAN,UMC,NOT AVAILABLE,NOT AVAILABLE,Y,N
19710,10578005,MARTINVILLE BAPTIST CHURCH,DALLAS,GA,30157,603,PAULDING,13223,2009-03-24T00:00:00.000Z,ALT REF,2009-03-24T00:00:00.000Z,CHURCHES,105354970,-84.8706993,33.8702707,CHRISTIAN,BAPT,NOT AVAILABLE,NOT AVAILABLE,Y,N
19786,10436963,NEW CANAAN BAPTIST CHURCH,DALLAS,GA,30132,5733,PAULDING,13223,2007-09-19T00:00:00.000Z,ALT REF,2007-09-19T00:00:00.000Z,CHURCHES,123768202,-84.7896261,33.9108691,CHRISTIAN,SBC,900,NOT AVAILABLE,Y,N
19855,10458267,SAINT PAUL AFRICAN METHODIST EPISCOPAL CHURCH,DALLAS,GA,30132,NULL,PAULDING,13223,2008-03-21T00:00:00.000Z,ALT REF,2008-03-21T00:00:00.000Z,CHURCHES,104636417,-84.8398349,33.9195119,CHRISTIAN,AME,NOT AVAILABLE,NOT AVAILABLE,Y,N
19879,10437367,FIRST BAPTIST CHURCH OF DALLAS,DALLAS,GA,30132,4272,PAULDING,13223,2007-09-19T00:00:00.000Z,ALT REF,2007-09-19T00:00:00.000Z,CHURCHES,104636417,-84.8405073,33.9213317,CHRISTIAN,SBC,876,NOT AVAILABLE,Y,N
19890,10432371,WEST RIDGE CHURCH,DALLAS,GA,30157,7336,PAULDING,13223,2007-09-18T00:00:00.000Z,ALT REF,2007-09-18T00:00:00.000Z,CHURCHES,105357346,-84.7396208,33.9388694,CHRISTIAN,SBC,NOT AVAILABLE,NOT AVAILABLE,Y,N
19901,10584186,BIG OAK BAPTIST BAPTIST CHURCH,DALLAS,GA,30157,504,PAULDING,13223,2009-03-24T00:00:00.000Z,ALT REF,2009-03-24T00:00:00.000Z,CHURCHES,118788243,-84.8453194,33.9037718,CHRISTIAN,BAPT,NOT AVAILABLE,NOT AVAILABLE,Y,N
20056,10578637,WHITE OAK SPRINGS BAPTIST CHURCH,DALLAS,GA,30157,6016,PAULDING,13223,2009-03-24T00:00:00.000Z,ALT REF,2009-03-24T00:00:00.000Z,CHURCHES,105314202,-84.9185278,33.8582736,CHRISTIAN,BAPT,NOT AVAILABLE,NOT AVAILABLE,Y,N
20068,10460540,GRACE COVENANT CHURCH,DALLAS,GA,30132,7448,PAULDING,13223,2009-03-24T00:00:00.000Z,ALT REF,2009-03-24T00:00:00.000Z,CHURCHES,105354265,-84.8052822,33.9106696,CHRISTIAN,PCA,NOT AVAILABLE,NOT AVAILABLE,Y,N
20069,10436174,FORTIFIED HILLS BAPTIST CHURCH,DALLAS,GA,30157,4213,PAULDING,13223,2009-03-24T00:00:00.000Z,ALT REF,2009-03-24T00:00:00.000Z,CHURCHES,105357668,-84.7253141,33.9387579,CHRISTIAN,SBC,2367,NOT AVAILABLE,Y,N
32001,10453123,FIRST BAPTIST CHURCH,DALLAS,NC,28034,2137,GASTON,37071,2008-02-20T00:00:00.000Z,ALT REF,2008-02-20T00:00:00.000Z,CHURCHES,28210513,-81.1720127,35.3117921,CHRISTIAN,NBC,NOT AVAILABLE,NOT AVAILABLE,Y,N
32245,10455577,FANCY HILL BAPTIST CHURCH,DALLAS,NC,28034,7529,GASTON,37071,2008-02-20T00:00:00.000Z,ALT REF,2008-02-20T00:00:00.000Z,CHURCHES,40506013,-81.1774464,35.393025,CHRISTIAN,NBC,NOT AVAILABLE,NOT AVAILABLE,Y,N
32626,10582704,MARANATHA BAPTIST CHURCH,DALLAS,NC,28034,9395,GASTON,37071,2009-04-23T00:00:00.000Z,ALT REF,2009-04-23T00:00:00.000Z,CHURCHES,28210326,-81.2080719,35.3158387,CHRISTIAN,BAPT,NOT AVAILABLE,NOT AVAILABLE,Y,N
32634,10575220,HUMPHREYS CHAPEL AFRICAN METHODIST EPISCOPAL ZION CHURCH,DALLAS,NC,28034,1920,GASTON,37071,2009-04-23T00:00:00.000Z,ALT REF,2009-04-23T00:00:00.000Z,CHURCHES,28209923,-81.1829945,35.3155101,CHRISTIAN,AMEZ,NOT AVAILABLE,NOT AVAILABLE,Y,N
32646,10577073,INDEPENDENT BAPTIST TABERNACLE,DALLAS,NC,28034,9732,GASTON,37071,2009-04-23T00:00:00.000Z,ALT REF,2009-04-23T00:00:00.000Z,CHURCHES,28245023,-81.2158039,35.319809,CHRISTIAN,BAPT,NOT AVAILABLE,NOT AVAILABLE,Y,N
32688,10579946,VICTORY HILL BAPTIST CHURCH,DALLAS,NC,28034,7693,GASTON,37071,2009-04-23T00:00:00.000Z,ALT REF,2009-04-23T00:00:00.000Z,CHURCHES,28247241,-81.1613479,35.3634844,CHRISTIAN,BAPT,NOT AVAILABLE,NOT AVAILABLE,Y,N
33054,10579385,WELCOME MISSIONARY BAPTIST CHURCH,DALLAS,NC,28034,1706,GASTON,37071,2009-05-01T00:00:00.000Z,ALT REF,2009-05-01T00:00:00.000Z,CHURCHES,28247738,-81.1703878,35.3182137,CHRISTIAN,BAPT,NOT AVAILABLE,NOT AVAILABLE,Y,N