OBJECTID,ID,NAME,CITY,STATE,ZIP,ZIPP4,COUNTY,FIPS,CONTDATE,CONTHOW,GEODATE,NAICSDESCR,GEOLINKID,X,Y,SUBTYPE,DENOM,MEMBERS,LOC_TYPE,PROT,CATH
8185,10445835,HOLY FAMILY CATHOLIC CHURCH,DENVER,CO,80212,2435,DENVER,8031,2008-11-19T00:00:00.000Z,ALT REF,2008-11-19T00:00:00.000Z,CHURCHES,20742413,-105.0448639,39.7763039,CHRISTIAN,NOT AVAILABLE,NOT AVAILABLE,NOT AVAILABLE,N,Y
8202,10428049,TEMPLE SINAI,DENVER,CO,80237,1018,DENVER,8031,2007-07-20T00:00:00.000Z,PHONE,2007-07-20T00:00:00.000Z,SYNAGOGUES,20718164,-104.9264519,39.6527387,JUDAIC,REFORM,1116,NOT AVAILABLE,N,N
8205,10430308,ISLAMIC CENTER OF AHL-UL-BAIT,DENVER,CO,80219,1935,DENVER,8031,2007-07-17T00:00:00.000Z,PHONE,2007-07-17T00:00:00.000Z,"MOSQUES, RELIGIOUS",20725208,-105.0352737,39.7130289,MUSLIM,NOT AVAILABLE,NOT AVAILABLE,NOT AVAILABLE,N,N
8214,10427719,CONGREGATION EMANUEL,DENVER,CO,80220,5804,DENVER,8031,2007-08-08T00:00:00.000Z,ALT REF,2007-08-08T00:00:00.000Z,SYNAGOGUES,20712522,-104.9256051,39.7170363,JUDAIC,REFORM,1970,NOT AVAILABLE,N,N
8230,10445757,GUARDIAN ANGELS CHURCH,DENVER,CO,80221,1701,ADAMS,8001,2008-11-17T00:00:00.000Z,ALT REF,2008-11-17T00:00:00.000Z,CHURCHES,20748821,-105.0088613,39.7914138,CHRISTIAN,NOT AVAILABLE,NOT AVAILABLE,NOT AVAILABLE,N,Y
8231,10584552,NORTH FEDERAL BAPTIST CHURCH,DENVER,CO,80221,2102,ADAMS,8001,2008-11-17T00:00:00.000Z,ALT REF,2008-11-17T00:00:00.000Z,CHURCHES,129590552,-105.0263974,39.8143128,CHRISTIAN,BAPT,NOT AVAILABLE,NOT AVAILABLE,Y,N
8232,10448784,OUR LADY OF VISITATION,DENVER,CO,80221,2201,ADAMS,8001,2008-11-17T00:00:00.000Z,ALT REF,2008-11-17T00:00:00.000Z,CHURCHES,20744955,-105.0181004,39.8159755,CHRISTIAN,NOT AVAILABLE,NOT AVAILABLE,NOT AVAILABLE,N,Y
8241,10430665,COLORADO MUSLIM SOCIETY,DENVER,CO,80231,3460,ARAPAHOE,8005,2008-11-17T00:00:00.000Z,ALT REF,2008-11-17T00:00:00.000Z,"MOSQUES, RELIGIOUS",20764929,-104.8769034,39.6789092,MUSLIM,NOT AVAILABLE,NOT AVAILABLE,NOT AVAILABLE,N,N
8246,10445754,OUR LADY OF THE ASSUMPTION CHURCH,DENVER,CO,80229,6102,ADAMS,8001,2008-11-17T00:00:00.000Z,ALT REF,2008-11-17T00:00:00.000Z,CHURCHES,20734854,-104.9580221,39.8384199,CHRISTIAN,NOT AVAILABLE,NOT AVAILABLE,NOT AVAILABLE,N,Y
8299,10432246,HERITAGE CHRISTIAN CENTER,DENVER,CO,80247,3080,ARAPAHOE,8005,2007-09-10T00:00:00.000Z,ALT REF,2007-09-10T00:00:00.000Z,CHURCHES,20710710,-104.8787402,39.6906126,CHRISTIAN,NONDENOM,NOT AVAILABLE,NOT AVAILABLE,Y,N
8357,10577287,MILE HIGH BAPTIST CHURCH,DENVER,CO,80227,4904,JEFFERSON,8059,2008-11-18T00:00:00.000Z,ALT REF,2008-11-18T00:00:00.000Z,CHURCHES,20729323,-105.0875807,39.6523315,CHRISTIAN,BAPT,NOT AVAILABLE,NOT AVAILABLE,Y,N
8361,10586119,RISING STAR MISSIONARY BAPTIST CHURCH,DENVER,CO,80247,3047,ARAPAHOE,8005,2008-11-18T00:00:00.000Z,ALT REF,2008-11-18T00:00:00.000Z,CHURCHES,20770523,-104.8747789,39.6886524,CHRISTIAN,ABC,NOT AVAILABLE,NOT AVAILABLE,Y,N
8420,10577301,VILLAGE EAST BAPTIST CHURCH,DENVER,CO,80012,3200,ARAPAHOE,8005,2008-12-02T00:00:00.000Z,ALT REF,2008-12-02T00:00:00.000Z,CHURCHES,20770703,-104.8559961,39.6961965,CHRISTIAN,BAPT,NOT AVAILABLE,NOT AVAILABLE,Y,N
8455,10684354,EYES OF COMPASSION SANGHA,DENVER,CO,80210,NULL,DENVER,8031,2008-12-03T00:00:00.000Z,ALT REF,2008-12-03T00:00:00.000Z,PLACES OF WORSHIP,20714751,-104.9561497,39.6750199,BUDDHIST,NOT AVAILABLE,NOT AVAILABLE,NOT AVAILABLE,N,N
8466,10438511,THE CHURCH OF JESUS CHRIST OF LATTER DAY SAINTS - DENVER 1ST (SPANISH) WARD,DENVER,CO,80223,1921,DENVER,8031,2007-10-15T00:00:00.000Z,ALT REF,2007-10-15T00:00:00.000Z,CHURCHES,20722434,-105.0161099,39.7081959,CHRISTIAN,LDS,NOT AVAILABLE,NOT AVAILABLE,Y,N
8467,10438545,THE CHURCH OF JESUS CHRIST OF LATTER DAY SAINTS - LAREDO (YOUNG SINGLE ADULT) BRANCH,DENVER,CO,80220,5224,DENVER,8031,2007-10-15T00:00:00.000Z,ALT REF,2007-10-15T00:00:00.000Z,CHURCHES,20712017,-104.9233226,39.7277643,CHRISTIAN,LDS,NOT AVAILABLE,NOT AVAILABLE,Y,N
8472,10438686,THE CHURCH OF JESUS CHRIST OF LATTER DAY SAINTS - CAPITOL HILL WARD,DENVER,CO,80203,2937,DENVER,8031,2007-10-15T00:00:00.000Z,ALT REF,2007-10-15T00:00:00.000Z,CHURCHES,20720968,-104.9832388,39.7297546,CHRISTIAN,LDS,NOT AVAILABLE,NOT AVAILABLE,Y,N
8476,10438844,THE CHURCH OF JESUS CHRIST OF LATTER DAY SAINTS - HEATHER RIDGE WARD,DENVER,CO,80220,5224,DENVER,8031,2007-10-15T00:00:00.000Z,ALT REF,2007-10-15T00:00:00.000Z,CHURCHES,20712017,-104.9233179,39.7277628,CHRISTIAN,LDS,NOT AVAILABLE,NOT AVAILABLE,Y,N
8485,10439066,THE CHURCH OF JESUS CHRIST OF LATTER DAY SAINTS - CRESTMOOR WARD,DENVER,CO,80220,5224,DENVER,8031,2007-10-15T00:00:00.000Z,ALT REF,2007-10-15T00:00:00.000Z,CHURCHES,20712017,-104.9233228,39.7277655,CHRISTIAN,LDS,NOT AVAILABLE,NOT AVAILABLE,Y,N
8494,10439358,THE CHURCH OF JESUS CHRIST OF LATTER DAY SAINTS - WASHINGTON PARK WARD,DENVER,CO,80203,2937,DENVER,8031,2007-10-15T00:00:00.000Z,ALT REF,2007-10-15T00:00:00.000Z,CHURCHES,20720968,-104.9832444,39.7297554,CHRISTIAN,LDS,NOT AVAILABLE,NOT AVAILABLE,Y,N
8495,10439362,THE CHURCH OF JESUS CHRIST OF LATTER DAY SAINTS - MAPLEWOOD (YOUNG SINGLE ADULT) WARD,DENVER,CO,80222,7119,DENVER,8031,2007-10-15T00:00:00.000Z,ALT REF,2007-10-15T00:00:00.000Z,CHURCHES,20718559,-104.9122167,39.666946,CHRISTIAN,LDS,NOT AVAILABLE,NOT AVAILABLE,Y,N
8498,10439573,THE CHURCH OF JESUS CHRIST OF LATTER DAY SAINTS - UNIVERSITY HILLS WARD,DENVER,CO,80222,7119,DENVER,8031,2007-10-15T00:00:00.000Z,ALT REF,2007-10-15T00:00:00.000Z,CHURCHES,20718559,-104.9122167,39.666946,CHRISTIAN,LDS,NOT AVAILABLE,NOT AVAILABLE,Y,N
8515,10440057,THE CHURCH OF JESUS CHRIST OF LATTER DAY SAINTS - BIBLE PARK WARD,DENVER,CO,80222,7119,DENVER,8031,2007-10-15T00:00:00.000Z,ALT REF,2007-10-15T00:00:00.000Z,CHURCHES,20718559,-104.9122178,39.6669484,CHRISTIAN,LDS,NOT AVAILABLE,NOT AVAILABLE,Y,N
8524,10440322,SUDANESE COMMUNITY CHURCH,DENVER,CO,80203,2008,DENVER,8031,2007-11-06T00:00:00.000Z,ALT REF,2007-12-04T00:00:00.000Z,CHURCHES,20720876,-104.978128,39.737906,CHRISTIAN,EPIS,NOT AVAILABLE,NOT AVAILABLE,Y,N
8529,10440409,ALL SAINTS EPISCOPAL CHURCH,DENVER,CO,80212,2039,DENVER,8031,2007-11-06T00:00:00.000Z,ALT REF,2007-11-06T00:00:00.000Z,CHURCHES,20742662,-105.0501429,39.7672681,CHRISTIAN,EPIS,NOT AVAILABLE,NOT AVAILABLE,Y,N
8542,10440619,SAINT JOHN'S CATHEDRAL,DENVER,CO,80203,2008,DENVER,8031,2007-11-06T00:00:00.000Z,ALT REF,2007-12-04T00:00:00.000Z,CHURCHES,20720876,-104.9781273,39.7379095,CHRISTIAN,EPIS,NOT AVAILABLE,NOT AVAILABLE,Y,N
8543,10440620,THE CHURCH OF THE HOLY REDEEMER,DENVER,CO,80205,5526,DENVER,8031,2007-11-06T00:00:00.000Z,ALT REF,2007-11-06T00:00:00.000Z,CHURCHES,20737127,-104.9654843,39.7542285,CHRISTIAN,EPIS,NOT AVAILABLE,NOT AVAILABLE,Y,N
8544,10440621,SAINT BEDE EPISCOPAL CHAPEL,DENVER,CO,80210,4707,DENVER,8031,2007-11-06T00:00:00.000Z,ALT REF,2007-11-06T00:00:00.000Z,CHURCHES,20718938,-104.9596286,39.6762963,CHRISTIAN,EPIS,NOT AVAILABLE,NOT AVAILABLE,Y,N
8545,10440623,SAINT LUKE'S EPISCOPAL CHURCH,DENVER,CO,80220,3023,DENVER,8031,2007-11-06T00:00:00.000Z,ALT REF,2007-11-06T00:00:00.000Z,CHURCHES,20711896,-104.9042022,39.7369826,CHRISTIAN,EPIS,NOT AVAILABLE,NOT AVAILABLE,Y,N
8550,10448785,SAINT ELIZABETH OF HUNGARY ROMAN CATHOLIC CHURCH,DENVER,CO,80204,NULL,DENVER,8031,2008-11-17T00:00:00.000Z,ALT REF,2008-11-17T00:00:00.000Z,CHURCHES,20721547,-105.0020833,39.742788,CHRISTIAN,NOT AVAILABLE,NOT AVAILABLE,NOT AVAILABLE,N,Y
8551,10445767,CHURCH OF THE RISEN CHRIST ROMAN CATHOLIC CHURCH,DENVER,CO,80222,7102,DENVER,8031,2008-11-19T00:00:00.000Z,ALT REF,2008-11-19T00:00:00.000Z,CHURCHES,20718566,-104.9122492,39.6615172,CHRISTIAN,NOT AVAILABLE,NOT AVAILABLE,NOT AVAILABLE,N,Y
8552,10585128,HARVEY PARK BAPTIST CHURCH,DENVER,CO,80219,5209,DENVER,8031,2008-11-19T00:00:00.000Z,ALT REF,2008-11-19T00:00:00.000Z,CHURCHES,20729927,-105.038087,39.6786613,CHRISTIAN,ABC,NOT AVAILABLE,NOT AVAILABLE,Y,N
8559,10445756,CHURCH OF THE GOOD SHEPHERD,DENVER,CO,80206,3809,DENVER,8031,2008-11-19T00:00:00.000Z,ALT REF,2008-11-19T00:00:00.000Z,CHURCHES,20720498,-104.9564328,39.7267938,CHRISTIAN,NOT AVAILABLE,NOT AVAILABLE,NOT AVAILABLE,N,Y
8560,10678107,RADHA-KRISHNA TEMPLE - INTERNATIONAL SOCIETY OF KRISHNA CONSCIOUSNESS,DENVER,CO,80220,2436,DENVER,8031,2008-12-02T00:00:00.000Z,ALT REF,2008-12-02T00:00:00.000Z,"TEMPLES, RELIGIOUS",129590411,-104.9334709,39.738507,HINDU,NOT AVAILABLE,NOT AVAILABLE,NOT AVAILABLE,N,N
8561,10440622,SAINT FRANCIS EPISCOPAL CHAPEL,DENVER,CO,80205,2627,DENVER,8031,2008-11-24T00:00:00.000Z,ALT REF,2008-11-24T00:00:00.000Z,CHURCHES,20736989,-104.9860399,39.7543433,CHRISTIAN,EPIS,NOT AVAILABLE,NOT AVAILABLE,Y,N
8564,10584551,VICTORY BAPTIST CHURCH,DENVER,CO,80219,4243,DENVER,8031,2008-11-17T00:00:00.000Z,ALT REF,2008-11-17T00:00:00.000Z,CHURCHES,20722106,-105.0216576,39.6928511,CHRISTIAN,BAPT,NOT AVAILABLE,NOT AVAILABLE,Y,N
8569,10445760,HOLY ROSARY CATHOLIC CHURCH,DENVER,CO,80216,2730,DENVER,8031,2008-11-17T00:00:00.000Z,ALT REF,2008-11-17T00:00:00.000Z,CHURCHES,20733449,-104.9797126,39.7816266,CHRISTIAN,NOT AVAILABLE,NOT AVAILABLE,NOT AVAILABLE,N,Y
8572,10445752,ALL SAINTS CATHOLIC CHURCH,DENVER,CO,80219,5904,DENVER,8031,2008-11-18T00:00:00.000Z,ALT REF,2008-11-18T00:00:00.000Z,CHURCHES,20723272,-105.0257915,39.6721927,CHRISTIAN,NOT AVAILABLE,NOT AVAILABLE,NOT AVAILABLE,N,Y
8576,10684722,MILE HI FRIENDS OF BUDDHISM,DENVER,CO,80202,1602,DENVER,8031,2008-12-03T00:00:00.000Z,ALT REF,2008-12-03T00:00:00.000Z,PLACES OF WORSHIP,20716613,-104.997634,39.7486223,BUDDHIST,NON-SECTARIAN,NOT AVAILABLE,NOT AVAILABLE,N,N
8582,10445778,SAINT MARY MAGDALENE CATHOLIC CHURCH,DENVER,CO,80212,1554,DENVER,8031,2008-11-19T00:00:00.000Z,ALT REF,2008-11-19T00:00:00.000Z,CHURCHES,20742889,-105.0524447,39.7575478,CHRISTIAN,NOT AVAILABLE,NOT AVAILABLE,NOT AVAILABLE,N,Y
8585,10445762,OUR LADY OF GRACE CHURCH,DENVER,CO,80216,2930,DENVER,8031,2008-11-19T00:00:00.000Z,ALT REF,2008-11-19T00:00:00.000Z,CHURCHES,20733296,-104.9554785,39.784054,CHRISTIAN,NOT AVAILABLE,NOT AVAILABLE,NOT AVAILABLE,N,Y
8598,10577397,LIBERTY BAPTIST CHURCH,DENVER,CO,80212,7103,JEFFERSON,8059,2008-11-18T00:00:00.000Z,ALT REF,2008-11-19T00:00:00.000Z,CHURCHES,20741799,-105.0619556,39.7624951,CHRISTIAN,BAPT,NOT AVAILABLE,NOT AVAILABLE,Y,N
8601,10445761,MONTBELLO CATHOLIC PARISH CHURCH OF THE ASCENSION,DENVER,CO,80239,4150,DENVER,8031,2008-11-18T00:00:00.000Z,ALT REF,2008-11-18T00:00:00.000Z,CHURCHES,19365090,-104.8243192,39.7924688,CHRISTIAN,NOT AVAILABLE,NOT AVAILABLE,NOT AVAILABLE,N,Y
8603,10445755,CHRIST THE KING ROMAN CATHOLIC CHURCH,DENVER,CO,80220,4313,DENVER,8031,2008-11-19T00:00:00.000Z,ALT REF,2008-11-20T00:00:00.000Z,CHURCHES,20712243,-104.9286513,39.7296126,CHRISTIAN,NOT AVAILABLE,NOT AVAILABLE,NOT AVAILABLE,N,Y
8606,10443382,CURE D'ARS CATHOLIC CHURCH,DENVER,CO,80207,1914,DENVER,8031,2008-11-19T00:00:00.000Z,ALT REF,2008-11-19T00:00:00.000Z,CHURCHES,20732590,-104.9323066,39.7622629,CHRISTIAN,NOT AVAILABLE,NOT AVAILABLE,NOT AVAILABLE,N,Y
8607,10684235,DENVER BUDDHIST CULTURAL SOCIETY,DENVER,CO,80219,3011,DENVER,8031,2008-11-19T00:00:00.000Z,ALT REF,2008-11-19T00:00:00.000Z,PLACES OF WORSHIP,20731183,-105.0176042,39.7109279,BUDDHIST,"FO GUANG SHAN, LIN-CHI CH'AN SCHOOL",NOT AVAILABLE,NOT AVAILABLE,N,N
8608,10685213,DENVER BUDDHIST TEMPLE,DENVER,CO,80202,1815,DENVER,8031,2008-11-19T00:00:00.000Z,ALT REF,2008-11-19T00:00:00.000Z,"TEMPLES, RELIGIOUS",20737024,-104.9923572,39.7522498,BUDDHIST,JODO SHINSHU BUDDHISM,NOT AVAILABLE,NOT AVAILABLE,N,N
8609,10430663,DENVER ISLAMIC CENTER,DENVER,CO,80222,5018,DENVER,8031,2008-11-19T00:00:00.000Z,ALT REF,2008-11-19T00:00:00.000Z,"MOSQUES, RELIGIOUS",20715026,-104.935973,39.6776065,MUSLIM,NOT AVAILABLE,NOT AVAILABLE,NOT AVAILABLE,N,N
8611,10445759,HOLY GHOST CATHOLIC CHURCH,DENVER,CO,80202,3825,DENVER,8031,2008-11-19T00:00:00.000Z,ALT REF,2008-11-19T00:00:00.000Z,CHURCHES,20716578,-104.9878874,39.7481391,CHRISTIAN,NOT AVAILABLE,NOT AVAILABLE,NOT AVAILABLE,N,Y
8613,10448371,HOLY PROTECTION OF THE MOTHER OF GOD BYZANTINE CATHOLIC CHURCH,DENVER,CO,80210,2003,DENVER,8031,2008-11-19T00:00:00.000Z,ALT REF,2008-11-19T00:00:00.000Z,CHURCHES,20716331,-104.9560781,39.6946212,CHRISTIAN,NOT AVAILABLE,NOT AVAILABLE,NOT AVAILABLE,N,Y
8619,10762364,MONTVIEW BOULEVARD PRESBYTERIAN CHURCH,DENVER,CO,80220,1239,DENVER,8031,2008-11-19T00:00:00.000Z,ALT REF,2008-11-19T00:00:00.000Z,CHURCHES,20711145,-104.9316749,39.7469369,CHRISTIAN,PCUSA,1474,NOT AVAILABLE,Y,N
8621,10683957,AVALOKITESHVARA BUDDHIST CENTER,DENVER,CO,80218,4324,DENVER,8031,2008-11-19T00:00:00.000Z,ALT REF,2008-11-19T00:00:00.000Z,PLACES OF WORSHIP,20711531,-104.9721083,39.7335185,BUDDHIST,NEW KADAMPA TRADITION,NOT AVAILABLE,NOT AVAILABLE,N,N
8622,10454182,NEW HOPE BAPTIST CHURCH,DENVER,CO,80205,3877,DENVER,8031,2008-11-19T00:00:00.000Z,ALT REF,2008-11-19T00:00:00.000Z,CHURCHES,129591471,-104.9410643,39.7686656,CHRISTIAN,NBC,NOT AVAILABLE,NOT AVAILABLE,Y,N
8626,10445763,OUR LADY OF GUADALUPE CHURCH,DENVER,CO,80211,NULL,DENVER,8031,2008-11-19T00:00:00.000Z,ALT REF,2008-11-19T00:00:00.000Z,CHURCHES,20743509,-105.0119879,39.7670492,CHRISTIAN,NOT AVAILABLE,NOT AVAILABLE,NOT AVAILABLE,N,Y
8627,10445764,OUR LADY OF LOURDES CATHOLIC CHURCH,DENVER,CO,80210,4430,DENVER,8031,2008-11-19T00:00:00.000Z,ALT REF,2008-11-19T00:00:00.000Z,CHURCHES,20714518,-104.9823167,39.6752363,CHRISTIAN,NOT AVAILABLE,NOT AVAILABLE,NOT AVAILABLE,N,Y
8628,10445765,OUR LADY OF MOUNT CARMEL CHURCH,DENVER,CO,80211,3040,DENVER,8031,2008-11-19T00:00:00.000Z,ALT REF,2008-11-19T00:00:00.000Z,CHURCHES,20743500,-105.0045303,39.7666517,CHRISTIAN,NOT AVAILABLE,NOT AVAILABLE,NOT AVAILABLE,N,Y
8631,10440631,OUR MERCIFUL SAVIOUR EPISCOPAL CHURCH,DENVER,CO,80211,3318,DENVER,8031,2008-11-19T00:00:00.000Z,ALT REF,2008-11-19T00:00:00.000Z,CHURCHES,20743541,-105.0141605,39.7618543,CHRISTIAN,EPIS,NOT AVAILABLE,NOT AVAILABLE,Y,N
8634,10445768,SACRED HEART CHURCH,DENVER,CO,80205,2221,DENVER,8031,2008-11-19T00:00:00.000Z,ALT REF,2008-11-19T00:00:00.000Z,CHURCHES,20732386,-104.9829586,39.7599864,CHRISTIAN,NOT AVAILABLE,NOT AVAILABLE,NOT AVAILABLE,N,Y
8635,10440249,SAINT ANDREW'S EPISCOPAL CHURCH,DENVER,CO,80205,3121,DENVER,8031,2008-11-19T00:00:00.000Z,ALT REF,2008-11-19T00:00:00.000Z,CHURCHES,31354536,-104.9853205,39.7481315,CHRISTIAN,EPIS,NOT AVAILABLE,NOT AVAILABLE,Y,N
8636,10440625,SAINT BARNABAS EPISCOPAL CHURCH,DENVER,CO,80206,2912,DENVER,8031,2008-11-19T00:00:00.000Z,ALT REF,2008-11-19T00:00:00.000Z,CHURCHES,20711514,-104.9618254,39.7364618,CHRISTIAN,EPIS,NOT AVAILABLE,NOT AVAILABLE,Y,N
8639,10445775,SAINT JAMES CATHOLIC CHURCH,DENVER,CO,80220,2946,DENVER,8031,2008-11-19T00:00:00.000Z,ALT REF,2008-11-19T00:00:00.000Z,CHURCHES,20711851,-104.9086279,39.737707,CHRISTIAN,NOT AVAILABLE,NOT AVAILABLE,NOT AVAILABLE,N,Y
8640,10760094,SAINT JOHNS LUTHERAN CHURCH,DENVER,CO,80209,4505,DENVER,8031,2008-11-19T00:00:00.000Z,ALT REF,2008-11-19T00:00:00.000Z,CHURCHES,20713569,-104.9680532,39.7031273,CHRISTIAN,LCMS,NOT AVAILABLE,NOT AVAILABLE,Y,N
8642,10440626,SAINT MICHAEL AND ALL ANGELS EPISCOPAL CHURCH,DENVER,CO,80210,2407,DENVER,8031,2008-11-19T00:00:00.000Z,ALT REF,2008-11-19T00:00:00.000Z,CHURCHES,20713798,-104.9588404,39.6908745,CHRISTIAN,EPIS,NOT AVAILABLE,NOT AVAILABLE,Y,N
8643,10445780,SAINT VINCENT DE PAUL CATHOLIC CHURCH,DENVER,CO,80210,1924,DENVER,8031,2008-11-19T00:00:00.000Z,ALT REF,2008-11-19T00:00:00.000Z,CHURCHES,20716340,-104.9586277,39.6951508,CHRISTIAN,NOT AVAILABLE,NOT AVAILABLE,NOT AVAILABLE,N,Y
8644,10440627,THE EPISCOPAL CHURCH OF SAINT PETER AND SAINT MARY,DENVER,CO,80223,1434,DENVER,8031,2008-11-19T00:00:00.000Z,ALT REF,2008-11-19T00:00:00.000Z,CHURCHES,20712807,-104.9898656,39.7191125,CHRISTIAN,EPIS,NOT AVAILABLE,NOT AVAILABLE,Y,N
8645,10442237,UKRAINIAN CATHOLIC CHURCH OF TRANSFIGURATION OF OUR LORD,DENVER,CO,80211,1837,DENVER,8031,2008-11-20T00:00:00.000Z,ALT REF,2008-11-19T00:00:00.000Z,CHURCHES,20743333,-105.0096967,39.7730723,CHRISTIAN,NOT AVAILABLE,NOT AVAILABLE,NOT AVAILABLE,N,Y
8646,10445753,ANNUNCIATION CATHOLIC CHURCH,DENVER,CO,80205,3330,DENVER,8031,2008-11-19T00:00:00.000Z,ALT REF,2008-11-19T00:00:00.000Z,CHURCHES,20731809,-104.9700143,39.7671463,CHRISTIAN,NOT AVAILABLE,NOT AVAILABLE,NOT AVAILABLE,N,Y
8647,10762366,WELLSHIRE PRESBYTERIAN CHURCH,DENVER,CO,80222,6607,DENVER,8031,2008-11-19T00:00:00.000Z,ALT REF,2008-11-19T00:00:00.000Z,CHURCHES,20718067,-104.9413155,39.6631515,CHRISTIAN,PCUSA,1673,NOT AVAILABLE,Y,N
8648,10685389,ZEN CENTER OF DENVER,DENVER,CO,80211,3725,DENVER,8031,2008-11-19T00:00:00.000Z,ALT REF,2008-11-19T00:00:00.000Z,PLACES OF WORSHIP,20745111,-105.027323,39.761045,BUDDHIST,SOTO/RINZAI ZEN,NOT AVAILABLE,NOT AVAILABLE,N,N
8649,10578231,FUNDAMENTAL BAPTIST CHURCH,DENVER,CO,80219,3911,DENVER,8031,2008-11-20T00:00:00.000Z,ALT REF,2008-11-20T00:00:00.000Z,CHURCHES,20722770,-105.0293463,39.6962358,CHRISTIAN,BAPT,NOT AVAILABLE,NOT AVAILABLE,Y,N
8660,10586069,BERKELEY BAPTIST CHURCH,DENVER,CO,80212,2349,DENVER,8031,2008-11-18T00:00:00.000Z,ALT REF,2008-11-18T00:00:00.000Z,CHURCHES,20742456,-105.0400866,39.7764636,CHRISTIAN,ABC,NOT AVAILABLE,NOT AVAILABLE,Y,N
8661,10443381,BLESSED SACRAMENT CATHOLIC CHURCH,DENVER,CO,80207,3823,DENVER,8031,2008-11-18T00:00:00.000Z,ALT REF,2008-11-18T00:00:00.000Z,CHURCHES,20711134,-104.9306701,39.7469672,CHRISTIAN,NOT AVAILABLE,NOT AVAILABLE,NOT AVAILABLE,N,Y
8662,10586072,BONNIE BRAE BAPTIST CHURCH,DENVER,CO,80209,4707,DENVER,8031,2008-11-18T00:00:00.000Z,ALT REF,2008-11-18T00:00:00.000Z,CHURCHES,20713731,-104.9583786,39.7036376,CHRISTIAN,ABC,NOT AVAILABLE,NOT AVAILABLE,Y,N
8663,10586073,CALVARY BAPTIST CHURCH,DENVER,CO,80224,2812,DENVER,8031,2008-11-18T00:00:00.000Z,ALT REF,2008-11-18T00:00:00.000Z,CHURCHES,20715321,-104.912016,39.6536761,CHRISTIAN,ABC,NOT AVAILABLE,NOT AVAILABLE,Y,N
8670,10586074,CHAFFEE COMMUNITY BAPTIST CHURCH,DENVER,CO,80221,1315,DENVER,8031,2008-11-17T00:00:00.000Z,ALT REF,2008-11-17T00:00:00.000Z,CHURCHES,20742234,-105.0126714,39.7875785,CHRISTIAN,ABC,NOT AVAILABLE,NOT AVAILABLE,Y,N
8671,10440629,CHRIST EPISCOPAL CHURCH,DENVER,CO,80210,6029,DENVER,8031,2008-11-17T00:00:00.000Z,ALT REF,2008-11-17T00:00:00.000Z,CHURCHES,20714936,-104.9589706,39.6636165,CHRISTIAN,EPIS,NOT AVAILABLE,NOT AVAILABLE,Y,N
8672,10440632,CHURCH OF THE ASCENSION,DENVER,CO,80218,3632,DENVER,8031,2008-11-18T00:00:00.000Z,ALT REF,2008-11-18T00:00:00.000Z,CHURCHES,20712832,-104.9667933,39.725933,CHRISTIAN,EPIS,NOT AVAILABLE,NOT AVAILABLE,Y,N
8673,10584555,CORNERSTONE BAPTIST CHURCH,DENVER,CO,80219,2611,DENVER,8031,2008-11-17T00:00:00.000Z,ALT REF,2008-11-17T00:00:00.000Z,CHURCHES,20727113,-105.0363916,39.7106243,CHRISTIAN,BAPT,NOT AVAILABLE,NOT AVAILABLE,Y,N
8676,10576363,DENVER SECOND CHRISTIAN REFORMED CHURCH,DENVER,CO,80210,3222,DENVER,8031,2008-11-17T00:00:00.000Z,ALT REF,2008-11-17T00:00:00.000Z,CHURCHES,20714352,-104.9762216,39.6824194,CHRISTIAN,CRC,NOT AVAILABLE,NOT AVAILABLE,Y,N
8677,10584554,EIGHTH AVENUE BAPTIST CHURCH,DENVER,CO,80220,5259,DENVER,8031,2008-11-17T00:00:00.000Z,ALT REF,2008-11-17T00:00:00.000Z,CHURCHES,20720271,-104.9246386,39.7290093,CHRISTIAN,BAPT,NOT AVAILABLE,NOT AVAILABLE,Y,N
8679,10440624,EPIPHANY EPISCOPAL CHURCH,DENVER,CO,80206,5533,DENVER,8031,2008-11-18T00:00:00.000Z,ALT REF,2008-11-18T00:00:00.000Z,CHURCHES,20716355,-104.9402225,39.7181568,CHRISTIAN,EPIS,NOT AVAILABLE,NOT AVAILABLE,Y,N
8681,10576361,FIRST CHRISTIAN REFORMED CHURCH,DENVER,CO,80210,3210,DENVER,8031,2008-11-17T00:00:00.000Z,ALT REF,2008-11-17T00:00:00.000Z,CHURCHES,20714346,-104.9766706,39.6836122,CHRISTIAN,CRC,NOT AVAILABLE,NOT AVAILABLE,Y,N
8682,10586109,GOOD SHEPHERD BAPTIST CHURCH,DENVER,CO,80207,2809,DENVER,8031,2008-11-18T00:00:00.000Z,ALT REF,2008-11-18T00:00:00.000Z,CHURCHES,20732679,-104.9194815,39.7568403,CHRISTIAN,ABC,NOT AVAILABLE,NOT AVAILABLE,Y,N
8683,10586110,GREATER MOUNT OLIVE BAPTIST CHURCH,DENVER,CO,80207,1053,DENVER,8031,2008-11-18T00:00:00.000Z,ALT REF,2008-11-18T00:00:00.000Z,CHURCHES,20736413,-104.9306984,39.7695029,CHRISTIAN,ABC,NOT AVAILABLE,NOT AVAILABLE,Y,N
8685,10574857,MIRACLE MOUNTAIN AFRICAN METHODIST EPISCOPAL ZION CHURCH,DENVER,CO,80205,5616,DENVER,8031,2008-11-19T00:00:00.000Z,ALT REF,2008-11-19T00:00:00.000Z,CHURCHES,20737134,-104.9631614,39.7534154,CHRISTIAN,AMEZ,NOT AVAILABLE,NOT AVAILABLE,Y,N
8686,10585472,HOUSE OF JOY MIRACLE DELIVERANCE CHURCH,DENVER,CO,80207,2839,DENVER,8031,2008-11-18T00:00:00.000Z,ALT REF,2008-11-18T00:00:00.000Z,CHURCHES,20732772,-104.9149711,39.7617374,CHRISTIAN,ABC,NOT AVAILABLE,NOT AVAILABLE,Y,N
8687,10586113,KING BAPTIST CHURCH,DENVER,CO,80207,2109,DENVER,8031,2008-11-18T00:00:00.000Z,ALT REF,2008-11-18T00:00:00.000Z,CHURCHES,20735664,-104.9194906,39.7648963,CHRISTIAN,ABC,NOT AVAILABLE,NOT AVAILABLE,Y,N
8688,10585370,MACEDONIA BAPTIST CHURCH,DENVER,CO,80205,4949,DENVER,8031,2008-11-18T00:00:00.000Z,ALT REF,2008-11-18T00:00:00.000Z,CHURCHES,20731922,-104.9482943,39.7624092,CHRISTIAN,ABC,NOT AVAILABLE,NOT AVAILABLE,Y,N
8689,10442351,MOST PRECIOUS BLOOD CATHOLIC CHURCH,DENVER,CO,80210,4929,DENVER,8031,2008-11-18T00:00:00.000Z,ALT REF,2008-11-18T00:00:00.000Z,CHURCHES,20714828,-104.9417402,39.6762935,CHRISTIAN,NOT AVAILABLE,NOT AVAILABLE,NOT AVAILABLE,N,Y
8691,10443383,MOTHER OF GOD CHURCH,DENVER,CO,80203,3606,DENVER,8031,2008-11-18T00:00:00.000Z,ALT REF,2008-11-18T00:00:00.000Z,CHURCHES,20721011,-104.9826365,39.7235734,CHRISTIAN,NOT AVAILABLE,NOT AVAILABLE,NOT AVAILABLE,N,Y
8694,10445766,PRESENTATION OF OUR LADY CATHOLIC CHURCH,DENVER,CO,80204,3147,DENVER,8031,2008-11-18T00:00:00.000Z,ALT REF,2008-11-18T00:00:00.000Z,CHURCHES,129565415,-105.0316903,39.7274504,CHRISTIAN,NOT AVAILABLE,NOT AVAILABLE,NOT AVAILABLE,N,Y
8695,10432247,RIVERSIDE BAPTIST CHURCH,DENVER,CO,80211,4812,DENVER,8031,2008-11-17T00:00:00.000Z,ALT REF,2008-11-17T00:00:00.000Z,CHURCHES,20743567,-105.0181679,39.751784,CHRISTIAN,SBC,NOT AVAILABLE,NOT AVAILABLE,Y,N
8698,10445769,SAINT ANTHONY OF PADUA CATHOLIC CHURCH,DENVER,CO,80219,3226,DENVER,8031,2008-11-18T00:00:00.000Z,ALT REF,2008-11-18T00:00:00.000Z,CHURCHES,20727008,-105.0372551,39.702721,CHRISTIAN,NOT AVAILABLE,NOT AVAILABLE,NOT AVAILABLE,N,Y
8699,10445771,SAINT CATHERINE OF SIENNA CHURCH,DENVER,CO,80211,1640,DENVER,8031,2008-11-18T00:00:00.000Z,ALT REF,2008-11-18T00:00:00.000Z,CHURCHES,20745719,-105.0246868,39.7743822,CHRISTIAN,NOT AVAILABLE,NOT AVAILABLE,NOT AVAILABLE,N,Y
8700,10445772,SAINT DOMINICS CHURCH,DENVER,CO,80211,3701,DENVER,8031,2008-11-18T00:00:00.000Z,ALT REF,2008-11-18T00:00:00.000Z,CHURCHES,20745227,-105.0257143,39.7590753,CHRISTIAN,NOT AVAILABLE,NOT AVAILABLE,NOT AVAILABLE,N,Y
8702,10445774,SAINT IGNATIUS LOYOLA CATHOLIC CHURCH,DENVER,CO,80205,5709,DENVER,8031,2008-11-18T00:00:00.000Z,ALT REF,2008-11-18T00:00:00.000Z,CHURCHES,20737177,-104.9603693,39.7510224,CHRISTIAN,NOT AVAILABLE,NOT AVAILABLE,NOT AVAILABLE,N,Y
8703,10445776,SAINT JOSEPH REDEMPTORIST CHURCH,DENVER,CO,80204,5029,DENVER,8031,2008-11-17T00:00:00.000Z,ALT REF,2008-11-18T00:00:00.000Z,CHURCHES,20721074,-104.9961416,39.7258736,CHRISTIAN,NOT AVAILABLE,NOT AVAILABLE,NOT AVAILABLE,N,Y
8704,10440338,SAINT THOMAS EPISCOPAL CHURCH,DENVER,CO,80207,3756,DENVER,8031,2008-11-18T00:00:00.000Z,ALT REF,2008-11-18T00:00:00.000Z,CHURCHES,20711035,-104.933286,39.7495968,CHRISTIAN,EPIS,NOT AVAILABLE,NOT AVAILABLE,Y,N
8705,10443380,CATHEDRAL BASILICA OF THE IMMACULATE CONCEPTION,DENVER,CO,80203,1914,DENVER,8031,2008-11-18T00:00:00.000Z,ALT REF,2008-11-18T00:00:00.000Z,CHURCHES,20720863,-104.9819533,39.7403107,CHRISTIAN,NOT AVAILABLE,NOT AVAILABLE,NOT AVAILABLE,N,Y
8706,10586121,SOLOMON TEMPLE MISSIONARY BAPTIST CHURCH,DENVER,CO,80207,2741,DENVER,8031,2008-11-18T00:00:00.000Z,ALT REF,2008-11-18T00:00:00.000Z,CHURCHES,20732670,-104.921895,39.7603083,CHRISTIAN,ABC,NOT AVAILABLE,NOT AVAILABLE,Y,N
8707,10574858,SPOTTSWOOD AFRICAN METHODIST EPISCOPAL ZION CHURCH,DENVER,CO,80205,4322,DENVER,8031,2008-11-17T00:00:00.000Z,ALT REF,2008-11-17T00:00:00.000Z,CHURCHES,20731743,-104.9527758,39.7634225,CHRISTIAN,AMEZ,NOT AVAILABLE,NOT AVAILABLE,Y,N
8708,10576364,THIRD CHRISTIAN REFORMED CHURCH,DENVER,CO,80222,6007,DENVER,8031,2008-11-17T00:00:00.000Z,ALT REF,2008-11-17T00:00:00.000Z,CHURCHES,20715058,-104.9378398,39.6730207,CHRISTIAN,CRC,NOT AVAILABLE,NOT AVAILABLE,Y,N
8711,10586122,TRUE LIGHT BAPTIST CHURCH,DENVER,CO,80239,6417,DENVER,8031,2008-11-18T00:00:00.000Z,ALT REF,2008-11-18T00:00:00.000Z,CHURCHES,20750668,-104.8239787,39.7867264,CHRISTIAN,ABC,NOT AVAILABLE,NOT AVAILABLE,Y,N
8714,10579726,WOODSIDE BAPTIST CHURCH,DENVER,CO,80247,1105,DENVER,8031,2008-11-18T00:00:00.000Z,ALT REF,2008-11-18T00:00:00.000Z,CHURCHES,124039063,-104.8900495,39.7077255,CHRISTIAN,BAPT,NOT AVAILABLE,NOT AVAILABLE,Y,N
8715,10453782,ZION BAPTIST CHURCH,DENVER,CO,80205,5114,DENVER,8031,2008-11-18T00:00:00.000Z,ALT REF,2008-11-18T00:00:00.000Z,CHURCHES,20737058,-104.9748403,39.7521837,CHRISTIAN,NBC,NOT AVAILABLE,NOT AVAILABLE,Y,N
8723,10448783,KATERI CATHOLIC COMMUNITY,DENVER,CO,80214,4219,JEFFERSON,8059,2008-11-19T00:00:00.000Z,ALT REF,2008-11-19T00:00:00.000Z,CHURCHES,20726194,-105.0772228,39.7339548,CHRISTIAN,NOT AVAILABLE,NOT AVAILABLE,NOT AVAILABLE,N,Y
8725,10685033,SHAMBHALA MEDITATION CENTER OF DENVER,DENVER,CO,80231,3784,ARAPAHOE,8005,2008-11-18T00:00:00.000Z,ALT REF,2008-11-18T00:00:00.000Z,PLACES OF WORSHIP,20718680,-104.9017111,39.6745457,BUDDHIST,SHAMBHALA BUDDHISM,NOT AVAILABLE,NOT AVAILABLE,N,N
8739,10578942,PARKVIEW BIBLE BAPTIST CHURCH,DENVER,CO,80212,7148,JEFFERSON,8059,2008-11-18T00:00:00.000Z,ALT REF,2008-11-18T00:00:00.000Z,CHURCHES,20741976,-105.0589314,39.7633967,CHRISTIAN,BAPT,NOT AVAILABLE,NOT AVAILABLE,Y,N
8750,10762506,WAT BUDDHAVARARAM,DENVER,CO,80221,1122,DENVER,8031,2008-11-19T00:00:00.000Z,ALT REF,2008-11-19T00:00:00.000Z,PLACES OF WORSHIP,20742199,-105.0314734,39.7840798,BUDDHIST,NOT AVAILABLE,NOT AVAILABLE,NOT AVAILABLE,N,N
8752,10430660,MOUNTAIN STATE ISLAMIC ASSOCIATION,DENVER,CO,80205,4438,DENVER,8031,2008-11-19T00:00:00.000Z,ALT REF,2008-11-19T00:00:00.000Z,"MOSQUES, RELIGIOUS",20731633,-104.9699749,39.7559427,MUSLIM,NOT AVAILABLE,NOT AVAILABLE,NOT AVAILABLE,N,N
8767,10586085,FIRST BAPTIST CHURCH,DENVER,CO,80203,2307,DENVER,8031,2008-11-18T00:00:00.000Z,ALT REF,2008-11-18T00:00:00.000Z,CHURCHES,20720862,-104.9839917,39.7381092,CHRISTIAN,ABC,NOT AVAILABLE,NOT AVAILABLE,Y,N
8801,10584553,MOUNTAIN VIEW BAPTIST CHURCH,DENVER,CO,80219,1834,DENVER,8031,2008-11-17T00:00:00.000Z,ALT REF,2008-11-17T00:00:00.000Z,CHURCHES,20725174,-105.0380911,39.7120354,CHRISTIAN,BAPT,NOT AVAILABLE,NOT AVAILABLE,Y,N
8803,10586063,ABUNDANT LIFE BAPTIST CHURCH,DENVER,CO,80239,4463,DENVER,8031,2008-11-18T00:00:00.000Z,ALT REF,2008-11-18T00:00:00.000Z,CHURCHES,20750277,-104.845794,39.7865945,CHRISTIAN,ABC,NOT AVAILABLE,NOT AVAILABLE,Y,N
8806,10576360,CHRISTIAN INDIAN CENTER,DENVER,CO,80209,4204,DENVER,8031,2008-11-17T00:00:00.000Z,ALT REF,2008-11-17T00:00:00.000Z,CHURCHES,20713380,-104.9807603,39.7073559,CHRISTIAN,CRC,NOT AVAILABLE,NOT AVAILABLE,Y,N
8807,10576362,HILLCREST CHRISTIAN REFORMED CHURCH,DENVER,CO,80210,6331,DENVER,8031,2008-11-17T00:00:00.000Z,ALT REF,2008-11-17T00:00:00.000Z,CHURCHES,20718111,-104.9642429,39.662823,CHRISTIAN,CRC,NOT AVAILABLE,NOT AVAILABLE,Y,N
8808,10684236,INSIGHT MEDITATION COMMUNITY OF COLORADO,DENVER,CO,80218,2312,DENVER,8031,2008-11-20T00:00:00.000Z,ALT REF,2008-11-19T00:00:00.000Z,PLACES OF WORSHIP,129595617,-104.9703729,39.7388145,BUDDHIST,NOT AVAILABLE,NOT AVAILABLE,NOT AVAILABLE,N,N
8870,10445770,SAINT CAJETAN CHURCH,DENVER,CO,80219,1851,DENVER,8031,2007-10-02T00:00:00.000Z,ALT REF,2007-10-02T00:00:00.000Z,CHURCHES,20725152,-105.0428823,39.7115464,CHRISTIAN,NOT AVAILABLE,NOT AVAILABLE,NOT AVAILABLE,N,Y
8871,10445777,SAINT JOSEPH'S CHURCH,DENVER,CO,80216,2751,DENVER,8031,2007-10-02T00:00:00.000Z,ALT REF,2007-10-05T00:00:00.000Z,CHURCHES,20733433,-104.9809894,39.7803946,CHRISTIAN,NOT AVAILABLE,NOT AVAILABLE,NOT AVAILABLE,N,Y
8872,10445779,SAINT ROSE OF LIMA CHURCH,DENVER,CO,80223,2053,DENVER,8031,2007-10-02T00:00:00.000Z,ALT REF,2007-10-02T00:00:00.000Z,CHURCHES,20729857,-105.0043421,39.7099506,CHRISTIAN,NOT AVAILABLE,NOT AVAILABLE,NOT AVAILABLE,N,Y
8884,10455599,CENTRAL BAPTIST CHURCH,DENVER,CO,80205,2928,DENVER,8031,2008-03-06T00:00:00.000Z,ALT REF,2008-03-06T00:00:00.000Z,CHURCHES,20737089,-104.9819206,39.7526797,CHRISTIAN,NBC,NOT AVAILABLE,NOT AVAILABLE,Y,N
8885,10457737,CHRIST OUR REDEEMER AFRICAN METHODIST EPISCOPAL CHURCH,DENVER,CO,80239,4087,DENVER,8031,2008-03-06T00:00:00.000Z,ALT REF,2008-03-06T00:00:00.000Z,CHURCHES,20750760,-104.8351483,39.7914044,CHRISTIAN,AME,NOT AVAILABLE,NOT AVAILABLE,Y,N
8887,10455087,GREATER SAINT JOHN BAPTIST CHURCH,DENVER,CO,80220,3337,DENVER,8031,2008-03-06T00:00:00.000Z,ALT REF,2008-03-06T00:00:00.000Z,CHURCHES,20712312,-104.8925188,39.7375756,CHRISTIAN,NBC,NOT AVAILABLE,NOT AVAILABLE,Y,N
8888,10457796,JORDAN CHAPEL AFRICAN METHODIST EPISCOPAL CHURCH,DENVER,CO,80205,4824,DENVER,8031,2008-03-06T00:00:00.000Z,ALT REF,2008-03-06T00:00:00.000Z,CHURCHES,20731659,-104.9520451,39.7586,CHRISTIAN,AME,NOT AVAILABLE,NOT AVAILABLE,Y,N
8893,10455591,SHILOH MISSIONARY BAPTIST CHURCH,DENVER,CO,80207,2144,DENVER,8031,2008-03-06T00:00:00.000Z,ALT REF,2008-03-06T00:00:00.000Z,CHURCHES,20732775,-104.9155361,39.7640938,CHRISTIAN,NBC,NOT AVAILABLE,NOT AVAILABLE,Y,N
8894,10452507,DENVER TEMPLE BAPTIST CHURCH,DENVER,CO,80246,1041,DENVER,8031,2008-03-06T00:00:00.000Z,ALT REF,2008-03-06T00:00:00.000Z,CHURCHES,20716357,-104.9402571,39.71512,CHRISTIAN,NBC,NOT AVAILABLE,NOT AVAILABLE,Y,N
8899,10452735,MOUNT GILEAD BAPTIST CHURCH,DENVER,CO,80224,1102,DENVER,8031,2008-03-06T00:00:00.000Z,ALT REF,2008-03-06T00:00:00.000Z,CHURCHES,20719055,-104.913656,39.7135783,CHRISTIAN,NBC,NOT AVAILABLE,NOT AVAILABLE,Y,N
8900,10460352,CITY PRESBYTERIAN CHURCH,DENVER,CO,80204,1894,DENVER,8031,2008-03-06T00:00:00.000Z,ALT REF,2008-03-06T00:00:00.000Z,CHURCHES,20730815,-105.0055532,39.7452684,CHRISTIAN,PCA,NOT AVAILABLE,NOT AVAILABLE,Y,N
8901,10457832,SHORTER COMMUNITY AFRICAN METHODIST EPISCOPAL CHURCH,DENVER,CO,80205,4965,DENVER,8031,2008-03-06T00:00:00.000Z,ALT REF,2008-03-06T00:00:00.000Z,CHURCHES,20731989,-104.941931,39.7613155,CHRISTIAN,AME,NOT AVAILABLE,NOT AVAILABLE,Y,N
8922,10448170,SAINT RAFKA MARONITE CHURCH,DENVER,CO,80214,5710,JEFFERSON,8059,2007-10-02T00:00:00.000Z,ALT REF,2007-10-02T00:00:00.000Z,CHURCHES,20745153,-105.0817983,39.7513282,CHRISTIAN,NOT AVAILABLE,NOT AVAILABLE,NOT AVAILABLE,N,Y
8929,10761684,THE METRO CHURCH,DENVER,CO,80237,3239,DENVER,8031,2008-11-19T00:00:00.000Z,ALT REF,2008-11-19T00:00:00.000Z,CHURCHES,721076404,-104.8986446,39.6365952,CHRISTIAN,COC,450,NOT AVAILABLE,Y,N
8966,10577307,MESSIAH BAPTIST CHURCH,DENVER,CO,80211,1335,DENVER,8031,2008-11-18T00:00:00.000Z,ALT REF,2008-11-18T00:00:00.000Z,CHURCHES,20742595,-105.0294519,39.777056,CHRISTIAN,BAPT,NOT AVAILABLE,NOT AVAILABLE,Y,N
8994,10445773,SAINT FRANCIS DE SALES CHURCH,DENVER,CO,80209,1623,DENVER,8031,2007-10-02T00:00:00.000Z,ALT REF,2007-10-02T00:00:00.000Z,CHURCHES,20713364,-104.9848104,39.7107972,CHRISTIAN,NOT AVAILABLE,NOT AVAILABLE,NOT AVAILABLE,N,Y
9019,10440630,SAINT PHILIP AND SAINT JAMES EPISCOPAL CHURCH,DENVER,CO,80236,2249,DENVER,8031,2007-11-06T00:00:00.000Z,ALT REF,2007-11-06T00:00:00.000Z,CHURCHES,20729992,-105.0348851,39.6652088,CHRISTIAN,EPIS,NOT AVAILABLE,NOT AVAILABLE,Y,N
9023,10440345,LA IGLESIA EPISCOPAL DE SAN FELIPE Y SANTIAGO,DENVER,CO,80236,2249,DENVER,8031,2007-11-06T00:00:00.000Z,ALT REF,2007-11-06T00:00:00.000Z,CHURCHES,20729992,-105.0348851,39.6652093,CHRISTIAN,EPIS,NOT AVAILABLE,NOT AVAILABLE,Y,N
9040,10684701,MEDICINE BUDDHA HEALING INSTITUTE,DENVER,CO,80221,3807,ADAMS,8001,2008-11-17T00:00:00.000Z,ALT REF,2008-11-17T00:00:00.000Z,PLACES OF WORSHIP,20746846,-105.0205063,39.840944,BUDDHIST,"KOREAN SON (ZEN), JAPANESE SOTO ZEN",NOT AVAILABLE,NOT AVAILABLE,N,N
9061,10428995,KOHELET CONGREGATION,DENVER,CO,80246,8110,DENVER,8031,2007-08-08T00:00:00.000Z,ALT REF,2007-08-08T00:00:00.000Z,SYNAGOGUES,20715509,-104.9265674,39.7087408,JUDAIC,UNAFFILIATED,NOT AVAILABLE,NOT AVAILABLE,N,N
9068,10429615,CONGREGATION RODEF SHALOM,DENVER,CO,80224,1238,DENVER,8031,2007-08-08T00:00:00.000Z,ALT REF,2007-08-08T00:00:00.000Z,SYNAGOGUES,20714052,-104.9172223,39.7086213,JUDAIC,NOT AVAILABLE,NOT AVAILABLE,NOT AVAILABLE,N,N
9069,10426524,CONGREGATION ZERA ISRAEL,DENVER,CO,80204,1423,DENVER,8031,2007-08-08T00:00:00.000Z,ALT REF,2007-08-08T00:00:00.000Z,SYNAGOGUES,20725854,-105.0386871,39.7381847,JUDAIC,NOT AVAILABLE,NOT AVAILABLE,SYNAGOGUE,N,N
9080,10429147,SHALOM AL YISRAEL THE EAST SIDE,DENVER,CO,80246,1401,DENVER,8031,2007-08-16T00:00:00.000Z,ALT REF,2007-08-16T00:00:00.000Z,SYNAGOGUES,21395882,-104.9254637,39.7041511,JUDAIC,ORTHODOX,NOT AVAILABLE,NOT AVAILABLE,N,N
9081,10427478,TEMPLE MICAH,DENVER,CO,80207,3446,DENVER,8031,2007-07-23T00:00:00.000Z,PHONE,2007-07-23T00:00:00.000Z,SYNAGOGUES,20732769,-104.9147961,39.7550043,JUDAIC,REFORM,131,NOT AVAILABLE,N,N
9086,10429142,DENVER COMMUNITY KOLLEL,DENVER,CO,80204,1024,DENVER,8031,2007-08-08T00:00:00.000Z,ALT REF,2007-08-08T00:00:00.000Z,SYNAGOGUES,20725761,-105.0494317,39.7408572,JUDAIC,ORTHODOX,NOT AVAILABLE,NOT AVAILABLE,N,N
9088,10428124,ROBERT E LOUP JEWISH COMMUNITY CENTER,DENVER,CO,80246,8102,DENVER,8031,2007-08-08T00:00:00.000Z,ALT REF,2007-08-08T00:00:00.000Z,SYNAGOGUES,20719621,-104.9308129,39.710039,JUDAIC,NOT AVAILABLE,NOT AVAILABLE,NOT AVAILABLE,N,N
9091,10428628,CHABAD OF SOUTH DENVER / WASHINGTON PARK JEWISH CENTER,DENVER,CO,80210,2241,DENVER,8031,2007-08-08T00:00:00.000Z,ALT REF,2007-08-08T00:00:00.000Z,SYNAGOGUES,20714326,-104.978897,39.69259,JUDAIC,CHABAD,NOT AVAILABLE,CHABAD,N,N
9092,10426518,BETH HAMEDROSH HAGADOL - BETH JOSEPH (BMH-BJ),DENVER,CO,80224,1227,DENVER,8031,2007-07-20T00:00:00.000Z,PHONE,2007-07-20T00:00:00.000Z,SYNAGOGUES,20719047,-104.912389,39.7056944,JUDAIC,NOT AVAILABLE,NOT AVAILABLE,SYNAGOGUE,N,N
9097,10426534,WESTERN CENTER FOR RUSSIAN JEWRY,DENVER,CO,80224,1049,DENVER,8031,2007-07-25T00:00:00.000Z,PHONE,2007-07-31T00:00:00.000Z,SYNAGOGUES,20717473,-104.9145575,39.7117424,JUDAIC,NOT AVAILABLE,NOT AVAILABLE,CENTER,N,N
9100,10426218,B'NAI HAVURAH,DENVER,CO,80224,3412,DENVER,8031,2007-08-08T00:00:00.000Z,ALT REF,2007-08-08T00:00:00.000Z,SYNAGOGUES,20719008,-104.9135173,39.7023299,JUDAIC,RECONSTRUCTIONIST,NOT AVAILABLE,SYNAGOGUE,N,N
9105,10426523,CONGREGATION ZERA ABRAHAM,DENVER,CO,80204,1143,DENVER,8031,2007-07-25T00:00:00.000Z,PHONE,2007-07-25T00:00:00.000Z,SYNAGOGUES,20725771,-105.0471636,39.7414752,JUDAIC,NOT AVAILABLE,NOT AVAILABLE,SYNAGOGUE,N,N
9107,10426238,CONGREGATION HEBREW EDUCATIONAL ALLIANCE,DENVER,CO,80237,1196,DENVER,8031,2007-07-23T00:00:00.000Z,PHONE,2007-07-23T00:00:00.000Z,SYNAGOGUES,20718159,-104.9209543,39.6499805,JUDAIC,NOT AVAILABLE,NOT AVAILABLE,SYNAGOGUE,N,N
9108,10428868,CHABAD LUBAVITCH OF COLORADO,DENVER,CO,80246,1422,DENVER,8031,2007-08-08T00:00:00.000Z,ALT REF,2007-08-08T00:00:00.000Z,SYNAGOGUES,20715510,-104.921954,39.7091264,JUDAIC,CHABAD,NOT AVAILABLE,CHABAD,N,N
9109,10429146,EAST DENVER ORTHODOX SYNAGOGUE,DENVER,CO,80246,1104,DENVER,8031,2007-07-25T00:00:00.000Z,PHONE,2007-07-25T00:00:00.000Z,SYNAGOGUES,20712567,-104.9219009,39.7133757,JUDAIC,ORTHODOX,NOT AVAILABLE,NOT AVAILABLE,N,N
9119,10430659,MUSLIM STUDENT ASSOCIATION - METROPOLITAN STATE COLLEGE OF DENVER,DENVER,CO,80204,3587,DENVER,8031,2007-07-17T00:00:00.000Z,PHONE,2007-07-18T00:00:00.000Z,"MOSQUES, RELIGIOUS",20728154,-105.0058654,39.7451998,MUSLIM,NOT AVAILABLE,NOT AVAILABLE,NOT AVAILABLE,N,N
9127,10456218,CAMPBELL CHAPEL AFRICAN METHODIST EPISCOPAL CHURCH,DENVER,CO,80205,5355,DENVER,8031,2008-11-19T00:00:00.000Z,ALT REF,2008-11-19T00:00:00.000Z,CHURCHES,20710927,-104.9692577,39.7492179,CHRISTIAN,AME,NOT AVAILABLE,NOT AVAILABLE,Y,N
9209,10429144,DAT MINYAN,DENVER,CO,80224,1363,DENVER,8031,2007-07-25T00:00:00.000Z,PHONE,2007-07-25T00:00:00.000Z,SYNAGOGUES,21427310,-104.9091881,39.7120473,JUDAIC,ORTHODOX,NOT AVAILABLE,NOT AVAILABLE,N,N
9231,10839059,FIRST UNITARIAN CHURCH,DENVER,CO,80218,2312,DENVER,8031,2008-11-19T00:00:00.000Z,ALT REF,2008-11-19T00:00:00.000Z,PLACES OF WORSHIP,129595617,-104.9703729,39.7388175,OTHER,NOT AVAILABLE,NOT AVAILABLE,NOT AVAILABLE,N,N
26782,10586733,DENVER BAPTIST CHURCH,DENVER,IN,46926,9087,MIAMI,18103,2009-03-30T00:00:00.000Z,ALT REF,2009-04-03T00:00:00.000Z,CHURCHES,90737175,-86.0740258,40.867224,CHRISTIAN,ABC,NOT AVAILABLE,NOT AVAILABLE,Y,N
26794,10586711,CHILI BAPTIST CHURCH,DENVER,IN,46926,9206,MIAMI,18103,2009-04-03T00:00:00.000Z,ALT REF,2009-03-30T00:00:00.000Z,CHURCHES,124597034,-86.0279807,40.8588368,CHRISTIAN,ABC,NOT AVAILABLE,NOT AVAILABLE,Y,N
32799,10435107,DENVER BAPTIST CHURCH,DENVER,NC,28037,8217,LINCOLN,37109,2009-04-24T00:00:00.000Z,ALT REF,2009-04-24T00:00:00.000Z,CHURCHES,102891942,-81.0213011,35.5294875,CHRISTIAN,SBC,806,NOT AVAILABLE,Y,N
32820,10459829,LAKESHORE CHURCH,DENVER,NC,28037,8625,LINCOLN,37109,2009-04-24T00:00:00.000Z,ALT REF,2009-05-01T00:00:00.000Z,CHURCHES,102888870,-80.9797276,35.4740089,CHRISTIAN,PCA,NOT AVAILABLE,NOT AVAILABLE,Y,N
37809,10578825,MOUNT ZION BAPTIST CHURCH,DENVER,PA,17517,9200,LANCASTER,42071,2009-05-13T00:00:00.000Z,ALT REF,2009-05-13T00:00:00.000Z,CHURCHES,98282028,-76.1016747,40.224047,CHRISTIAN,BAPT,NOT AVAILABLE,NOT AVAILABLE,Y,N