OBJECTID,ID,NAME,CITY,STATE,ZIP,ZIPP4,COUNTY,FIPS,CONTDATE,CONTHOW,GEODATE,NAICSDESCR,GEOLINKID,X,Y,SUBTYPE,DENOM,MEMBERS,LOC_TYPE,PROT,CATH
27412,10454866,MESSIAH BAPTIST CHURCH,DETROIT,MI,48221,2106,WAYNE,26163,2008-03-05T00:00:00.000Z,ALT REF,2008-03-05T00:00:00.000Z,CHURCHES,19565759,-83.1523609,42.431701,CHRISTIAN,NBC,NOT AVAILABLE,NOT AVAILABLE,Y,N
27414,10452586,NEW LIGHT BAPTIST,DETROIT,MI,48204,4500,WAYNE,26163,2008-03-05T00:00:00.000Z,ALT REF,2008-03-05T00:00:00.000Z,CHURCHES,19583957,-83.1338558,42.3674725,CHRISTIAN,NBC,NOT AVAILABLE,NOT AVAILABLE,Y,N
27433,10431935,PERFECTING CHURCH,DETROIT,MI,48234,3284,WAYNE,26163,2007-09-11T00:00:00.000Z,ALT REF,2007-09-11T00:00:00.000Z,CHURCHES,20138686,-83.0251066,42.4264658,CHRISTIAN,NOT AVAILABLE,NOT AVAILABLE,NOT AVAILABLE,Y,N
27435,10432537,GREATER GRACE TEMPLE CITY OF DAVID,DETROIT,MI,48219,1722,WAYNE,26163,2007-09-11T00:00:00.000Z,ALT REF,2007-09-11T00:00:00.000Z,CHURCHES,19556809,-83.2710291,42.4296609,CHRISTIAN,NOT AVAILABLE,NOT AVAILABLE,NOT AVAILABLE,Y,N
27436,10432539,STRAIGHT GATE INTERNATIONAL CHURCH,DETROIT,MI,48204,2042,WAYNE,26163,2007-09-11T00:00:00.000Z,ALT REF,2007-09-11T00:00:00.000Z,CHURCHES,19590655,-83.1421707,42.3705893,CHRISTIAN,NONDENOM,NOT AVAILABLE,NOT AVAILABLE,Y,N
27437,10432542,NEW SAINT PAUL TABERNACLE CHURCH OF GOD IN CHRIST,DETROIT,MI,48223,1359,WAYNE,26163,2007-09-11T00:00:00.000Z,ALT REF,2007-09-11T00:00:00.000Z,CHURCHES,19569260,-83.2175383,42.4020461,CHRISTIAN,COGIC,NOT AVAILABLE,NOT AVAILABLE,Y,N
27442,10457545,EBENEZER AFRICAN METHODIST EPISCOPAL CHURCH,DETROIT,MI,48204,1722,WAYNE,26163,2008-03-04T00:00:00.000Z,ALT REF,2008-03-10T00:00:00.000Z,CHURCHES,19583989,-83.1317422,42.3674294,CHRISTIAN,AME,NOT AVAILABLE,NOT AVAILABLE,Y,N
27458,10440307,EMMANUEL EPISCOPAL CHURCH,DETROIT,MI,48203,2014,WAYNE,26163,2007-11-07T00:00:00.000Z,ALT REF,2007-11-07T00:00:00.000Z,CHURCHES,19529443,-83.1017919,42.4271415,CHRISTIAN,EPIS,NOT AVAILABLE,NOT AVAILABLE,Y,N
27460,10440348,SAINT MARTIN'S EPISCOPAL CHURCH,DETROIT,MI,48219,3006,WAYNE,26163,2007-11-07T00:00:00.000Z,ALT REF,2007-11-07T00:00:00.000Z,CHURCHES,108259455,-83.2860684,42.4269883,CHRISTIAN,EPIS,NOT AVAILABLE,NOT AVAILABLE,Y,N
27462,10440944,SAINT PHILIP'S AND SAINT STEPHEN'S EPISCOPAL CHURCH,DETROIT,MI,48213,3755,WAYNE,26163,2007-11-07T00:00:00.000Z,ALT REF,2007-11-26T00:00:00.000Z,CHURCHES,19714310,-82.9616145,42.3967335,CHRISTIAN,EPIS,NOT AVAILABLE,NOT AVAILABLE,Y,N
27463,10440945,ALL SAINTS' EPISCOPAL CHURCH,DETROIT,MI,48221,2218,WAYNE,26163,2007-11-07T00:00:00.000Z,ALT REF,2007-11-07T00:00:00.000Z,CHURCHES,19565708,-83.1383213,42.4313023,CHRISTIAN,EPIS,NOT AVAILABLE,NOT AVAILABLE,Y,N
27464,10440946,SAINT TIMOTHY'S EPISCOPAL CHURCH,DETROIT,MI,48238,1137,WAYNE,26163,2007-11-07T00:00:00.000Z,ALT REF,2007-11-07T00:00:00.000Z,CHURCHES,19568342,-83.159601,42.4081454,CHRISTIAN,EPIS,NOT AVAILABLE,NOT AVAILABLE,Y,N
27465,10440947,SAINT CHRISTOPHER / SAINT PAUL EPISCOPAL CHURCH,DETROIT,MI,48219,3973,WAYNE,26163,2007-11-07T00:00:00.000Z,ALT REF,2007-11-07T00:00:00.000Z,CHURCHES,19567669,-83.246608,42.4153906,CHRISTIAN,EPIS,NOT AVAILABLE,NOT AVAILABLE,Y,N
27466,10440949,GRACE EPISCOPAL CHURCH,DETROIT,MI,48206,2422,WAYNE,26163,2007-11-07T00:00:00.000Z,ALT REF,2007-11-07T00:00:00.000Z,CHURCHES,19548126,-83.0957012,42.3699361,CHRISTIAN,EPIS,NOT AVAILABLE,NOT AVAILABLE,Y,N
27472,10442629,SAINT GERARD,DETROIT,MI,48219,2145,WAYNE,26163,2007-09-05T00:00:00.000Z,ALT REF,2007-09-05T00:00:00.000Z,CHURCHES,19565171,-83.2384158,42.4370936,CHRISTIAN,NOT AVAILABLE,NOT AVAILABLE,NOT AVAILABLE,N,Y
27475,10442844,SAINT MATTHEW PARISH,DETROIT,MI,48224,2694,WAYNE,26163,2007-09-04T00:00:00.000Z,ALT REF,2007-09-04T00:00:00.000Z,CHURCHES,20164272,-82.9424811,42.4119288,CHRISTIAN,NOT AVAILABLE,NOT AVAILABLE,NOT AVAILABLE,N,Y
27476,10443155,TRANSFIGURATION CHURCH,DETROIT,MI,48212,2412,WAYNE,26163,2007-09-06T00:00:00.000Z,ALT REF,2007-09-05T00:00:00.000Z,CHURCHES,19530080,-83.0443355,42.4144594,CHRISTIAN,NOT AVAILABLE,NOT AVAILABLE,NOT AVAILABLE,N,Y
27493,10445849,SAINT RITA PARISH,DETROIT,MI,48203,1216,WAYNE,26163,2007-09-04T00:00:00.000Z,ALT REF,2007-09-04T00:00:00.000Z,CHURCHES,19533302,-83.0930907,42.439486,CHRISTIAN,NOT AVAILABLE,NOT AVAILABLE,NOT AVAILABLE,N,Y
27494,10447372,SAINT ANTHONY PARISH,DETROIT,MI,48213,2868,WAYNE,26163,2007-09-05T00:00:00.000Z,ALT REF,2007-09-05T00:00:00.000Z,CHURCHES,19531933,-83.0183495,42.3760563,CHRISTIAN,NOT AVAILABLE,NOT AVAILABLE,NOT AVAILABLE,N,Y
27495,10447380,CHRIST THE KING PARISH,DETROIT,MI,48219,3938,WAYNE,26163,2007-09-05T00:00:00.000Z,ALT REF,2007-09-05T00:00:00.000Z,CHURCHES,19567969,-83.2470923,42.4130126,CHRISTIAN,NOT AVAILABLE,NOT AVAILABLE,NOT AVAILABLE,N,Y
27496,10447383,SAINT ELIZABETH PARISH,DETROIT,MI,48207,1509,WAYNE,26163,2007-09-05T00:00:00.000Z,ALT REF,2007-09-05T00:00:00.000Z,CHURCHES,19548368,-83.0324693,42.3633074,CHRISTIAN,NOT AVAILABLE,NOT AVAILABLE,NOT AVAILABLE,N,Y
27497,10447385,SAINT FRANCIS DE SALES PARISH,DETROIT,MI,48238,1606,WAYNE,26163,2007-09-05T00:00:00.000Z,ALT REF,2007-09-05T00:00:00.000Z,CHURCHES,19569103,-83.1670761,42.40268,CHRISTIAN,NOT AVAILABLE,NOT AVAILABLE,NOT AVAILABLE,N,Y
27498,10447389,SAINT GREGORY THE GREAT PARISH,DETROIT,MI,48238,2124,WAYNE,26163,2007-09-05T00:00:00.000Z,ALT REF,2007-09-05T00:00:00.000Z,CHURCHES,19569240,-83.1362172,42.4009283,CHRISTIAN,NOT AVAILABLE,NOT AVAILABLE,NOT AVAILABLE,N,Y
27499,10447394,SAINT HYACINTH ROMAN CATHOLIC CHURCH,DETROIT,MI,48211,2925,WAYNE,26163,2007-09-05T00:00:00.000Z,ALT REF,2007-09-05T00:00:00.000Z,CHURCHES,19550903,-83.0364999,42.3693943,CHRISTIAN,NOT AVAILABLE,NOT AVAILABLE,NOT AVAILABLE,N,Y
27500,10447396,SAINT JOHN BERCHMANS - SAINT JULIANA PARISH,DETROIT,MI,48213,1910,WAYNE,26163,2007-09-05T00:00:00.000Z,ALT REF,2007-09-05T00:00:00.000Z,CHURCHES,19538912,-82.9694357,42.4113106,CHRISTIAN,NOT AVAILABLE,NOT AVAILABLE,NOT AVAILABLE,N,Y
27501,10447400,SAINT JUDE CHURCH,DETROIT,MI,48205,2545,WAYNE,26163,2007-09-04T00:00:00.000Z,ALT REF,2007-09-04T00:00:00.000Z,CHURCHES,19539487,-82.9563889,42.436118,CHRISTIAN,NOT AVAILABLE,NOT AVAILABLE,NOT AVAILABLE,N,Y
27502,10447402,SAINT LOUIS THE KING CHURCH,DETROIT,MI,48234,2718,WAYNE,26163,2007-09-04T00:00:00.000Z,ALT REF,2007-09-04T00:00:00.000Z,CHURCHES,19529037,-83.0409492,42.4332934,CHRISTIAN,NOT AVAILABLE,NOT AVAILABLE,NOT AVAILABLE,N,Y
27503,10447407,NATIVITY OF OUR LORD PARISH,DETROIT,MI,48213,3058,WAYNE,26163,2007-09-04T00:00:00.000Z,ALT REF,2007-09-04T00:00:00.000Z,CHURCHES,19604800,-83.0050045,42.3881768,CHRISTIAN,NOT AVAILABLE,NOT AVAILABLE,NOT AVAILABLE,N,Y
27504,10447408,OUR LADY OF GOOD COUNSEL,DETROIT,MI,48205,3120,WAYNE,26163,2007-09-04T00:00:00.000Z,ALT REF,2007-09-04T00:00:00.000Z,CHURCHES,19554350,-83.001951,42.4212568,CHRISTIAN,NOT AVAILABLE,NOT AVAILABLE,NOT AVAILABLE,N,Y
27505,10447419,SAINT RAYMOND PARISH,DETROIT,MI,48205,1136,WAYNE,26163,2007-09-05T00:00:00.000Z,ALT REF,2007-09-05T00:00:00.000Z,CHURCHES,19536765,-82.9909619,42.4450877,CHRISTIAN,NOT AVAILABLE,NOT AVAILABLE,NOT AVAILABLE,N,Y
27506,10447421,SAINT SCHOLASTICA PARISH,DETROIT,MI,48219,4175,WAYNE,26163,2007-09-05T00:00:00.000Z,ALT REF,2007-09-05T00:00:00.000Z,CHURCHES,19567573,-83.221268,42.4185498,CHRISTIAN,NOT AVAILABLE,NOT AVAILABLE,NOT AVAILABLE,N,Y
27507,10447423,SAINT SUZANNE PARISH,DETROIT,MI,48228,1707,WAYNE,26163,2007-09-05T00:00:00.000Z,ALT REF,2007-09-05T00:00:00.000Z,CHURCHES,19584351,-83.2307178,42.3643215,CHRISTIAN,NOT AVAILABLE,NOT AVAILABLE,NOT AVAILABLE,N,Y
27526,10456184,ALLEN TEMPLE AFRICAN METHODIST EPISCOPAL CHURCH,DETROIT,MI,48207,1946,WAYNE,26163,2008-03-04T00:00:00.000Z,ALT REF,2008-03-04T00:00:00.000Z,CHURCHES,19548143,-83.0171877,42.3675536,CHRISTIAN,AME,NOT AVAILABLE,NOT AVAILABLE,Y,N
27534,10453766,MILES FELLOWSHIP BAPTIST CHURCH,DETROIT,MI,48214,1076,WAYNE,26163,2008-03-03T00:00:00.000Z,ALT REF,2008-03-03T00:00:00.000Z,CHURCHES,19550558,-83.0129863,42.3671442,CHRISTIAN,NBC,NOT AVAILABLE,NOT AVAILABLE,Y,N
27536,10453937,FIRST GLORY BAPTIST CHURCH,DETROIT,MI,48204,1549,WAYNE,26163,2008-03-03T00:00:00.000Z,ALT REF,2008-03-03T00:00:00.000Z,CHURCHES,19571376,-83.1338346,42.3794531,CHRISTIAN,NBC,NOT AVAILABLE,NOT AVAILABLE,Y,N
27537,10457571,IMMANUEL GRACE AFRICAN METHODIST EPISCOPAL CHURCH,DETROIT,MI,48215,3046,WAYNE,26163,2008-03-03T00:00:00.000Z,ALT REF,2008-03-03T00:00:00.000Z,CHURCHES,19553326,-82.9536529,42.3621645,CHRISTIAN,AME,NOT AVAILABLE,NOT AVAILABLE,Y,N
27544,10454096,EXODUS MISSIONARY BAPTIST CHURCH,DETROIT,MI,48234,4044,WAYNE,26163,2008-03-03T00:00:00.000Z,ALT REF,2008-03-03T00:00:00.000Z,CHURCHES,19530341,-83.0203271,42.4099034,CHRISTIAN,NBC,NOT AVAILABLE,NOT AVAILABLE,Y,N
27547,10452965,GREATER OLIVET BAPTIST CHURCH,DETROIT,MI,48235,2268,WAYNE,26163,2008-03-03T00:00:00.000Z,ALT REF,2008-03-03T00:00:00.000Z,CHURCHES,108211669,-83.2203699,42.4413329,CHRISTIAN,NBC,NOT AVAILABLE,NOT AVAILABLE,Y,N
27554,10453393,JEHOVAH MISSIONARY BAPTIST CHURCH,DETROIT,MI,48212,1631,WAYNE,26163,2008-03-04T00:00:00.000Z,ALT REF,2008-03-04T00:00:00.000Z,CHURCHES,19532267,-83.071223,42.4160629,CHRISTIAN,NBC,NOT AVAILABLE,NOT AVAILABLE,Y,N
27555,10454550,JERUSALEM MISSIONARY BAPTIST CHURCH,DETROIT,MI,48211,1764,WAYNE,26163,2008-03-04T00:00:00.000Z,ALT REF,2008-03-11T00:00:00.000Z,CHURCHES,123204565,-83.0312773,42.3858713,CHRISTIAN,NBC,NOT AVAILABLE,NOT AVAILABLE,Y,N
27556,10454230,METROPOLITAN BAPTIST CHURCH,DETROIT,MI,48238,3647,WAYNE,26163,2008-03-05T00:00:00.000Z,ALT REF,2008-03-05T00:00:00.000Z,CHURCHES,19531667,-83.1143627,42.3934193,CHRISTIAN,NBC,NOT AVAILABLE,NOT AVAILABLE,Y,N
27557,10452987,MOUNT ZION MISSIONARY BAPTIST CHURCH,DETROIT,MI,48214,1150,WAYNE,26163,2008-03-04T00:00:00.000Z,ALT REF,2008-03-04T00:00:00.000Z,CHURCHES,19548159,-83.0059126,42.367378,CHRISTIAN,NBC,NOT AVAILABLE,NOT AVAILABLE,Y,N
27558,10455065,NEW BETHEL BAPTIST CHURCH,DETROIT,MI,48206,2379,WAYNE,26163,2008-03-03T00:00:00.000Z,ALT REF,2008-03-03T00:00:00.000Z,CHURCHES,19551119,-83.1047558,42.3679529,CHRISTIAN,NBC,NOT AVAILABLE,NOT AVAILABLE,Y,N
27559,10454527,NEW SAINT MARK BAPTIST CHURCH,DETROIT,MI,48219,1028,WAYNE,26163,2008-03-03T00:00:00.000Z,ALT REF,2008-03-11T00:00:00.000Z,CHURCHES,123202216,-83.2823542,42.4422942,CHRISTIAN,NBC,NOT AVAILABLE,NOT AVAILABLE,Y,N
27560,10452912,GREATER MOUNT OLIVE MISSIONARY BAPTIST CHURCH,DETROIT,MI,48203,1005,WAYNE,26163,2008-03-04T00:00:00.000Z,ALT REF,2008-03-04T00:00:00.000Z,CHURCHES,127296296,-83.1104378,42.4464451,CHRISTIAN,NBC,NOT AVAILABLE,NOT AVAILABLE,Y,N
27561,10457590,OAK GROVE AFRICAN METHODIST EPISCOPAL CHURCH,DETROIT,MI,48221,1602,WAYNE,26163,2008-03-03T00:00:00.000Z,ALT REF,2008-03-03T00:00:00.000Z,CHURCHES,19571960,-83.1560847,42.4381519,CHRISTIAN,AME,NOT AVAILABLE,NOT AVAILABLE,Y,N
27562,10454531,OAKLAND AVENUE MISSIONARY BAPTIST CHURCH,DETROIT,MI,48202,3500,WAYNE,26163,2008-03-04T00:00:00.000Z,ALT REF,2008-03-04T00:00:00.000Z,CHURCHES,19551711,-83.0663938,42.3670333,CHRISTIAN,NBC,NOT AVAILABLE,NOT AVAILABLE,Y,N
27563,10452588,ORIGINAL NEW GRACE BAPTIST CHURCH,DETROIT,MI,48203,1514,WAYNE,26163,2008-03-03T00:00:00.000Z,ALT REF,2008-03-03T00:00:00.000Z,CHURCHES,19533007,-83.1159208,42.4350898,CHRISTIAN,NBC,NOT AVAILABLE,NOT AVAILABLE,Y,N
27564,10452592,RUSSELL STREET BAPTIST CHURCH,DETROIT,MI,48211,1249,WAYNE,26163,2008-03-04T00:00:00.000Z,ALT REF,2008-03-04T00:00:00.000Z,CHURCHES,19604244,-83.0661459,42.3849966,CHRISTIAN,NBC,NOT AVAILABLE,NOT AVAILABLE,Y,N
27565,10457610,RUTH CHAPEL AFRICAN METHODIST EPISCOPAL CHURCH,DETROIT,MI,48213,2876,WAYNE,26163,2008-03-03T00:00:00.000Z,ALT REF,2008-03-03T00:00:00.000Z,CHURCHES,19531907,-83.0170013,42.3780921,CHRISTIAN,AME,NOT AVAILABLE,NOT AVAILABLE,Y,N
27566,10455459,NEW SAINT PETER BAPTIST CHURCH,DETROIT,MI,48206,2436,WAYNE,26163,2008-03-11T00:00:00.000Z,ALT REF,2008-03-11T00:00:00.000Z,CHURCHES,19547958,-83.0939136,42.3731384,CHRISTIAN,NBC,NOT AVAILABLE,NOT AVAILABLE,Y,N
27567,10456263,VERNON CHAPEL AFRICAN METHODIST EPISCOPAL CHURCH,DETROIT,MI,48234,1846,WAYNE,26163,2008-03-04T00:00:00.000Z,ALT REF,2008-03-04T00:00:00.000Z,CHURCHES,19529299,-83.0661172,42.4286918,CHRISTIAN,AME,NOT AVAILABLE,NOT AVAILABLE,Y,N
27568,10455038,DETROIT MOUNT NEBY MISSIONARY BAPTIST CHURCH,DETROIT,MI,48214,1416,WAYNE,26163,2008-03-04T00:00:00.000Z,ALT REF,2008-03-04T00:00:00.000Z,CHURCHES,19545632,-82.9973162,42.3795281,CHRISTIAN,NBC,NOT AVAILABLE,NOT AVAILABLE,Y,N
27569,10457618,SAINT ANDREW AFRICAN METHODIST EPISCOPAL CHURCH,DETROIT,MI,48206,1129,WAYNE,26163,2008-03-04T00:00:00.000Z,ALT REF,2008-03-04T00:00:00.000Z,CHURCHES,19532871,-83.1189667,42.3879556,CHRISTIAN,AME,NOT AVAILABLE,NOT AVAILABLE,Y,N
27570,10455562,SAINT LUKE BAPTIST CHURCH,DETROIT,MI,48207,1168,WAYNE,26163,2008-03-03T00:00:00.000Z,ALT REF,2008-03-03T00:00:00.000Z,CHURCHES,19551288,-83.0379411,42.3639361,CHRISTIAN,NBC,NOT AVAILABLE,NOT AVAILABLE,Y,N
27571,10457641,SAINT MATTHEW AFRICAN METHODIST EPISCOPAL CHURCH,DETROIT,MI,48204,1629,WAYNE,26163,2008-03-04T00:00:00.000Z,ALT REF,2008-03-04T00:00:00.000Z,CHURCHES,19594599,-83.1243039,42.372328,CHRISTIAN,AME,NOT AVAILABLE,NOT AVAILABLE,Y,N
27572,10457612,SAUNDERS MEMORIAL AFRICAN METHODIST EPISCOPAL CHURCH,DETROIT,MI,48214,3805,WAYNE,26163,2008-03-04T00:00:00.000Z,ALT REF,2008-03-04T00:00:00.000Z,CHURCHES,19552952,-82.9914858,42.3729595,CHRISTIAN,AME,NOT AVAILABLE,NOT AVAILABLE,Y,N
27573,10453908,DAVISON MISSIONARY BAPTIST CHURCH,DETROIT,MI,48203,2205,WAYNE,26163,2008-03-04T00:00:00.000Z,ALT REF,2008-03-10T00:00:00.000Z,CHURCHES,19529845,-83.1011265,42.4203637,CHRISTIAN,NBC,NOT AVAILABLE,NOT AVAILABLE,Y,N
27574,10455268,FAITH TEMPLE BAPTIST CHURCH,DETROIT,MI,48214,1550,WAYNE,26163,2008-03-03T00:00:00.000Z,ALT REF,2008-03-03T00:00:00.000Z,CHURCHES,19540976,-82.9901598,42.3845872,CHRISTIAN,NBC,NOT AVAILABLE,NOT AVAILABLE,Y,N
27575,10455024,GARDEN OF FAITH MISSIONARY BAPTIST CHURCH,DETROIT,MI,48238,2502,WAYNE,26163,2008-03-04T00:00:00.000Z,ALT REF,2008-03-10T00:00:00.000Z,CHURCHES,19570140,-83.1413302,42.3911587,CHRISTIAN,NBC,NOT AVAILABLE,NOT AVAILABLE,Y,N
27576,10453354,MACEDONIA BAPTIST CHURCH,DETROIT,MI,48223,3564,WAYNE,26163,2008-03-05T00:00:00.000Z,ALT REF,2008-03-05T00:00:00.000Z,CHURCHES,19570367,-83.2188159,42.3910207,CHRISTIAN,NBC,NOT AVAILABLE,NOT AVAILABLE,Y,N
27577,10453258,LELAND MISSIONARY BAPTIST CHURCH,DETROIT,MI,48223,1537,WAYNE,26163,2008-03-05T00:00:00.000Z,ALT REF,2008-03-05T00:00:00.000Z,CHURCHES,19556089,-83.2621854,42.4006172,CHRISTIAN,NBC,NOT AVAILABLE,NOT AVAILABLE,Y,N
27578,10453484,ZION HILL BAPTIST CHURCH,DETROIT,MI,48205,4080,WAYNE,26163,2008-03-04T00:00:00.000Z,ALT REF,2008-03-04T00:00:00.000Z,CHURCHES,19538381,-82.9839049,42.4199387,CHRISTIAN,NBC,NOT AVAILABLE,NOT AVAILABLE,Y,N
27579,10453441,GREATER CONCORD MISSIONARY BAPTIST CHURCH,DETROIT,MI,48212,1788,WAYNE,26163,2008-03-04T00:00:00.000Z,ALT REF,2008-03-04T00:00:00.000Z,CHURCHES,19532353,-83.056478,42.4169178,CHRISTIAN,NBC,NOT AVAILABLE,NOT AVAILABLE,Y,N
27580,10453173,WINGS OF LOVE MISSIONARY BAPTIST CHURCH,DETROIT,MI,48203,2232,WAYNE,26163,2008-03-04T00:00:00.000Z,ALT REF,2008-03-04T00:00:00.000Z,CHURCHES,19529953,-83.1022104,42.418376,CHRISTIAN,NBC,NOT AVAILABLE,NOT AVAILABLE,Y,N
27581,10453673,BETHESDA MISSIONARY BAPTIST CHURCH,DETROIT,MI,48214,1242,WAYNE,26163,2008-03-04T00:00:00.000Z,ALT REF,2008-03-04T00:00:00.000Z,CHURCHES,19553794,-83.0013277,42.3745685,CHRISTIAN,NBC,NOT AVAILABLE,NOT AVAILABLE,Y,N
27582,10452952,PLEASANT GROVE BAPTIST CHURCH,DETROIT,MI,48212,2171,WAYNE,26163,2008-03-04T00:00:00.000Z,ALT REF,2008-03-04T00:00:00.000Z,CHURCHES,19608396,-83.0800044,42.4126548,CHRISTIAN,NBC,NOT AVAILABLE,NOT AVAILABLE,Y,N
27583,10454158,SAINT JAMES MISSIONARY BAPTIST CHURCH,DETROIT,MI,48234,3957,WAYNE,26163,2008-03-04T00:00:00.000Z,ALT REF,2008-03-04T00:00:00.000Z,CHURCHES,19532496,-83.0230003,42.4174256,CHRISTIAN,NBC,NOT AVAILABLE,NOT AVAILABLE,Y,N
27584,10454868,NORTHWEST UNITY MISSIONARY BAPTIST CHURCH,DETROIT,MI,48238,1883,WAYNE,26163,2008-03-12T00:00:00.000Z,ALT REF,2008-03-11T00:00:00.000Z,CHURCHES,19569150,-83.1545806,42.4015863,CHRISTIAN,NBC,NOT AVAILABLE,NOT AVAILABLE,Y,N
27585,10454799,TREE OF LIFE MISSIONARY BAPTIST CHURCH,DETROIT,MI,48213,2782,WAYNE,26163,2008-03-04T00:00:00.000Z,ALT REF,2008-03-04T00:00:00.000Z,CHURCHES,19604793,-83.0086583,42.3898746,CHRISTIAN,NBC,NOT AVAILABLE,NOT AVAILABLE,Y,N
27588,10453621,ANTIOCH MISSIONARY BAPTIST CHURCH,DETROIT,MI,48234,1641,WAYNE,26163,2008-03-03T00:00:00.000Z,ALT REF,2008-03-03T00:00:00.000Z,CHURCHES,19529507,-83.0709416,42.4266705,CHRISTIAN,NBC,NOT AVAILABLE,NOT AVAILABLE,Y,N
27589,10452865,BURNETTE BAPTIST CHURCH,DETROIT,MI,48227,1343,WAYNE,26163,2008-03-04T00:00:00.000Z,ALT REF,2008-03-04T00:00:00.000Z,CHURCHES,19570581,-83.2119245,42.3857587,CHRISTIAN,NBC,NOT AVAILABLE,NOT AVAILABLE,Y,N
27606,10453603,FREEDOM BAPTIST CHURCH,DETROIT,MI,48215,2616,WAYNE,26163,2008-03-05T00:00:00.000Z,ALT REF,2008-03-05T00:00:00.000Z,CHURCHES,19540901,-82.952796,42.3788021,CHRISTIAN,NBC,NOT AVAILABLE,NOT AVAILABLE,Y,N
27607,10454335,ELYTON MISSIONARY BAPTIST CHURCH,DETROIT,MI,48213,2162,WAYNE,26163,2008-03-03T00:00:00.000Z,ALT REF,2008-03-03T00:00:00.000Z,CHURCHES,19532036,-83.0276483,42.3939326,CHRISTIAN,NBC,NOT AVAILABLE,NOT AVAILABLE,Y,N
27608,10455264,JEHOVAH UNITY BAPTIST CHURCH,DETROIT,MI,48235,3915,WAYNE,26163,2008-03-05T00:00:00.000Z,ALT REF,2008-03-05T00:00:00.000Z,CHURCHES,19567490,-83.1865634,42.4162228,CHRISTIAN,NBC,NOT AVAILABLE,NOT AVAILABLE,Y,N
27609,10457569,HUGGINS COMMUNITY AFRICAN METHODIST EPISCOPAL CHURCH,DETROIT,MI,48206,2135,WAYNE,26163,2008-03-04T00:00:00.000Z,ALT REF,2008-03-04T00:00:00.000Z,CHURCHES,19551110,-83.1075387,42.3709737,CHRISTIAN,AME,NOT AVAILABLE,NOT AVAILABLE,Y,N
27610,10455249,JUDE MISSIONARY BAPTIST CHURCH,DETROIT,MI,48213,2127,WAYNE,26163,2008-03-03T00:00:00.000Z,ALT REF,2008-03-03T00:00:00.000Z,CHURCHES,19532534,-83.0223716,42.3951622,CHRISTIAN,NBC,NOT AVAILABLE,NOT AVAILABLE,Y,N
27612,10452384,HOLY TABERNACLE BAPTIST CHURCH,DETROIT,MI,48207,1509,WAYNE,26163,2008-03-04T00:00:00.000Z,ALT REF,2008-03-04T00:00:00.000Z,CHURCHES,19548368,-83.0320325,42.3633516,CHRISTIAN,NBC,NOT AVAILABLE,NOT AVAILABLE,Y,N
27613,10454108,GREATER OLD LANDMARK MISSIONARY BAPTIST CHURCH,DETROIT,MI,48224,3358,WAYNE,26163,2008-03-05T00:00:00.000Z,ALT REF,2008-03-05T00:00:00.000Z,CHURCHES,19540634,-82.9481799,42.3931123,CHRISTIAN,NBC,NOT AVAILABLE,NOT AVAILABLE,Y,N
27614,10454555,OLD LAND MARK MISSIONARY BAPTIST CHURCH,DETROIT,MI,48235,4108,WAYNE,26163,2008-03-03T00:00:00.000Z,ALT REF,2008-03-03T00:00:00.000Z,CHURCHES,19568172,-83.1701473,42.4098468,CHRISTIAN,NBC,NOT AVAILABLE,NOT AVAILABLE,Y,N
27615,10447418,PRESENTATION - OUR LADY OF VICTORY PARISH,DETROIT,MI,48235,1229,WAYNE,26163,2007-09-05T00:00:00.000Z,ALT REF,2007-09-05T00:00:00.000Z,CHURCHES,19565120,-83.170569,42.4381437,CHRISTIAN,NOT AVAILABLE,NOT AVAILABLE,NOT AVAILABLE,N,Y
27620,10436492,SECOND CHAPEL HILL MISSIONARY BAPTIST CHURCH - EAST,DETROIT,MI,48205,2458,WAYNE,26163,2007-09-19T00:00:00.000Z,ALT REF,2007-09-19T00:00:00.000Z,CHURCHES,19537381,-82.979491,42.4338553,CHRISTIAN,SBC,906,NOT AVAILABLE,Y,N
27621,10447376,SAINT BRENDAN PARISH,DETROIT,MI,48224,1132,WAYNE,26163,2007-09-05T00:00:00.000Z,ALT REF,2007-09-05T00:00:00.000Z,CHURCHES,20164150,-82.9455993,42.425194,CHRISTIAN,NOT AVAILABLE,NOT AVAILABLE,NOT AVAILABLE,N,Y
27624,10442739,SAINT MARY OF REDFORD PARISH,DETROIT,MI,48227,1862,WAYNE,26163,2007-09-04T00:00:00.000Z,ALT REF,2007-09-04T00:00:00.000Z,CHURCHES,19569768,-83.2059913,42.396381,CHRISTIAN,NOT AVAILABLE,NOT AVAILABLE,NOT AVAILABLE,N,Y
27637,10438301,WYOMING AVENUE CHURCH OF CHRIST,DETROIT,MI,48221,1027,WAYNE,26163,2007-10-10T00:00:00.000Z,ALT REF,2007-10-10T00:00:00.000Z,CHURCHES,19564668,-83.1617271,42.4412421,CHRISTIAN,COC,1009,NOT AVAILABLE,Y,N
27640,10447416,SAINT PHILOMENA PARISH,DETROIT,MI,48224,1446,WAYNE,26163,2007-09-04T00:00:00.000Z,ALT REF,2007-09-04T00:00:00.000Z,CHURCHES,19714253,-82.9180628,42.4036222,CHRISTIAN,NOT AVAILABLE,NOT AVAILABLE,NOT AVAILABLE,N,Y
27645,10447409,OUR LADY HELP OF CHRISTIANS CATHOLIC CHURCH,DETROIT,MI,48212,2262,WAYNE,26163,2008-03-27T00:00:00.000Z,ALT REF,2008-03-27T00:00:00.000Z,CHURCHES,19535879,-83.0645235,42.4101349,CHRISTIAN,NOT AVAILABLE,NOT AVAILABLE,NOT AVAILABLE,N,Y
27651,10453489,FLOWERY MOUNTAIN BAPTIST CHURCH,DETROIT,MI,48238,2807,WAYNE,26163,2008-03-05T00:00:00.000Z,ALT REF,2008-03-05T00:00:00.000Z,CHURCHES,19595378,-83.1230151,42.3939893,CHRISTIAN,NBC,NOT AVAILABLE,NOT AVAILABLE,Y,N
27652,10455308,TRUTH MISSIONARY BAPTIST CHURCH,DETROIT,MI,48221,2649,WAYNE,26163,2008-03-03T00:00:00.000Z,ALT REF,2008-03-03T00:00:00.000Z,CHURCHES,19567343,-83.1445939,42.4174298,CHRISTIAN,NBC,NOT AVAILABLE,NOT AVAILABLE,Y,N
27654,10442800,CHALDEAN SACRED HEART CHURCH,DETROIT,MI,48203,1954,WAYNE,26163,2007-09-04T00:00:00.000Z,ALT REF,2007-09-04T00:00:00.000Z,CHURCHES,19532749,-83.1068671,42.4325198,CHRISTIAN,NOT AVAILABLE,NOT AVAILABLE,NOT AVAILABLE,N,Y
27656,10447377,SAINT CECILIA PARISH,DETROIT,MI,48204,5325,WAYNE,26163,2007-09-05T00:00:00.000Z,ALT REF,2007-09-05T00:00:00.000Z,CHURCHES,19590770,-83.1400693,42.3721933,CHRISTIAN,NOT AVAILABLE,NOT AVAILABLE,NOT AVAILABLE,N,Y
27658,10442369,OUR LADY QUEEN OF HEAVEN PARISH,DETROIT,MI,48234,3358,WAYNE,26163,2007-09-05T00:00:00.000Z,ALT REF,2007-09-05T00:00:00.000Z,CHURCHES,19534109,-83.0217054,42.4393121,CHRISTIAN,NOT AVAILABLE,NOT AVAILABLE,NOT AVAILABLE,N,Y
27659,10447387,SAINT GEMMA GALGANI PARISH,DETROIT,MI,48223,3032,WAYNE,26163,2007-09-05T00:00:00.000Z,ALT REF,2007-09-05T00:00:00.000Z,CHURCHES,19715689,-83.2690982,42.3838059,CHRISTIAN,NOT AVAILABLE,NOT AVAILABLE,NOT AVAILABLE,N,Y
27678,10432536,NEW PROVIDENCE BAPTIST CHURCH,DETROIT,MI,48228,1142,WAYNE,26163,2007-09-11T00:00:00.000Z,ALT REF,2007-09-11T00:00:00.000Z,CHURCHES,19583757,-83.2175838,42.3719747,CHRISTIAN,BAPT,NOT AVAILABLE,NOT AVAILABLE,Y,N
27686,10442445,SAINT MARON CHURCH,DETROIT,MI,48214,3307,WAYNE,26163,2007-09-06T00:00:00.000Z,ALT REF,2007-09-05T00:00:00.000Z,CHURCHES,19552966,-82.9704513,42.3697335,CHRISTIAN,NOT AVAILABLE,NOT AVAILABLE,NOT AVAILABLE,N,Y
27769,10431814,MASJID WALI MUHAMMAD,DETROIT,MI,48206,1546,WAYNE,26163,2007-10-10T00:00:00.000Z,ALT REF,2007-10-10T00:00:00.000Z,"MOSQUES, RELIGIOUS",19532884,-83.1144724,42.3814189,MUSLIM,NOT AVAILABLE,NOT AVAILABLE,NOT AVAILABLE,N,N
27773,10431736,MASJID AL-IKHLAS,DETROIT,MI,48224,2741,WAYNE,26163,2007-10-09T00:00:00.000Z,ALT REF,2007-10-09T00:00:00.000Z,"MOSQUES, RELIGIOUS",19541146,-82.9372623,42.4030133,MUSLIM,NOT AVAILABLE,NOT AVAILABLE,NOT AVAILABLE,N,N
27775,10431519,DETROIT MASJID,DETROIT,MI,48235,1493,WAYNE,26163,2007-10-09T00:00:00.000Z,ALT REF,2007-10-09T00:00:00.000Z,"MOSQUES, RELIGIOUS",19566814,-83.1699945,42.4230988,MUSLIM,NOT AVAILABLE,NOT AVAILABLE,NOT AVAILABLE,N,N
27776,10430907,ISLAMIC CENTER OF NORTH DETROIT / MASJID AL-FALAH,DETROIT,MI,48212,2262,WAYNE,26163,2008-03-27T00:00:00.000Z,ALT REF,2008-03-27T00:00:00.000Z,"MOSQUES, RELIGIOUS",19535879,-83.0645228,42.4101338,MUSLIM,NOT AVAILABLE,NOT AVAILABLE,NOT AVAILABLE,N,N
27782,10431621,ISLAMIC COMMUNITY CENTER,DETROIT,MI,48211,1595,WAYNE,26163,2007-10-10T00:00:00.000Z,ALT REF,2007-10-10T00:00:00.000Z,"MOSQUES, RELIGIOUS",19532030,-83.0400999,42.3924116,MUSLIM,NOT AVAILABLE,NOT AVAILABLE,NOT AVAILABLE,N,N
27783,10430939,BAIT-UL-ISLAM,DETROIT,MI,48211,1851,WAYNE,26163,2007-07-19T00:00:00.000Z,PHONE,2007-07-19T00:00:00.000Z,"MOSQUES, RELIGIOUS",19531959,-83.0395284,42.3870662,MUSLIM,NOT AVAILABLE,NOT AVAILABLE,NOT AVAILABLE,N,N
27784,10457589,NEW SAINT JOHNS MISSIONARY BAPTIST CHURCH,DETROIT,MI,48211,1587,WAYNE,26163,2008-03-04T00:00:00.000Z,ALT REF,2008-03-04T00:00:00.000Z,CHURCHES,19531958,-83.0427034,42.390772,CHRISTIAN,NOT AVAILABLE,NOT AVAILABLE,NOT AVAILABLE,Y,N
27842,10760099,OUTER DRIVE FAITH LUTHERAN CHURCH,DETROIT,MI,48235,2642,WAYNE,26163,2009-07-29T00:00:00.000Z,ALT REF,2009-07-29T00:00:00.000Z,CHURCHES,19567017,-83.174584,42.421005,CHRISTIAN,LCMS,NOT AVAILABLE,NOT AVAILABLE,Y,N
27843,10439441,THE CHURCH OF JESUS CHRIST OF LATTER DAY SAINTS - GRAND RIVER BRANCH,DETROIT,MI,48227,3460,WAYNE,26163,2009-07-29T00:00:00.000Z,ALT REF,2009-07-29T00:00:00.000Z,CHURCHES,724635459,-83.1776753,42.3737076,CHRISTIAN,LDS,NOT AVAILABLE,NOT AVAILABLE,Y,N
27844,10448276,SAINT JOHN THE BAPTIST CHURCH,DETROIT,MI,48203,1060,WAYNE,26163,2009-07-28T00:00:00.000Z,ALT REF,2009-07-28T00:00:00.000Z,CHURCHES,19571607,-83.1249312,42.4452113,CHRISTIAN,NOT AVAILABLE,NOT AVAILABLE,NOT AVAILABLE,N,Y
27845,10447395,IMMACULATE HEART OF MARY CHURCH,DETROIT,MI,48235,2352,WAYNE,26163,2009-07-28T00:00:00.000Z,ALT REF,2009-07-28T00:00:00.000Z,CHURCHES,19565050,-83.2060239,42.4378576,CHRISTIAN,NOT AVAILABLE,NOT AVAILABLE,NOT AVAILABLE,N,Y
27846,10447388,GESU CHURCH,DETROIT,MI,48221,3023,WAYNE,26163,2009-07-31T00:00:00.000Z,ALT REF,2009-07-29T00:00:00.000Z,CHURCHES,20164744,-83.1384528,42.4187,CHRISTIAN,NOT AVAILABLE,NOT AVAILABLE,NOT AVAILABLE,N,Y
27852,10587713,RENAISSANCE BAPTIST CHURCH,DETROIT,MI,48207,1926,WAYNE,26163,2009-07-30T00:00:00.000Z,ALT REF,2009-07-30T00:00:00.000Z,CHURCHES,127294718,-83.0177612,42.370427,CHRISTIAN,ABC,NOT AVAILABLE,NOT AVAILABLE,Y,N
27853,10587703,NEW GALILEE MISSIONARY BAPTIST CHURCH,DETROIT,MI,48213,1307,WAYNE,26163,2009-07-30T00:00:00.000Z,ALT REF,2009-07-30T00:00:00.000Z,CHURCHES,19541949,-82.9964007,42.4091858,CHRISTIAN,ABC,NOT AVAILABLE,NOT AVAILABLE,Y,N
27854,10431717,MASJIDUN-NUR,DETROIT,MI,48212,2556,WAYNE,26163,2009-07-28T00:00:00.000Z,ALT REF,2009-07-28T00:00:00.000Z,"MOSQUES, RELIGIOUS",717454038,-83.0433423,42.4065499,MUSLIM,NOT AVAILABLE,NOT AVAILABLE,NOT AVAILABLE,N,N
27855,10443836,CATHEDRAL OF THE MOST BLESSED SACRAMENT,DETROIT,MI,48202,1309,WAYNE,26163,2009-07-28T00:00:00.000Z,ALT REF,2009-07-28T00:00:00.000Z,CHURCHES,19532616,-83.0848163,42.388593,CHRISTIAN,NOT AVAILABLE,NOT AVAILABLE,NOT AVAILABLE,N,Y
27856,10587716,SANCTUARY MISSIONARY BAPTIST CHURCH,DETROIT,MI,48238,2502,WAYNE,26163,2009-07-30T00:00:00.000Z,ALT REF,2009-07-30T00:00:00.000Z,CHURCHES,19570140,-83.1410117,42.3912187,CHRISTIAN,ABC,NOT AVAILABLE,NOT AVAILABLE,Y,N
27857,10587701,MOUNT VERNON MISSIONARY BAPTIST CHURCH,DETROIT,MI,48223,2011,WAYNE,26163,2009-07-30T00:00:00.000Z,ALT REF,2009-07-30T00:00:00.000Z,CHURCHES,19569640,-83.2473652,42.399732,CHRISTIAN,ABC,NOT AVAILABLE,NOT AVAILABLE,Y,N
27858,10442630,THE CATHOLIC CHURCH OF MADONNA,DETROIT,MI,48238,2950,WAYNE,26163,2009-07-28T00:00:00.000Z,ALT REF,2009-07-28T00:00:00.000Z,CHURCHES,19712175,-83.1170728,42.4008241,CHRISTIAN,NOT AVAILABLE,NOT AVAILABLE,NOT AVAILABLE,N,Y
27859,10457565,GREGG MEMORIAL AFRICAN METHODIST EPISCOPAL CHURCH,DETROIT,MI,48204,1946,WAYNE,26163,2009-07-30T00:00:00.000Z,ALT REF,2009-07-30T00:00:00.000Z,CHURCHES,19590580,-83.1603187,42.3737092,CHRISTIAN,AME,NOT AVAILABLE,NOT AVAILABLE,Y,N
27860,10575045,SAINT PAUL AFRICAN METHODIST EPISCOPAL ZION CHURCH,DETROIT,MI,48206,1424,WAYNE,26163,2009-07-29T00:00:00.000Z,ALT REF,2009-07-29T00:00:00.000Z,CHURCHES,19595310,-83.1232133,42.3776686,CHRISTIAN,AMEZ,NOT AVAILABLE,NOT AVAILABLE,Y,N
27861,10587605,BETHANY BAPTIST CHURCH,DETROIT,MI,48228,2357,WAYNE,26163,2009-07-24T00:00:00.000Z,ALT REF,2009-07-24T00:00:00.000Z,CHURCHES,19584119,-83.1934045,42.3657318,CHRISTIAN,ABC,NOT AVAILABLE,NOT AVAILABLE,Y,N
27862,10587684,GREATER NEW MOUNT MORIAH MISSIONARY BAPTIST CHURCH,DETROIT,MI,48202,1819,WAYNE,26163,2009-07-31T00:00:00.000Z,ALT REF,2009-07-30T00:00:00.000Z,CHURCHES,19531231,-83.074178,42.3852772,CHRISTIAN,ABC,NOT AVAILABLE,NOT AVAILABLE,Y,N
27863,10587710,PALESTINE MISSIONARY BAPTIST CHURCH,DETROIT,MI,48238,1134,WAYNE,26163,2009-07-31T00:00:00.000Z,ALT REF,2009-07-31T00:00:00.000Z,CHURCHES,19568583,-83.1602108,42.4076577,CHRISTIAN,ABC,NOT AVAILABLE,NOT AVAILABLE,Y,N
27864,10575039,GREATER SAINT PETERS AFRICAN METHODIST EPISCOPAL ZION CHURCH,DETROIT,MI,48207,1744,WAYNE,26163,2009-07-29T00:00:00.000Z,ALT REF,2009-07-29T00:00:00.000Z,CHURCHES,19551561,-83.0246769,42.3665243,CHRISTIAN,AMEZ,NOT AVAILABLE,NOT AVAILABLE,Y,N
27865,10448197,SAINT NICHOLAS BYZANTINE CATHOLIC CHURCH,DETROIT,MI,48224,1177,WAYNE,26163,2009-07-27T00:00:00.000Z,ALT REF,2009-07-27T00:00:00.000Z,CHURCHES,19537661,-82.9407424,42.4302711,CHRISTIAN,NOT AVAILABLE,NOT AVAILABLE,NOT AVAILABLE,N,Y
27866,10447404,MARTYRS OF UGANDA CHURCH,DETROIT,MI,48206,2604,WAYNE,26163,2009-07-29T00:00:00.000Z,ALT REF,2009-07-29T00:00:00.000Z,CHURCHES,19550579,-83.0935036,42.3669,CHRISTIAN,NOT AVAILABLE,NOT AVAILABLE,NOT AVAILABLE,N,Y
27867,10587683,GREATER MACEDONIA BAPTIST CHURCH,DETROIT,MI,48214,1844,WAYNE,26163,2009-07-30T00:00:00.000Z,ALT REF,2009-07-30T00:00:00.000Z,CHURCHES,19551299,-83.0036721,42.3677465,CHRISTIAN,ABC,NOT AVAILABLE,NOT AVAILABLE,Y,N
27869,10587702,NEW CALVARY BAPTIST CHURCH,DETROIT,MI,48207,1904,WAYNE,26163,2009-07-24T00:00:00.000Z,ALT REF,2009-07-24T00:00:00.000Z,CHURCHES,19548242,-83.0190053,42.3664835,CHRISTIAN,ABC,NOT AVAILABLE,NOT AVAILABLE,Y,N
27870,10587682,GREATER CHRIST BAPTIST CHURCH,DETROIT,MI,48214,1887,WAYNE,26163,2009-07-24T00:00:00.000Z,ALT REF,2009-07-24T00:00:00.000Z,CHURCHES,19550423,-83.0011797,42.3684535,CHRISTIAN,ABC,NOT AVAILABLE,NOT AVAILABLE,Y,N
27874,10457561,GREATER QUINN AFRICAN METHODIST EPISCOPAL CHURCH,DETROIT,MI,48238,3421,WAYNE,26163,2009-07-30T00:00:00.000Z,ALT REF,2009-07-30T00:00:00.000Z,CHURCHES,19532862,-83.1136489,42.3964007,CHRISTIAN,AME,NOT AVAILABLE,NOT AVAILABLE,Y,N
27877,10585256,GREATER SOUTHERN MISSIONARY BAPTIST CHURCH,DETROIT,MI,48223,3351,WAYNE,26163,2009-07-30T00:00:00.000Z,ALT REF,2009-07-30T00:00:00.000Z,CHURCHES,19570863,-83.2407012,42.3855251,CHRISTIAN,ABC,NOT AVAILABLE,NOT AVAILABLE,Y,N
27878,10430914,MUHAMMADS MOSQUE,DETROIT,MI,48224,2721,WAYNE,26163,2009-07-27T00:00:00.000Z,ALT REF,2009-07-27T00:00:00.000Z,"MOSQUES, RELIGIOUS",20164336,-82.9393453,42.4028983,MUSLIM,NOT AVAILABLE,NOT AVAILABLE,NOT AVAILABLE,N,N
27879,10457588,NEW SAINT JAMES AFRICAN METHODIST EPISCOPAL CHURCH,DETROIT,MI,48206,2002,WAYNE,26163,2009-07-30T00:00:00.000Z,ALT REF,2009-07-30T00:00:00.000Z,CHURCHES,19531930,-83.1005687,42.3775215,CHRISTIAN,AME,NOT AVAILABLE,NOT AVAILABLE,Y,N
27880,10457478,BABER MEMORIAL AFRICAN METHODIST EPISCOPAL CHURCH,DETROIT,MI,48223,2011,WAYNE,26163,2009-07-30T00:00:00.000Z,ALT REF,2009-07-30T00:00:00.000Z,CHURCHES,19569640,-83.2473939,42.3987435,CHRISTIAN,AME,NOT AVAILABLE,NOT AVAILABLE,Y,N
27881,10443110,SAINT AUGUSTINE AND SAINT MONICA ROMAN CATHOLIC CHURCH,DETROIT,MI,48214,1125,WAYNE,26163,2009-07-28T00:00:00.000Z,ALT REF,2009-07-28T00:00:00.000Z,CHURCHES,19547970,-83.0057102,42.3710083,CHRISTIAN,NOT AVAILABLE,NOT AVAILABLE,NOT AVAILABLE,N,Y
27882,10761059,FELLOWSHIP CHAPEL,DETROIT,MI,48235,3248,WAYNE,26163,2009-07-29T00:00:00.000Z,ALT REF,2009-07-29T00:00:00.000Z,CHURCHES,19567171,-83.2119116,42.4186027,CHRISTIAN,UCC,700,NOT AVAILABLE,Y,N
27883,10457583,MOUNT CALVARY AFRICAN METHODIST EPISCOPAL CHURCH,DETROIT,MI,48203,2140,WAYNE,26163,2009-07-30T00:00:00.000Z,ALT REF,2009-07-30T00:00:00.000Z,CHURCHES,19532728,-83.0838464,42.4326374,CHRISTIAN,AME,NOT AVAILABLE,NOT AVAILABLE,Y,N
27884,10447411,OUR LADY OF THE ROSARY CHURCH,DETROIT,MI,48202,3516,WAYNE,26163,2009-07-29T00:00:00.000Z,ALT REF,2009-07-29T00:00:00.000Z,CHURCHES,108257779,-83.0688922,42.364571,CHRISTIAN,NOT AVAILABLE,NOT AVAILABLE,NOT AVAILABLE,N,Y
27890,10583216,COMMUNITY OF FAITH BAPTIST CHURCH,DETROIT,MI,48235,3121,WAYNE,26163,2009-07-24T00:00:00.000Z,ALT REF,2009-07-24T00:00:00.000Z,CHURCHES,19566727,-83.1999236,42.423397,CHRISTIAN,BAPT,NOT AVAILABLE,NOT AVAILABLE,Y,N
27892,10447390,GUARDIAN ANGELS CHURCH,DETROIT,MI,48224,1519,WAYNE,26163,2009-07-29T00:00:00.000Z,ALT REF,2009-07-29T00:00:00.000Z,CHURCHES,19539639,-82.9626626,42.4226126,CHRISTIAN,NOT AVAILABLE,NOT AVAILABLE,NOT AVAILABLE,N,Y
27893,10431460,UMMAT WASAT,DETROIT,MI,48234,2525,WAYNE,26163,2009-07-28T00:00:00.000Z,ALT REF,2009-07-28T00:00:00.000Z,"MOSQUES, RELIGIOUS",19533867,-83.0467327,42.4336614,MUSLIM,NOT AVAILABLE,NOT AVAILABLE,NOT AVAILABLE,N,N
27894,10447374,ASSUMPTION GROTTO CATHOLIC CHURCH,DETROIT,MI,48205,2806,WAYNE,26163,2009-07-27T00:00:00.000Z,ALT REF,2009-07-27T00:00:00.000Z,CHURCHES,19541899,-82.9814638,42.4278974,CHRISTIAN,NOT AVAILABLE,NOT AVAILABLE,NOT AVAILABLE,N,Y
27895,10439193,THE CHURCH OF JESUS CHRIST OF LATTER DAY SAINTS - PALMER PARK BRANCH,DETROIT,MI,48203,1809,WAYNE,26163,2009-07-29T00:00:00.000Z,ALT REF,2009-07-29T00:00:00.000Z,CHURCHES,19531564,-83.1095588,42.4188037,CHRISTIAN,LDS,NOT AVAILABLE,NOT AVAILABLE,Y,N
27896,10430383,DETROIT MASJID,DETROIT,MI,48219,3553,WAYNE,26163,2009-07-28T00:00:00.000Z,ALT REF,2009-07-28T00:00:00.000Z,"MOSQUES, RELIGIOUS",19567425,-83.2370084,42.4181846,MUSLIM,NOT AVAILABLE,NOT AVAILABLE,NOT AVAILABLE,N,N
27897,10440943,SAINT MATTHEWS AND SAINT JOSEPHS EPISCOPAL CHURCH,DETROIT,MI,48202,2137,WAYNE,26163,2009-07-27T00:00:00.000Z,ALT REF,2009-07-27T00:00:00.000Z,CHURCHES,108258126,-83.0798122,42.3809874,CHRISTIAN,EPIS,NOT AVAILABLE,NOT AVAILABLE,Y,N
27898,10447417,SAINT PETER CLAVER CHURCH,DETROIT,MI,48235,4223,WAYNE,26163,2009-07-28T00:00:00.000Z,ALT REF,2009-07-28T00:00:00.000Z,CHURCHES,19567732,-83.1775081,42.4135408,CHRISTIAN,NOT AVAILABLE,NOT AVAILABLE,NOT AVAILABLE,N,Y
27899,10431730,MASJID AL-HAQQ,DETROIT,MI,48204,2415,WAYNE,26163,2009-07-28T00:00:00.000Z,ALT REF,2009-07-28T00:00:00.000Z,"MOSQUES, RELIGIOUS",19548137,-83.1217082,42.3688109,MUSLIM,NOT AVAILABLE,NOT AVAILABLE,NOT AVAILABLE,N,N
27900,10431795,MASJID MUATH BIN JABIL,DETROIT,MI,48211,NULL,WAYNE,26163,2009-07-28T00:00:00.000Z,ALT REF,2009-07-28T00:00:00.000Z,"MOSQUES, RELIGIOUS",19532033,-83.040604,42.3911552,MUSLIM,NOT AVAILABLE,NOT AVAILABLE,NOT AVAILABLE,N,N
28099,10583212,TRUELIGHT BAPTIST CHURCH,DETROIT,MI,48214,2202,WAYNE,26163,2009-08-03T00:00:00.000Z,ALT REF,2009-08-03T00:00:00.000Z,CHURCHES,19552944,-82.9746013,42.3713486,CHRISTIAN,BAPT,NOT AVAILABLE,NOT AVAILABLE,Y,N
28103,10452589,PRINCE OF PEACE BAPTIST CHURCH,DETROIT,MI,48238,3589,WAYNE,26163,2009-08-03T00:00:00.000Z,ALT REF,2009-08-03T00:00:00.000Z,CHURCHES,19531753,-83.1192195,42.3892702,CHRISTIAN,NBC,NOT AVAILABLE,NOT AVAILABLE,Y,N
28104,10432540,THIRD NEW HOPE BAPTIST CHURCH,DETROIT,MI,48227,3725,WAYNE,26163,2009-08-03T00:00:00.000Z,ALT REF,2009-08-03T00:00:00.000Z,CHURCHES,19590457,-83.170263,42.373484,CHRISTIAN,BAPT,NOT AVAILABLE,NOT AVAILABLE,Y,N
28105,10454415,CORINTHIAN BAPTIST CHURCH,DETROIT,MI,48212,2915,WAYNE,26163,2009-07-30T00:00:00.000Z,ALT REF,2009-07-30T00:00:00.000Z,CHURCHES,19531622,-83.0701052,42.3964138,CHRISTIAN,NBC,NOT AVAILABLE,NOT AVAILABLE,Y,N
28106,10430913,MUHAMMADS MOSQUE NUMBER 1,DETROIT,MI,48238,1733,WAYNE,26163,2009-07-28T00:00:00.000Z,ALT REF,2009-07-28T00:00:00.000Z,"MOSQUES, RELIGIOUS",19569550,-83.1591887,42.3991433,MUSLIM,NOT AVAILABLE,NOT AVAILABLE,NOT AVAILABLE,N,N
28107,10453792,DEXTER AVENUE BAPTIST CHURCH,DETROIT,MI,48238,2664,WAYNE,26163,2009-08-03T00:00:00.000Z,ALT REF,2009-08-03T00:00:00.000Z,CHURCHES,727454234,-83.1307973,42.3902534,CHRISTIAN,NBC,NOT AVAILABLE,NOT AVAILABLE,Y,N
28108,10454935,CHAPEL HILL MISSIONARY BAPTIST CHURCH,DETROIT,MI,48204,2228,WAYNE,26163,2009-08-03T00:00:00.000Z,ALT REF,2009-08-03T00:00:00.000Z,CHURCHES,19584095,-83.129061,42.3661517,CHRISTIAN,NBC,NOT AVAILABLE,NOT AVAILABLE,Y,N
28109,10454857,COMMUNITY PILGRIM MISSIONARY BAPTIST CHURCH,DETROIT,MI,48234,4032,WAYNE,26163,2009-08-03T00:00:00.000Z,ALT REF,2009-08-03T00:00:00.000Z,CHURCHES,19531572,-83.0137077,42.4132506,CHRISTIAN,NBC,NOT AVAILABLE,NOT AVAILABLE,Y,N
28110,10431506,MUSLIM CENTER MOSQUE,DETROIT,MI,48238,3651,WAYNE,26163,2009-07-28T00:00:00.000Z,ALT REF,2009-08-07T00:00:00.000Z,"MOSQUES, RELIGIOUS",16881795,-83.1111002,42.3967921,MUSLIM,NOT AVAILABLE,NOT AVAILABLE,NOT AVAILABLE,N,N
28111,10455067,SAMARITAN MISSIONARY BAPTIST CHURCH,DETROIT,MI,48214,1952,WAYNE,26163,2009-08-03T00:00:00.000Z,ALT REF,2009-08-03T00:00:00.000Z,CHURCHES,19553775,-82.997493,42.370193,CHRISTIAN,NBC,NOT AVAILABLE,NOT AVAILABLE,Y,N
28112,10453522,SECOND CANAAN MISSIONARY BAPTIST CHURCH,DETROIT,MI,48213,1931,WAYNE,26163,2009-08-03T00:00:00.000Z,ALT REF,2009-08-03T00:00:00.000Z,CHURCHES,19541110,-82.964891,42.4090814,CHRISTIAN,NBC,NOT AVAILABLE,NOT AVAILABLE,Y,N
28113,10453032,HOLY HOPE HERITAGE CHURCH BAPTIST,DETROIT,MI,48221,2009,WAYNE,26163,2009-08-04T00:00:00.000Z,ALT REF,2009-08-04T00:00:00.000Z,CHURCHES,19566224,-83.1611667,42.4284044,CHRISTIAN,NBC,NOT AVAILABLE,NOT AVAILABLE,Y,N
28114,10452372,CHURCH OF OUR FATHER,DETROIT,MI,48234,2359,WAYNE,26163,2009-08-03T00:00:00.000Z,ALT REF,2009-08-03T00:00:00.000Z,CHURCHES,19533872,-83.0498342,42.4336352,CHRISTIAN,NBC,NOT AVAILABLE,NOT AVAILABLE,Y,N
28115,10454757,GREATER COMMUNITY BAPTIST CHURCH,DETROIT,MI,48227,1500,WAYNE,26163,2009-08-03T00:00:00.000Z,ALT REF,2009-08-03T00:00:00.000Z,CHURCHES,19568310,-83.2100353,42.4088793,CHRISTIAN,NBC,NOT AVAILABLE,NOT AVAILABLE,Y,N
28117,10453704,INNER PEACE BAPTIST CHURCH,DETROIT,MI,48234,3937,WAYNE,26163,2009-08-03T00:00:00.000Z,ALT REF,2009-08-03T00:00:00.000Z,CHURCHES,724568337,-83.0265051,42.4192449,CHRISTIAN,NBC,NOT AVAILABLE,NOT AVAILABLE,Y,N
28119,10432538,HARTFORD MEMORIAL BAPTIST CHURCH,DETROIT,MI,48235,2573,WAYNE,26163,2009-08-03T00:00:00.000Z,ALT REF,2009-08-03T00:00:00.000Z,CHURCHES,19566228,-83.1834089,42.4286764,CHRISTIAN,NBC,NOT AVAILABLE,NOT AVAILABLE,Y,N
28120,10455271,GALILEE MISSIONARY BAPTIST CHURCH,DETROIT,MI,48234,3404,WAYNE,26163,2009-08-03T00:00:00.000Z,ALT REF,2009-08-03T00:00:00.000Z,CHURCHES,19532593,-83.0135648,42.4367782,CHRISTIAN,NBC,NOT AVAILABLE,NOT AVAILABLE,Y,N
28121,10447375,SAINT BARTHOLOMEW / SAINT RITA CHURCH,DETROIT,MI,48234,1807,WAYNE,26163,2009-07-29T00:00:00.000Z,ALT REF,2009-07-29T00:00:00.000Z,CHURCHES,19534478,-83.0661699,42.4422137,CHRISTIAN,NOT AVAILABLE,NOT AVAILABLE,NOT AVAILABLE,N,Y
28122,10443895,OUR LADY GATE OF HEAVEN,DETROIT,MI,48227,1657,WAYNE,26163,2009-07-29T00:00:00.000Z,ALT REF,2009-07-29T00:00:00.000Z,CHURCHES,19589551,-83.2051289,42.3657643,CHRISTIAN,NOT AVAILABLE,NOT AVAILABLE,NOT AVAILABLE,N,Y
28123,10455492,SECOND TIMOTHY BAPTIST CHURCH,DETROIT,MI,48214,1185,WAYNE,26163,2009-08-03T00:00:00.000Z,ALT REF,2009-08-03T00:00:00.000Z,CHURCHES,19531941,-83.0108365,42.376472,CHRISTIAN,NBC,NOT AVAILABLE,NOT AVAILABLE,Y,N
28124,10455194,LIBERTY TEMPLE BAPTIST CHURCH,DETROIT,MI,48235,3748,WAYNE,26163,2009-08-03T00:00:00.000Z,ALT REF,2009-08-03T00:00:00.000Z,CHURCHES,727464465,-83.1990214,42.417522,CHRISTIAN,NBC,NOT AVAILABLE,NOT AVAILABLE,Y,N
28125,10454989,GREATER SAINT PAUL BAPTIST CHURCH,DETROIT,MI,48205,1328,WAYNE,26163,2009-08-04T00:00:00.000Z,ALT REF,2009-08-04T00:00:00.000Z,CHURCHES,19543900,-82.9700899,42.447741,CHRISTIAN,NBC,NOT AVAILABLE,NOT AVAILABLE,Y,N
28126,10575042,LOMAX TEMPLE AFRICAN METHODIST EPISCOPAL ZION CHURCH,DETROIT,MI,48212,1047,WAYNE,26163,2009-07-29T00:00:00.000Z,ALT REF,2009-07-29T00:00:00.000Z,CHURCHES,19529797,-83.0827103,42.4216839,CHRISTIAN,AMEZ,NOT AVAILABLE,NOT AVAILABLE,Y,N
28127,10761735,NORTHWEST CHURCH OF CHRIST,DETROIT,MI,48204,2606,WAYNE,26163,2009-07-29T00:00:00.000Z,ALT REF,2009-07-29T00:00:00.000Z,CHURCHES,19584392,-83.1567611,42.3621123,CHRISTIAN,COC,400,NOT AVAILABLE,Y,N
28128,10577773,PEACE BAPTIST CHURCH,DETROIT,MI,48212,2110,WAYNE,26163,2009-08-04T00:00:00.000Z,ALT REF,2009-08-03T00:00:00.000Z,CHURCHES,19608477,-83.0732612,42.4119761,CHRISTIAN,BAPT,NOT AVAILABLE,NOT AVAILABLE,Y,N
28129,10430394,MADRASA TALIMUL QURAN,DETROIT,MI,48211,1549,WAYNE,26163,2009-08-19T00:00:00.000Z,ALT REF,2009-08-19T00:00:00.000Z,"MOSQUES, RELIGIOUS",19530930,-83.038432,42.3928303,MUSLIM,NOT AVAILABLE,NOT AVAILABLE,NOT AVAILABLE,N,N
28130,10587681,GREAT SALVATION MISSIONARY BAPTIST CHURCH,DETROIT,MI,48235,1961,WAYNE,26163,2009-08-07T00:00:00.000Z,ALT REF,2009-08-19T00:00:00.000Z,CHURCHES,19565589,-83.1894371,42.4339089,CHRISTIAN,ABC,NOT AVAILABLE,NOT AVAILABLE,Y,N
28132,10575044,METROPOLITAN AFRICAN METHODIST EPISCOPAL ZION CHURCH,DETROIT,MI,48203,2259,WAYNE,26163,2009-07-29T00:00:00.000Z,ALT REF,2009-07-29T00:00:00.000Z,CHURCHES,108258006,-83.1078585,42.4222705,CHRISTIAN,AMEZ,NOT AVAILABLE,NOT AVAILABLE,Y,N
28133,10583215,SECOND SWEET HOME INTERNATIONAL MINISTRIES,DETROIT,MI,48205,1837,WAYNE,26163,2009-07-31T00:00:00.000Z,ALT REF,2009-07-31T00:00:00.000Z,CHURCHES,19537049,-82.9757469,42.4398855,CHRISTIAN,NOT AVAILABLE,NOT AVAILABLE,NOT AVAILABLE,Y,N
28134,10432541,SECOND EBENEZER CHURCH,DETROIT,MI,48212,1503,WAYNE,26163,2009-07-31T00:00:00.000Z,ALT REF,2009-07-31T00:00:00.000Z,CHURCHES,19608341,-83.0840797,42.4165465,CHRISTIAN,NOT AVAILABLE,NOT AVAILABLE,NOT AVAILABLE,Y,N
28136,10432543,NEW PROSPECT MISSIONARY BAPTIST CHURCH,DETROIT,MI,48221,1261,WAYNE,26163,2007-09-11T00:00:00.000Z,ALT REF,2008-09-05T00:00:00.000Z,CHURCHES,19564855,-83.1423423,42.4391152,CHRISTIAN,BAPT,NOT AVAILABLE,NOT AVAILABLE,Y,N
28138,10431576,ISLAMIC CENTER OF AMERICA,DETROIT,MI,48228,2117,WAYNE,26163,2007-10-10T00:00:00.000Z,ALT REF,2007-10-10T00:00:00.000Z,"MOSQUES, RELIGIOUS",19584784,-83.1991025,42.3574535,MUSLIM,NOT AVAILABLE,NOT AVAILABLE,NOT AVAILABLE,N,N
28141,10442540,SAINT ANNE DE DETROIT CATHOLIC CHURCH,DETROIT,MI,48216,2027,WAYNE,26163,2007-09-05T00:00:00.000Z,ALT REF,2007-09-05T00:00:00.000Z,CHURCHES,19550158,-83.0765913,42.3205802,CHRISTIAN,NOT AVAILABLE,NOT AVAILABLE,NOT AVAILABLE,N,Y
28142,10447393,MOST HOLY REDEEMER PARISH,DETROIT,MI,48209,2109,WAYNE,26163,2007-09-05T00:00:00.000Z,ALT REF,2007-09-05T00:00:00.000Z,CHURCHES,19550237,-83.1016792,42.3169948,CHRISTIAN,NOT AVAILABLE,NOT AVAILABLE,NOT AVAILABLE,N,Y
28154,10470268,NEW MOUNT MORIAH MISSIONARY BAPTIST CHURCH,DETROIT,MI,48208,2315,WAYNE,26163,2008-03-11T00:00:00.000Z,ALT REF,2008-03-11T00:00:00.000Z,CHURCHES,19549731,-83.1005428,42.3382913,CHRISTIAN,NOT AVAILABLE,NOT AVAILABLE,NOT AVAILABLE,Y,N
28198,10438033,PLYMOUTH UNITED CHURCH OF CHRIST,DETROIT,MI,48201,1438,WAYNE,26163,2007-09-25T00:00:00.000Z,ALT REF,2007-09-25T00:00:00.000Z,CHURCHES,19551670,-83.0562324,42.3595936,CHRISTIAN,UCC,1636,NOT AVAILABLE,Y,N
28216,10440234,SAINT PETER'S EPISCOPAL CHURCH,DETROIT,MI,48216,1529,WAYNE,26163,2007-11-07T00:00:00.000Z,ALT REF,2007-11-07T00:00:00.000Z,CHURCHES,19549971,-83.0662394,42.3309439,CHRISTIAN,EPIS,NOT AVAILABLE,NOT AVAILABLE,Y,N
28218,10440940,SAINT JOHN'S EPISCOPAL CHURCH,DETROIT,MI,48201,3405,WAYNE,26163,2007-11-07T00:00:00.000Z,ALT REF,2007-11-07T00:00:00.000Z,CHURCHES,123190330,-83.0520227,42.3397122,CHRISTIAN,EPIS,NOT AVAILABLE,NOT AVAILABLE,Y,N
28219,10440941,TRINITY EPISCOPAL CHURCH,DETROIT,MI,48208,2867,WAYNE,26163,2007-11-07T00:00:00.000Z,ALT REF,2007-11-07T00:00:00.000Z,CHURCHES,19550615,-83.0729749,42.3413365,CHRISTIAN,EPIS,NOT AVAILABLE,NOT AVAILABLE,Y,N
28220,10440942,EPISCOPAL(ANGLICAN) / LUTHERAN CAMPUS MINISTRY AT WAYNE STATE UNIVERSITY,DETROIT,MI,48202,3919,WAYNE,26163,2007-11-07T00:00:00.000Z,ALT REF,2007-11-07T00:00:00.000Z,CHURCHES,19547119,-83.0708761,42.3574521,CHRISTIAN,EPIS,NOT AVAILABLE,NOT AVAILABLE,Y,N
28228,10442698,SAINT DOMINIC CATHOLIC CHURCH,DETROIT,MI,48208,2235,WAYNE,26163,2007-09-05T00:00:00.000Z,ALT REF,2007-09-05T00:00:00.000Z,CHURCHES,19608064,-83.0782191,42.3520005,CHRISTIAN,NOT AVAILABLE,NOT AVAILABLE,NOT AVAILABLE,N,Y
28254,10447369,SAINT ANDREW PARISH,DETROIT,MI,48210,1937,WAYNE,26163,2007-09-05T00:00:00.000Z,ALT REF,2007-09-05T00:00:00.000Z,CHURCHES,19594379,-83.1359887,42.3379259,CHRISTIAN,NOT AVAILABLE,NOT AVAILABLE,NOT AVAILABLE,N,Y
28255,10447371,GOOD SHEPHERD CATHOLIC CHURCH,DETROIT,MI,48214,3009,WAYNE,26163,2007-09-05T00:00:00.000Z,ALT REF,2007-09-05T00:00:00.000Z,CHURCHES,19553363,-82.9847014,42.3606131,CHRISTIAN,NOT AVAILABLE,NOT AVAILABLE,NOT AVAILABLE,N,Y
28256,10447382,SAINT CUNEGUNDA CHURCH,DETROIT,MI,48210,3711,WAYNE,26163,2007-09-05T00:00:00.000Z,ALT REF,2007-09-05T00:00:00.000Z,CHURCHES,19586116,-83.1471984,42.3371137,CHRISTIAN,NOT AVAILABLE,NOT AVAILABLE,NOT AVAILABLE,N,Y
28257,10447391,SAINT HEDWIG CATHOLIC CHURCH,DETROIT,MI,48210,3203,WAYNE,26163,2007-09-05T00:00:00.000Z,ALT REF,2007-09-05T00:00:00.000Z,CHURCHES,19550038,-83.1097103,42.32774,CHRISTIAN,NOT AVAILABLE,NOT AVAILABLE,NOT AVAILABLE,N,Y
28258,10447392,HOLY FAMILY CHURCH,DETROIT,MI,48226,2911,WAYNE,26163,2007-09-05T00:00:00.000Z,ALT REF,2007-09-05T00:00:00.000Z,CHURCHES,123198990,-83.0349317,42.3324474,CHRISTIAN,NOT AVAILABLE,NOT AVAILABLE,NOT AVAILABLE,N,Y
28259,10447397,SAINT JOHN CANTIUS CHURCH,DETROIT,MI,48209,2635,WAYNE,26163,2007-09-04T00:00:00.000Z,ALT REF,2007-09-04T00:00:00.000Z,CHURCHES,19550414,-83.1225444,42.289709,CHRISTIAN,NOT AVAILABLE,NOT AVAILABLE,NOT AVAILABLE,N,Y
28260,10447398,SAINT JOSAPHAT CATHOLIC CHURCH,DETROIT,MI,48201,1909,WAYNE,26163,2007-09-04T00:00:00.000Z,ALT REF,2007-09-04T00:00:00.000Z,CHURCHES,19548810,-83.0526586,42.356571,CHRISTIAN,NOT AVAILABLE,NOT AVAILABLE,NOT AVAILABLE,N,Y
28261,10447405,OLD SAINT MARY'S CHURCH,DETROIT,MI,48226,2935,WAYNE,26163,2007-09-04T00:00:00.000Z,ALT REF,2007-09-04T00:00:00.000Z,CHURCHES,19552181,-83.0402902,42.3356143,CHRISTIAN,NOT AVAILABLE,NOT AVAILABLE,NOT AVAILABLE,N,Y
28262,10447410,OUR LADY OF MOUNT CARMEL PARISH,DETROIT,MI,48217,1454,WAYNE,26163,2007-09-04T00:00:00.000Z,ALT REF,2007-09-04T00:00:00.000Z,CHURCHES,19586827,-83.1493786,42.2885372,CHRISTIAN,NOT AVAILABLE,NOT AVAILABLE,NOT AVAILABLE,N,Y
28264,10447425,SAINT THOMAS AQUINAS CHURCH,DETROIT,MI,48228,3912,WAYNE,26163,2007-09-05T00:00:00.000Z,ALT REF,2007-09-05T00:00:00.000Z,CHURCHES,108258354,-83.2330858,42.3317707,CHRISTIAN,NOT AVAILABLE,NOT AVAILABLE,NOT AVAILABLE,N,Y
28271,10453924,GREATER SHILOH BAPTIST CHURCH,DETROIT,MI,48201,2321,WAYNE,26163,2008-03-03T00:00:00.000Z,ALT REF,2008-03-03T00:00:00.000Z,CHURCHES,20138573,-83.0504149,42.3488131,CHRISTIAN,NBC,NOT AVAILABLE,NOT AVAILABLE,Y,N
28272,10453541,PINE GROVE BAPTIST CHURCH,DETROIT,MI,48217,1119,WAYNE,26163,2008-03-03T00:00:00.000Z,ALT REF,2008-03-03T00:00:00.000Z,CHURCHES,108259061,-83.1531799,42.2747918,CHRISTIAN,NBC,NOT AVAILABLE,NOT AVAILABLE,Y,N
28274,10455455,NEW EBENEZER MISSIONARY BAPTIST CHURCH,DETROIT,MI,48210,1306,WAYNE,26163,2008-03-05T00:00:00.000Z,ALT REF,2008-03-05T00:00:00.000Z,CHURCHES,19550814,-83.1129449,42.3502355,CHRISTIAN,NBC,NOT AVAILABLE,NOT AVAILABLE,Y,N
28275,10452323,NEW HOPE BAPTIST CHURCH,DETROIT,MI,48217,1013,WAYNE,26163,2008-03-04T00:00:00.000Z,ALT REF,2008-03-04T00:00:00.000Z,CHURCHES,19587367,-83.156373,42.2742352,CHRISTIAN,NBC,NOT AVAILABLE,NOT AVAILABLE,Y,N
28276,10457651,SAINT PAUL AFRICAN METHODIST EPISCOPAL CHURCH,DETROIT,MI,48209,3055,WAYNE,26163,2008-03-04T00:00:00.000Z,ALT REF,2008-03-04T00:00:00.000Z,CHURCHES,19552891,-83.1027872,42.2996309,CHRISTIAN,AME,NOT AVAILABLE,NOT AVAILABLE,Y,N
28277,10455311,SHADY GROVE BAPTIST CHURCH,DETROIT,MI,48207,3237,WAYNE,26163,2008-03-04T00:00:00.000Z,ALT REF,2008-03-04T00:00:00.000Z,CHURCHES,19548907,-83.0271907,42.3537478,CHRISTIAN,NBC,NOT AVAILABLE,NOT AVAILABLE,Y,N
28278,10453457,AIJALON BAPTIST CHURCH,DETROIT,MI,48210,1292,WAYNE,26163,2008-03-04T00:00:00.000Z,ALT REF,2008-03-04T00:00:00.000Z,CHURCHES,19549142,-83.1194212,42.3516346,CHRISTIAN,NBC,NOT AVAILABLE,NOT AVAILABLE,Y,N
28279,10455135,TABERNACLE MISSIONARY BAPTIST CHURCH,DETROIT,MI,48210,1201,WAYNE,26163,2008-03-04T00:00:00.000Z,ALT REF,2008-03-04T00:00:00.000Z,CHURCHES,19551931,-83.1193802,42.3494251,CHRISTIAN,NBC,NOT AVAILABLE,NOT AVAILABLE,Y,N
28280,10453994,CHRISTS MISSION MISSIONARY BAPTIST CHURCH,DETROIT,MI,48207,2448,WAYNE,26163,2008-03-04T00:00:00.000Z,ALT REF,2008-03-04T00:00:00.000Z,CHURCHES,19551611,-83.0212941,42.3597615,CHRISTIAN,NBC,NOT AVAILABLE,NOT AVAILABLE,Y,N
28281,10457670,VISITORS CHAPEL AFRICAN METHODIST EPISCOPAL CHURCH,DETROIT,MI,48210,3152,WAYNE,26163,2008-03-04T00:00:00.000Z,ALT REF,2008-03-04T00:00:00.000Z,CHURCHES,19549923,-83.1063283,42.3329378,CHRISTIAN,AME,NOT AVAILABLE,NOT AVAILABLE,Y,N
28282,10453014,UNITY BAPTIST CHURCH,DETROIT,MI,48204,3465,WAYNE,26163,2008-03-05T00:00:00.000Z,ALT REF,2008-03-05T00:00:00.000Z,CHURCHES,19585323,-83.1443588,42.3522182,CHRISTIAN,NBC,NOT AVAILABLE,NOT AVAILABLE,Y,N
28283,10455020,SWEET KINGDOM MISSIONARY BAPTIST CHURCH,DETROIT,MI,48207,1604,WAYNE,26163,2008-03-04T00:00:00.000Z,ALT REF,2008-03-04T00:00:00.000Z,CHURCHES,19548576,-83.0367583,42.3601424,CHRISTIAN,NBC,NOT AVAILABLE,NOT AVAILABLE,Y,N
28293,10455302,TRUE LOVE MISSIONARY BAPTIST CHURCH,DETROIT,MI,48204,3213,WAYNE,26163,2008-03-04T00:00:00.000Z,ALT REF,2008-03-04T00:00:00.000Z,CHURCHES,19521986,-83.1498318,42.3521643,CHRISTIAN,NBC,NOT AVAILABLE,NOT AVAILABLE,Y,N
28294,10452376,WARREN AVENUE BAPTIST CHURCH,DETROIT,MI,48207,1033,WAYNE,26163,2008-03-04T00:00:00.000Z,ALT REF,2008-03-12T00:00:00.000Z,CHURCHES,19713816,-83.0523355,42.361236,CHRISTIAN,NBC,NOT AVAILABLE,NOT AVAILABLE,Y,N
28308,10454050,SECOND BAPTIST CHURCH OF DETROIT,DETROIT,MI,48226,2930,WAYNE,26163,2008-03-10T00:00:00.000Z,ALT REF,2008-03-10T00:00:00.000Z,CHURCHES,19552307,-83.0433274,42.3348984,CHRISTIAN,NBC,NOT AVAILABLE,NOT AVAILABLE,Y,N
28309,10448327,SAINT JOHN THE BAPTIST CHURCH (UKRAINIAN),DETROIT,MI,48210,2843,WAYNE,26163,2007-09-06T00:00:00.000Z,ALT REF,2007-09-05T00:00:00.000Z,CHURCHES,19594293,-83.1237852,42.3284655,CHRISTIAN,NOT AVAILABLE,NOT AVAILABLE,NOT AVAILABLE,N,Y
28311,10447403,SAINT LUKE PARISH,DETROIT,MI,48204,3235,WAYNE,26163,2007-09-04T00:00:00.000Z,ALT REF,2007-09-04T00:00:00.000Z,CHURCHES,19585344,-83.1530473,42.3523443,CHRISTIAN,NOT AVAILABLE,NOT AVAILABLE,NOT AVAILABLE,N,Y
28313,10447422,SAINT STEPHEN / MARY MOTHER OF THE CHURCH PARISH,DETROIT,MI,48210,2737,WAYNE,26163,2007-09-06T00:00:00.000Z,ALT REF,2007-09-06T00:00:00.000Z,CHURCHES,20164377,-83.1344823,42.3273584,CHRISTIAN,NOT AVAILABLE,NOT AVAILABLE,NOT AVAILABLE,N,Y
28324,10454480,NEW SALEM BAPTIST CHURCH,DETROIT,MI,48207,1434,WAYNE,26163,2008-03-04T00:00:00.000Z,ALT REF,2008-03-04T00:00:00.000Z,CHURCHES,19548731,-83.0370211,42.356993,CHRISTIAN,NBC,NOT AVAILABLE,NOT AVAILABLE,Y,N
28325,10455487,WILLIAMS CHAPEL MISSIONARY BAPTIST CHURCH,DETROIT,MI,48207,2419,WAYNE,26163,2008-03-04T00:00:00.000Z,ALT REF,2008-03-04T00:00:00.000Z,CHURCHES,19548760,-83.025324,42.3567798,CHRISTIAN,NBC,NOT AVAILABLE,NOT AVAILABLE,Y,N
28326,10447378,SAINT CHARLES BORROMEO PARISH,DETROIT,MI,48214,2432,WAYNE,26163,2007-09-05T00:00:00.000Z,ALT REF,2007-09-05T00:00:00.000Z,CHURCHES,19551673,-83.0018199,42.3550354,CHRISTIAN,NOT AVAILABLE,NOT AVAILABLE,NOT AVAILABLE,N,Y
28328,10447412,OUR LADY QUEEN OF ANGELS PARISH,DETROIT,MI,48210,2876,WAYNE,26163,2007-09-04T00:00:00.000Z,ALT REF,2007-09-04T00:00:00.000Z,CHURCHES,19594491,-83.1261966,42.3299567,CHRISTIAN,NOT AVAILABLE,NOT AVAILABLE,NOT AVAILABLE,N,Y
28332,10447381,SAINT CHRISTOPHER CATHOLIC CHURCH,DETROIT,MI,48228,3635,WAYNE,26163,2007-09-05T00:00:00.000Z,ALT REF,2007-09-05T00:00:00.000Z,CHURCHES,19585580,-83.2067169,42.3489605,CHRISTIAN,NOT AVAILABLE,NOT AVAILABLE,NOT AVAILABLE,N,Y
28520,10430934,MOORISH SCIENCE TEMPLE OF AMERICA TEMPLE 25,DETROIT,MI,48208,1545,WAYNE,26163,2007-07-18T00:00:00.000Z,PHONE,2007-07-18T00:00:00.000Z,"MOSQUES, RELIGIOUS",19551100,-83.0976281,42.3518493,MUSLIM,NOT AVAILABLE,NOT AVAILABLE,NOT AVAILABLE,N,N
28529,10431447,MASJID AL-FATIHA,DETROIT,MI,48201,NULL,WAYNE,26163,2007-10-09T00:00:00.000Z,ALT REF,2007-10-09T00:00:00.000Z,"MOSQUES, RELIGIOUS",19550496,-83.0614677,42.3369352,MUSLIM,NOT AVAILABLE,NOT AVAILABLE,NOT AVAILABLE,N,N
28541,10442931,OUR LADY OF SORROWS PARISH,DETROIT,MI,48207,3402,WAYNE,26163,2009-08-28T00:00:00.000Z,ALT REF,2009-08-28T00:00:00.000Z,CHURCHES,19548699,-83.0186281,42.3585405,CHRISTIAN,NOT AVAILABLE,NOT AVAILABLE,NOT AVAILABLE,N,Y
28544,10587705,NEW LIBERTY BAPTIST CHURCH,DETROIT,MI,48207,3402,WAYNE,26163,2009-07-27T00:00:00.000Z,ALT REF,2009-07-31T00:00:00.000Z,CHURCHES,19548699,-83.0186298,42.3585404,CHRISTIAN,ABC,NOT AVAILABLE,NOT AVAILABLE,Y,N
28835,10447386,SAINT GABRIELS CATHOLIC CHURCH,DETROIT,MI,48209,1524,WAYNE,26163,2009-07-27T00:00:00.000Z,ALT REF,2009-07-27T00:00:00.000Z,CHURCHES,19586476,-83.1287892,42.311102,CHRISTIAN,NOT AVAILABLE,NOT AVAILABLE,NOT AVAILABLE,N,Y
28837,10457517,BETHEL AFRICAN METHODIST EPISCOPAL CHURCH,DETROIT,MI,48202,4125,WAYNE,26163,2009-07-30T00:00:00.000Z,ALT REF,2009-07-29T00:00:00.000Z,CHURCHES,19547169,-83.0567764,42.3604936,CHRISTIAN,AME,NOT AVAILABLE,NOT AVAILABLE,Y,N
28840,10445572,SAINT VARTAN ARMENIAN CATHOLIC CHURCH,DETROIT,MI,48228,2224,WAYNE,26163,2009-07-31T00:00:00.000Z,ALT REF,2009-07-29T00:00:00.000Z,CHURCHES,19585253,-83.1975386,42.3550345,CHRISTIAN,NOT AVAILABLE,NOT AVAILABLE,NOT AVAILABLE,N,Y
28843,10447384,SAINT FRANCIS D'ASSISI CHURCH,DETROIT,MI,48210,2480,WAYNE,26163,2009-07-27T00:00:00.000Z,ALT REF,2009-07-27T00:00:00.000Z,CHURCHES,19594278,-83.1172745,42.3343631,CHRISTIAN,NOT AVAILABLE,NOT AVAILABLE,NOT AVAILABLE,N,Y
28845,10457652,SAINT PAUL AFRICAN METHODIST EPISCOPAL CHURCH,DETROIT,MI,48207,3210,WAYNE,26163,2009-07-30T00:00:00.000Z,ALT REF,2009-07-30T00:00:00.000Z,CHURCHES,19549069,-83.0315791,42.3509656,CHRISTIAN,AME,NOT AVAILABLE,NOT AVAILABLE,Y,N
28848,10440939,SAINT CYPRIANS EPISCOPAL CHURCH,DETROIT,MI,48210,1400,WAYNE,26163,2009-07-27T00:00:00.000Z,ALT REF,2009-07-27T00:00:00.000Z,CHURCHES,19551925,-83.1150465,42.3497685,CHRISTIAN,EPIS,NOT AVAILABLE,NOT AVAILABLE,Y,N
28849,10438532,THE CHURCH OF JESUS CHRIST OF LATTER DAY SAINTS - DETROIT RIVER BRANCH,DETROIT,MI,48216,1143,WAYNE,26163,2009-07-31T00:00:00.000Z,ALT REF,2009-07-29T00:00:00.000Z,CHURCHES,123180138,-83.0772799,42.3335192,CHRISTIAN,LDS,NOT AVAILABLE,NOT AVAILABLE,Y,N
28852,10430928,BAITUL MUZAFFAR,DETROIT,MI,48204,3114,WAYNE,26163,2009-07-28T00:00:00.000Z,ALT REF,2009-07-28T00:00:00.000Z,"MOSQUES, RELIGIOUS",19585113,-83.1574212,42.3544246,MUSLIM,NOT AVAILABLE,NOT AVAILABLE,NOT AVAILABLE,N,N
28853,10575037,CLINTON CHAPEL AFRICAN METHODIST EPISCOPAL ZION CHURCH,DETROIT,MI,48208,2400,WAYNE,26163,2009-07-29T00:00:00.000Z,ALT REF,2009-07-29T00:00:00.000Z,CHURCHES,19607543,-83.0933555,42.3349682,CHRISTIAN,AMEZ,NOT AVAILABLE,NOT AVAILABLE,Y,N
28856,10685108,STILL POINT ZEN BUDDHIST TEMPLE,DETROIT,MI,48208,2935,WAYNE,26163,2009-07-27T00:00:00.000Z,ALT REF,2009-07-27T00:00:00.000Z,"TEMPLES, RELIGIOUS",19549227,-83.0766087,42.3478723,BUDDHIST,"MAHAYANA, KOREAN ZEN",NOT AVAILABLE,NOT AVAILABLE,N,N
28857,10440948,SAINT MARTHAS EPISCOPAL CHURCH,DETROIT,MI,48228,2984,WAYNE,26163,2009-07-27T00:00:00.000Z,ALT REF,2009-07-27T00:00:00.000Z,CHURCHES,726118361,-83.2007606,42.3574306,CHRISTIAN,EPIS,NOT AVAILABLE,NOT AVAILABLE,Y,N
28858,10760100,HISTORIC TRINITY LUTHERAN CHURCH,DETROIT,MI,48207,2720,WAYNE,26163,2009-07-27T00:00:00.000Z,ALT REF,2009-07-27T00:00:00.000Z,CHURCHES,735042915,-83.0396753,42.3429296,CHRISTIAN,LCMS,NOT AVAILABLE,NOT AVAILABLE,Y,N
28859,10447370,SAINTS ANDREW AND BENEDICT CHURCH,DETROIT,MI,48217,1631,WAYNE,26163,2009-07-28T00:00:00.000Z,ALT REF,2009-07-28T00:00:00.000Z,CHURCHES,19587699,-83.1538133,42.2698819,CHRISTIAN,NOT AVAILABLE,NOT AVAILABLE,NOT AVAILABLE,N,Y
28860,10443029,HOLY CROSS HUNGARIAN CHURCH,DETROIT,MI,48209,2709,WAYNE,26163,2009-07-28T00:00:00.000Z,ALT REF,2009-07-28T00:00:00.000Z,CHURCHES,19550434,-83.1193379,42.2937831,CHRISTIAN,NOT AVAILABLE,NOT AVAILABLE,NOT AVAILABLE,N,Y
28861,10457665,TRINITY AFRICAN METHODIST EPISCOPAL CHURCH,DETROIT,MI,48208,1202,WAYNE,26163,2009-07-30T00:00:00.000Z,ALT REF,2009-07-30T00:00:00.000Z,CHURCHES,19551681,-83.0963278,42.3605555,CHRISTIAN,AME,NOT AVAILABLE,NOT AVAILABLE,Y,N
28862,10587676,FIRST LATIN AMERICAN BAPTIST CHURCH OF DETROIT,DETROIT,MI,48209,2938,WAYNE,26163,2009-07-30T00:00:00.000Z,ALT REF,2009-07-30T00:00:00.000Z,CHURCHES,724622672,-83.1022406,42.3068202,CHRISTIAN,ABC,NOT AVAILABLE,NOT AVAILABLE,Y,N
28863,10440951,CATHEDRAL CHURCH OF SAINT PAUL,DETROIT,MI,48201,1310,WAYNE,26163,2009-07-27T00:00:00.000Z,ALT REF,2009-07-27T00:00:00.000Z,CHURCHES,724929001,-83.0634662,42.3561884,CHRISTIAN,EPIS,NOT AVAILABLE,NOT AVAILABLE,Y,N
28864,10430909,ISLAMIC CENTER OF DETROIT,DETROIT,MI,48228,6100,WAYNE,26163,2009-07-28T00:00:00.000Z,ALT REF,2009-07-28T00:00:00.000Z,"MOSQUES, RELIGIOUS",19521735,-83.1839227,42.3519187,MUSLIM,NOT AVAILABLE,NOT AVAILABLE,NOT AVAILABLE,N,N
28865,10685323,WAT LAO BUDDHARAM BUDDHIST TEMPLE,DETROIT,MI,48209,1347,WAYNE,26163,2009-07-27T00:00:00.000Z,ALT REF,2009-07-27T00:00:00.000Z,"TEMPLES, RELIGIOUS",19552060,-83.1053908,42.3231106,BUDDHIST,"LAO, THERAVADA",NOT AVAILABLE,NOT AVAILABLE,N,N
28866,10575036,CALVARY AFRICAN METHODIST EPISCOPAL ZION CHURCH,DETROIT,MI,48228,3154,WAYNE,26163,2009-07-29T00:00:00.000Z,ALT REF,2009-07-29T00:00:00.000Z,CHURCHES,19584836,-83.222891,42.358035,CHRISTIAN,AMEZ,NOT AVAILABLE,NOT AVAILABLE,Y,N
28867,10447406,MOST HOLY TRINITY CHURCH,DETROIT,MI,48226,2405,WAYNE,26163,2009-07-28T00:00:00.000Z,ALT REF,2009-07-28T00:00:00.000Z,CHURCHES,19552210,-83.0605079,42.3298433,CHRISTIAN,NOT AVAILABLE,NOT AVAILABLE,NOT AVAILABLE,N,Y
28868,10457659,SAINT STEPHEN AFRICAN METHODIST EPISCOPAL CHURCH,DETROIT,MI,48210,1376,WAYNE,26163,2009-07-30T00:00:00.000Z,ALT REF,2009-07-30T00:00:00.000Z,CHURCHES,19551923,-83.1139665,42.3481443,CHRISTIAN,AME,NOT AVAILABLE,NOT AVAILABLE,Y,N
28869,10447373,SAINT ANTHONY CHURCH,DETROIT,MI,48216,1433,WAYNE,26163,2009-07-28T00:00:00.000Z,ALT REF,2009-07-28T00:00:00.000Z,CHURCHES,19607347,-83.087656,42.3231689,CHRISTIAN,NOT AVAILABLE,NOT AVAILABLE,NOT AVAILABLE,N,Y
28870,10447414,SAINTS PETER AND PAUL JESUIT CHURCH,DETROIT,MI,48226,4318,WAYNE,26163,2009-07-29T00:00:00.000Z,ALT REF,2009-07-29T00:00:00.000Z,CHURCHES,19552193,-83.0382108,42.331952,CHRISTIAN,NOT AVAILABLE,NOT AVAILABLE,NOT AVAILABLE,N,Y
28877,10587611,CALVARY BAPTIST CHURCH OF DETROIT,DETROIT,MI,48207,3882,WAYNE,26163,2009-07-24T00:00:00.000Z,ALT REF,2009-07-24T00:00:00.000Z,CHURCHES,19549339,-83.0181237,42.3447743,CHRISTIAN,ABC,NOT AVAILABLE,NOT AVAILABLE,Y,N
28878,10587679,FRIENDSHIP BAPTIST CHURCH,DETROIT,MI,48201,2120,WAYNE,26163,2009-07-30T00:00:00.000Z,ALT REF,2009-07-30T00:00:00.000Z,CHURCHES,127329638,-83.0529106,42.3522709,CHRISTIAN,ABC,NOT AVAILABLE,NOT AVAILABLE,Y,N
28885,10587722,TERCERA IGLESIA BAUTISTA LATINO AMERICANA,DETROIT,MI,48210,2344,WAYNE,26163,2009-07-30T00:00:00.000Z,ALT REF,2009-07-30T00:00:00.000Z,CHURCHES,19594417,-83.1283347,42.3321466,CHRISTIAN,ABC,NOT AVAILABLE,NOT AVAILABLE,Y,N
28889,10447424,SWEETEST HEART OF MARY CHURCH,DETROIT,MI,48207,1015,WAYNE,26163,2009-07-27T00:00:00.000Z,ALT REF,2009-07-27T00:00:00.000Z,CHURCHES,20138417,-83.0477908,42.3582877,CHRISTIAN,NOT AVAILABLE,NOT AVAILABLE,NOT AVAILABLE,N,Y
28890,10587721,SAINT LUKE TABERNACLE COMMUNITY CHURCH - DETROIT,DETROIT,MI,48228,3034,WAYNE,26163,2009-07-30T00:00:00.000Z,ALT REF,2009-07-30T00:00:00.000Z,CHURCHES,19584863,-83.2312185,42.357362,CHRISTIAN,ABC,NOT AVAILABLE,NOT AVAILABLE,Y,N
28896,10447401,SAINT LEO CHURCH,DETROIT,MI,48208,2242,WAYNE,26163,2009-07-28T00:00:00.000Z,ALT REF,2009-07-28T00:00:00.000Z,CHURCHES,127299676,-83.0874009,42.34843,CHRISTIAN,NOT AVAILABLE,NOT AVAILABLE,NOT AVAILABLE,N,Y
28901,10431449,AMERICAS ISLAMIC CENTER,DETROIT,MI,48228,3704,WAYNE,26163,2009-07-28T00:00:00.000Z,ALT REF,2009-07-28T00:00:00.000Z,"MOSQUES, RELIGIOUS",19585796,-83.2067416,42.3432456,MUSLIM,NOT AVAILABLE,NOT AVAILABLE,NOT AVAILABLE,N,N
28902,10447415,SAINTS PETER AND PAUL ROMAN CATHOLIC CHURCH,DETROIT,MI,48228,3321,WAYNE,26163,2009-07-29T00:00:00.000Z,ALT REF,2009-07-29T00:00:00.000Z,CHURCHES,19585644,-83.2298801,42.3473303,CHRISTIAN,NOT AVAILABLE,NOT AVAILABLE,NOT AVAILABLE,N,Y
28903,10440950,CHURCH OF THE MESSIAH,DETROIT,MI,48207,3739,WAYNE,26163,2009-07-29T00:00:00.000Z,ALT REF,2009-07-29T00:00:00.000Z,CHURCHES,19551144,-83.0045683,42.3503325,CHRISTIAN,EPIS,NOT AVAILABLE,NOT AVAILABLE,Y,N
28915,10447368,SAINT ALOYSIUS CHURCH,DETROIT,MI,48226,1894,WAYNE,26163,2009-07-28T00:00:00.000Z,ALT REF,2009-07-28T00:00:00.000Z,CHURCHES,127297296,-83.0504666,42.3328343,CHRISTIAN,NOT AVAILABLE,NOT AVAILABLE,NOT AVAILABLE,N,Y
28916,10447399,SAINT JOSEPH ROMAN CATHOLIC CHURCH,DETROIT,MI,48207,2730,WAYNE,26163,2009-07-27T00:00:00.000Z,ALT REF,2009-07-27T00:00:00.000Z,CHURCHES,19550533,-83.0356963,42.3454091,CHRISTIAN,NOT AVAILABLE,NOT AVAILABLE,NOT AVAILABLE,N,Y
28917,10442843,ALL SAINTS CHURCH,DETROIT,MI,48209,2702,WAYNE,26163,2009-07-28T00:00:00.000Z,ALT REF,2009-07-28T00:00:00.000Z,CHURCHES,724660289,-83.1180033,42.3010197,CHRISTIAN,NOT AVAILABLE,NOT AVAILABLE,NOT AVAILABLE,N,Y
28918,10447420,SACRED HEART OF JESUS CHURCH,DETROIT,MI,48207,2004,WAYNE,26163,2009-07-28T00:00:00.000Z,ALT REF,2009-07-28T00:00:00.000Z,CHURCHES,19549065,-83.04568,42.3509714,CHRISTIAN,NOT AVAILABLE,NOT AVAILABLE,NOT AVAILABLE,N,Y
28982,10430927,ISLAMIC CENTER OF DETROIT,DETROIT,MI,48201,1200,WAYNE,26163,2009-07-28T00:00:00.000Z,ALT REF,2009-07-28T00:00:00.000Z,"MOSQUES, RELIGIOUS",19548950,-83.065029,42.353682,MUSLIM,NOT AVAILABLE,NOT AVAILABLE,NOT AVAILABLE,N,N
28996,10583214,OPEN DOOR BAPTIST CHURCH,DETROIT,MI,48210,2921,WAYNE,26163,2009-07-31T00:00:00.000Z,ALT REF,2009-07-31T00:00:00.000Z,CHURCHES,19594304,-83.1196743,42.3260079,CHRISTIAN,BAPT,NOT AVAILABLE,NOT AVAILABLE,Y,N
28999,10583213,SPRINGWELLS AVENUE BAPTIST CHURCH,DETROIT,MI,48209,1507,WAYNE,26163,2009-08-03T00:00:00.000Z,ALT REF,2009-08-03T00:00:00.000Z,CHURCHES,19594143,-83.1269088,42.3105442,CHRISTIAN,BAPT,NOT AVAILABLE,NOT AVAILABLE,Y,N
29000,10455600,SECOND OLIVET BAPTIST CHURCH,DETROIT,MI,48208,1949,WAYNE,26163,2009-08-03T00:00:00.000Z,ALT REF,2009-08-03T00:00:00.000Z,CHURCHES,19551242,-83.0949562,42.3466862,CHRISTIAN,NBC,NOT AVAILABLE,NOT AVAILABLE,Y,N
29022,10453678,NEW HARMONY BAPTIST CHURCH,DETROIT,MI,48207,3429,WAYNE,26163,2009-08-03T00:00:00.000Z,ALT REF,2009-08-03T00:00:00.000Z,CHURCHES,19548826,-83.0180485,42.355426,CHRISTIAN,NBC,NOT AVAILABLE,NOT AVAILABLE,Y,N
29034,10447413,SAINT PATRICK PARISH,DETROIT,MI,48201,2002,WAYNE,26163,2007-09-04T00:00:00.000Z,ALT REF,2008-09-05T00:00:00.000Z,CHURCHES,19551799,-83.0598094,42.3484058,CHRISTIAN,NOT AVAILABLE,NOT AVAILABLE,NOT AVAILABLE,N,Y