OBJECTID,ID,NAME,CITY,STATE,ZIP,ZIPP4,COUNTY,FIPS,CONTDATE,CONTHOW,GEODATE,NAICSDESCR,GEOLINKID,X,Y,SUBTYPE,DENOM,MEMBERS,LOC_TYPE,PROT,CATH
13023,10442501,SAINT PATRICK CATHEDRAL,FORT WORTH,TX,76102,6308,TARRANT,48439,2009-05-29T00:00:00.000Z,ALT REF,2009-05-29T00:00:00.000Z,CHURCHES,17710074,-97.3299935,32.7492342,CHRISTIAN,NOT AVAILABLE,NOT AVAILABLE,NOT AVAILABLE,N,Y
13024,10578781,BAPTIST TEMPLE,FORT WORTH,TX,76133,1106,TARRANT,48439,2009-05-28T00:00:00.000Z,ALT REF,2009-05-28T00:00:00.000Z,CHURCHES,17601320,-97.3643481,32.6851821,CHRISTIAN,BAPT,NOT AVAILABLE,NOT AVAILABLE,Y,N
13040,10684930,QUANG CHIEU ZEN MONASTERY,FORT WORTH,TX,76140,9673,TARRANT,48439,2009-07-29T00:00:00.000Z,ALT REF,2009-07-29T00:00:00.000Z,MONASTERIES (EXCEPT SCHOOLS),17657554,-97.248612,32.5890966,BUDDHIST,"MAHAYANA, VIETNAMESE - ZEN MONASTERY",NOT AVAILABLE,NOT AVAILABLE,N,N
13047,10578774,CALVARY BAPTIST CHURCH,FORT WORTH,TX,76120,2325,TARRANT,48439,2009-05-29T00:00:00.000Z,ALT REF,2009-05-29T00:00:00.000Z,CHURCHES,17579846,-97.1994777,32.7701977,CHRISTIAN,BAPT,NOT AVAILABLE,NOT AVAILABLE,Y,N
13050,10430077,CONGREGATION AHAVATH SHOLOM,FORT WORTH,TX,76109,4629,TARRANT,48439,2007-08-07T00:00:00.000Z,ALT REF,2007-08-07T00:00:00.000Z,SYNAGOGUES,25008760,-97.3935776,32.6882325,JUDAIC,NOT AVAILABLE,NOT AVAILABLE,NOT AVAILABLE,N,N
13082,10579956,CORNERSTONE BAPTIST CHURCH,FORT WORTH,TX,76137,1237,TARRANT,48439,2009-05-29T00:00:00.000Z,ALT REF,2009-05-29T00:00:00.000Z,CHURCHES,736216101,-97.2907765,32.8848017,CHRISTIAN,BAPT,NOT AVAILABLE,NOT AVAILABLE,Y,N
13083,10581097,ALLIANCE BAPTIST CHURCH,FORT WORTH,TX,76137,5731,TARRANT,48439,2009-05-28T00:00:00.000Z,ALT REF,2009-06-19T00:00:00.000Z,CHURCHES,709180495,-97.2715559,32.8924589,CHRISTIAN,BAPT,NOT AVAILABLE,NOT AVAILABLE,Y,N
13085,10454495,CORINTH BAPTIST CHURCH,FORT WORTH,TX,76111,1141,TARRANT,48439,2009-05-29T00:00:00.000Z,ALT REF,2009-05-29T00:00:00.000Z,CHURCHES,17763544,-97.3074672,32.7589521,CHRISTIAN,NBC,NOT AVAILABLE,NOT AVAILABLE,Y,N
13294,10762741,ARLINGTON HEIGHTS UNITED METHODIST CHURCH,FORT WORTH,TX,76107,3929,TARRANT,48439,2009-05-28T00:00:00.000Z,ALT REF,2009-05-28T00:00:00.000Z,CHURCHES,17583685,-97.3805571,32.7437978,CHRISTIAN,UMC,NOT AVAILABLE,NOT AVAILABLE,Y,N
13455,10447006,SAINT JOHN THE APOSTLE CATHOLIC CHURCH,FORT WORTH,TX,76180,8323,TARRANT,48439,2009-07-30T00:00:00.000Z,ALT REF,2009-07-30T00:00:00.000Z,CHURCHES,17577701,-97.2196378,32.8242503,CHRISTIAN,NOT AVAILABLE,NOT AVAILABLE,NOT AVAILABLE,N,Y
13456,10431274,ISLAMIC ASSOCIATION OF FORT WORTH,FORT WORTH,TX,76106,1941,TARRANT,48439,2009-07-29T00:00:00.000Z,ALT REF,2009-07-29T00:00:00.000Z,"MOSQUES, RELIGIOUS",17649910,-97.3437892,32.8395598,MUSLIM,NOT AVAILABLE,NOT AVAILABLE,NOT AVAILABLE,N,N
13461,10447008,SAINT PAUL THE APOSTLE CATHOLIC CHURCH,FORT WORTH,TX,76114,2856,TARRANT,48439,2009-07-30T00:00:00.000Z,ALT REF,2009-07-30T00:00:00.000Z,CHURCHES,17558020,-97.4037828,32.7742819,CHRISTIAN,NOT AVAILABLE,NOT AVAILABLE,NOT AVAILABLE,N,Y
13464,10443418,HOLY NAME OF JESUS CATHOLIC CHURCH,FORT WORTH,TX,76105,2105,TARRANT,48439,2009-07-24T00:00:00.000Z,ALT REF,2009-07-24T00:00:00.000Z,CHURCHES,17647572,-97.2890606,32.7250743,CHRISTIAN,NOT AVAILABLE,NOT AVAILABLE,NOT AVAILABLE,N,Y
13484,10443420,SAINT THOMAS THE APOSTLE ROMAN CATHOLIC CHURCH,FORT WORTH,TX,76106,4909,TARRANT,48439,2009-07-30T00:00:00.000Z,ALT REF,2009-08-11T00:00:00.000Z,CHURCHES,708791261,-97.381961,32.8013599,CHRISTIAN,NOT AVAILABLE,NOT AVAILABLE,NOT AVAILABLE,N,Y
13485,10431277,ISLAMIC UNITY CENTER,FORT WORTH,TX,76112,2304,TARRANT,48439,2009-07-31T00:00:00.000Z,ALT REF,2009-07-29T00:00:00.000Z,"MOSQUES, RELIGIOUS",17580363,-97.2332435,32.7627292,MUSLIM,NOT AVAILABLE,NOT AVAILABLE,NOT AVAILABLE,N,N
13486,10761887,WESTERN HILLS CHURCH OF CHRIST,FORT WORTH,TX,76116,6605,TARRANT,48439,2009-07-29T00:00:00.000Z,ALT REF,2009-07-29T00:00:00.000Z,CHURCHES,17593041,-97.4665848,32.7173703,CHRISTIAN,COC,500,NOT AVAILABLE,Y,N
13487,10761884,SOUTHSIDE CHURCH OF CHRIST,FORT WORTH,TX,76110,2036,TARRANT,48439,2009-07-30T00:00:00.000Z,ALT REF,2009-07-30T00:00:00.000Z,CHURCHES,17591893,-97.330872,32.7208619,CHRISTIAN,COC,486,NOT AVAILABLE,Y,N
13489,10581090,LAKE WORTH BAPTIST CHURCH,FORT WORTH,TX,76135,2136,TARRANT,48439,2009-07-24T00:00:00.000Z,ALT REF,2009-07-24T00:00:00.000Z,CHURCHES,17556081,-97.439672,32.8213284,CHRISTIAN,BAPT,NOT AVAILABLE,NOT AVAILABLE,Y,N
13490,10581094,FORT WORTH BAPTIST TEMPLE,FORT WORTH,TX,76108,2141,TARRANT,48439,2009-07-24T00:00:00.000Z,ALT REF,2009-07-24T00:00:00.000Z,CHURCHES,17558729,-97.4646157,32.7612796,CHRISTIAN,BAPT,NOT AVAILABLE,NOT AVAILABLE,Y,N
13500,10581088,LONGVUE BAPTIST CHURCH,FORT WORTH,TX,76116,6520,TARRANT,48439,2009-07-29T00:00:00.000Z,ALT REF,2009-07-29T00:00:00.000Z,CHURCHES,711249390,-97.4956207,32.723069,CHRISTIAN,BAPT,NOT AVAILABLE,NOT AVAILABLE,Y,N
13501,10578036,SPRING VALLEY BAPTIST CHURCH,FORT WORTH,TX,76137,2173,TARRANT,48439,2009-07-30T00:00:00.000Z,ALT REF,2009-07-30T00:00:00.000Z,CHURCHES,129407819,-97.2732548,32.8614995,CHRISTIAN,BAPT,NOT AVAILABLE,NOT AVAILABLE,Y,N
13502,10581081,TEMPLE BAPTIST CHURCH,FORT WORTH,TX,76120,1248,TARRANT,48439,2009-07-30T00:00:00.000Z,ALT REF,2009-07-30T00:00:00.000Z,CHURCHES,711620174,-97.2085079,32.7786826,CHRISTIAN,BAPT,NOT AVAILABLE,NOT AVAILABLE,Y,N
13503,10431262,MASJID HASSAN,FORT WORTH,TX,76104,5704,TARRANT,48439,2009-07-29T00:00:00.000Z,ALT REF,2009-07-29T00:00:00.000Z,"MOSQUES, RELIGIOUS",718172208,-97.3121862,32.7264069,MUSLIM,NOT AVAILABLE,NOT AVAILABLE,NOT AVAILABLE,N,N
13504,10447009,SAINT PETER THE APOSTLE CATHOLIC CHURCH,FORT WORTH,TX,76108,3256,TARRANT,48439,2009-07-30T00:00:00.000Z,ALT REF,2009-07-30T00:00:00.000Z,CHURCHES,17582567,-97.4512523,32.7472026,CHRISTIAN,NOT AVAILABLE,NOT AVAILABLE,NOT AVAILABLE,N,Y
13505,10578660,FAIRPARK BAPTIST CHURCH,FORT WORTH,TX,76134,1803,TARRANT,48439,2009-07-24T00:00:00.000Z,ALT REF,2009-07-24T00:00:00.000Z,CHURCHES,17607116,-97.3490979,32.6587713,CHRISTIAN,BAPT,NOT AVAILABLE,NOT AVAILABLE,Y,N
13506,10580977,FIRST PILGRIM VALLEY BAPTIST CHURCH,FORT WORTH,TX,76105,4164,TARRANT,48439,2009-07-31T00:00:00.000Z,ALT REF,2009-07-31T00:00:00.000Z,CHURCHES,17592382,-97.2624631,32.7188682,CHRISTIAN,BAPT,NOT AVAILABLE,NOT AVAILABLE,Y,N
13507,10461307,GRACE COMMUNITY PRESBYTERIAN CHURCH,FORT WORTH,TX,76137,NULL,TARRANT,48439,2009-07-24T00:00:00.000Z,ALT REF,2009-07-24T00:00:00.000Z,CHURCHES,25009657,-97.3037848,32.8693746,CHRISTIAN,PCA,NOT AVAILABLE,NOT AVAILABLE,Y,N
13515,10760042,SAN MIGUEL LUTHERAN CHURCH,FORT WORTH,TX,76103,3224,TARRANT,48439,2009-07-29T00:00:00.000Z,ALT REF,2009-07-29T00:00:00.000Z,CHURCHES,709587947,-97.2594728,32.7413067,CHRISTIAN,ELCA,NOT AVAILABLE,NOT AVAILABLE,Y,N
13516,10581085,NEW BETHANY BAPTIST CHURCH,FORT WORTH,TX,76119,2318,TARRANT,48439,2009-07-29T00:00:00.000Z,ALT REF,2009-07-29T00:00:00.000Z,CHURCHES,17562278,-97.2366572,32.7113113,CHRISTIAN,BAPT,NOT AVAILABLE,NOT AVAILABLE,Y,N
13519,10577956,MOUNT EPHRAIM BAPTIST CHURCH,FORT WORTH,TX,76104,5106,TARRANT,48439,2009-07-29T00:00:00.000Z,ALT REF,2009-07-29T00:00:00.000Z,CHURCHES,17589056,-97.3179935,32.7291721,CHRISTIAN,BAPT,NOT AVAILABLE,NOT AVAILABLE,Y,N
13520,10581084,PROVIDENCE BAPTIST CHURCH,FORT WORTH,TX,76112,7640,TARRANT,48439,2009-07-29T00:00:00.000Z,ALT REF,2009-07-29T00:00:00.000Z,CHURCHES,17561456,-97.2371103,32.7218605,CHRISTIAN,BAPT,NOT AVAILABLE,NOT AVAILABLE,Y,N
13522,10580104,TRINITY BAPTIST TEMPLE CHURCH,FORT WORTH,TX,76179,3331,TARRANT,48439,2009-07-31T00:00:00.000Z,ALT REF,2009-07-31T00:00:00.000Z,CHURCHES,17555431,-97.413755,32.8694855,CHRISTIAN,BAPT,NOT AVAILABLE,NOT AVAILABLE,Y,N
13523,10581096,FAITH BAPTIST CHURCH,FORT WORTH,TX,76116,7013,TARRANT,48439,2009-07-24T00:00:00.000Z,ALT REF,2009-07-24T00:00:00.000Z,CHURCHES,17592130,-97.4466954,32.7207255,CHRISTIAN,BAPT,NOT AVAILABLE,NOT AVAILABLE,Y,N
13524,10443421,SAINT GEORGE CATHOLIC CHURCH,FORT WORTH,TX,76111,4801,TARRANT,48439,2009-07-30T00:00:00.000Z,ALT REF,2009-07-30T00:00:00.000Z,CHURCHES,17654469,-97.2974719,32.7755728,CHRISTIAN,NOT AVAILABLE,NOT AVAILABLE,NOT AVAILABLE,N,Y
13525,10579589,EASTSIDE BAPTIST CHURCH,FORT WORTH,TX,76111,6812,TARRANT,48439,2009-07-24T00:00:00.000Z,ALT REF,2009-07-24T00:00:00.000Z,CHURCHES,17653158,-97.2899244,32.7908027,CHRISTIAN,BAPT,NOT AVAILABLE,NOT AVAILABLE,Y,N
13527,10581082,MEADOWBROOK FIRST BAPTIST CHURCH,FORT WORTH,TX,76112,4108,TARRANT,48439,2009-07-31T00:00:00.000Z,ALT REF,2009-07-31T00:00:00.000Z,CHURCHES,129377467,-97.2158852,32.7500361,CHRISTIAN,BAPT,NOT AVAILABLE,NOT AVAILABLE,Y,N
13528,10431276,ISLAMIC ASSOCIATION OF TARRANT COUNTY,FORT WORTH,TX,76107,6828,TARRANT,48439,2009-07-29T00:00:00.000Z,ALT REF,2009-07-29T00:00:00.000Z,"MOSQUES, RELIGIOUS",17590590,-97.3917061,32.7241268,MUSLIM,NOT AVAILABLE,NOT AVAILABLE,NOT AVAILABLE,N,N
13533,10762430,FIRST PRESBYTERIAN CHURCH,FORT WORTH,TX,76102,3416,TARRANT,48439,2009-07-24T00:00:00.000Z,ALT REF,2009-07-24T00:00:00.000Z,CHURCHES,17581968,-97.343053,32.7483952,CHRISTIAN,PCUSA,1662,NOT AVAILABLE,Y,N
13534,10684477,HUONG DAO BUDDHIST MONASTERY AND TEMPLE,FORT WORTH,TX,76105,1912,TARRANT,48439,2009-07-24T00:00:00.000Z,ALT REF,2009-07-24T00:00:00.000Z,"TEMPLES, RELIGIOUS",17588156,-97.2527536,32.7315564,BUDDHIST,THERAVADA VIETMANESE,NOT AVAILABLE,NOT AVAILABLE,N,N
13538,10580227,LAKELAND STREET BAPTIST CHURCH,FORT WORTH,TX,76111,5325,TARRANT,48439,2009-07-29T00:00:00.000Z,ALT REF,2009-07-29T00:00:00.000Z,CHURCHES,17651491,-97.2969894,32.8072228,CHRISTIAN,BAPT,NOT AVAILABLE,NOT AVAILABLE,Y,N
13539,10442624,IMMACULATE HEART OF MARY CHURCH,FORT WORTH,TX,76110,5419,TARRANT,48439,2009-07-28T00:00:00.000Z,ALT REF,2009-07-28T00:00:00.000Z,CHURCHES,17599738,-97.3260087,32.6916835,CHRISTIAN,NOT AVAILABLE,NOT AVAILABLE,NOT AVAILABLE,N,Y
13540,10581086,METROPOLITAN BAPTIST CHURCH,FORT WORTH,TX,76135,2601,TARRANT,48439,2009-07-29T00:00:00.000Z,ALT REF,2009-07-29T00:00:00.000Z,CHURCHES,27832175,-97.4163685,32.8138677,CHRISTIAN,BAPT,NOT AVAILABLE,NOT AVAILABLE,Y,N
13541,10581080,CHRISTIAN FAITH BAPTIST CHURCH,FORT WORTH,TX,76134,5901,TARRANT,48439,2009-07-31T00:00:00.000Z,ALT REF,2009-07-31T00:00:00.000Z,CHURCHES,17612619,-97.349257,32.6207739,CHRISTIAN,BAPT,NOT AVAILABLE,NOT AVAILABLE,Y,N
13542,10447003,OUR MOTHER OF MERCY CATHOLIC CHURCH,FORT WORTH,TX,76104,3747,TARRANT,48439,2009-07-29T00:00:00.000Z,ALT REF,2009-07-29T00:00:00.000Z,CHURCHES,17586639,-97.3153216,32.7357678,CHRISTIAN,NOT AVAILABLE,NOT AVAILABLE,NOT AVAILABLE,N,Y
13544,10431278,ISLAMIC ASSOCIATION OF FORT WORTH,FORT WORTH,TX,76133,NULL,TARRANT,48439,2009-07-30T00:00:00.000Z,ALT REF,2009-07-30T00:00:00.000Z,"MOSQUES, RELIGIOUS",17606727,-97.3614854,32.6601584,MUSLIM,NOT AVAILABLE,NOT AVAILABLE,NOT AVAILABLE,N,N
13546,10447007,SAINT MARY OF THE ASSUMPTION ROMAN CATHOLIC CHURCH,FORT WORTH,TX,76104,4606,TARRANT,48439,2009-08-11T00:00:00.000Z,ALT REF,2009-07-30T00:00:00.000Z,CHURCHES,17588425,-97.3304357,32.7303436,CHRISTIAN,NOT AVAILABLE,NOT AVAILABLE,NOT AVAILABLE,N,Y
13547,10581078,WORTH BAPTIST CHURCH,FORT WORTH,TX,76119,5919,TARRANT,48439,2009-07-31T00:00:00.000Z,ALT REF,2009-07-31T00:00:00.000Z,CHURCHES,711613407,-97.298738,32.6755733,CHRISTIAN,BAPT,NOT AVAILABLE,NOT AVAILABLE,Y,N
13548,10761886,WEST FREEWAY CHURCH OF CHRIST,FORT WORTH,TX,76108,3527,TARRANT,48439,2009-07-31T00:00:00.000Z,ALT REF,2009-07-31T00:00:00.000Z,CHURCHES,17584670,-97.4571761,32.7423876,CHRISTIAN,COC,600,NOT AVAILABLE,Y,N
13552,10575967,OUTLAND MEMORIAL AFRICAN METHODIST EPISCOPAL ZION CHURCH,FORT WORTH,TX,76104,1412,TARRANT,48439,2009-07-29T00:00:00.000Z,ALT REF,2009-07-29T00:00:00.000Z,CHURCHES,17585555,-97.3174797,32.738554,CHRISTIAN,AMEZ,NOT AVAILABLE,NOT AVAILABLE,Y,N
13558,10454452,MOUNT ZION BAPTIST CHURCH,FORT WORTH,TX,76104,5102,TARRANT,48439,2009-07-29T00:00:00.000Z,ALT REF,2009-07-29T00:00:00.000Z,CHURCHES,17587825,-97.3179063,32.732738,CHRISTIAN,NBC,NOT AVAILABLE,NOT AVAILABLE,Y,N
13559,10581093,HALLMARK BAPTIST CHURCH,FORT WORTH,TX,76123,2355,TARRANT,48439,2009-07-24T00:00:00.000Z,ALT REF,2009-07-24T00:00:00.000Z,CHURCHES,25008978,-97.3844342,32.6161979,CHRISTIAN,BAPT,NOT AVAILABLE,NOT AVAILABLE,Y,N
13580,10579855,HORIZONS OF HOPE CHURCH,FORT WORTH,TX,76108,3412,TARRANT,48439,2009-07-28T00:00:00.000Z,ALT REF,2009-07-28T00:00:00.000Z,CHURCHES,17583683,-97.4617196,32.7449822,CHRISTIAN,NOT AVAILABLE,NOT AVAILABLE,NOT AVAILABLE,Y,N
13582,10428398,CHABAD-LUBAVITCH OF FORT WORTH AND TARRANT COUNTY,FORT WORTH,TX,76133,2957,TARRANT,48439,2007-08-08T00:00:00.000Z,ALT REF,2008-09-05T00:00:00.000Z,SYNAGOGUES,17606596,-97.3765272,32.6608217,JUDAIC,CHABAD,NOT AVAILABLE,CHABAD,N,N
13589,10438283,ALTAMESA CHURCH OF CHRIST,FORT WORTH,TX,76133,6209,TARRANT,48439,2007-10-10T00:00:00.000Z,ALT REF,2008-09-05T00:00:00.000Z,CHURCHES,135333247,-97.3941246,32.6483895,CHRISTIAN,COC,1600,NOT AVAILABLE,Y,N
13604,10437077,FIRST BAPTIST CHURCH,FORT WORTH,TX,76137,2803,TARRANT,48439,2007-11-08T00:00:00.000Z,ALT REF,2008-09-05T00:00:00.000Z,CHURCHES,17649815,-97.2699706,32.8401513,CHRISTIAN,SBC,1350,NOT AVAILABLE,Y,N
13606,10433666,BEREA BAPTIST CHURCH,FORT WORTH,TX,76140,1213,TARRANT,48439,2007-11-09T00:00:00.000Z,ALT REF,2008-09-05T00:00:00.000Z,CHURCHES,17607580,-97.2695779,32.6551512,CHRISTIAN,SBC,1133,NOT AVAILABLE,Y,N
13609,10434559,NORMANDALE BAPTIST CHURCH,FORT WORTH,TX,76108,2001,TARRANT,48439,2007-11-12T00:00:00.000Z,ALT REF,2008-09-05T00:00:00.000Z,CHURCHES,17558709,-97.4706853,32.7609397,CHRISTIAN,SBC,1392,NOT AVAILABLE,Y,N
13610,10442689,SAN MATEO MISSION,FORT WORTH,TX,76107,5707,TARRANT,48439,2007-08-31T00:00:00.000Z,ALT REF,2008-09-05T00:00:00.000Z,CHURCHES,17588382,-97.3659901,32.7311379,CHRISTIAN,NOT AVAILABLE,NOT AVAILABLE,NOT AVAILABLE,N,Y
12397,10431805,MASJID SHAKIR DAWAN,FORT WORTH,TX,76111,1140,TARRANT,48439,2007-10-09T00:00:00.000Z,ALT REF,2007-10-09T00:00:00.000Z,"MOSQUES, RELIGIOUS",17763544,-97.3084814,32.7594963,MUSLIM,NOT AVAILABLE,NOT AVAILABLE,NOT AVAILABLE,N,N
12401,10436307,CELEBRATION FELLOWSHIP,FORT WORTH,TX,76120,3426,TARRANT,48439,2007-11-09T00:00:00.000Z,ALT REF,2007-11-09T00:00:00.000Z,CHURCHES,17580295,-97.1911903,32.7624214,CHRISTIAN,SBC,834,NOT AVAILABLE,Y,N
12402,10447010,CHRIST THE KING CATHOLIC CHURCH,FORT WORTH,TX,76111,6016,TARRANT,48439,2009-05-29T00:00:00.000Z,ALT REF,2009-05-29T00:00:00.000Z,CHURCHES,17654251,-97.2949055,32.7793463,CHRISTIAN,NOT AVAILABLE,NOT AVAILABLE,NOT AVAILABLE,N,Y
12458,10432849,PANTEGO BIBLE CHURCH,FORT WORTH,TX,76120,3623,TARRANT,48439,2007-09-13T00:00:00.000Z,ALT REF,2007-09-13T00:00:00.000Z,CHURCHES,17580316,-97.17578,32.7626397,CHRISTIAN,NONDENOM,NOT AVAILABLE,NOT AVAILABLE,Y,N
12459,10432850,MCKINNEY MEMORIAL BIBLE CHURCH,FORT WORTH,TX,76109,3203,TARRANT,48439,2007-09-13T00:00:00.000Z,ALT REF,2007-09-13T00:00:00.000Z,CHURCHES,17599750,-97.3952254,32.6911711,CHRISTIAN,NONDENOM,NOT AVAILABLE,NOT AVAILABLE,Y,N
12460,10432851,FIRST UNITED METHODIST CHURCH - FORT WORTH,FORT WORTH,TX,76102,3501,TARRANT,48439,2007-09-13T00:00:00.000Z,ALT REF,2007-09-13T00:00:00.000Z,CHURCHES,17656673,-97.336354,32.7522681,CHRISTIAN,UMC,NOT AVAILABLE,NOT AVAILABLE,Y,N
12461,10432852,TRAVIS AVENUE BAPTIST CHURCH,FORT WORTH,TX,76110,3531,TARRANT,48439,2007-09-19T00:00:00.000Z,ALT REF,2007-09-20T00:00:00.000Z,CHURCHES,17596190,-97.3332434,32.7065331,CHRISTIAN,SBC,NOT AVAILABLE,NOT AVAILABLE,Y,N
12476,10433334,SOUTH FORT WORTH BAPTIST CHURCH,FORT WORTH,TX,76110,6250,TARRANT,48439,2007-11-09T00:00:00.000Z,ALT REF,2007-11-09T00:00:00.000Z,CHURCHES,17599900,-97.3331578,32.691314,CHRISTIAN,SBC,905,NOT AVAILABLE,Y,N
12482,10433498,RIVER OAKS BAPTIST CHURCH,FORT WORTH,TX,76114,2247,TARRANT,48439,2007-11-09T00:00:00.000Z,ALT REF,2007-11-09T00:00:00.000Z,CHURCHES,17557554,-97.3912937,32.7845595,CHRISTIAN,SBC,1419,NOT AVAILABLE,Y,N
12483,10433511,BROADWAY BAPTIST CHURCH,FORT WORTH,TX,76104,1238,TARRANT,48439,2007-11-09T00:00:00.000Z,ALT REF,2007-11-09T00:00:00.000Z,CHURCHES,17584238,-97.3287464,32.7408178,CHRISTIAN,SBC,2155,NOT AVAILABLE,Y,N
12492,10434202,WEDGWOOD BAPTIST CHURCH,FORT WORTH,TX,76133,2620,TARRANT,48439,2007-11-13T00:00:00.000Z,ALT REF,2007-11-13T00:00:00.000Z,CHURCHES,17605745,-97.3847217,32.6643186,CHRISTIAN,SBC,2075,NOT AVAILABLE,Y,N
12495,10434416,RIVERSIDE BAPTIST CHURCH,FORT WORTH,TX,76111,4100,TARRANT,48439,2007-11-12T00:00:00.000Z,ALT REF,2007-11-12T00:00:00.000Z,CHURCHES,17654669,-97.3027988,32.7734637,CHRISTIAN,SBC,786,NOT AVAILABLE,Y,N
12497,10434551,FIRST BAPTIST CHURCH OF WHITE SETTLEMENT,FORT WORTH,TX,76108,1904,TARRANT,48439,2007-11-12T00:00:00.000Z,ALT REF,2007-11-12T00:00:00.000Z,CHURCHES,17558755,-97.4489241,32.759244,CHRISTIAN,SBC,2197,NOT AVAILABLE,Y,N
12498,10434604,SOUTHCLIFF BAPTIST CHURCH,FORT WORTH,TX,76109,5424,TARRANT,48439,2007-11-12T00:00:00.000Z,ALT REF,2007-11-12T00:00:00.000Z,CHURCHES,17762197,-97.3811021,32.6765126,CHRISTIAN,SBC,4199,NOT AVAILABLE,Y,N
12507,10435038,RIDGLEA WEST BAPTIST CHURCH,FORT WORTH,TX,76116,9434,TARRANT,48439,2007-11-12T00:00:00.000Z,ALT REF,2007-11-12T00:00:00.000Z,CHURCHES,17593758,-97.4423776,32.713664,CHRISTIAN,SBC,1597,NOT AVAILABLE,Y,N
12510,10435312,GLENVIEW BAPTIST CHURCH,FORT WORTH,TX,76137,2801,TARRANT,48439,2007-11-12T00:00:00.000Z,ALT REF,2007-11-12T00:00:00.000Z,CHURCHES,17649811,-97.278839,32.8406042,CHRISTIAN,SBC,5357,NOT AVAILABLE,Y,N
12515,10435527,EAST MEADOWS BAPTIST CHURCH,FORT WORTH,TX,76112,4530,TARRANT,48439,2007-11-12T00:00:00.000Z,ALT REF,2007-11-28T00:00:00.000Z,CHURCHES,17559487,-97.1881413,32.7484306,CHRISTIAN,SBC,2087,NOT AVAILABLE,Y,N
12522,10435846,RIDGLEA BAPTIST CHURCH,FORT WORTH,TX,76116,4617,TARRANT,48439,2007-11-09T00:00:00.000Z,ALT REF,2007-11-12T00:00:00.000Z,CHURCHES,17587183,-97.4148257,32.7338267,CHRISTIAN,SBC,950,NOT AVAILABLE,Y,N
12525,10435961,HANDLEY BAPTIST CHURCH,FORT WORTH,TX,76112,7123,TARRANT,48439,2007-11-09T00:00:00.000Z,ALT REF,2007-11-09T00:00:00.000Z,CHURCHES,17560637,-97.2142385,32.7337343,CHRISTIAN,SBC,943,NOT AVAILABLE,Y,N
12526,10436047,GAMBRELL STREET BAPTIST CHURCH,FORT WORTH,TX,76115,2209,TARRANT,48439,2007-11-09T00:00:00.000Z,ALT REF,2007-11-09T00:00:00.000Z,CHURCHES,17601897,-97.3448147,32.682282,CHRISTIAN,SBC,1691,NOT AVAILABLE,Y,N
12527,10436048,FIRST BAPTIST CHURCH OF LAKESIDE,FORT WORTH,TX,76135,4339,TARRANT,48439,2007-11-09T00:00:00.000Z,ALT REF,2007-11-09T00:00:00.000Z,CHURCHES,27793600,-97.4783867,32.8246289,CHRISTIAN,SBC,2337,NOT AVAILABLE,Y,N
12534,10436342,TRINITY BAPTIST CHURCH,FORT WORTH,TX,76114,3736,TARRANT,48439,2007-11-09T00:00:00.000Z,ALT REF,2007-11-09T00:00:00.000Z,CHURCHES,18252369,-97.3897186,32.7690871,CHRISTIAN,SBC,1338,NOT AVAILABLE,Y,N
12550,10437081,BIRCHMAN BAPTIST CHURCH,FORT WORTH,TX,76116,2702,TARRANT,48439,2007-11-09T00:00:00.000Z,ALT REF,2007-11-09T00:00:00.000Z,CHURCHES,17586797,-97.4763999,32.7356651,CHRISTIAN,SBC,2522,NOT AVAILABLE,Y,N
12551,10437143,SPRINGDALE BAPTIST CHURCH,FORT WORTH,TX,76111,2823,TARRANT,48439,2007-11-13T00:00:00.000Z,ALT REF,2007-11-13T00:00:00.000Z,CHURCHES,17653295,-97.3024763,32.7888983,CHRISTIAN,SBC,1144,NOT AVAILABLE,Y,N
12554,10437205,NORTH FORT WORTH BAPTIST CHURCH,FORT WORTH,TX,76131,NULL,TARRANT,48439,2007-11-13T00:00:00.000Z,ALT REF,2007-11-13T00:00:00.000Z,CHURCHES,25009625,-97.3139557,32.8493357,CHRISTIAN,SBC,1854,NOT AVAILABLE,Y,N
12562,10437558,HULEN STREET BAPTIST CHURCH,FORT WORTH,TX,76133,6609,TARRANT,48439,2007-11-13T00:00:00.000Z,ALT REF,2007-11-13T00:00:00.000Z,CHURCHES,17610047,-97.3980334,32.6424537,CHRISTIAN,SBC,828,NOT AVAILABLE,Y,N
12567,10437717,SAINT PAUL LUTHERAN CHURCH,FORT WORTH,TX,76102,5930,TARRANT,48439,2007-09-24T00:00:00.000Z,ALT REF,2007-09-24T00:00:00.000Z,CHURCHES,110199978,-97.3452242,32.7415755,CHRISTIAN,LCMS,NOT AVAILABLE,NOT AVAILABLE,Y,N
12634,10440191,SAN JUAN APOSTLE CHURCH,FORT WORTH,TX,76110,5124,TARRANT,48439,2007-11-09T00:00:00.000Z,ALT REF,2007-11-09T00:00:00.000Z,CHURCHES,17599178,-97.3364749,32.6941462,CHRISTIAN,EPIS,NOT AVAILABLE,NOT AVAILABLE,Y,N
12638,10440285,SAINT JOHN'S EPISCOPAL CHURCH,FORT WORTH,TX,76110,2614,TARRANT,48439,2007-11-09T00:00:00.000Z,ALT REF,2007-11-09T00:00:00.000Z,CHURCHES,17593607,-97.3347128,32.7163708,CHRISTIAN,EPIS,NOT AVAILABLE,NOT AVAILABLE,Y,N
12640,10440313,SAINT CHRISTOPHER EPISCOPAL CHURCH,FORT WORTH,TX,76133,2197,TARRANT,48439,2007-11-09T00:00:00.000Z,ALT REF,2007-11-09T00:00:00.000Z,CHURCHES,17603907,-97.3688799,32.6717697,CHRISTIAN,EPIS,NOT AVAILABLE,NOT AVAILABLE,Y,N
12643,10440423,ALL SAINTS' EPISCOPAL CHURCH,FORT WORTH,TX,76107,3663,TARRANT,48439,2007-11-09T00:00:00.000Z,ALT REF,2007-11-09T00:00:00.000Z,CHURCHES,17584533,-97.3951807,32.7407776,CHRISTIAN,EPIS,NOT AVAILABLE,NOT AVAILABLE,Y,N
12656,10440742,SAINT LUKE'S IN THE MEADOW EPISCOPAL CHURCH,FORT WORTH,TX,76103,2710,TARRANT,48439,2007-11-09T00:00:00.000Z,ALT REF,2007-11-09T00:00:00.000Z,CHURCHES,17582713,-97.2594822,32.7459762,CHRISTIAN,EPIS,NOT AVAILABLE,NOT AVAILABLE,Y,N
12657,10440743,SAINT ANDREW'S EPISCOPAL CHURCH,FORT WORTH,TX,76102,4602,TARRANT,48439,2007-11-09T00:00:00.000Z,ALT REF,2007-11-09T00:00:00.000Z,CHURCHES,17581643,-97.3326711,32.7497144,CHRISTIAN,EPIS,NOT AVAILABLE,NOT AVAILABLE,Y,N
12658,10440744,CHRIST THE KING EPISCOPAL CHURCH,FORT WORTH,TX,76116,5307,TARRANT,48439,2007-11-09T00:00:00.000Z,ALT REF,2007-11-09T00:00:00.000Z,CHURCHES,17590651,-97.4352607,32.7244918,CHRISTIAN,EPIS,NOT AVAILABLE,NOT AVAILABLE,Y,N
12659,10440746,SAINT TIMOTHY'S EPISCOPAL CHURCH,FORT WORTH,TX,76119,3231,TARRANT,48439,2007-11-09T00:00:00.000Z,ALT REF,2007-11-09T00:00:00.000Z,CHURCHES,17597204,-97.2847022,32.7026196,CHRISTIAN,EPIS,NOT AVAILABLE,NOT AVAILABLE,Y,N
12660,10440747,SAINT ANNE'S EPISCOPAL CHURCH,FORT WORTH,TX,76135,2601,TARRANT,48439,2007-11-09T00:00:00.000Z,ALT REF,2007-11-09T00:00:00.000Z,CHURCHES,27832176,-97.4175076,32.8144266,CHRISTIAN,EPIS,NOT AVAILABLE,NOT AVAILABLE,Y,N
12661,10440748,TRINITY EPISCOPAL CHURCH,FORT WORTH,TX,76109,2133,TARRANT,48439,2007-11-09T00:00:00.000Z,ALT REF,2007-11-09T00:00:00.000Z,CHURCHES,17597235,-97.3655493,32.7012479,CHRISTIAN,EPIS,NOT AVAILABLE,NOT AVAILABLE,Y,N
12662,10440749,CHURCH OF THE HOLY APOSTLES,FORT WORTH,TX,76126,9500,TARRANT,48439,2007-11-09T00:00:00.000Z,ALT REF,2007-11-09T00:00:00.000Z,CHURCHES,17593916,-97.4961796,32.7149189,CHRISTIAN,EPIS,NOT AVAILABLE,NOT AVAILABLE,Y,N
12663,10440750,SAINT SIMON OF CYRENE EPISCOPAL CHURCH,FORT WORTH,TX,76112,7637,TARRANT,48439,2007-11-09T00:00:00.000Z,ALT REF,2007-11-09T00:00:00.000Z,CHURCHES,17561591,-97.2371761,32.7208232,CHRISTIAN,EPIS,NOT AVAILABLE,NOT AVAILABLE,Y,N
12666,10440745,SAINT ELISABETH'S EPISCOPAL CHURCH,FORT WORTH,TX,76114,2800,TARRANT,48439,2007-11-09T00:00:00.000Z,ALT REF,2007-11-09T00:00:00.000Z,CHURCHES,17558037,-97.4095205,32.7738321,CHRISTIAN,EPIS,NOT AVAILABLE,NOT AVAILABLE,Y,N
12683,10441833,SAINT AUGUSTINE OLD ROMAN CATHOLIC CHURCH A PARISH OF FORT WORTH,FORT WORTH,TX,76114,3815,TARRANT,48439,2007-08-30T00:00:00.000Z,ALT REF,2007-08-30T00:00:00.000Z,CHURCHES,17558590,-97.3897923,32.763826,CHRISTIAN,NOT AVAILABLE,NOT AVAILABLE,NOT AVAILABLE,N,Y
12688,10441920,OUR LADY OF FATIMA CATHOLIC CHURCH,FORT WORTH,TX,76112,6350,TARRANT,48439,2007-09-06T00:00:00.000Z,ALT REF,2007-09-06T00:00:00.000Z,CHURCHES,17560076,-97.2436173,32.7414831,CHRISTIAN,NOT AVAILABLE,NOT AVAILABLE,NOT AVAILABLE,N,Y
12689,10441923,HOLY CROSS OLD CATHOLIC CHURCH,FORT WORTH,TX,76135,9138,TARRANT,48439,2007-08-30T00:00:00.000Z,ALT REF,2007-08-30T00:00:00.000Z,CHURCHES,129379196,-97.5065217,32.8525415,CHRISTIAN,NOT AVAILABLE,NOT AVAILABLE,NOT AVAILABLE,N,Y
12693,10442934,OUR LADY OF GUADALUPE PARISH - HISPANIC,FORT WORTH,TX,76106,1925,TARRANT,48439,2007-08-31T00:00:00.000Z,ALT REF,2007-08-31T00:00:00.000Z,CHURCHES,17650755,-97.341865,32.8184757,CHRISTIAN,NOT AVAILABLE,NOT AVAILABLE,NOT AVAILABLE,N,Y
12699,10443416,ALL SAINTS PARISH - HISPANIC,FORT WORTH,TX,76106,8101,TARRANT,48439,2007-08-30T00:00:00.000Z,ALT REF,2007-08-30T00:00:00.000Z,CHURCHES,17653981,-97.3513604,32.7814003,CHRISTIAN,NOT AVAILABLE,NOT AVAILABLE,NOT AVAILABLE,N,Y
12700,10443419,SAINT RITA PARISH,FORT WORTH,TX,76112,6429,TARRANT,48439,2007-08-30T00:00:00.000Z,ALT REF,2007-08-30T00:00:00.000Z,CHURCHES,17560299,-97.2346721,32.7372399,CHRISTIAN,NOT AVAILABLE,NOT AVAILABLE,NOT AVAILABLE,N,Y
12710,10447004,SAINT ANDREW CATHOLIC CHURCH,FORT WORTH,TX,76109,3711,TARRANT,48439,2007-08-31T00:00:00.000Z,ALT REF,2007-08-31T00:00:00.000Z,CHURCHES,17599042,-97.364692,32.694764,CHRISTIAN,NOT AVAILABLE,NOT AVAILABLE,NOT AVAILABLE,N,Y
12740,10452706,MOUNT HERMON MISSIONARY BAPTIST CHURCH,FORT WORTH,TX,76105,1739,TARRANT,48439,2008-03-11T00:00:00.000Z,ALT REF,2008-03-11T00:00:00.000Z,CHURCHES,17588213,-97.2629173,32.730918,CHRISTIAN,NBC,NOT AVAILABLE,NOT AVAILABLE,Y,N
12742,10453085,BETHLEHEM BAPTIST CHURCH,FORT WORTH,TX,76140,3017,TARRANT,48439,2008-03-11T00:00:00.000Z,ALT REF,2008-03-11T00:00:00.000Z,CHURCHES,17610911,-97.2867111,32.6378844,CHRISTIAN,NBC,NOT AVAILABLE,NOT AVAILABLE,Y,N
12743,10461306,FORT WORTH PRESBYTERIAN CHURCH,FORT WORTH,TX,76132,3024,TARRANT,48439,2008-03-07T00:00:00.000Z,ALT REF,2008-03-07T00:00:00.000Z,CHURCHES,24983405,-97.4087039,32.6583439,CHRISTIAN,PCA,NOT AVAILABLE,NOT AVAILABLE,Y,N
12744,10452416,EBENEZER MISSIONARY BAPTIST CHURCH,FORT WORTH,TX,76105,2826,TARRANT,48439,2008-03-07T00:00:00.000Z,ALT REF,2008-03-07T00:00:00.000Z,CHURCHES,17561312,-97.2495074,32.7251742,CHRISTIAN,NBC,NOT AVAILABLE,NOT AVAILABLE,Y,N
12750,10453293,MOUNT GILEAD BAPTIST CHURCH,FORT WORTH,TX,76102,5555,TARRANT,48439,2008-03-07T00:00:00.000Z,ALT REF,2008-03-07T00:00:00.000Z,CHURCHES,17656341,-97.3278333,32.7550782,CHRISTIAN,NBC,NOT AVAILABLE,NOT AVAILABLE,Y,N
12751,10456683,JOHNSON CHAPEL AFRICAN METHODIST EPISCOPAL CHURCH,FORT WORTH,TX,76107,6025,TARRANT,48439,2008-03-11T00:00:00.000Z,ALT REF,2008-03-14T00:00:00.000Z,CHURCHES,17590903,-97.4005108,32.7231949,CHRISTIAN,AME,NOT AVAILABLE,NOT AVAILABLE,Y,N
12752,10452755,BETH EDEN MISSIONARY BAPTIST CHURCH,FORT WORTH,TX,76119,3312,TARRANT,48439,2008-03-10T00:00:00.000Z,ALT REF,2008-03-10T00:00:00.000Z,CHURCHES,17597535,-97.278362,32.6997809,CHRISTIAN,NBC,NOT AVAILABLE,NOT AVAILABLE,Y,N
12796,10432853,UNIVERSITY PARK CHURCH/CAPSTONE CHURCH,FORT WORTH,TX,76107,6516,TARRANT,48439,2007-09-10T00:00:00.000Z,ALT REF,2007-09-10T00:00:00.000Z,CHURCHES,17590517,-97.3651434,32.7248735,CHRISTIAN,NOT AVAILABLE,NOT AVAILABLE,NOT AVAILABLE,Y,N
12804,10433732,SOUTHWAYSIDE BAPTIST CHURCH,FORT WORTH,TX,76115,2638,TARRANT,48439,2007-11-09T00:00:00.000Z,ALT REF,2007-11-09T00:00:00.000Z,CHURCHES,17601588,-97.322885,32.6836462,CHRISTIAN,SBC,1240,NOT AVAILABLE,Y,N
12806,10434526,DIAMOND HILL BAPTIST CHURCH,FORT WORTH,TX,76106,7320,TARRANT,48439,2007-11-12T00:00:00.000Z,ALT REF,2007-11-12T00:00:00.000Z,CHURCHES,17652653,-97.3310195,32.7961452,CHRISTIAN,SBC,1213,NOT AVAILABLE,Y,N
12811,10435284,UNIVERSITY BAPTIST CHURCH,FORT WORTH,TX,76109,1365,TARRANT,48439,2007-11-12T00:00:00.000Z,ALT REF,2007-11-12T00:00:00.000Z,CHURCHES,17594360,-97.3632713,32.7121042,CHRISTIAN,SBC,2912,NOT AVAILABLE,Y,N
12825,10436088,JAMES AVENUE CHURCH,FORT WORTH,TX,76134,1119,TARRANT,48439,2007-11-09T00:00:00.000Z,ALT REF,2007-11-09T00:00:00.000Z,CHURCHES,17633177,-97.34467,32.661843,CHRISTIAN,SBC,1092,NOT AVAILABLE,Y,N
12891,10435001,SAGAMORE BAPTIST HILL CHURCH,FORT WORTH,TX,76103,3701,TARRANT,48439,2007-11-12T00:00:00.000Z,ALT REF,2007-11-12T00:00:00.000Z,CHURCHES,17585103,-97.2574498,32.738426,CHRISTIAN,SBC,2129,NOT AVAILABLE,Y,N
12900,10435242,SOUTH HILLS BAPTIST CHURCH,FORT WORTH,TX,76123,2828,TARRANT,48439,2007-11-12T00:00:00.000Z,ALT REF,2007-11-12T00:00:00.000Z,CHURCHES,129433578,-97.4100327,32.6361457,CHRISTIAN,SBC,1241,NOT AVAILABLE,Y,N
12914,10677512,GURUDWARA GURU NANAK DARBAR,FORT WORTH,TX,76179,9431,TARRANT,48439,2009-07-24T00:00:00.000Z,ALT REF,2009-07-24T00:00:00.000Z,"TEMPLES, RELIGIOUS",17554963,-97.4268102,32.9791051,OTHER,NOT AVAILABLE,NOT AVAILABLE,NOT AVAILABLE,N,N
12915,10430241,BETH YESHUA CONGREGATION,FORT WORTH,TX,76133,3235,TARRANT,48439,2009-05-29T00:00:00.000Z,ALT REF,2009-05-29T00:00:00.000Z,SYNAGOGUES,17606380,-97.361125,32.661263,JUDAIC,NOT AVAILABLE,NOT AVAILABLE,NOT AVAILABLE,N,N
12932,10447005,SAINT BARTHOLOMEW CATHOLIC CHURCH,FORT WORTH,TX,76133,5603,TARRANT,48439,2009-07-30T00:00:00.000Z,ALT REF,2009-07-30T00:00:00.000Z,CHURCHES,135333315,-97.3720358,32.6496569,CHRISTIAN,NOT AVAILABLE,NOT AVAILABLE,NOT AVAILABLE,N,Y
12933,10443417,HOLY FAMILY CATHOLIC CHURCH,FORT WORTH,TX,76107,4622,TARRANT,48439,2009-07-24T00:00:00.000Z,ALT REF,2009-07-24T00:00:00.000Z,CHURCHES,17586534,-97.4171073,32.7370168,CHRISTIAN,NOT AVAILABLE,NOT AVAILABLE,NOT AVAILABLE,N,Y
12940,10581091,KINGS HIGHWAY BAPTIST CHURCH,FORT WORTH,TX,76117,6230,TARRANT,48439,2009-07-29T00:00:00.000Z,ALT REF,2009-07-29T00:00:00.000Z,CHURCHES,17654490,-97.2877883,32.7761327,CHRISTIAN,BAPT,NOT AVAILABLE,NOT AVAILABLE,Y,N
12960,10581083,SANDY LANE BAPTIST CHURCH,FORT WORTH,TX,76112,5920,TARRANT,48439,2009-07-29T00:00:00.000Z,ALT REF,2009-07-29T00:00:00.000Z,CHURCHES,17560078,-97.1998002,32.7410477,CHRISTIAN,BAPT,NOT AVAILABLE,NOT AVAILABLE,Y,N
12989,10430197,BETH-EL CONGREGATION,FORT WORTH,TX,76109,4403,TARRANT,48439,2009-08-10T00:00:00.000Z,ALT REF,2009-07-30T00:00:00.000Z,SYNAGOGUES,17600540,-97.3957689,32.6891097,JUDAIC,NOT AVAILABLE,NOT AVAILABLE,NOT AVAILABLE,N,N