OBJECTID,ID,NAME,CITY,STATE,ZIP,ZIPP4,COUNTY,FIPS,CONTDATE,CONTHOW,GEODATE,NAICSDESCR,GEOLINKID,X,Y,SUBTYPE,DENOM,MEMBERS,LOC_TYPE,PROT,CATH
15089,10430273,KEHILAT DVAR HASHEM,HOUSTON,TX,77099,3535,HARRIS,48201,2007-08-08T00:00:00.000Z,ALT REF,2007-08-08T00:00:00.000Z,SYNAGOGUES,17851176,-95.5627777,29.6603154,JUDAIC,NOT AVAILABLE,NOT AVAILABLE,NOT AVAILABLE,N,N
15090,10456209,EAST ORANGE AFRICAN METHODIST EPISCOPAL CHURCH,HOUSTON,TX,77020,4334,HARRIS,48201,2008-03-11T00:00:00.000Z,ALT REF,2008-03-11T00:00:00.000Z,CHURCHES,17924498,-95.3260128,29.774436,CHRISTIAN,AME,NOT AVAILABLE,NOT AVAILABLE,Y,N
15091,10448495,CHRIST THE INCARNATE WORD CATHOLIC CHURCH,HOUSTON,TX,77072,4055,HARRIS,48201,2007-09-06T00:00:00.000Z,ALT REF,2007-09-06T00:00:00.000Z,CHURCHES,129368547,-95.5871013,29.6860651,CHRISTIAN,NOT AVAILABLE,NOT AVAILABLE,NOT AVAILABLE,N,Y
15092,10441978,CO-CATHEDRAL OF THE SACRED HEART,HOUSTON,TX,77002,8106,HARRIS,48201,2009-09-08T00:00:00.000Z,ALT REF,2009-09-08T00:00:00.000Z,CHURCHES,17878410,-95.3686837,29.7498527,CHRISTIAN,NOT AVAILABLE,NOT AVAILABLE,NOT AVAILABLE,N,Y
15093,10440200,SANTA CRUZ EPISCOPAL CHURCH,HOUSTON,TX,77012,2048,HARRIS,48201,2007-11-09T00:00:00.000Z,ALT REF,2007-11-09T00:00:00.000Z,CHURCHES,17880105,-95.2800574,29.720128,CHRISTIAN,EPIS,NOT AVAILABLE,NOT AVAILABLE,Y,N
15095,10431660,SOUTHEAST ZONE MASJID,HOUSTON,TX,77034,3921,HARRIS,48201,2007-10-09T00:00:00.000Z,ALT REF,2007-10-09T00:00:00.000Z,"MOSQUES, RELIGIOUS",135356144,-95.2077967,29.6318943,MUSLIM,NOT AVAILABLE,NOT AVAILABLE,NOT AVAILABLE,N,N
15096,10431479,AL-NOOR MASJID,HOUSTON,TX,77081,1105,HARRIS,48201,2007-10-09T00:00:00.000Z,ALT REF,2007-10-09T00:00:00.000Z,"MOSQUES, RELIGIOUS",17860654,-95.4944352,29.7177865,MUSLIM,NOT AVAILABLE,NOT AVAILABLE,NOT AVAILABLE,N,N
15097,10438322,MEMORIAL CHURCH OF CHRIST,HOUSTON,TX,77024,2737,HARRIS,48201,2007-10-10T00:00:00.000Z,ALT REF,2007-10-10T00:00:00.000Z,CHURCHES,126612929,-95.5206354,29.7801223,CHRISTIAN,COC,800,NOT AVAILABLE,Y,N
15098,10439941,THE CHURCH OF JESUS CHRIST OF LATTER DAY SAINTS - MISSOURI CITY (SPANISH) WARD,HOUSTON,TX,77074,5202,HARRIS,48201,2007-10-17T00:00:00.000Z,ALT REF,2007-10-17T00:00:00.000Z,CHURCHES,27796698,-95.5199623,29.681883,CHRISTIAN,LDS,NOT AVAILABLE,NOT AVAILABLE,Y,N
15099,10443724,SAINT CHARLES BORROMEO CATHOLIC CHURCH,HOUSTON,TX,77022,2121,HARRIS,48201,2007-09-05T00:00:00.000Z,ALT REF,2007-09-05T00:00:00.000Z,CHURCHES,17920473,-95.3696725,29.8463577,CHRISTIAN,NOT AVAILABLE,NOT AVAILABLE,NOT AVAILABLE,N,Y
15101,10581044,BERRY ROAD BAPTIST CHURCH,HOUSTON,TX,77022,3309,HARRIS,48201,2009-05-28T00:00:00.000Z,ALT REF,2009-05-28T00:00:00.000Z,CHURCHES,17920527,-95.3629371,29.8378874,CHRISTIAN,BAPT,NOT AVAILABLE,NOT AVAILABLE,Y,N
15102,10441454,CHURCH OF THE REDEEMER - EPISCOPAL,HOUSTON,TX,77023,1836,HARRIS,48201,2007-11-28T00:00:00.000Z,ALT REF,2007-11-09T00:00:00.000Z,CHURCHES,17878925,-95.3341884,29.7398095,CHRISTIAN,EPIS,NOT AVAILABLE,NOT AVAILABLE,Y,N
15103,10437982,THE FOUNDRY - A UNITED METHODIST CONGREGATION,HOUSTON,TX,77065,4608,HARRIS,48201,2007-09-24T00:00:00.000Z,ALT REF,2007-09-24T00:00:00.000Z,CHURCHES,17932983,-95.5828811,29.8957113,CHRISTIAN,UMC,NOT AVAILABLE,NOT AVAILABLE,Y,N
15106,10431938,GREATER SAINT MATTHEW CHURCH - SOUTHEAST CAMPUS,HOUSTON,TX,77033,2821,HARRIS,48201,2007-09-11T00:00:00.000Z,ALT REF,2007-09-11T00:00:00.000Z,CHURCHES,17876627,-95.3453963,29.6734028,CHRISTIAN,SBC,NOT AVAILABLE,NOT AVAILABLE,Y,N
15107,10432483,HIGHER DIMENSION CHURCH,HOUSTON,TX,77036,7702,HARRIS,48201,2007-09-11T00:00:00.000Z,ALT REF,2007-09-11T00:00:00.000Z,CHURCHES,17856633,-95.5487759,29.6812549,CHRISTIAN,NONDENOM,NOT AVAILABLE,NOT AVAILABLE,Y,N
15108,10432484,HOUSTON'S FIRST BAPTIST CHURCH,HOUSTON,TX,77024,2101,HARRIS,48201,2007-09-11T00:00:00.000Z,ALT REF,2007-09-11T00:00:00.000Z,CHURCHES,17905015,-95.4598714,29.7824525,CHRISTIAN,SBC,NOT AVAILABLE,NOT AVAILABLE,Y,N
15109,10432485,SAINT AGNES CHURCH,HOUSTON,TX,77047,1020,HARRIS,48201,2007-09-11T00:00:00.000Z,ALT REF,2007-09-11T00:00:00.000Z,CHURCHES,17877853,-95.3693906,29.6421269,CHRISTIAN,SBC,NOT AVAILABLE,NOT AVAILABLE,Y,N
15110,10432486,GRACE COMMUNITY CHURCH - SOUTH CAMPUS,HOUSTON,TX,77034,5360,HARRIS,48201,2007-09-11T00:00:00.000Z,ALT REF,2007-09-11T00:00:00.000Z,CHURCHES,126612626,-95.1900466,29.5941608,CHRISTIAN,NONDENOM,NOT AVAILABLE,NOT AVAILABLE,Y,N
15111,10432489,THE FOUNTAIN OF PRAISE,HOUSTON,TX,77085,1396,HARRIS,48201,2007-09-13T00:00:00.000Z,ALT REF,2007-09-13T00:00:00.000Z,CHURCHES,17952457,-95.495832,29.6224217,CHRISTIAN,BAPT,NOT AVAILABLE,NOT AVAILABLE,Y,N
15112,10432492,CHAPELWOOD UNITED METHODIST CHURCH,HOUSTON,TX,77024,6729,HARRIS,48201,2007-09-11T00:00:00.000Z,ALT REF,2007-09-11T00:00:00.000Z,CHURCHES,17911421,-95.5114322,29.7631886,CHRISTIAN,UMC,NOT AVAILABLE,NOT AVAILABLE,Y,N
15113,10432493,SECOND BAPTIST CHURCH - WOODWAY CAMPUS,HOUSTON,TX,77057,1606,HARRIS,48201,2007-09-10T00:00:00.000Z,ALT REF,2007-09-10T00:00:00.000Z,CHURCHES,126612438,-95.4986514,29.757599,CHRISTIAN,SBC,NOT AVAILABLE,NOT AVAILABLE,Y,N
15114,10432496,SAINT LUKE'S UNITED METHODIST CHURCH,HOUSTON,TX,77027,5334,HARRIS,48201,2007-09-11T00:00:00.000Z,ALT REF,2007-09-11T00:00:00.000Z,CHURCHES,126611194,-95.4324011,29.7412642,CHRISTIAN,UMC,NOT AVAILABLE,NOT AVAILABLE,Y,N
15115,10432497,GETHSEMANE MISSIONARY BAPTIST CHURCH,HOUSTON,TX,77029,4012,HARRIS,48201,2007-09-10T00:00:00.000Z,ALT REF,2007-09-10T00:00:00.000Z,CHURCHES,17918059,-95.2662462,29.7589501,CHRISTIAN,BAPT,NOT AVAILABLE,NOT AVAILABLE,Y,N
15116,10432498,LAKEWOOD CHURCH,HOUSTON,TX,77027,7514,HARRIS,48201,2007-09-11T00:00:00.000Z,ALT REF,2007-09-11T00:00:00.000Z,CHURCHES,135379365,-95.4349608,29.7302287,CHRISTIAN,NONDENOM,NOT AVAILABLE,NOT AVAILABLE,Y,N
15117,10432499,NEW LIGHT CHRISTIAN CENTER,HOUSTON,TX,77067,4020,HARRIS,48201,2007-09-13T00:00:00.000Z,ALT REF,2007-09-18T00:00:00.000Z,CHURCHES,17937344,-95.4460716,29.9425071,CHRISTIAN,NONDENOM,NOT AVAILABLE,NOT AVAILABLE,Y,N
15118,10432500,TALLOWOOD BAPTIST CHURCH,HOUSTON,TX,77024,4944,HARRIS,48201,2007-09-11T00:00:00.000Z,ALT REF,2007-09-11T00:00:00.000Z,CHURCHES,17913686,-95.5521637,29.7754148,CHRISTIAN,SBC,NOT AVAILABLE,NOT AVAILABLE,Y,N
15119,10432860,HOLMAN STREET BAPTIST CHURCH,HOUSTON,TX,77004,4704,HARRIS,48201,2007-09-21T00:00:00.000Z,ALT REF,2007-09-21T00:00:00.000Z,CHURCHES,17873486,-95.3528209,29.7260853,CHRISTIAN,BAPT,NOT AVAILABLE,NOT AVAILABLE,Y,N
15120,10432862,CHAMPION FOREST BAPTIST,HOUSTON,TX,77069,1630,HARRIS,48201,2007-09-10T00:00:00.000Z,ALT REF,2007-09-10T00:00:00.000Z,CHURCHES,126554295,-95.5129239,30.0032634,CHRISTIAN,SBC,NOT AVAILABLE,NOT AVAILABLE,Y,N
15121,10432864,SAINT JOHNS DOWNTOWN UNITED METHODIST CHURCH,HOUSTON,TX,77002,9002,HARRIS,48201,2007-09-19T00:00:00.000Z,ALT REF,2007-09-11T00:00:00.000Z,CHURCHES,122928433,-95.3659234,29.7456719,CHRISTIAN,UMC,NOT AVAILABLE,NOT AVAILABLE,Y,N
15122,10432866,NEW FAITH CHURCH,HOUSTON,TX,77045,6203,HARRIS,48201,2007-09-11T00:00:00.000Z,ALT REF,2007-09-11T00:00:00.000Z,CHURCHES,17952304,-95.4425703,29.6127768,CHRISTIAN,NOT AVAILABLE,NOT AVAILABLE,NOT AVAILABLE,Y,N
15126,10432893,GLORIA DEI LUTHERAN CHURCH,HOUSTON,TX,77058,4127,HARRIS,48201,2007-09-13T00:00:00.000Z,ALT REF,2007-09-13T00:00:00.000Z,CHURCHES,17963799,-95.0891325,29.5476278,CHRISTIAN,LCMS,NOT AVAILABLE,NOT AVAILABLE,Y,N
15132,10433581,FIRST BAPTIST CHURCH - JACINTO CITY,HOUSTON,TX,77029,2515,HARRIS,48201,2007-11-09T00:00:00.000Z,ALT REF,2007-11-09T00:00:00.000Z,CHURCHES,17891775,-95.2398897,29.7663074,CHRISTIAN,SBC,1739,NOT AVAILABLE,Y,N
15134,10433870,CULLEN MISSIONARY BAPTIST CHURCH,HOUSTON,TX,77047,3745,HARRIS,48201,2007-11-08T00:00:00.000Z,ALT REF,2007-11-08T00:00:00.000Z,CHURCHES,17952748,-95.3547806,29.6171948,CHRISTIAN,SBC,1300,NOT AVAILABLE,Y,N
15136,10433955,RIVER OAKS BAPTIST CHURCH,HOUSTON,TX,77027,3933,HARRIS,48201,2007-11-08T00:00:00.000Z,ALT REF,2007-11-08T00:00:00.000Z,CHURCHES,17868092,-95.4430899,29.7448688,CHRISTIAN,SBC,1257,NOT AVAILABLE,Y,N
15137,10434032,CHINESE BAPTIST CHURCH,HOUSTON,TX,77024,3015,HARRIS,48201,2007-11-08T00:00:00.000Z,ALT REF,2007-11-08T00:00:00.000Z,CHURCHES,17914962,-95.5053429,29.7815611,CHRISTIAN,SBC,1331,NOT AVAILABLE,Y,N
15138,10434060,FIRST BAPTIST CHURCH - GREENS BAYOU,HOUSTON,TX,77013,5018,HARRIS,48201,2007-11-09T00:00:00.000Z,ALT REF,2007-11-28T00:00:00.000Z,CHURCHES,17895468,-95.219579,29.7882445,CHRISTIAN,SBC,1329,NOT AVAILABLE,Y,N
15139,10434189,WILCREST BAPTIST CHURCH,HOUSTON,TX,77072,2714,HARRIS,48201,2007-11-08T00:00:00.000Z,ALT REF,2007-11-08T00:00:00.000Z,CHURCHES,17856719,-95.5702386,29.699688,CHRISTIAN,SBC,2100,NOT AVAILABLE,Y,N
15140,10434217,AIRLINE MANOR BAPTIST CHURCH,HOUSTON,TX,77076,3411,HARRIS,48201,2007-11-08T00:00:00.000Z,ALT REF,2007-11-08T00:00:00.000Z,CHURCHES,17896203,-95.3905073,29.8592574,CHRISTIAN,SBC,846,NOT AVAILABLE,Y,N
15141,10434235,LAZYBROOK BAPTIST CHURCH,HOUSTON,TX,77008,1204,HARRIS,48201,2007-11-08T00:00:00.000Z,ALT REF,2007-11-08T00:00:00.000Z,CHURCHES,17908297,-95.4327532,29.8012648,CHRISTIAN,SBC,1097,NOT AVAILABLE,Y,N
15142,10434318,SOUTH PARK BAPTIST CHURCH HOUSTON,HOUSTON,TX,77033,2036,HARRIS,48201,2007-09-21T00:00:00.000Z,ALT REF,2007-09-21T00:00:00.000Z,CHURCHES,17882500,-95.3329468,29.6736056,CHRISTIAN,SBC,1869,NOT AVAILABLE,Y,N
15143,10434348,FIRST BAPTIST SPRING BRANCH,HOUSTON,TX,77055,4608,HARRIS,48201,2007-11-08T00:00:00.000Z,ALT REF,2007-11-08T00:00:00.000Z,CHURCHES,129378112,-95.5134022,29.7991172,CHRISTIAN,SBC,1718,NOT AVAILABLE,Y,N
15144,10434358,EMMANUEL BAPTIST CHURCH,HOUSTON,TX,77009,3701,HARRIS,48201,2007-11-09T00:00:00.000Z,ALT REF,2007-11-09T00:00:00.000Z,CHURCHES,17907825,-95.3782626,29.7986601,CHRISTIAN,SBC,926,NOT AVAILABLE,Y,N
15145,10434383,METROPOLITAN BAPTIST CHURCH (THE MET),HOUSTON,TX,77070,4436,HARRIS,48201,2007-09-21T00:00:00.000Z,ALT REF,2007-09-21T00:00:00.000Z,CHURCHES,126553539,-95.58441,29.9618852,CHRISTIAN,SBC,6252,NOT AVAILABLE,Y,N
15147,10434658,WEST UNIVERSITY BAPTIST CHURCH,HOUSTON,TX,77005,2816,HARRIS,48201,2007-11-09T00:00:00.000Z,ALT REF,2007-11-09T00:00:00.000Z,CHURCHES,17861175,-95.4379728,29.715746,CHRISTIAN,SBC,2555,NOT AVAILABLE,Y,N
15148,10434717,BETHEL BAPTIST CHURCH,HOUSTON,TX,77022,1905,HARRIS,48201,2007-11-08T00:00:00.000Z,ALT REF,2007-11-08T00:00:00.000Z,CHURCHES,17908157,-95.3826502,29.8460957,CHRISTIAN,SBC,2145,NOT AVAILABLE,Y,N
15151,10434934,LONG POINT BAPTIST CHURCH,HOUSTON,TX,77055,2034,HARRIS,48201,2007-11-09T00:00:00.000Z,ALT REF,2007-11-09T00:00:00.000Z,CHURCHES,17904015,-95.4877351,29.8024727,CHRISTIAN,SBC,1115,NOT AVAILABLE,Y,N
15152,10435036,WILLOW MEADOWS BAPTIST CHURCH,HOUSTON,TX,77035,3602,HARRIS,48201,2007-11-09T00:00:00.000Z,ALT REF,2007-11-09T00:00:00.000Z,CHURCHES,17869069,-95.4499196,29.6737407,CHRISTIAN,SBC,2804,NOT AVAILABLE,Y,N
15153,10435057,SECOND BAPTIST CHURCH OF JACINTO CITY,HOUSTON,TX,77029,2125,HARRIS,48201,2007-09-24T00:00:00.000Z,ALT REF,2007-09-24T00:00:00.000Z,CHURCHES,17891874,-95.2431329,29.7705939,CHRISTIAN,SBC,1304,NOT AVAILABLE,Y,N
15155,10435339,HOUSTON NORTHWEST CHURCH,HOUSTON,TX,77070,3105,HARRIS,48201,2007-09-21T00:00:00.000Z,ALT REF,2007-09-21T00:00:00.000Z,CHURCHES,25028930,-95.5709779,29.9811662,CHRISTIAN,SBC,2995,NOT AVAILABLE,Y,N
15156,10435346,CLAY ROAD BAPTIST CHURCH,HOUSTON,TX,77080,1601,HARRIS,48201,2007-11-09T00:00:00.000Z,ALT REF,2007-11-09T00:00:00.000Z,CHURCHES,17912485,-95.5166378,29.8320917,CHRISTIAN,SBC,1481,NOT AVAILABLE,Y,N
15158,10435363,RIVERVIEW BAPTIST CHURCH,HOUSTON,TX,77023,5206,HARRIS,48201,2007-11-09T00:00:00.000Z,ALT REF,2007-11-09T00:00:00.000Z,CHURCHES,17873906,-95.3194372,29.7165465,CHRISTIAN,SBC,1136,NOT AVAILABLE,Y,N
15159,10435447,BIBLE WAY FELLOWSHIP BAPTIST CHURCH,HOUSTON,TX,77034,2708,HARRIS,48201,2007-11-09T00:00:00.000Z,ALT REF,2007-11-09T00:00:00.000Z,CHURCHES,17884317,-95.233455,29.6341453,CHRISTIAN,SBC,1220,NOT AVAILABLE,Y,N
15160,10435468,LINDALE BAPTIST CHURCH,HOUSTON,TX,77022,5625,HARRIS,48201,2007-11-09T00:00:00.000Z,ALT REF,2007-11-09T00:00:00.000Z,CHURCHES,17927164,-95.3617901,29.8184332,CHRISTIAN,SBC,915,NOT AVAILABLE,Y,N
15162,10435488,WHITE OAK BAPTIST CHURCH,HOUSTON,TX,77092,5405,HARRIS,48201,2007-11-09T00:00:00.000Z,ALT REF,2007-11-09T00:00:00.000Z,CHURCHES,17905562,-95.4610327,29.8216218,CHRISTIAN,SBC,2090,NOT AVAILABLE,Y,N
15163,10435556,CLEAR LAKE BAPTIST CHURCH,HOUSTON,TX,77062,4602,HARRIS,48201,2007-11-09T00:00:00.000Z,ALT REF,2007-11-09T00:00:00.000Z,CHURCHES,25004004,-95.1211526,29.5765592,CHRISTIAN,SBC,1044,NOT AVAILABLE,Y,N
15164,10435656,FIRST BAPTIST CHURCH OF ALIEF,HOUSTON,TX,77072,1213,HARRIS,48201,2007-09-21T00:00:00.000Z,ALT REF,2007-09-21T00:00:00.000Z,CHURCHES,17851570,-95.5895139,29.709874,CHRISTIAN,SBC,975,NOT AVAILABLE,Y,N
15169,10436072,SHARPSTOWN BAPTIST CHURCH,HOUSTON,TX,77074,3504,HARRIS,48201,2007-11-09T00:00:00.000Z,ALT REF,2007-11-28T00:00:00.000Z,CHURCHES,126610347,-95.5074167,29.7044875,CHRISTIAN,SBC,2236,NOT AVAILABLE,Y,N
15171,10436534,JERSEY VILLAGE BAPTIST CHURCH,HOUSTON,TX,77040,1906,HARRIS,48201,2007-11-08T00:00:00.000Z,ALT REF,2007-11-08T00:00:00.000Z,CHURCHES,17930554,-95.5732806,29.8854775,CHRISTIAN,SBC,1609,NOT AVAILABLE,Y,N
15172,10436687,FAITH MEMORIAL BAPTIST CHURCH,HOUSTON,TX,77020,4909,HARRIS,48201,2007-11-08T00:00:00.000Z,ALT REF,2007-11-08T00:00:00.000Z,CHURCHES,17924084,-95.3071007,29.7775579,CHRISTIAN,SBC,994,NOT AVAILABLE,Y,N
15173,10436748,BROADWAY BAPTIST CHURCH,HOUSTON,TX,77012,2920,HARRIS,48201,2007-11-09T00:00:00.000Z,ALT REF,2007-11-08T00:00:00.000Z,CHURCHES,17879894,-95.2880739,29.7159168,CHRISTIAN,SBC,1885,NOT AVAILABLE,Y,N
15174,10436814,BROOKHOLLOW BAPTIST CHURCH - NORTHWEST CAMPUS,HOUSTON,TX,77084,6409,HARRIS,48201,2007-11-09T00:00:00.000Z,ALT REF,2007-11-09T00:00:00.000Z,CHURCHES,129416764,-95.6692389,29.8543586,CHRISTIAN,SBC,8745,NOT AVAILABLE,Y,N
15175,10436942,FIRST BAPTIST CHURCH OF GENOA,HOUSTON,TX,77034,4639,HARRIS,48201,2007-09-21T00:00:00.000Z,ALT REF,2007-09-21T00:00:00.000Z,CHURCHES,17956101,-95.2023269,29.6230237,CHRISTIAN,SBC,813,NOT AVAILABLE,Y,N
15176,10459991,SAINT THOMAS PRESBYTERIAN CHURCH,HOUSTON,TX,77079,6825,HARRIS,48201,2008-03-10T00:00:00.000Z,ALT REF,2008-03-10T00:00:00.000Z,CHURCHES,17910786,-95.5935052,29.7702569,CHRISTIAN,PCA,NOT AVAILABLE,NOT AVAILABLE,Y,N
15177,10437055,FAIRBANKS BAPTIST CHURCH,HOUSTON,TX,77040,5446,HARRIS,48201,2007-11-09T00:00:00.000Z,ALT REF,2007-11-09T00:00:00.000Z,CHURCHES,17908607,-95.5250511,29.8536855,CHRISTIAN,SBC,1161,NOT AVAILABLE,Y,N
15178,10437069,WOODLAND TRAILS BAPTIST CHURCH,HOUSTON,TX,77088,3801,HARRIS,48201,2007-11-09T00:00:00.000Z,ALT REF,2007-11-09T00:00:00.000Z,CHURCHES,17937925,-95.4948916,29.878645,CHRISTIAN,SBC,813,NOT AVAILABLE,Y,N
15179,10437188,ENCOURAGER CHURCH,HOUSTON,TX,77043,4903,HARRIS,48201,2007-11-09T00:00:00.000Z,ALT REF,2007-11-09T00:00:00.000Z,CHURCHES,17913573,-95.5730921,29.7857964,CHRISTIAN,SBC,1214,NOT AVAILABLE,Y,N
15180,10437220,WOODFOREST BAPTIST CHURCH,HOUSTON,TX,77015,2825,HARRIS,48201,2007-11-09T00:00:00.000Z,ALT REF,2007-11-09T00:00:00.000Z,CHURCHES,126610529,-95.1891246,29.7927091,CHRISTIAN,SBC,4292,NOT AVAILABLE,Y,N
15181,10437280,UNIVERSITY BAPTIST CHURCH,HOUSTON,TX,77059,6034,HARRIS,48201,2007-11-08T00:00:00.000Z,ALT REF,2007-11-08T00:00:00.000Z,CHURCHES,17963922,-95.1040801,29.5933669,CHRISTIAN,SBC,2588,NOT AVAILABLE,Y,N
15183,10437434,COLLEGE PARK BAPTIST CHURCH,HOUSTON,TX,77074,3103,HARRIS,48201,2007-11-08T00:00:00.000Z,ALT REF,2007-11-08T00:00:00.000Z,CHURCHES,17853305,-95.5251162,29.6911106,CHRISTIAN,SBC,2061,NOT AVAILABLE,Y,N
15184,10437491,GREENSPOINT BAPTIST CHURCH,HOUSTON,TX,77067,2623,HARRIS,48201,2007-11-08T00:00:00.000Z,ALT REF,2007-11-08T00:00:00.000Z,CHURCHES,17937204,-95.4653715,29.953901,CHRISTIAN,SBC,1197,NOT AVAILABLE,Y,N
15185,10437563,WESTBURY BAPTIST CHURCH,HOUSTON,TX,77096,4703,HARRIS,48201,2007-11-08T00:00:00.000Z,ALT REF,2007-11-08T00:00:00.000Z,CHURCHES,126611310,-95.4915093,29.6677631,CHRISTIAN,SBC,2922,NOT AVAILABLE,Y,N
15187,10437586,MOUNT ARARAT BAPTIST CHURCH,HOUSTON,TX,77091,4231,HARRIS,48201,2007-11-09T00:00:00.000Z,ALT REF,2007-11-09T00:00:00.000Z,CHURCHES,17906448,-95.4140965,29.8510109,CHRISTIAN,SBC,1700,NOT AVAILABLE,Y,N
15188,10437603,UVALDE BAPTIST CHURCH,HOUSTON,TX,77015,3701,HARRIS,48201,2007-11-09T00:00:00.000Z,ALT REF,2007-11-09T00:00:00.000Z,CHURCHES,17895018,-95.1860367,29.7794787,CHRISTIAN,SBC,1788,NOT AVAILABLE,Y,N
15190,10437942,BEAR CREEK UNITED METHODIST CHURCH,HOUSTON,TX,77084,2908,HARRIS,48201,2007-09-24T00:00:00.000Z,ALT REF,2007-09-24T00:00:00.000Z,CHURCHES,17986639,-95.6424462,29.8474621,CHRISTIAN,UMC,NOT AVAILABLE,NOT AVAILABLE,Y,N
15192,10437947,CLEAR LAKE UNITED METHODIST CHURCH,HOUSTON,TX,77062,5208,HARRIS,48201,2007-09-24T00:00:00.000Z,ALT REF,2007-09-24T00:00:00.000Z,CHURCHES,17956980,-95.1250264,29.5604254,CHRISTIAN,UMC,NOT AVAILABLE,NOT AVAILABLE,Y,N
15195,10437972,JOHN WESLEY UNITED METHODIST CHURCH,HOUSTON,TX,77069,1806,HARRIS,48201,2007-09-24T00:00:00.000Z,ALT REF,2007-09-24T00:00:00.000Z,CHURCHES,17933314,-95.5234314,29.9855401,CHRISTIAN,UMC,NOT AVAILABLE,NOT AVAILABLE,Y,N
15197,10443749,SAINT MAXIMILIAN KOLBE CATHOLIC COMMUNITY,HOUSTON,TX,77064,5361,HARRIS,48201,2009-05-13T00:00:00.000Z,ALT REF,2009-05-13T00:00:00.000Z,CHURCHES,126550587,-95.569537,29.9086449,CHRISTIAN,NOT AVAILABLE,NOT AVAILABLE,NOT AVAILABLE,N,Y
15198,10438250,FIFTH WARD CHURCH OF CHRIST,HOUSTON,TX,77020,4155,HARRIS,48201,2007-10-11T00:00:00.000Z,ALT REF,2007-10-11T00:00:00.000Z,CHURCHES,17924511,-95.3271885,29.7732582,CHRISTIAN,COC,2000,NOT AVAILABLE,Y,N
15199,10438320,WEST HOUSTON CHURCH OF CHRIST,HOUSTON,TX,77095,5561,HARRIS,48201,2007-10-10T00:00:00.000Z,ALT REF,2007-10-10T00:00:00.000Z,CHURCHES,126609100,-95.6709257,29.9072432,CHRISTIAN,COC,850,NOT AVAILABLE,Y,N
15201,10438336,GRACE PRESBYTERIAN CHURCH,HOUSTON,TX,77042,2939,HARRIS,48201,2007-10-10T00:00:00.000Z,ALT REF,2007-10-19T00:00:00.000Z,CHURCHES,17857157,-95.556491,29.7393238,CHRISTIAN,PCUSA,3619,NOT AVAILABLE,Y,N
15202,10438392,KOREAN CENTRAL PRESBYTERIAN CHURCH,HOUSTON,TX,77084,5695,HARRIS,48201,2007-10-10T00:00:00.000Z,ALT REF,2007-10-10T00:00:00.000Z,CHURCHES,17986745,-95.6413482,29.7879746,CHRISTIAN,PCUSA,915,NOT AVAILABLE,Y,N
15203,10438399,MEMORIAL DRIVE PRESBYTERIAN CHURCH,HOUSTON,TX,77024,7207,HARRIS,48201,2007-10-10T00:00:00.000Z,ALT REF,2007-10-10T00:00:00.000Z,CHURCHES,17914802,-95.523426,29.7518774,CHRISTIAN,PCUSA,4499,NOT AVAILABLE,Y,N
15204,10438658,THE CHURCH OF JESUS CHRIST OF LATTER DAY SAINTS - CLEAR LAKE 1ST WARD,HOUSTON,TX,77062,4606,HARRIS,48201,2007-10-17T00:00:00.000Z,ALT REF,2007-10-17T00:00:00.000Z,CHURCHES,17961966,-95.1184955,29.5747616,CHRISTIAN,LDS,NOT AVAILABLE,NOT AVAILABLE,Y,N
15206,10438771,THE CHURCH OF JESUS CHRIST OF LATTER DAY SAINTS - INWOOD WARD,HOUSTON,TX,77086,2500,HARRIS,48201,2007-10-17T00:00:00.000Z,ALT REF,2007-10-17T00:00:00.000Z,CHURCHES,17929665,-95.5049365,29.9239734,CHRISTIAN,LDS,NOT AVAILABLE,NOT AVAILABLE,Y,N
15207,10438797,THE CHURCH OF JESUS CHRIST OF LATTER DAY SAINTS - BEAR CREEK FIRST WARD,HOUSTON,TX,77084,3542,HARRIS,48201,2007-10-17T00:00:00.000Z,ALT REF,2007-10-17T00:00:00.000Z,CHURCHES,18131048,-95.6429344,29.8418455,CHRISTIAN,LDS,NOT AVAILABLE,NOT AVAILABLE,Y,N
15208,10438930,THE CHURCH OF JESUS CHRIST OF LATTER DAY SAINTS - HOUSTON 2ND (SPANISH) WARD,HOUSTON,TX,77074,5202,HARRIS,48201,2007-10-17T00:00:00.000Z,ALT REF,2007-10-17T00:00:00.000Z,CHURCHES,27796698,-95.5199595,29.6817672,CHRISTIAN,LDS,NOT AVAILABLE,NOT AVAILABLE,Y,N
15209,10438980,THE CHURCH OF JESUS CHRIST OF LATTER DAY SAINTS - HOUSTON 7TH (SPANISH) WARD,HOUSTON,TX,77049,4208,HARRIS,48201,2007-10-17T00:00:00.000Z,ALT REF,2007-10-17T00:00:00.000Z,CHURCHES,17893833,-95.1928191,29.8125739,CHRISTIAN,LDS,NOT AVAILABLE,NOT AVAILABLE,Y,N
15210,10439027,THE CHURCH OF JESUS CHRIST OF LATTER DAY SAINTS - COPPERFIELD WARD,HOUSTON,TX,77084,3542,HARRIS,48201,2007-10-17T00:00:00.000Z,ALT REF,2007-10-17T00:00:00.000Z,CHURCHES,18131048,-95.6429376,29.8417857,CHRISTIAN,LDS,NOT AVAILABLE,NOT AVAILABLE,Y,N
15211,10439085,THE CHURCH OF JESUS CHRIST OF LATTER DAY SAINTS - BRAEBURN 2ND (VIETNAMESE) BRANCH,HOUSTON,TX,77096,1001,HARRIS,48201,2007-10-17T00:00:00.000Z,ALT REF,2007-10-17T00:00:00.000Z,CHURCHES,17868578,-95.4868638,29.6886877,CHRISTIAN,LDS,NOT AVAILABLE,NOT AVAILABLE,Y,N
15212,10439174,THE CHURCH OF JESUS CHRIST OF LATTER DAY SAINTS - MAPLEWOOD 3RD (CHINESE) BRANCH,HOUSTON,TX,77096,1001,HARRIS,48201,2007-10-17T00:00:00.000Z,ALT REF,2007-10-17T00:00:00.000Z,CHURCHES,17868578,-95.4868638,29.6886284,CHRISTIAN,LDS,NOT AVAILABLE,NOT AVAILABLE,Y,N
15213,10439190,THE CHURCH OF JESUS CHRIST OF LATTER DAY SAINTS - BROADWAY 3RD (SPANISH) WARD,HOUSTON,TX,77017,2313,HARRIS,48201,2007-10-17T00:00:00.000Z,ALT REF,2007-10-17T00:00:00.000Z,CHURCHES,126614884,-95.2784797,29.6968405,CHRISTIAN,LDS,NOT AVAILABLE,NOT AVAILABLE,Y,N
15216,10439389,THE CHURCH OF JESUS CHRIST OF LATTER DAY SAINTS - HOUSTON 9TH (SPANISH) WARD,HOUSTON,TX,77074,5202,HARRIS,48201,2007-10-17T00:00:00.000Z,ALT REF,2007-10-17T00:00:00.000Z,CHURCHES,27796698,-95.5199595,29.6818282,CHRISTIAN,LDS,NOT AVAILABLE,NOT AVAILABLE,Y,N
15218,10439628,THE CHURCH OF JESUS CHRIST OF LATTER DAY SAINTS - HERMANN PARK WARD,HOUSTON,TX,77096,1001,HARRIS,48201,2007-10-17T00:00:00.000Z,ALT REF,2007-10-17T00:00:00.000Z,CHURCHES,17868578,-95.4868651,29.6884917,CHRISTIAN,LDS,NOT AVAILABLE,NOT AVAILABLE,Y,N
15219,10439635,THE CHURCH OF JESUS CHRIST OF LATTER DAY SAINTS - CLEAR LAKE 2ND WARD,HOUSTON,TX,77062,4606,HARRIS,48201,2007-10-17T00:00:00.000Z,ALT REF,2007-10-17T00:00:00.000Z,CHURCHES,17961966,-95.1186359,29.5748218,CHRISTIAN,LDS,NOT AVAILABLE,NOT AVAILABLE,Y,N
15220,10439716,THE CHURCH OF JESUS CHRIST OF LATTER DAY SAINTS - BROADWAY 1ST WARD,HOUSTON,TX,77017,2313,HARRIS,48201,2007-10-17T00:00:00.000Z,ALT REF,2007-10-17T00:00:00.000Z,CHURCHES,126614884,-95.2782857,29.6968405,CHRISTIAN,LDS,NOT AVAILABLE,NOT AVAILABLE,Y,N
15221,10439743,THE CHURCH OF JESUS CHRIST OF LATTER DAY SAINTS - BROADWAY 2ND (SPANISH) WARD,HOUSTON,TX,77017,2313,HARRIS,48201,2007-10-17T00:00:00.000Z,ALT REF,2007-10-17T00:00:00.000Z,CHURCHES,126614884,-95.2783734,29.6968405,CHRISTIAN,LDS,NOT AVAILABLE,NOT AVAILABLE,Y,N
15222,10439747,THE CHURCH OF JESUS CHRIST OF LATTER DAY SAINTS - MAPLEWOOD 2ND WARD,HOUSTON,TX,77096,1001,HARRIS,48201,2007-10-17T00:00:00.000Z,ALT REF,2007-10-17T00:00:00.000Z,CHURCHES,17868578,-95.486856,29.6885508,CHRISTIAN,LDS,NOT AVAILABLE,NOT AVAILABLE,Y,N
15223,10439750,THE CHURCH OF JESUS CHRIST OF LATTER DAY SAINTS - PINE TRAILS WARD,HOUSTON,TX,77049,4208,HARRIS,48201,2007-10-17T00:00:00.000Z,ALT REF,2007-10-17T00:00:00.000Z,CHURCHES,17893833,-95.1928218,29.8126063,CHRISTIAN,LDS,NOT AVAILABLE,NOT AVAILABLE,Y,N
15224,10439769,THE CHURCH OF JESUS CHRIST OF LATTER DAY SAINTS - FALLBROOK (DEAF) BRANCH,HOUSTON,TX,77086,2500,HARRIS,48201,2007-10-17T00:00:00.000Z,ALT REF,2007-10-17T00:00:00.000Z,CHURCHES,17929665,-95.5048104,29.9238357,CHRISTIAN,LDS,NOT AVAILABLE,NOT AVAILABLE,Y,N
15226,10440101,THE CHURCH OF JESUS CHRIST OF LATTER DAY SAINTS - SPRING BRANCH WARD,HOUSTON,TX,77041,7899,HARRIS,48201,2007-10-17T00:00:00.000Z,ALT REF,2007-10-17T00:00:00.000Z,CHURCHES,17913184,-95.5508916,29.8374523,CHRISTIAN,LDS,NOT AVAILABLE,NOT AVAILABLE,Y,N
15227,10440224,HOLY SPIRIT EPISCOPAL CHURCH,HOUSTON,TX,77024,4106,HARRIS,48201,2007-11-09T00:00:00.000Z,ALT REF,2007-11-09T00:00:00.000Z,CHURCHES,17947261,-95.5524113,29.7740977,CHRISTIAN,EPIS,NOT AVAILABLE,NOT AVAILABLE,Y,N
15228,10440279,SAINT CUTHBERT EPISCOPAL CHURCH,HOUSTON,TX,77095,1713,HARRIS,48201,2007-11-09T00:00:00.000Z,ALT REF,2007-11-09T00:00:00.000Z,CHURCHES,17977773,-95.6395315,29.8956841,CHRISTIAN,EPIS,NOT AVAILABLE,NOT AVAILABLE,Y,N
15229,10440381,SAINT DUNSTAN'S EPISCOPAL CHURCH,HOUSTON,TX,77069,3529,HARRIS,48201,2007-11-09T00:00:00.000Z,ALT REF,2007-11-09T00:00:00.000Z,CHURCHES,17939726,-95.5021922,29.9914282,CHRISTIAN,EPIS,NOT AVAILABLE,NOT AVAILABLE,Y,N
15230,10581038,NEW PROVIDENCE MISSIONARY BAPTIST CHURCH,HOUSTON,TX,77004,3720,HARRIS,48201,2009-05-19T00:00:00.000Z,ALT REF,2009-07-06T00:00:00.000Z,CHURCHES,17873338,-95.3559991,29.7280846,CHRISTIAN,BAPT,NOT AVAILABLE,NOT AVAILABLE,Y,N
15231,10441435,SAINT JAMES' EPISCOPAL CHURCH,HOUSTON,TX,77004,6214,HARRIS,48201,2007-11-09T00:00:00.000Z,ALT REF,2007-11-28T00:00:00.000Z,CHURCHES,17883765,-95.3672735,29.7173277,CHRISTIAN,EPIS,NOT AVAILABLE,NOT AVAILABLE,Y,N
15232,10441436,SAINT MARK'S EPISCOPAL CHURCH,HOUSTON,TX,77025,1209,HARRIS,48201,2007-11-09T00:00:00.000Z,ALT REF,2007-11-09T00:00:00.000Z,CHURCHES,129368841,-95.4388732,29.7065032,CHRISTIAN,EPIS,NOT AVAILABLE,NOT AVAILABLE,Y,N
15233,10441437,SAINT ANDREW'S EPISCOPAL CHURCH,HOUSTON,TX,77008,4025,HARRIS,48201,2007-11-09T00:00:00.000Z,ALT REF,2007-11-09T00:00:00.000Z,CHURCHES,17898533,-95.3984536,29.8025543,CHRISTIAN,EPIS,NOT AVAILABLE,NOT AVAILABLE,Y,N
15234,10441439,LORD OF THE STREETS EPISCOPAL CHURCH,HOUSTON,TX,77004,3806,HARRIS,48201,2007-11-09T00:00:00.000Z,ALT REF,2007-11-09T00:00:00.000Z,CHURCHES,17868348,-95.3770912,29.7395353,CHRISTIAN,EPIS,NOT AVAILABLE,NOT AVAILABLE,Y,N
15235,10441440,SAINT THOMAS' EPISCOPAL CHURCH,HOUSTON,TX,77096,1505,HARRIS,48201,2007-11-09T00:00:00.000Z,ALT REF,2007-11-09T00:00:00.000Z,CHURCHES,17866228,-95.4642977,29.6851117,CHRISTIAN,EPIS,NOT AVAILABLE,NOT AVAILABLE,Y,N
15236,10441441,SAINT LUKE THE EVANGELIST EPISCOPAL CHURCH,HOUSTON,TX,77004,5527,HARRIS,48201,2007-11-09T00:00:00.000Z,ALT REF,2007-11-09T00:00:00.000Z,CHURCHES,17883788,-95.3567272,29.7201484,CHRISTIAN,EPIS,NOT AVAILABLE,NOT AVAILABLE,Y,N
15237,10441442,EMMANUEL EPISCOPAL CHURCH,HOUSTON,TX,77079,4301,HARRIS,48201,2007-11-09T00:00:00.000Z,ALT REF,2007-11-09T00:00:00.000Z,CHURCHES,17914438,-95.617414,29.7763363,CHRISTIAN,EPIS,NOT AVAILABLE,NOT AVAILABLE,Y,N
15238,10441443,SAINT JOSEPH'S EPISCOPAL CHURCH,HOUSTON,TX,77083,5764,HARRIS,48201,2007-11-09T00:00:00.000Z,ALT REF,2007-11-09T00:00:00.000Z,CHURCHES,17967385,-95.637562,29.6875184,CHRISTIAN,EPIS,NOT AVAILABLE,NOT AVAILABLE,Y,N
15239,10441444,SAINT JOHN THE DIVINE EPISCOPAL CHURCH,HOUSTON,TX,77019,5826,HARRIS,48201,2007-11-09T00:00:00.000Z,ALT REF,2007-11-09T00:00:00.000Z,CHURCHES,17870353,-95.4269952,29.7426644,CHRISTIAN,EPIS,NOT AVAILABLE,NOT AVAILABLE,Y,N
15240,10441446,EPISCOPAL CHURCH OF THE EPIPHANY,HOUSTON,TX,77071,1002,HARRIS,48201,2007-11-09T00:00:00.000Z,ALT REF,2007-11-09T00:00:00.000Z,CHURCHES,126550408,-95.5292206,29.6757797,CHRISTIAN,EPIS,NOT AVAILABLE,NOT AVAILABLE,Y,N
15241,10441447,PALMER MEMORIAL EPISCOPAL CHURCH,HOUSTON,TX,77030,1506,HARRIS,48201,2007-11-09T00:00:00.000Z,ALT REF,2007-11-09T00:00:00.000Z,CHURCHES,17865644,-95.396395,29.7164487,CHRISTIAN,EPIS,NOT AVAILABLE,NOT AVAILABLE,Y,N
15242,10441451,SAINT GEORGE'S AND SAINT PATRICK'S EPISCOPAL CHURCH,HOUSTON,TX,77025,5307,HARRIS,48201,2007-11-09T00:00:00.000Z,ALT REF,2007-11-09T00:00:00.000Z,CHURCHES,129369040,-95.4437826,29.67366,CHRISTIAN,EPIS,NOT AVAILABLE,NOT AVAILABLE,Y,N
15243,10441452,RICE CANTERBURY,HOUSTON,TX,77030,1506,HARRIS,48201,2007-11-09T00:00:00.000Z,ALT REF,2007-11-09T00:00:00.000Z,CHURCHES,17865644,-95.3968322,29.716152,CHRISTIAN,EPIS,NOT AVAILABLE,NOT AVAILABLE,Y,N
15244,10441455,SAINT TIMOTHY'S EPISCOPAL CHURCH,HOUSTON,TX,77015,3600,HARRIS,48201,2007-11-09T00:00:00.000Z,ALT REF,2007-11-09T00:00:00.000Z,CHURCHES,17892874,-95.1939836,29.7849068,CHRISTIAN,EPIS,NOT AVAILABLE,NOT AVAILABLE,Y,N
15245,10441456,CHRIST THE KING EPISCOPAL CHURCH,HOUSTON,TX,77083,3110,HARRIS,48201,2007-11-09T00:00:00.000Z,ALT REF,2007-11-09T00:00:00.000Z,CHURCHES,126615479,-95.6566807,29.6992151,CHRISTIAN,EPIS,NOT AVAILABLE,NOT AVAILABLE,Y,N
15246,10441457,SANTA MARIA VIRGEN EPISCOPAL CHURCH,HOUSTON,TX,77099,2316,HARRIS,48201,2007-11-09T00:00:00.000Z,ALT REF,2007-11-09T00:00:00.000Z,CHURCHES,17855204,-95.6004288,29.6748255,CHRISTIAN,EPIS,NOT AVAILABLE,NOT AVAILABLE,Y,N
15247,10441458,IGLESIA EPISCOPAL SAN MATEO,HOUSTON,TX,77081,5201,HARRIS,48201,2007-11-09T00:00:00.000Z,ALT REF,2007-11-09T00:00:00.000Z,CHURCHES,17860217,-95.4798724,29.7084163,CHRISTIAN,EPIS,NOT AVAILABLE,NOT AVAILABLE,Y,N
15248,10685315,TEXAS CAMBODIAN BUDDHIST,HOUSTON,TX,77060,4515,HARRIS,48201,2009-05-27T00:00:00.000Z,ALT REF,2009-05-27T00:00:00.000Z,PLACES OF WORSHIP,17935694,-95.3872912,29.922955,BUDDHIST,"THERAVADA, KHMER",NOT AVAILABLE,NOT AVAILABLE,N,N
15251,10441935,CATHOLIC CHARISMATIC CENTER,HOUSTON,TX,77023,3553,HARRIS,48201,2007-08-29T00:00:00.000Z,ALT REF,2007-08-29T00:00:00.000Z,CHURCHES,17879180,-95.3395806,29.7322465,CHRISTIAN,NOT AVAILABLE,NOT AVAILABLE,NOT AVAILABLE,N,Y
15252,10441936,OUR LADY OF WALSINGHAM CATHOLIC CHURCH,HOUSTON,TX,77055,5011,HARRIS,48201,2007-08-29T00:00:00.000Z,ALT REF,2007-08-29T00:00:00.000Z,CHURCHES,135353410,-95.4832643,29.7958195,CHRISTIAN,NOT AVAILABLE,NOT AVAILABLE,NOT AVAILABLE,N,Y
15254,10441943,PRINCE OF PEACE CATHOLIC COMMUNITY,HOUSTON,TX,77070,3510,HARRIS,48201,2007-10-08T00:00:00.000Z,ALT REF,2007-10-08T00:00:00.000Z,CHURCHES,126563547,-95.5612174,29.9740762,CHRISTIAN,NOT AVAILABLE,NOT AVAILABLE,NOT AVAILABLE,N,Y
15255,10441949,SAINT PHILIP OF JESUS CHURCH,HOUSTON,TX,77013,3851,HARRIS,48201,2007-10-08T00:00:00.000Z,ALT REF,2007-10-08T00:00:00.000Z,CHURCHES,17917755,-95.2567341,29.7950119,CHRISTIAN,NOT AVAILABLE,NOT AVAILABLE,NOT AVAILABLE,N,Y
15259,10456407,MOUNT CALVARY AFRICAN METHODIST EPISCOPAL CHURCH,HOUSTON,TX,77091,3033,HARRIS,48201,2008-03-10T00:00:00.000Z,ALT REF,2008-03-10T00:00:00.000Z,CHURCHES,17896758,-95.4499661,29.8571797,CHRISTIAN,AME,NOT AVAILABLE,NOT AVAILABLE,Y,N
15260,10442505,RESURRECTION CHURCH,HOUSTON,TX,77020,6846,HARRIS,48201,2007-10-08T00:00:00.000Z,ALT REF,2007-10-08T00:00:00.000Z,CHURCHES,17919068,-95.3029287,29.7724401,CHRISTIAN,NOT AVAILABLE,NOT AVAILABLE,NOT AVAILABLE,N,Y
15261,10443006,SAINT DOMINIC CATHOLIC CHURCH,HOUSTON,TX,77049,1728,HARRIS,48201,2007-10-08T00:00:00.000Z,ALT REF,2007-10-08T00:00:00.000Z,CHURCHES,17891991,-95.1730639,29.8436735,CHRISTIAN,NOT AVAILABLE,NOT AVAILABLE,NOT AVAILABLE,N,Y
15262,10443007,IMMACULATE CONCEPTION CHURCH,HOUSTON,TX,77011,4737,HARRIS,48201,2007-10-08T00:00:00.000Z,ALT REF,2007-10-08T00:00:00.000Z,CHURCHES,17879678,-95.2965848,29.7335748,CHRISTIAN,NOT AVAILABLE,NOT AVAILABLE,NOT AVAILABLE,N,Y
15263,10443083,CHRIST THE REDEEMER CATHOLIC CHURCH,HOUSTON,TX,77065,1051,HARRIS,48201,2007-09-05T00:00:00.000Z,ALT REF,2007-09-05T00:00:00.000Z,CHURCHES,17977039,-95.6299674,29.9425912,CHRISTIAN,NOT AVAILABLE,NOT AVAILABLE,NOT AVAILABLE,N,Y
15264,10443084,SAINT NICHOLAS CHURCH,HOUSTON,TX,77003,4406,HARRIS,48201,2007-09-05T00:00:00.000Z,ALT REF,2007-09-05T00:00:00.000Z,CHURCHES,17871710,-95.3544336,29.7459315,CHRISTIAN,NOT AVAILABLE,NOT AVAILABLE,NOT AVAILABLE,N,Y
15266,10443710,ALL SAINTS CATHOLIC COMMUNITY,HOUSTON,TX,77008,7025,HARRIS,48201,2007-10-08T00:00:00.000Z,ALT REF,2007-10-08T00:00:00.000Z,CHURCHES,17899397,-95.3961441,29.7891348,CHRISTIAN,NOT AVAILABLE,NOT AVAILABLE,NOT AVAILABLE,N,Y
15267,10443716,ANNUNCIATION CATHOLIC CHURCH,HOUSTON,TX,77003,3033,HARRIS,48201,2007-09-06T00:00:00.000Z,ALT REF,2007-09-06T00:00:00.000Z,CHURCHES,17925285,-95.3572693,29.7563858,CHRISTIAN,NOT AVAILABLE,NOT AVAILABLE,NOT AVAILABLE,N,Y
15268,10443718,ASSUMPTION CATHOLIC CHURCH,HOUSTON,TX,77037,4611,HARRIS,48201,2007-09-06T00:00:00.000Z,ALT REF,2007-09-06T00:00:00.000Z,CHURCHES,17908226,-95.3865611,29.8718394,CHRISTIAN,NOT AVAILABLE,NOT AVAILABLE,NOT AVAILABLE,N,Y
15269,10443719,SAINT BENEDICT THE ABBOT CATHOLIC CHURCH,HOUSTON,TX,77045,6320,HARRIS,48201,2007-09-06T00:00:00.000Z,ALT REF,2007-09-07T00:00:00.000Z,CHURCHES,17951762,-95.4381969,29.6155887,CHRISTIAN,NOT AVAILABLE,NOT AVAILABLE,NOT AVAILABLE,N,Y
15270,10443720,SAINT BERNADETTE CATHOLIC CHURCH,HOUSTON,TX,77062,4016,HARRIS,48201,2007-10-08T00:00:00.000Z,ALT REF,2007-10-12T00:00:00.000Z,CHURCHES,17958161,-95.1331426,29.5679153,CHRISTIAN,NOT AVAILABLE,NOT AVAILABLE,NOT AVAILABLE,N,Y
15271,10443721,BLESSED SACRAMENT,HOUSTON,TX,77003,2631,HARRIS,48201,2007-09-05T00:00:00.000Z,ALT REF,2007-09-05T00:00:00.000Z,CHURCHES,17871477,-95.3337056,29.7481395,CHRISTIAN,NOT AVAILABLE,NOT AVAILABLE,NOT AVAILABLE,N,Y
15272,10443722,SAINT CATHERINE OF SIENA CATHOLIC CHURCH,HOUSTON,TX,77043,2826,HARRIS,48201,2007-09-05T00:00:00.000Z,ALT REF,2007-09-06T00:00:00.000Z,CHURCHES,17913428,-95.5603329,29.805267,CHRISTIAN,NOT AVAILABLE,NOT AVAILABLE,NOT AVAILABLE,N,Y
15273,10443742,SAINT JOHN VIANNEY CATHOLIC CHURCH,HOUSTON,TX,77079,6234,HARRIS,48201,2007-09-05T00:00:00.000Z,ALT REF,2007-09-05T00:00:00.000Z,CHURCHES,17914397,-95.6150036,29.7699168,CHRISTIAN,NOT AVAILABLE,NOT AVAILABLE,NOT AVAILABLE,N,Y
15274,10443750,NOTRE DAME CATHOLIC CHURCH,HOUSTON,TX,77072,3527,HARRIS,48201,2007-10-08T00:00:00.000Z,ALT REF,2007-10-08T00:00:00.000Z,CHURCHES,17851481,-95.5758525,29.6941633,CHRISTIAN,NOT AVAILABLE,NOT AVAILABLE,NOT AVAILABLE,N,Y
15275,10443757,OUR LADY STAR OF THE SEA CATHOLIC CHURCH,HOUSTON,TX,77029,4624,HARRIS,48201,2007-10-08T00:00:00.000Z,ALT REF,2007-10-08T00:00:00.000Z,CHURCHES,17871702,-95.2557075,29.7431748,CHRISTIAN,NOT AVAILABLE,NOT AVAILABLE,NOT AVAILABLE,N,Y
15276,10443760,SAINT PETER THE APOSTLE PARISH,HOUSTON,TX,77021,1323,HARRIS,48201,2007-09-05T00:00:00.000Z,ALT REF,2007-09-05T00:00:00.000Z,CHURCHES,17874698,-95.3618183,29.703472,CHRISTIAN,NOT AVAILABLE,NOT AVAILABLE,NOT AVAILABLE,N,Y
15277,10443761,SAINT PETER CLAVER CHURCH,HOUSTON,TX,77028,4463,HARRIS,48201,2007-10-08T00:00:00.000Z,ALT REF,2007-10-08T00:00:00.000Z,CHURCHES,17923458,-95.2848128,29.8166078,CHRISTIAN,NOT AVAILABLE,NOT AVAILABLE,NOT AVAILABLE,N,Y
15282,10454801,ANTIOCH MISSIONARY BAPTIST CHURCH,HOUSTON,TX,77002,4304,HARRIS,48201,2008-03-10T00:00:00.000Z,ALT REF,2008-03-10T00:00:00.000Z,CHURCHES,17925915,-95.3720012,29.7562396,CHRISTIAN,NBC,NOT AVAILABLE,NOT AVAILABLE,Y,N
15283,10461292,CHRIST THE KING PRESBYTERIAN CHURCH,HOUSTON,TX,77081,2221,HARRIS,48201,2008-03-07T00:00:00.000Z,ALT REF,2008-03-07T00:00:00.000Z,CHURCHES,126615069,-95.4574317,29.7213782,CHRISTIAN,PCA,NOT AVAILABLE,NOT AVAILABLE,Y,N
15286,10456311,EVANGELIST CHAPEL AFRICAN METHODIST EPISCOPAL CHURCH,HOUSTON,TX,77051,1529,HARRIS,48201,2008-03-04T00:00:00.000Z,ALT REF,2008-03-04T00:00:00.000Z,CHURCHES,17876605,-95.3714706,29.6745643,CHRISTIAN,AME,NOT AVAILABLE,NOT AVAILABLE,Y,N
15290,10454760,JOY BAPTIST TABERNACLE,HOUSTON,TX,77021,3251,HARRIS,48201,2008-03-10T00:00:00.000Z,ALT REF,2008-03-10T00:00:00.000Z,CHURCHES,17882347,-95.3419007,29.6990761,CHRISTIAN,NBC,NOT AVAILABLE,NOT AVAILABLE,Y,N
15292,10453341,SAINT EMMANUEL BAPTIST CHURCH,HOUSTON,TX,77009,4324,HARRIS,48201,2008-03-07T00:00:00.000Z,ALT REF,2008-03-07T00:00:00.000Z,CHURCHES,17922038,-95.3515679,29.7969197,CHRISTIAN,NBC,NOT AVAILABLE,NOT AVAILABLE,Y,N
15293,10455349,NEW HOPE BAPTIST CHURCH OF HOUSTON,HOUSTON,TX,77007,4215,HARRIS,48201,2008-03-10T00:00:00.000Z,ALT REF,2008-03-10T00:00:00.000Z,CHURCHES,17916244,-95.3698189,29.7734938,CHRISTIAN,NBC,NOT AVAILABLE,NOT AVAILABLE,Y,N
15294,10456652,THE SANCTIFIED JONES CHAPEL AFRICAN METHODIST EPISCOPAL CHURCH,HOUSTON,TX,77007,1513,HARRIS,48201,2008-03-10T00:00:00.000Z,ALT REF,2008-03-10T00:00:00.000Z,CHURCHES,17899348,-95.4002011,29.7849136,CHRISTIAN,AME,NOT AVAILABLE,NOT AVAILABLE,Y,N
15295,10459230,SOUTH WESLEY AFRICAN METHODIST EPISCOPAL CHURCH,HOUSTON,TX,77048,1221,HARRIS,48201,2008-03-10T00:00:00.000Z,ALT REF,2008-03-10T00:00:00.000Z,CHURCHES,17882793,-95.3357704,29.6438421,CHRISTIAN,AME,NOT AVAILABLE,NOT AVAILABLE,Y,N
15296,10456277,WESLEY CHAPEL AFRICAN METHODIST EPISCOPAL CHURCH,HOUSTON,TX,77003,6009,HARRIS,48201,2008-03-11T00:00:00.000Z,ALT REF,2008-03-11T00:00:00.000Z,CHURCHES,17872257,-95.3599179,29.7404001,CHRISTIAN,AME,NOT AVAILABLE,NOT AVAILABLE,Y,N
15297,10456172,PAYNE CATHEDRAL OF FAITH AFRICAN METHODIST EPISCOPAL CHURCH,HOUSTON,TX,77026,6924,HARRIS,48201,2008-03-10T00:00:00.000Z,ALT REF,2008-03-10T00:00:00.000Z,CHURCHES,17918822,-95.3426893,29.7818168,CHRISTIAN,AME,NOT AVAILABLE,NOT AVAILABLE,Y,N
15298,10432870,WHEELER AVENUE BAPTIST CHURCH,HOUSTON,TX,77004,2604,HARRIS,48201,2008-03-10T00:00:00.000Z,ALT REF,2008-03-10T00:00:00.000Z,CHURCHES,17879377,-95.3520492,29.7182787,CHRISTIAN,BAPT,NOT AVAILABLE,NOT AVAILABLE,Y,N
15304,10581030,MILLS ROAD BAPTIST CHURCH,HOUSTON,TX,77064,1207,HARRIS,48201,2009-05-21T00:00:00.000Z,ALT REF,2009-05-22T00:00:00.000Z,CHURCHES,17928914,-95.5528477,29.954929,CHRISTIAN,BAPT,NOT AVAILABLE,NOT AVAILABLE,Y,N
15305,10436930,FIRST BAPTIST CHURCH - NORTH HOUSTON,HOUSTON,TX,77039,3524,HARRIS,48201,2007-11-09T00:00:00.000Z,ALT REF,2007-11-09T00:00:00.000Z,CHURCHES,17942385,-95.3297766,29.9108736,CHRISTIAN,SBC,1458,NOT AVAILABLE,Y,N
15306,10443758,SAINT PATRICK CATHOLIC CHURCH,HOUSTON,TX,77009,2117,HARRIS,48201,2009-05-13T00:00:00.000Z,ALT REF,2009-05-13T00:00:00.000Z,CHURCHES,17917727,-95.3558643,29.8047156,CHRISTIAN,NOT AVAILABLE,NOT AVAILABLE,NOT AVAILABLE,N,Y
15307,10441839,PROTECTION OF THE MOTHER OF GOD UKRAINIAN CATHOLIC CHURCH,HOUSTON,TX,77037,2351,HARRIS,48201,2009-05-26T00:00:00.000Z,ALT REF,2009-05-26T00:00:00.000Z,CHURCHES,17934686,-95.3984615,29.8910426,CHRISTIAN,NOT AVAILABLE,NOT AVAILABLE,NOT AVAILABLE,N,Y
15313,10448182,OUR LADY OF THE CEDARS MARONITE CHURCH,HOUSTON,TX,77031,2625,HARRIS,48201,2007-09-06T00:00:00.000Z,ALT REF,2007-09-06T00:00:00.000Z,CHURCHES,17856128,-95.5603089,29.648716,CHRISTIAN,NOT AVAILABLE,NOT AVAILABLE,NOT AVAILABLE,N,Y
15314,10439886,THE CHURCH OF JESUS CHRIST OF LATTER DAY SAINTS - SAM HOUSTON 2ND (YOUNG SINGLE ADULT) WARD,HOUSTON,TX,77064,6300,HARRIS,48201,2007-10-16T00:00:00.000Z,ALT REF,2007-10-16T00:00:00.000Z,CHURCHES,17931008,-95.5676602,29.9094394,CHRISTIAN,LDS,NOT AVAILABLE,NOT AVAILABLE,Y,N
15315,10439749,THE CHURCH OF JESUS CHRIST OF LATTER DAY SAINTS - MELBOURNE WARD,HOUSTON,TX,77022,5417,HARRIS,48201,2007-11-09T00:00:00.000Z,ALT REF,2007-11-09T00:00:00.000Z,CHURCHES,17921567,-95.3732688,29.8165779,CHRISTIAN,LDS,NOT AVAILABLE,NOT AVAILABLE,Y,N
15316,10439653,THE CHURCH OF JESUS CHRIST OF LATTER DAY SAINTS - SILVER PINES WARD,HOUSTON,TX,77070,4601,HARRIS,48201,2007-10-16T00:00:00.000Z,ALT REF,2007-10-16T00:00:00.000Z,CHURCHES,135350131,-95.5785363,29.9610635,CHRISTIAN,LDS,NOT AVAILABLE,NOT AVAILABLE,Y,N
15317,10439343,THE CHURCH OF JESUS CHRIST OF LATTER DAY SAINTS - BRAES BAYOU (YOUNG SINGLE ADULT) WARD,HOUSTON,TX,77057,2301,HARRIS,48201,2007-10-16T00:00:00.000Z,ALT REF,2007-10-16T00:00:00.000Z,CHURCHES,129408012,-95.4793025,29.7552124,CHRISTIAN,LDS,NOT AVAILABLE,NOT AVAILABLE,Y,N
15320,10440201,SAINT PAUL'S EPISCOPAL CHURCH,HOUSTON,TX,77087,4639,HARRIS,48201,2007-11-09T00:00:00.000Z,ALT REF,2007-11-09T00:00:00.000Z,CHURCHES,17875731,-95.2820714,29.6857328,CHRISTIAN,EPIS,NOT AVAILABLE,NOT AVAILABLE,Y,N
15321,10440155,THE CHURCH OF JESUS CHRIST OF LATTER DAY SAINTS - WESTFIELD WARD,HOUSTON,TX,77090,4412,HARRIS,48201,2007-10-17T00:00:00.000Z,ALT REF,2007-10-17T00:00:00.000Z,CHURCHES,18006651,-95.4320684,30.0077726,CHRISTIAN,LDS,NOT AVAILABLE,NOT AVAILABLE,Y,N
15322,10440154,THE CHURCH OF JESUS CHRIST OF LATTER DAY SAINTS - SPRING WARD,HOUSTON,TX,77090,4412,HARRIS,48201,2007-10-17T00:00:00.000Z,ALT REF,2007-10-17T00:00:00.000Z,CHURCHES,18006651,-95.4322072,30.0079713,CHRISTIAN,LDS,NOT AVAILABLE,NOT AVAILABLE,Y,N
15324,10448269,SAINT JOHN CHRYSOSTOM BYZANTINE CATHOLIC CHURCH,HOUSTON,TX,77092,4255,HARRIS,48201,2007-09-06T00:00:00.000Z,ALT REF,2007-09-06T00:00:00.000Z,CHURCHES,17901895,-95.4714195,29.8371253,CHRISTIAN,NOT AVAILABLE,NOT AVAILABLE,NOT AVAILABLE,N,Y
15328,10443711,SAINT ALBERT OF TRAPANI CHURCH,HOUSTON,TX,77071,3505,HARRIS,48201,2007-09-06T00:00:00.000Z,ALT REF,2007-09-06T00:00:00.000Z,CHURCHES,126611185,-95.5275958,29.6598392,CHRISTIAN,NOT AVAILABLE,NOT AVAILABLE,NOT AVAILABLE,N,Y
15329,10443714,SAINT ANNE CATHOLIC COMMUNITY,HOUSTON,TX,77098,1419,HARRIS,48201,2007-09-06T00:00:00.000Z,ALT REF,2007-09-06T00:00:00.000Z,CHURCHES,17871117,-95.4133061,29.7427795,CHRISTIAN,NOT AVAILABLE,NOT AVAILABLE,NOT AVAILABLE,N,Y
15330,10443740,SAINT JEROME CATHOLIC CHURCH,HOUSTON,TX,77080,4101,HARRIS,48201,2007-09-05T00:00:00.000Z,ALT REF,2007-09-05T00:00:00.000Z,CHURCHES,126600388,-95.5124536,29.8207389,CHRISTIAN,NOT AVAILABLE,NOT AVAILABLE,NOT AVAILABLE,N,Y
15331,10443746,SAINT MARY OF THE PURIFICATION CATHOLIC CHURCH,HOUSTON,TX,77004,6128,HARRIS,48201,2007-09-06T00:00:00.000Z,ALT REF,2007-09-06T00:00:00.000Z,CHURCHES,17873897,-95.3686429,29.7196447,CHRISTIAN,NOT AVAILABLE,NOT AVAILABLE,NOT AVAILABLE,N,Y
15333,10432487,THE CHURCH AT BETHEL'S FAMILY,HOUSTON,TX,77035,5222,HARRIS,48201,2007-09-13T00:00:00.000Z,ALT REF,2007-09-13T00:00:00.000Z,CHURCHES,17852108,-95.5018896,29.6388704,CHRISTIAN,BAPT,NOT AVAILABLE,NOT AVAILABLE,Y,N
15334,10432491,FIRST PRESBYTERIAN CHURCH,HOUSTON,TX,77004,6811,HARRIS,48201,2007-09-13T00:00:00.000Z,ALT REF,2007-09-13T00:00:00.000Z,CHURCHES,17868484,-95.3884745,29.7276515,CHRISTIAN,PCUSA,NOT AVAILABLE,NOT AVAILABLE,Y,N
15335,10432501,MEMORIAL DRIVE UNITED METHODIST CHURCH,HOUSTON,TX,77079,7302,HARRIS,48201,2007-09-13T00:00:00.000Z,ALT REF,2007-09-13T00:00:00.000Z,CHURCHES,126612130,-95.5673133,29.7723868,CHRISTIAN,UMC,NOT AVAILABLE,NOT AVAILABLE,Y,N
15336,10432861,SAINT MARTIN'S EPISCOPAL CHURCH,HOUSTON,TX,77056,2111,HARRIS,48201,2007-09-13T00:00:00.000Z,ALT REF,2007-09-13T00:00:00.000Z,CHURCHES,17904730,-95.4672883,29.7609095,CHRISTIAN,EPIS,NOT AVAILABLE,NOT AVAILABLE,Y,N
15337,10432869,LIFE TABERNACLE,HOUSTON,TX,77075,3331,HARRIS,48201,2007-09-13T00:00:00.000Z,ALT REF,2007-09-13T00:00:00.000Z,CHURCHES,17956989,-95.2398969,29.6240799,CHRISTIAN,UPC,NOT AVAILABLE,NOT AVAILABLE,Y,N
15338,10433931,BISSONNET BAPTIST CHURCH,HOUSTON,TX,77081,7301,HARRIS,48201,2007-09-21T00:00:00.000Z,ALT REF,2007-09-26T00:00:00.000Z,CHURCHES,135358774,-95.4880108,29.6943028,CHRISTIAN,SBC,1700,NOT AVAILABLE,Y,N
15339,10434209,EASTHAVEN BAPTIST CHURCH,HOUSTON,TX,77089,6146,HARRIS,48201,2007-09-24T00:00:00.000Z,ALT REF,2007-09-24T00:00:00.000Z,CHURCHES,25013859,-95.2104203,29.5812366,CHRISTIAN,SBC,1273,NOT AVAILABLE,Y,N
15341,10435414,PARK PLACE BAPTIST CHURCH,HOUSTON,TX,77087,4705,HARRIS,48201,2007-11-09T00:00:00.000Z,ALT REF,2007-11-09T00:00:00.000Z,CHURCHES,17946776,-95.2769436,29.6814818,CHRISTIAN,SBC,1200,NOT AVAILABLE,Y,N
15344,10439240,THE CHURCH OF JESUS CHRIST OF LATTER DAY SAINTS - WHEATSTONE WARD,HOUSTON,TX,77064,6300,HARRIS,48201,2007-10-16T00:00:00.000Z,ALT REF,2007-10-16T00:00:00.000Z,CHURCHES,17931008,-95.5676549,29.9094396,CHRISTIAN,LDS,NOT AVAILABLE,NOT AVAILABLE,Y,N
15345,10441434,TRINITY EPISCOPAL CHURCH,HOUSTON,TX,77004,3810,HARRIS,48201,2007-11-09T00:00:00.000Z,ALT REF,2007-11-09T00:00:00.000Z,CHURCHES,17862026,-95.3780067,29.7397817,CHRISTIAN,EPIS,NOT AVAILABLE,NOT AVAILABLE,Y,N
15346,10441445,SAINT CHRISTOPHER'S EPISCOPAL CHURCH,HOUSTON,TX,77080,7321,HARRIS,48201,2007-11-09T00:00:00.000Z,ALT REF,2007-11-09T00:00:00.000Z,CHURCHES,17912133,-95.5238772,29.803269,CHRISTIAN,EPIS,NOT AVAILABLE,NOT AVAILABLE,Y,N
15347,10441450,SAINT FRANCIS' EPISCOPAL CHURCH,HOUSTON,TX,77024,6505,HARRIS,48201,2007-11-09T00:00:00.000Z,ALT REF,2007-11-09T00:00:00.000Z,CHURCHES,129407688,-95.5177425,29.7584455,CHRISTIAN,EPIS,NOT AVAILABLE,NOT AVAILABLE,Y,N
15349,10456353,UNION BETHEL AFRICAN METHODIST EPISCOPAL CHURCH,HOUSTON,TX,77063,5608,HARRIS,48201,2008-03-04T00:00:00.000Z,ALT REF,2008-03-04T00:00:00.000Z,CHURCHES,17857420,-95.5145477,29.7270523,CHRISTIAN,AME,NOT AVAILABLE,NOT AVAILABLE,Y,N
15352,10432868,MOUNT CORINTH MISSIONARY BAPTIST CHURCH,HOUSTON,TX,77020,7211,HARRIS,48201,2007-09-13T00:00:00.000Z,ALT REF,2007-09-18T00:00:00.000Z,CHURCHES,17925464,-95.3190315,29.7700935,CHRISTIAN,MISSBAPT,NOT AVAILABLE,NOT AVAILABLE,Y,N
15353,10456249,BOYD CHAPEL AFRICAN METHODIST EPISCOPAL CHURCH,HOUSTON,TX,77016,5934,HARRIS,48201,2008-03-04T00:00:00.000Z,ALT REF,2008-03-04T00:00:00.000Z,CHURCHES,17917059,-95.3124361,29.8368582,CHRISTIAN,AME,NOT AVAILABLE,NOT AVAILABLE,Y,N
15354,10456651,GREEN CHAPEL AFRICAN METHODIST EPISCOPAL CHURCH,HOUSTON,TX,77022,5052,HARRIS,48201,2008-03-07T00:00:00.000Z,ALT REF,2008-03-07T00:00:00.000Z,CHURCHES,17897734,-95.3914273,29.8169543,CHRISTIAN,AME,NOT AVAILABLE,NOT AVAILABLE,Y,N
15357,10440156,THE CHURCH OF JESUS CHRIST OF LATTER DAY SAINTS - OLDE OAKS WARD,HOUSTON,TX,77090,4412,HARRIS,48201,2007-10-17T00:00:00.000Z,ALT REF,2007-10-17T00:00:00.000Z,CHURCHES,18006651,-95.4321425,30.0078787,CHRISTIAN,LDS,NOT AVAILABLE,NOT AVAILABLE,Y,N
15358,10440202,SAINT STEPHEN'S EPISCOPAL CHURCH,HOUSTON,TX,77098,2601,HARRIS,48201,2007-11-09T00:00:00.000Z,ALT REF,2007-11-09T00:00:00.000Z,CHURCHES,126611342,-95.4049149,29.7383358,CHRISTIAN,EPIS,NOT AVAILABLE,NOT AVAILABLE,Y,N
15359,10456319,BROWN CHAPEL AFRICAN METHODIST EPISCOPAL CHURCH,HOUSTON,TX,77007,5931,HARRIS,48201,2008-03-04T00:00:00.000Z,ALT REF,2008-03-04T00:00:00.000Z,CHURCHES,17901567,-95.392659,29.769347,CHRISTIAN,AME,NOT AVAILABLE,NOT AVAILABLE,Y,N
15360,10456650,CLEAR LAKE AFRICAN METHODIST EPISCOPAL CHURCH,HOUSTON,TX,77062,5762,HARRIS,48201,2008-03-11T00:00:00.000Z,ALT REF,2008-03-11T00:00:00.000Z,CHURCHES,17956974,-95.1258228,29.5584236,CHRISTIAN,AME,NOT AVAILABLE,NOT AVAILABLE,Y,N
15362,10433460,SOUTH MAIN BAPTIST CHURCH,HOUSTON,TX,77002,9619,HARRIS,48201,2007-11-09T00:00:00.000Z,ALT REF,2007-11-09T00:00:00.000Z,CHURCHES,126582671,-95.3821277,29.7358411,CHRISTIAN,SBC,5024,NOT AVAILABLE,Y,N
15363,10441821,KNANAYA CATHOLIC MISSION OF HOUSTON,HOUSTON,TX,77071,3505,HARRIS,48201,2007-09-06T00:00:00.000Z,ALT REF,2007-09-06T00:00:00.000Z,CHURCHES,126611185,-95.5275958,29.6598391,CHRISTIAN,NOT AVAILABLE,NOT AVAILABLE,NOT AVAILABLE,N,Y
15365,10442261,SAINT ROSE OF LIMA CATHOLIC COMMUNITY,HOUSTON,TX,77018,6329,HARRIS,48201,2007-09-06T00:00:00.000Z,ALT REF,2007-09-06T00:00:00.000Z,CHURCHES,17897347,-95.4155723,29.8210495,CHRISTIAN,NOT AVAILABLE,NOT AVAILABLE,NOT AVAILABLE,N,Y
15371,10443723,SAINT CECILIA CATHOLIC COMMUNITY,HOUSTON,TX,77024,2602,HARRIS,48201,2007-10-08T00:00:00.000Z,ALT REF,2007-10-08T00:00:00.000Z,CHURCHES,17908847,-95.5291917,29.7783066,CHRISTIAN,NOT AVAILABLE,NOT AVAILABLE,NOT AVAILABLE,N,Y
15373,10441449,SAINT ALBAN'S EPISCOPAL CHURCH,HOUSTON,TX,77009,1824,HARRIS,48201,2007-11-09T00:00:00.000Z,ALT REF,2007-11-09T00:00:00.000Z,CHURCHES,17926340,-95.3659907,29.8105513,CHRISTIAN,EPIS,NOT AVAILABLE,NOT AVAILABLE,Y,N
15374,10441448,ASCENSION EPISCOPAL CHURCH,HOUSTON,TX,77042,3119,HARRIS,48201,2007-11-09T00:00:00.000Z,ALT REF,2007-11-09T00:00:00.000Z,CHURCHES,17857051,-95.5528694,29.7393267,CHRISTIAN,EPIS,NOT AVAILABLE,NOT AVAILABLE,Y,N
15375,10441438,SAINT THOMAS THE APOSTLE EPISCOPAL CHURCH,HOUSTON,TX,77058,4110,HARRIS,48201,2007-11-09T00:00:00.000Z,ALT REF,2007-11-09T00:00:00.000Z,CHURCHES,18020998,-95.0878605,29.546081,CHRISTIAN,EPIS,NOT AVAILABLE,NOT AVAILABLE,Y,N
15376,10441433,CHRIST CHURCH CATHEDRAL,HOUSTON,TX,77002,3113,HARRIS,48201,2007-11-09T00:00:00.000Z,ALT REF,2007-11-09T00:00:00.000Z,CHURCHES,17925384,-95.3610779,29.7594112,CHRISTIAN,EPIS,NOT AVAILABLE,NOT AVAILABLE,Y,N
15379,10441453,HOPE EPISCOPAL CHURCH,HOUSTON,TX,77018,1849,HARRIS,48201,2007-11-09T00:00:00.000Z,ALT REF,2007-11-09T00:00:00.000Z,CHURCHES,17905652,-95.440047,29.8305043,CHRISTIAN,EPIS,NOT AVAILABLE,NOT AVAILABLE,Y,N
15382,10432867,SAGEMONT CHURCH,HOUSTON,TX,77089,4779,HARRIS,48201,2007-09-13T00:00:00.000Z,ALT REF,2007-09-13T00:00:00.000Z,CHURCHES,126601916,-95.2203981,29.6003841,CHRISTIAN,SBC,NOT AVAILABLE,NOT AVAILABLE,Y,N
15383,10432865,SOUTHWEST COMMUNITY BAPTIST CHURCH,HOUSTON,TX,77083,2509,HARRIS,48201,2007-09-13T00:00:00.000Z,ALT REF,2007-09-13T00:00:00.000Z,CHURCHES,17967493,-95.6489642,29.7031589,CHRISTIAN,SBC,NOT AVAILABLE,NOT AVAILABLE,Y,N
15384,10432503,BRENTWOOD BAPTIST CHURCH,HOUSTON,TX,77045,3431,HARRIS,48201,2007-09-13T00:00:00.000Z,ALT REF,2007-09-13T00:00:00.000Z,CHURCHES,17862652,-95.4343476,29.6374919,CHRISTIAN,SBC,NOT AVAILABLE,NOT AVAILABLE,Y,N
15385,10432502,FIRST METHODIST HOUSTON,HOUSTON,TX,77042,5231,HARRIS,48201,2007-09-13T00:00:00.000Z,ALT REF,2007-09-13T00:00:00.000Z,CHURCHES,17858852,-95.5561138,29.7225047,CHRISTIAN,UMC,NOT AVAILABLE,NOT AVAILABLE,Y,N
15386,10432495,THE CHURCH WITHOUT WALLS - BROOKHOLLOW BAPTIST CHURCH,HOUSTON,TX,77083,3406,HARRIS,48201,2007-09-13T00:00:00.000Z,ALT REF,2007-09-13T00:00:00.000Z,CHURCHES,126615541,-95.6242892,29.6969543,CHRISTIAN,BAPT,NOT AVAILABLE,NOT AVAILABLE,Y,N
15387,10432494,WINDSOR VILLAGE UNITED METHODIST CHURCH,HOUSTON,TX,77085,3318,HARRIS,48201,2007-09-13T00:00:00.000Z,ALT REF,2007-09-18T00:00:00.000Z,CHURCHES,17951814,-95.4727654,29.6216566,CHRISTIAN,UMC,NOT AVAILABLE,NOT AVAILABLE,Y,N
15388,10432488,BRAESWOOD ASSEMBLY OF GOD,HOUSTON,TX,77096,5402,HARRIS,48201,2007-09-13T00:00:00.000Z,ALT REF,2007-09-13T00:00:00.000Z,CHURCHES,17853519,-95.5080975,29.665561,CHRISTIAN,AG,NOT AVAILABLE,NOT AVAILABLE,Y,N
15390,10433510,BRAEBURN VALLEY BAPTIST CHURCH,HOUSTON,TX,77071,1412,HARRIS,48201,2007-11-09T00:00:00.000Z,ALT REF,2007-11-09T00:00:00.000Z,CHURCHES,17858011,-95.5137641,29.6733838,CHRISTIAN,SBC,940,NOT AVAILABLE,Y,N
15391,10433220,PLEASANT GROVE MISSIONARY BAPTIST CHURCH,HOUSTON,TX,77020,3716,HARRIS,48201,2007-09-13T00:00:00.000Z,ALT REF,2007-09-13T00:00:00.000Z,CHURCHES,17919362,-95.341431,29.7718904,CHRISTIAN,UNK,NOT AVAILABLE,NOT AVAILABLE,Y,N
15392,10435583,NASSAU BAY BAPTIST CHURCH,HOUSTON,TX,77058,3306,HARRIS,48201,2007-11-09T00:00:00.000Z,ALT REF,2007-11-09T00:00:00.000Z,CHURCHES,17962174,-95.0998469,29.5449885,CHRISTIAN,SBC,1790,NOT AVAILABLE,Y,N
15393,10440226,INCARNATION EPISCOPAL CHURCH,HOUSTON,TX,77088,2524,HARRIS,48201,2007-11-09T00:00:00.000Z,ALT REF,2007-11-09T00:00:00.000Z,CHURCHES,17938005,-95.4747418,29.8881883,CHRISTIAN,EPIS,NOT AVAILABLE,NOT AVAILABLE,Y,N
15394,10436767,BAPTIST TEMPLE,HOUSTON,TX,77008,2512,HARRIS,48201,2007-11-09T00:00:00.000Z,ALT REF,2007-11-09T00:00:00.000Z,CHURCHES,17908268,-95.4011978,29.8037332,CHRISTIAN,SBC,955,NOT AVAILABLE,Y,N
15395,10438857,THE CHURCH OF JESUS CHRIST OF LATTER DAY SAINTS - MEMORIAL PARK WARD,HOUSTON,TX,77057,2301,HARRIS,48201,2007-10-16T00:00:00.000Z,ALT REF,2007-10-16T00:00:00.000Z,CHURCHES,129408012,-95.4793025,29.7552127,CHRISTIAN,LDS,NOT AVAILABLE,NOT AVAILABLE,Y,N
15396,10438688,THE CHURCH OF JESUS CHRIST OF LATTER DAY SAINTS - WHITE OAK WARD,HOUSTON,TX,77064,6300,HARRIS,48201,2007-10-16T00:00:00.000Z,ALT REF,2007-10-16T00:00:00.000Z,CHURCHES,17931008,-95.5676602,29.9094394,CHRISTIAN,LDS,NOT AVAILABLE,NOT AVAILABLE,Y,N
15398,10443432,CO-CATHEDRAL OF THE SACRED HEART,HOUSTON,TX,77002,8127,HARRIS,48201,2007-09-05T00:00:00.000Z,ALT REF,2007-09-05T00:00:00.000Z,CHURCHES,17878400,-95.3694559,29.7490205,CHRISTIAN,NOT AVAILABLE,NOT AVAILABLE,NOT AVAILABLE,N,Y
15400,10438706,THE CHURCH OF JESUS CHRIST OF LATTER DAY SAINTS - CYPRESS WARD,HOUSTON,TX,77070,4601,HARRIS,48201,2007-10-16T00:00:00.000Z,ALT REF,2007-10-16T00:00:00.000Z,CHURCHES,135350131,-95.5785164,29.9610637,CHRISTIAN,LDS,NOT AVAILABLE,NOT AVAILABLE,Y,N
15401,10443766,SAINT THOMAS MORE CATHOLIC COMMUNITY,HOUSTON,TX,77096,4702,HARRIS,48201,2007-09-05T00:00:00.000Z,ALT REF,2007-09-05T00:00:00.000Z,CHURCHES,17868698,-95.4926582,29.6690438,CHRISTIAN,NOT AVAILABLE,NOT AVAILABLE,NOT AVAILABLE,N,Y
15402,10443764,OUR LADY OF LOURDES,HOUSTON,TX,77040,4307,HARRIS,48201,2007-09-05T00:00:00.000Z,ALT REF,2007-09-05T00:00:00.000Z,CHURCHES,126601651,-95.5240163,29.8614302,CHRISTIAN,NOT AVAILABLE,NOT AVAILABLE,NOT AVAILABLE,N,Y
15404,10443712,SAINT AMBROSE CHURCH,HOUSTON,TX,77092,5515,HARRIS,48201,2007-09-06T00:00:00.000Z,ALT REF,2007-09-06T00:00:00.000Z,CHURCHES,17900311,-95.4625538,29.8295435,CHRISTIAN,NOT AVAILABLE,NOT AVAILABLE,NOT AVAILABLE,N,Y
15406,10442954,OUR LADY OF SAINT JOHN CHURCH,HOUSTON,TX,77016,6215,HARRIS,48201,2007-09-06T00:00:00.000Z,ALT REF,2007-09-05T00:00:00.000Z,CHURCHES,17917177,-95.328534,29.8276081,CHRISTIAN,NOT AVAILABLE,NOT AVAILABLE,NOT AVAILABLE,N,Y
15407,10440403,SAINT BARNABAS EPISCOPAL CHURCH,HOUSTON,TX,77034,1401,HARRIS,48201,2007-11-09T00:00:00.000Z,ALT REF,2007-11-09T00:00:00.000Z,CHURCHES,17891087,-95.2172177,29.6502179,CHRISTIAN,EPIS,NOT AVAILABLE,NOT AVAILABLE,Y,N
15410,10581035,GREEN VALLEY BAPTIST CHURCH,HOUSTON,TX,77032,1348,HARRIS,48201,2009-05-19T00:00:00.000Z,ALT REF,2009-05-19T00:00:00.000Z,CHURCHES,110225996,-95.3640603,29.9647892,CHRISTIAN,BAPT,NOT AVAILABLE,NOT AVAILABLE,Y,N
15411,10581045,BEREAN BAPTIST CHURCH,HOUSTON,TX,77037,1251,HARRIS,48201,2009-05-19T00:00:00.000Z,ALT REF,2009-05-19T00:00:00.000Z,CHURCHES,17936122,-95.4114393,29.913287,CHRISTIAN,BAPT,NOT AVAILABLE,NOT AVAILABLE,Y,N
15412,10443762,SAINT PHILIP NERI CATHOLIC CHURCH,HOUSTON,TX,77048,1815,HARRIS,48201,2009-05-26T00:00:00.000Z,ALT REF,2009-05-26T00:00:00.000Z,CHURCHES,25018286,-95.3385357,29.6410601,CHRISTIAN,NOT AVAILABLE,NOT AVAILABLE,NOT AVAILABLE,N,Y
15413,10579792,IGLESIA BAUTISTA LIBERTAD,HOUSTON,TX,77086,3943,HARRIS,48201,2009-05-26T00:00:00.000Z,ALT REF,2009-05-26T00:00:00.000Z,CHURCHES,17938199,-95.4815412,29.8992357,CHRISTIAN,BAPT,NOT AVAILABLE,NOT AVAILABLE,Y,N
15415,10578363,NEW MOUNT CALVARY BAPTIST CHURCH,HOUSTON,TX,77026,1637,HARRIS,48201,2009-05-20T00:00:00.000Z,ALT REF,2009-07-07T00:00:00.000Z,CHURCHES,17925790,-95.3230487,29.8142445,CHRISTIAN,BAPT,NOT AVAILABLE,NOT AVAILABLE,Y,N
15416,10581031,SAINT MATTHEW BAPTIST CHURCH,HOUSTON,TX,77029,4717,HARRIS,48201,2009-07-07T00:00:00.000Z,ALT REF,2009-07-07T00:00:00.000Z,CHURCHES,17872648,-95.2554072,29.7330547,CHRISTIAN,BAPT,NOT AVAILABLE,NOT AVAILABLE,Y,N
15417,10581042,TRUE FAITH MISSIONARY BAPTIST WORSHIP CENTER,HOUSTON,TX,77026,1516,HARRIS,48201,2009-05-28T00:00:00.000Z,ALT REF,2009-07-07T00:00:00.000Z,CHURCHES,722678967,-95.328199,29.8122973,CHRISTIAN,BAPT,NOT AVAILABLE,NOT AVAILABLE,Y,N
15421,10441794,SAINT VINCENT DE PAUL CHURCH,HOUSTON,TX,77025,1405,HARRIS,48201,2009-05-26T00:00:00.000Z,ALT REF,2009-05-26T00:00:00.000Z,CHURCHES,17868025,-95.4278169,29.7057674,CHRISTIAN,NOT AVAILABLE,NOT AVAILABLE,NOT AVAILABLE,N,Y
15422,10431386,MASJID EL-FAROUQ,HOUSTON,TX,77043,4306,HARRIS,48201,2007-10-09T00:00:00.000Z,ALT REF,2007-10-09T00:00:00.000Z,"MOSQUES, RELIGIOUS",17911224,-95.5493806,29.788733,MUSLIM,NOT AVAILABLE,NOT AVAILABLE,NOT AVAILABLE,N,N
15424,10429050,HOUSTON RECONSTRUCTIONIST HAVURAH,HOUSTON,TX,77096,2626,HARRIS,48201,2007-07-30T00:00:00.000Z,PHONE,2007-08-02T00:00:00.000Z,SYNAGOGUES,25019550,-95.4684792,29.6801608,JUDAIC,RECONSTRUCTIONIST,NOT AVAILABLE,NOT AVAILABLE,N,N
15425,10430272,BETH YESHUA HAMASHIACH,HOUSTON,TX,77074,3504,HARRIS,48201,2007-08-07T00:00:00.000Z,ALT REF,2007-08-07T00:00:00.000Z,SYNAGOGUES,126610347,-95.5079965,29.7047984,JUDAIC,NOT AVAILABLE,NOT AVAILABLE,NOT AVAILABLE,N,N
15426,10428464,CHABAD OF UPTOWN,HOUSTON,TX,77056,3603,HARRIS,48201,2007-08-07T00:00:00.000Z,ALT REF,2007-08-07T00:00:00.000Z,SYNAGOGUES,17869483,-95.4633359,29.7499796,JUDAIC,CHABAD,NOT AVAILABLE,CHABAD,N,N
15427,10428093,JEWISH COMMUNITY CENTER - WEST HOUSTON,HOUSTON,TX,77079,3002,HARRIS,48201,2007-07-25T00:00:00.000Z,PHONE,2007-07-25T00:00:00.000Z,SYNAGOGUES,17914357,-95.6056409,29.7805998,JUDAIC,NOT AVAILABLE,NOT AVAILABLE,NOT AVAILABLE,N,N
15428,10430237,CONGREGATION BETH RAMBAM SEPHARDIC MINYAN,HOUSTON,TX,77071,2327,HARRIS,48201,2007-08-08T00:00:00.000Z,PHONE,2007-08-08T00:00:00.000Z,SYNAGOGUES,17858461,-95.5105505,29.6547378,JUDAIC,NOT AVAILABLE,NOT AVAILABLE,NOT AVAILABLE,N,N
15430,10428784,CHABAD LUBAVITCH CENTER - TEXAS REGIONAL HEADQUARTERS,HOUSTON,TX,77096,5502,HARRIS,48201,2007-08-08T00:00:00.000Z,ALT REF,2007-08-08T00:00:00.000Z,SYNAGOGUES,126608434,-95.5089075,29.6622796,JUDAIC,CHABAD,NOT AVAILABLE,CHABAD,N,N
15431,10430276,YOUNG ISRAEL OF HOUSTON INCORPORATED,HOUSTON,TX,77071,2501,HARRIS,48201,2007-08-08T00:00:00.000Z,PHONE,2007-08-08T00:00:00.000Z,SYNAGOGUES,135360712,-95.5159518,29.6509253,JUDAIC,NOT AVAILABLE,NOT AVAILABLE,NOT AVAILABLE,N,N
15432,10430191,CONGREGATION SHAAR HASHALOM,HOUSTON,TX,77062,4414,HARRIS,48201,2007-08-07T00:00:00.000Z,ALT REF,2007-08-07T00:00:00.000Z,SYNAGOGUES,17956357,-95.1278816,29.5624012,JUDAIC,NOT AVAILABLE,NOT AVAILABLE,NOT AVAILABLE,N,N
15433,10430226,TEMPLE BETH TIKVAH,HOUSTON,TX,77058,1215,HARRIS,48201,2007-08-08T00:00:00.000Z,ALT REF,2007-08-08T00:00:00.000Z,SYNAGOGUES,25029464,-95.0929286,29.5922593,JUDAIC,NOT AVAILABLE,NOT AVAILABLE,NOT AVAILABLE,N,N
15434,10430228,MEYERLAND MINYAN,HOUSTON,TX,77096,NULL,HARRIS,48201,2007-08-08T00:00:00.000Z,ALT REF,2007-08-08T00:00:00.000Z,SYNAGOGUES,17868716,-95.4839737,29.6740007,JUDAIC,NOT AVAILABLE,NOT AVAILABLE,NOT AVAILABLE,N,N
15436,10430242,CONGREGATION BETH MESSIAH INCORPORATED,HOUSTON,TX,77071,2487,HARRIS,48201,2007-08-08T00:00:00.000Z,ALT REF,2007-08-08T00:00:00.000Z,SYNAGOGUES,17858710,-95.5354155,29.6450838,JUDAIC,NOT AVAILABLE,NOT AVAILABLE,NOT AVAILABLE,N,N
15438,10430260,UNITED ORTHODOX SYNAGOGUE OF HOUSTON,HOUSTON,TX,77096,3514,HARRIS,48201,2007-08-07T00:00:00.000Z,ALT REF,2007-08-07T00:00:00.000Z,SYNAGOGUES,17866289,-95.4488808,29.6848301,JUDAIC,NOT AVAILABLE,NOT AVAILABLE,NOT AVAILABLE,N,N
15441,10430259,BETH-EL HOUSE OF PRAYER FOR ALL NATIONS,HOUSTON,TX,77073,5389,HARRIS,48201,2007-08-08T00:00:00.000Z,ALT REF,2007-08-08T00:00:00.000Z,SYNAGOGUES,17994454,-95.4231485,30.0067966,JUDAIC,NOT AVAILABLE,NOT AVAILABLE,NOT AVAILABLE,N,N
15442,10430208,CONGREGATION BETH YESHURUN,HOUSTON,TX,77096,1801,HARRIS,48201,2007-08-07T00:00:00.000Z,ALT REF,2007-08-07T00:00:00.000Z,SYNAGOGUES,129369260,-95.4521975,29.6888385,JUDAIC,NOT AVAILABLE,NOT AVAILABLE,NOT AVAILABLE,N,N
15443,10428258,JEWISH COMMUNITY CENTER OF HOUSTON,HOUSTON,TX,77096,3907,HARRIS,48201,2007-07-25T00:00:00.000Z,PHONE,2007-07-25T00:00:00.000Z,SYNAGOGUES,17868716,-95.484003,29.6741306,JUDAIC,NOT AVAILABLE,NOT AVAILABLE,NOT AVAILABLE,N,N
15444,10428763,CHABAD AT TEXAS MEDICAL CENTER,HOUSTON,TX,77030,1303,HARRIS,48201,2007-08-08T00:00:00.000Z,ALT REF,2007-08-08T00:00:00.000Z,SYNAGOGUES,17865603,-95.4035975,29.7121119,JUDAIC,CHABAD,NOT AVAILABLE,CHABAD,N,N
15445,10431880,MASJID-UL-MUMINEEN,HOUSTON,TX,77031,2441,HARRIS,48201,2007-10-09T00:00:00.000Z,ALT REF,2007-10-09T00:00:00.000Z,"MOSQUES, RELIGIOUS",17858122,-95.5315601,29.6584733,MUSLIM,NOT AVAILABLE,NOT AVAILABLE,NOT AVAILABLE,N,N
15446,10431692,BEAR CREEK MASJID,HOUSTON,TX,77084,6332,HARRIS,48201,2007-10-09T00:00:00.000Z,ALT REF,2007-10-12T00:00:00.000Z,"MOSQUES, RELIGIOUS",17983742,-95.671635,29.8621055,MUSLIM,NOT AVAILABLE,NOT AVAILABLE,NOT AVAILABLE,N,N
15447,10431399,MASJID GUL,HOUSTON,TX,77079,5533,HARRIS,48201,2007-10-09T00:00:00.000Z,ALT REF,2007-10-09T00:00:00.000Z,"MOSQUES, RELIGIOUS",17914306,-95.6001797,29.7745476,MUSLIM,NOT AVAILABLE,NOT AVAILABLE,NOT AVAILABLE,N,N
15448,10431456,MASJID AL HUDA,HOUSTON,TX,77021,6160,HARRIS,48201,2007-10-09T00:00:00.000Z,ALT REF,2007-10-09T00:00:00.000Z,"MOSQUES, RELIGIOUS",17876084,-95.3677591,29.6832504,MUSLIM,NOT AVAILABLE,NOT AVAILABLE,NOT AVAILABLE,N,N
15449,10431259,HOUSTON MASJID OF AL-ISLAM,HOUSTON,TX,77087,6408,HARRIS,48201,2007-10-09T00:00:00.000Z,ALT REF,2007-10-09T00:00:00.000Z,"MOSQUES, RELIGIOUS",17877009,-95.3121092,29.6677773,MUSLIM,NOT AVAILABLE,NOT AVAILABLE,NOT AVAILABLE,N,N
15450,10431436,MAKKAH MASJID,HOUSTON,TX,77082,5513,HARRIS,48201,2007-10-09T00:00:00.000Z,ALT REF,2007-10-09T00:00:00.000Z,"MOSQUES, RELIGIOUS",126553731,-95.6044492,29.7226739,MUSLIM,NOT AVAILABLE,NOT AVAILABLE,NOT AVAILABLE,N,N
15451,10431369,MOHAMMEDI MASJID,HOUSTON,TX,77084,6350,HARRIS,48201,2007-10-09T00:00:00.000Z,ALT REF,2007-10-12T00:00:00.000Z,"MOSQUES, RELIGIOUS",17983738,-95.6796152,29.8619001,MUSLIM,NOT AVAILABLE,NOT AVAILABLE,NOT AVAILABLE,N,N
15454,10431674,ISLAMIC SOCIETY OF GREATER HOUSTON,HOUSTON,TX,77098,1910,HARRIS,48201,2007-10-09T00:00:00.000Z,ALT REF,2007-10-09T00:00:00.000Z,"MOSQUES, RELIGIOUS",17863777,-95.4250669,29.7368454,MUSLIM,NOT AVAILABLE,NOT AVAILABLE,NOT AVAILABLE,N,N
15455,10431270,MASJID AR-RASOOL AL-AKRAM,HOUSTON,TX,77099,2775,HARRIS,48201,2007-07-16T00:00:00.000Z,PHONE,2007-07-16T00:00:00.000Z,"MOSQUES, RELIGIOUS",17856559,-95.563031,29.6794354,MUSLIM,NOT AVAILABLE,NOT AVAILABLE,NOT AVAILABLE,N,N
15456,10431271,ISLAMIC SOCIETY OF GREATER HOUSTON SOUTH ZONE - MEDICAL CENTER MUSALLAH,HOUSTON,TX,77021,2009,HARRIS,48201,2007-07-16T00:00:00.000Z,PHONE,2007-07-16T00:00:00.000Z,"MOSQUES, RELIGIOUS",17862965,-95.3856261,29.7010952,MUSLIM,NOT AVAILABLE,NOT AVAILABLE,NOT AVAILABLE,N,N
15457,10431448,AL-MUHIYMIN MASJID,HOUSTON,TX,77004,4502,HARRIS,48201,2007-10-09T00:00:00.000Z,ALT REF,2007-10-09T00:00:00.000Z,"MOSQUES, RELIGIOUS",17873541,-95.3632258,29.7253916,MUSLIM,NOT AVAILABLE,NOT AVAILABLE,NOT AVAILABLE,N,N
15459,10431396,MASJID AR-RASHEED,HOUSTON,TX,77004,3111,HARRIS,48201,2007-10-09T00:00:00.000Z,ALT REF,2007-10-09T00:00:00.000Z,"MOSQUES, RELIGIOUS",17872841,-95.3650345,29.7339578,MUSLIM,NOT AVAILABLE,NOT AVAILABLE,NOT AVAILABLE,N,N
15460,10431269,FIRST TALIM MASJID MUHAMMAD,HOUSTON,TX,77022,4601,HARRIS,48201,2007-07-17T00:00:00.000Z,PHONE,2007-07-17T00:00:00.000Z,"MOSQUES, RELIGIOUS",17897933,-95.3941763,29.823138,MUSLIM,NOT AVAILABLE,NOT AVAILABLE,NOT AVAILABLE,N,N
15463,10434890,MOUNT ZION MISSIONARY,HOUSTON,TX,77016,4832,HARRIS,48201,2007-11-09T00:00:00.000Z,ALT REF,2007-11-09T00:00:00.000Z,CHURCHES,17925428,-95.301536,29.846989,CHRISTIAN,SBC,750,NOT AVAILABLE,Y,N
15464,10684507,INSIGHT MEDITATION HOUSTON,HOUSTON,TX,77005,1879,HARRIS,48201,2009-05-21T00:00:00.000Z,ALT REF,2009-05-21T00:00:00.000Z,PLACES OF WORSHIP,17865229,-95.396676,29.7241518,BUDDHIST,PRACTICE GROUP - VIPASSANA MEDITATION,NOT AVAILABLE,NOT AVAILABLE,N,N
15465,10461313,KOREAN OPEN DOOR PRESBYTERIAN CHURCH,HOUSTON,TX,77036,1710,HARRIS,48201,2009-05-13T00:00:00.000Z,ALT REF,2009-05-13T00:00:00.000Z,CHURCHES,723484226,-95.530877,29.7175554,CHRISTIAN,PCA,NOT AVAILABLE,NOT AVAILABLE,Y,N
15467,10432490,FIRST UNITED METHODIST CHURCH,HOUSTON,TX,77002,6803,HARRIS,48201,2007-09-18T00:00:00.000Z,ALT REF,2007-09-18T00:00:00.000Z,CHURCHES,126582826,-95.3672786,29.7546393,CHRISTIAN,NOT AVAILABLE,NOT AVAILABLE,NOT AVAILABLE,Y,N
15469,10431260,MADRASAH ISLAMIAH,HOUSTON,TX,77074,3511,HARRIS,48201,2009-05-13T00:00:00.000Z,ALT REF,2009-05-13T00:00:00.000Z,"MOSQUES, RELIGIOUS",17857597,-95.504779,29.7071916,MUSLIM,NOT AVAILABLE,NOT AVAILABLE,NOT AVAILABLE,N,N
15470,10443726,SAINT CHRISTOPHER CATHOLIC CHURCH,HOUSTON,TX,77017,3033,HARRIS,48201,2009-05-13T00:00:00.000Z,ALT REF,2009-05-13T00:00:00.000Z,CHURCHES,17875594,-95.2745275,29.687232,CHRISTIAN,NOT AVAILABLE,NOT AVAILABLE,NOT AVAILABLE,N,Y
15472,10443731,SAINT FRANCIS DE SALES CATHOLIC CHURCH,HOUSTON,TX,77036,6324,HARRIS,48201,2009-05-26T00:00:00.000Z,ALT REF,2009-05-26T00:00:00.000Z,CHURCHES,17853287,-95.5299729,29.7001376,CHRISTIAN,NOT AVAILABLE,NOT AVAILABLE,NOT AVAILABLE,N,Y
15473,10454944,GREATER FIRST BAPTIST CHURCH,HOUSTON,TX,77022,3505,HARRIS,48201,2009-05-19T00:00:00.000Z,ALT REF,2009-05-19T00:00:00.000Z,CHURCHES,17897889,-95.3940203,29.8301301,CHRISTIAN,NBC,NOT AVAILABLE,NOT AVAILABLE,Y,N
15474,10443732,SAINT FRANCIS OF ASSISI CATHOLIC CHURCH,HOUSTON,TX,77026,3015,HARRIS,48201,2009-05-15T00:00:00.000Z,ALT REF,2009-05-15T00:00:00.000Z,CHURCHES,17925642,-95.309898,29.8075208,CHRISTIAN,NOT AVAILABLE,NOT AVAILABLE,NOT AVAILABLE,N,Y
15475,10443163,SAINT THERESA CATHOLIC CHURCH,HOUSTON,TX,77007,2044,HARRIS,48201,2009-05-15T00:00:00.000Z,ALT REF,2009-05-15T00:00:00.000Z,CHURCHES,17905172,-95.4309677,29.7731404,CHRISTIAN,NOT AVAILABLE,NOT AVAILABLE,NOT AVAILABLE,N,Y
15478,10443754,OUR LADY OF LAVANG CHURCH,HOUSTON,TX,77086,3513,HARRIS,48201,2009-05-13T00:00:00.000Z,ALT REF,2009-05-13T00:00:00.000Z,CHURCHES,17937657,-95.4708914,29.9121998,CHRISTIAN,NOT AVAILABLE,NOT AVAILABLE,NOT AVAILABLE,N,Y
15479,10443727,SAINT CLARE OF ASSISI CATHOLIC CHURCH,HOUSTON,TX,77059,5100,HARRIS,48201,2009-05-26T00:00:00.000Z,ALT REF,2009-05-26T00:00:00.000Z,CHURCHES,25024815,-95.119136,29.5912928,CHRISTIAN,NOT AVAILABLE,NOT AVAILABLE,NOT AVAILABLE,N,Y
15480,10441810,SAINT ELIZABETH ANN SETON CATHOLIC CHURCH,HOUSTON,TX,77084,1520,HARRIS,48201,2009-05-26T00:00:00.000Z,ALT REF,2009-05-26T00:00:00.000Z,CHURCHES,129379689,-95.6315175,29.8725725,CHRISTIAN,NOT AVAILABLE,NOT AVAILABLE,NOT AVAILABLE,N,Y
15482,10442861,VIETNAMESE MARTYRS CHURCH,HOUSTON,TX,77075,4114,HARRIS,48201,2009-05-26T00:00:00.000Z,ALT REF,2009-05-26T00:00:00.000Z,CHURCHES,17955370,-95.2300463,29.6168873,CHRISTIAN,NOT AVAILABLE,NOT AVAILABLE,NOT AVAILABLE,N,Y
15483,10443717,ASCENSION CHINESE MISSION CATHOLIC CHURCH,HOUSTON,TX,77072,1222,HARRIS,48201,2009-05-26T00:00:00.000Z,ALT REF,2009-05-26T00:00:00.000Z,CHURCHES,17854688,-95.5921286,29.7051568,CHRISTIAN,NOT AVAILABLE,NOT AVAILABLE,NOT AVAILABLE,N,Y
15485,10441825,SAINT MONICA CATHOLIC CHURCH,HOUSTON,TX,77088,7116,HARRIS,48201,2009-05-26T00:00:00.000Z,ALT REF,2009-05-26T00:00:00.000Z,CHURCHES,17906037,-95.4375304,29.8701734,CHRISTIAN,NOT AVAILABLE,NOT AVAILABLE,NOT AVAILABLE,N,Y
15486,10443748,SAINT MATTHEW THE EVANGELIST CATHOLIC CHURCH,HOUSTON,TX,77040,1702,HARRIS,48201,2009-05-26T00:00:00.000Z,ALT REF,2009-05-26T00:00:00.000Z,CHURCHES,17930316,-95.5079391,29.8847491,CHRISTIAN,NOT AVAILABLE,NOT AVAILABLE,NOT AVAILABLE,N,Y
15487,10443737,HOLY NAME CATHOLIC CHURCH,HOUSTON,TX,77009,8649,HARRIS,48201,2009-05-26T00:00:00.000Z,ALT REF,2009-05-26T00:00:00.000Z,CHURCHES,17922135,-95.3561884,29.7792843,CHRISTIAN,NOT AVAILABLE,NOT AVAILABLE,NOT AVAILABLE,N,Y
15488,10443734,SAINT GREGORY THE GREAT CHURCH,HOUSTON,TX,77016,2921,HARRIS,48201,2009-05-26T00:00:00.000Z,ALT REF,2009-05-26T00:00:00.000Z,CHURCHES,17916798,-95.3135632,29.8653312,CHRISTIAN,NOT AVAILABLE,NOT AVAILABLE,NOT AVAILABLE,N,Y
15490,10453295,BLUERIDGE BAPTIST CHURCH,HOUSTON,TX,77051,3161,HARRIS,48201,2009-05-21T00:00:00.000Z,ALT REF,2009-05-21T00:00:00.000Z,CHURCHES,17915362,-95.372797,29.6509987,CHRISTIAN,NBC,NOT AVAILABLE,NOT AVAILABLE,Y,N
15492,10431658,ISLAMIC SOCIETY OF GREATER HOUSTON - NORTHWEST ZONE SPRING BRANCH,HOUSTON,TX,77043,4306,HARRIS,48201,2009-05-13T00:00:00.000Z,ALT REF,2009-05-13T00:00:00.000Z,"MOSQUES, RELIGIOUS",17911224,-95.5500747,29.7898834,MUSLIM,NOT AVAILABLE,NOT AVAILABLE,NOT AVAILABLE,N,N
15493,10441868,SAINT JUSTIN MARTYR CATHOLIC COMMUNITY,HOUSTON,TX,77082,5100,HARRIS,48201,2009-05-13T00:00:00.000Z,ALT REF,2009-05-13T00:00:00.000Z,CHURCHES,17854225,-95.6180968,29.7151031,CHRISTIAN,NOT AVAILABLE,NOT AVAILABLE,NOT AVAILABLE,N,Y
15495,10452842,MOUNT SINAI BAPTIST CHURCH,HOUSTON,TX,77007,1408,HARRIS,48201,2009-05-13T00:00:00.000Z,ALT REF,2009-05-13T00:00:00.000Z,CHURCHES,17899648,-95.4062319,29.7847779,CHRISTIAN,NBC,NOT AVAILABLE,NOT AVAILABLE,Y,N
15501,10429425,THE KABBALAH CENTRE,HOUSTON,TX,77025,1165,HARRIS,48201,2009-05-13T00:00:00.000Z,ALT REF,2009-05-15T00:00:00.000Z,SYNAGOGUES,718245965,-95.4406435,29.7054165,JUDAIC,ORTHODOX,NOT AVAILABLE,NOT AVAILABLE,N,N
15502,10578328,LINCOLN WOOD BAPTIST CHURCH,HOUSTON,TX,77067,2205,HARRIS,48201,2009-05-22T00:00:00.000Z,ALT REF,2009-05-22T00:00:00.000Z,CHURCHES,17937113,-95.4487426,29.9553842,CHRISTIAN,BAPT,NOT AVAILABLE,NOT AVAILABLE,Y,N
15503,10431258,MASJID MUHAMMADI,HOUSTON,TX,77072,3412,HARRIS,48201,2009-05-21T00:00:00.000Z,ALT REF,2009-05-21T00:00:00.000Z,"MOSQUES, RELIGIOUS",17851375,-95.5868737,29.6951616,MUSLIM,NOT AVAILABLE,NOT AVAILABLE,NOT AVAILABLE,N,N
15504,10684171,CHUNG TAI ZEN CENTER OF HOUSTON,HOUSTON,TX,77072,2314,HARRIS,48201,2009-05-21T00:00:00.000Z,ALT REF,2009-05-21T00:00:00.000Z,PLACES OF WORSHIP,126615517,-95.5932499,29.7028949,BUDDHIST,"CHINESE CHAN, LIN-CHI SCHOOL (CHINESE ZEN MEDITATION)",NOT AVAILABLE,NOT AVAILABLE,N,N
15505,10443736,HOLY GHOST CHURCH,HOUSTON,TX,77081,5611,HARRIS,48201,2009-05-13T00:00:00.000Z,ALT REF,2009-05-13T00:00:00.000Z,CHURCHES,17860439,-95.4779278,29.7044433,CHRISTIAN,NOT AVAILABLE,NOT AVAILABLE,NOT AVAILABLE,N,Y
15506,10431261,ISLAMIC EDUCATION CENTER,HOUSTON,TX,77057,3807,HARRIS,48201,2009-05-13T00:00:00.000Z,ALT REF,2009-05-13T00:00:00.000Z,"MOSQUES, RELIGIOUS",126612915,-95.500255,29.7420123,MUSLIM,NOT AVAILABLE,NOT AVAILABLE,NOT AVAILABLE,N,N
15507,10443741,SAINT JOHN NEUMANN CHURCH,HOUSTON,TX,77038,1025,HARRIS,48201,2009-05-26T00:00:00.000Z,ALT REF,2009-05-26T00:00:00.000Z,CHURCHES,17937453,-95.4606303,29.9311227,CHRISTIAN,NOT AVAILABLE,NOT AVAILABLE,NOT AVAILABLE,N,Y
15508,10443738,HOLY ROSARY CATHOLIC CHURCH,HOUSTON,TX,77002,9535,HARRIS,48201,2009-05-26T00:00:00.000Z,ALT REF,2009-05-26T00:00:00.000Z,CHURCHES,17868430,-95.3806998,29.73975,CHRISTIAN,NOT AVAILABLE,NOT AVAILABLE,NOT AVAILABLE,N,Y
15509,10443733,SAINT FRANCIS XAVIER CHURCH,HOUSTON,TX,77051,2857,HARRIS,48201,2009-05-26T00:00:00.000Z,ALT REF,2009-05-26T00:00:00.000Z,CHURCHES,722867769,-95.3577796,29.6579413,CHRISTIAN,NOT AVAILABLE,NOT AVAILABLE,NOT AVAILABLE,N,Y
15510,10579704,FREEWAY BAPTIST CHURCH,HOUSTON,TX,77075,5137,HARRIS,48201,2009-05-22T00:00:00.000Z,ALT REF,2009-05-22T00:00:00.000Z,CHURCHES,17957513,-95.2495602,29.5985396,CHRISTIAN,BAPT,NOT AVAILABLE,NOT AVAILABLE,Y,N
15511,10430078,CONGREGATION OR AMI,HOUSTON,TX,77042,4830,HARRIS,48201,2009-05-13T00:00:00.000Z,ALT REF,2009-05-13T00:00:00.000Z,SYNAGOGUES,723369157,-95.5710686,29.7258354,JUDAIC,NOT AVAILABLE,NOT AVAILABLE,NOT AVAILABLE,N,N
15512,10579853,NEW BETHLEHEM MISSIONARY BAPTIST CHURCH OF HOUSTON,HOUSTON,TX,77093,6930,HARRIS,48201,2009-05-13T00:00:00.000Z,ALT REF,2009-05-13T00:00:00.000Z,CHURCHES,17924651,-95.342607,29.8440762,CHRISTIAN,BAPT,NOT AVAILABLE,NOT AVAILABLE,Y,N
15514,10442327,OUR LADY OF MOUNT CARMEL CATHOLIC CHURCH,HOUSTON,TX,77087,6830,HARRIS,48201,2009-05-13T00:00:00.000Z,ALT REF,2009-05-13T00:00:00.000Z,CHURCHES,17877381,-95.3080086,29.6617291,CHRISTIAN,NOT AVAILABLE,NOT AVAILABLE,NOT AVAILABLE,N,Y
15515,10443763,QUEEN OF PEACE CATHOLIC CHURCH,HOUSTON,TX,77023,5312,HARRIS,48201,2009-05-26T00:00:00.000Z,ALT REF,2009-05-26T00:00:00.000Z,CHURCHES,17874026,-95.3179033,29.7147241,CHRISTIAN,NOT AVAILABLE,NOT AVAILABLE,NOT AVAILABLE,N,Y
15516,10581024,WILLING WORKERS BAPTIST CHURCH,HOUSTON,TX,77028,2225,HARRIS,48201,2009-05-19T00:00:00.000Z,ALT REF,2009-05-19T00:00:00.000Z,CHURCHES,723605260,-95.3052681,29.8309929,CHRISTIAN,BAPT,NOT AVAILABLE,NOT AVAILABLE,Y,N
15517,10575973,WALLS CHAPEL AFRICAN METHODIST EPISCOPAL ZION CHURCH,HOUSTON,TX,77021,4121,HARRIS,48201,2009-05-15T00:00:00.000Z,ALT REF,2009-05-15T00:00:00.000Z,CHURCHES,17875278,-95.3557553,29.6936581,CHRISTIAN,AMEZ,NOT AVAILABLE,NOT AVAILABLE,Y,N
15518,10576829,HOPE CHURCH,HOUSTON,TX,77062,2548,HARRIS,48201,2009-05-19T00:00:00.000Z,ALT REF,2009-05-19T00:00:00.000Z,CHURCHES,18017707,-95.1471187,29.5711729,CHRISTIAN,CRC,NOT AVAILABLE,NOT AVAILABLE,Y,N
15519,10684036,DIAMOND WAY BUDDHIST CENTER HOUSTON HEIGHTS - HOUSTON CENTER,HOUSTON,TX,77018,5312,HARRIS,48201,2009-05-13T00:00:00.000Z,ALT REF,2009-05-13T00:00:00.000Z,PLACES OF WORSHIP,17897293,-95.4227173,29.8261864,BUDDHIST,"TIBETAN, KARMA KAGYU, DIAMOND WAY",NOT AVAILABLE,NOT AVAILABLE,N,N
15520,10683888,HOUSTON ZEN COMMUNITY,HOUSTON,TX,77008,4021,HARRIS,48201,2009-05-13T00:00:00.000Z,ALT REF,2009-05-13T00:00:00.000Z,PLACES OF WORSHIP,17902906,-95.3983746,29.8003948,BUDDHIST,SOTO ZEN,NOT AVAILABLE,NOT AVAILABLE,N,N
15521,10443753,OUR LADY OF GUADALUPE CHURCH,HOUSTON,TX,77003,NULL,HARRIS,48201,2009-05-26T00:00:00.000Z,ALT REF,2009-05-26T00:00:00.000Z,CHURCHES,17925962,-95.3450736,29.7591763,CHRISTIAN,NOT AVAILABLE,NOT AVAILABLE,NOT AVAILABLE,N,Y
15522,10685244,UNIVERSITY OF HOUSTON BUDDHIST ASSOCIATION,HOUSTON,TX,77004,2610,HARRIS,48201,2009-05-21T00:00:00.000Z,ALT REF,2009-05-21T00:00:00.000Z,PLACES OF WORSHIP,17879380,-95.3452531,29.7192609,BUDDHIST,"TIBETAN, KARMA KAGYU",NOT AVAILABLE,NOT AVAILABLE,N,N
15523,10577232,HELMERS STREET BAPTIST CHURCH,HOUSTON,TX,77022,3741,HARRIS,48201,2009-05-21T00:00:00.000Z,ALT REF,2009-05-21T00:00:00.000Z,CHURCHES,17915871,-95.3661745,29.8323538,CHRISTIAN,BAPT,NOT AVAILABLE,NOT AVAILABLE,Y,N
15524,10581034,BELLAIRE WEST BAPTIST CHURCH,HOUSTON,TX,77072,3306,HARRIS,48201,2009-05-19T00:00:00.000Z,ALT REF,2009-05-19T00:00:00.000Z,CHURCHES,17859345,-95.5883035,29.6954457,CHRISTIAN,BAPT,NOT AVAILABLE,NOT AVAILABLE,Y,N
15525,10460150,KOREAN PRESBYTERIAN CHURCH OF HOUSTON,HOUSTON,TX,77055,4612,HARRIS,48201,2009-05-19T00:00:00.000Z,ALT REF,2009-05-19T00:00:00.000Z,CHURCHES,17915016,-95.5110107,29.798807,CHRISTIAN,PCA,NOT AVAILABLE,NOT AVAILABLE,Y,N
15526,10443765,SAINT STEPHEN CATHOLIC CHURCH,HOUSTON,TX,77007,6105,HARRIS,48201,2009-05-15T00:00:00.000Z,ALT REF,2009-05-15T00:00:00.000Z,CHURCHES,17900687,-95.3778511,29.7688824,CHRISTIAN,NOT AVAILABLE,NOT AVAILABLE,NOT AVAILABLE,N,Y
15527,10443433,SAINT ALPHONSUS CATHOLIC CHURCH,HOUSTON,TX,77012,2727,HARRIS,48201,2009-05-13T00:00:00.000Z,ALT REF,2009-05-13T00:00:00.000Z,CHURCHES,17873749,-95.2637778,29.718202,CHRISTIAN,NOT AVAILABLE,NOT AVAILABLE,NOT AVAILABLE,N,Y
15529,10580219,NEW PROVIDENCE BAPTIST CHURCH,HOUSTON,TX,77021,4351,HARRIS,48201,2009-05-22T00:00:00.000Z,ALT REF,2009-05-22T00:00:00.000Z,CHURCHES,17875562,-95.3472067,29.6900727,CHRISTIAN,BAPT,NOT AVAILABLE,NOT AVAILABLE,Y,N
15535,10461286,CHOONG HYUN PRESBYTERIAN CHURCH,HOUSTON,TX,77055,4207,HARRIS,48201,2009-05-13T00:00:00.000Z,ALT REF,2009-05-13T00:00:00.000Z,CHURCHES,17909422,-95.5309063,29.795455,CHRISTIAN,PCA,NOT AVAILABLE,NOT AVAILABLE,Y,N
15538,10581041,CHRISTCHURCH BAPTIST FELLOWSHIP,HOUSTON,TX,77066,2345,HARRIS,48201,2009-05-19T00:00:00.000Z,ALT REF,2009-05-19T00:00:00.000Z,CHURCHES,17933161,-95.5097318,29.9735743,CHRISTIAN,BAPT,NOT AVAILABLE,NOT AVAILABLE,Y,N
15539,10581047,BANDERA STREET BAPTIST CHURCH,HOUSTON,TX,77015,4502,HARRIS,48201,2009-05-22T00:00:00.000Z,ALT REF,2009-05-22T00:00:00.000Z,CHURCHES,17895624,-95.181966,29.7765758,CHRISTIAN,BAPT,NOT AVAILABLE,NOT AVAILABLE,Y,N
15541,10581029,NORTH HOUSTON BAPTIST CHURCH,HOUSTON,TX,77076,1407,HARRIS,48201,2009-05-22T00:00:00.000Z,ALT REF,2009-05-22T00:00:00.000Z,CHURCHES,17896066,-95.4002993,29.8692882,CHRISTIAN,BAPT,NOT AVAILABLE,NOT AVAILABLE,Y,N
15542,10581027,PARKWOOD BAPTIST CHURCH,HOUSTON,TX,77032,4204,HARRIS,48201,2009-05-22T00:00:00.000Z,ALT REF,2009-05-22T00:00:00.000Z,CHURCHES,17942417,-95.3125724,29.9298103,CHRISTIAN,BAPT,NOT AVAILABLE,NOT AVAILABLE,Y,N
15543,10581026,PROVIDENCE BAPTIST CHURCH,HOUSTON,TX,77004,6126,HARRIS,48201,2009-05-22T00:00:00.000Z,ALT REF,2009-05-22T00:00:00.000Z,CHURCHES,17873748,-95.3703047,29.7206824,CHRISTIAN,BAPT,NOT AVAILABLE,NOT AVAILABLE,Y,N
15546,10442953,SAINT AUGUSTINE CATHOLIC CHURCH,HOUSTON,TX,77017,6729,HARRIS,48201,2009-05-13T00:00:00.000Z,ALT REF,2009-05-13T00:00:00.000Z,CHURCHES,17885089,-95.2364561,29.6788485,CHRISTIAN,NOT AVAILABLE,NOT AVAILABLE,NOT AVAILABLE,N,Y
15547,10579043,SHADY ACRES BAPTIST CHURCH,HOUSTON,TX,77088,7318,HARRIS,48201,2009-05-22T00:00:00.000Z,ALT REF,2009-05-22T00:00:00.000Z,CHURCHES,17905862,-95.4642736,29.868917,CHRISTIAN,BAPT,NOT AVAILABLE,NOT AVAILABLE,Y,N
15549,10685197,THUBTEN RINCHEN LING,HOUSTON,TX,77072,2720,HARRIS,48201,2009-05-21T00:00:00.000Z,ALT REF,2009-05-21T00:00:00.000Z,PLACES OF WORSHIP,17856723,-95.5688533,29.6970477,BUDDHIST,"TIBETAN, GELUGPA",NOT AVAILABLE,NOT AVAILABLE,N,N
15550,10579112,WESTSIDE BAPTIST CHURCH,HOUSTON,TX,77080,5414,HARRIS,48201,2009-05-22T00:00:00.000Z,ALT REF,2009-05-22T00:00:00.000Z,CHURCHES,126552407,-95.5200051,29.8100969,CHRISTIAN,BAPT,NOT AVAILABLE,NOT AVAILABLE,Y,N
15552,10589508,SUNNYSIDE MISSIONARY BAPTIST CHURCH,HOUSTON,TX,77051,1559,HARRIS,48201,2009-05-13T00:00:00.000Z,ALT REF,2009-05-13T00:00:00.000Z,CHURCHES,17876584,-95.3677183,29.6752874,CHRISTIAN,ABC,NOT AVAILABLE,NOT AVAILABLE,Y,N
15553,10576948,LIGHTHOUSE BAPTIST CHURCH,HOUSTON,TX,77038,1617,HARRIS,48201,2009-05-21T00:00:00.000Z,ALT REF,2009-05-21T00:00:00.000Z,CHURCHES,17934177,-95.46829,29.9238106,CHRISTIAN,BAPT,NOT AVAILABLE,NOT AVAILABLE,Y,N
15555,10589502,COVENANT CHURCH,HOUSTON,TX,77004,5701,HARRIS,48201,2009-05-21T00:00:00.000Z,ALT REF,2009-05-21T00:00:00.000Z,CHURCHES,17865848,-95.3832878,29.7282234,CHRISTIAN,ABC,NOT AVAILABLE,NOT AVAILABLE,Y,N
15556,10455236,SAINT LUKE MISSIONARY BAPTIST CHURCH,HOUSTON,TX,77026,4040,HARRIS,48201,2009-05-26T00:00:00.000Z,ALT REF,2009-05-26T00:00:00.000Z,CHURCHES,724575458,-95.3161718,29.798986,CHRISTIAN,NBC,NOT AVAILABLE,NOT AVAILABLE,Y,N
15560,10441906,SAINT MICHAEL CATHOLIC CHURCH,HOUSTON,TX,77056,3502,HARRIS,48201,2009-05-26T00:00:00.000Z,ALT REF,2009-05-26T00:00:00.000Z,CHURCHES,17867318,-95.4666659,29.7480761,CHRISTIAN,NOT AVAILABLE,NOT AVAILABLE,NOT AVAILABLE,N,Y
15561,10581043,BIBLE WAY BAPTIST CHURCH,HOUSTON,TX,77018,3202,HARRIS,48201,2009-05-19T00:00:00.000Z,ALT REF,2009-05-19T00:00:00.000Z,CHURCHES,17927926,-95.4159058,29.8305365,CHRISTIAN,BAPT,NOT AVAILABLE,NOT AVAILABLE,Y,N
15562,10575971,HOLY GHOST AFRICAN METHODIST EPISCOPAL ZION CHURCH,HOUSTON,TX,77038,1005,HARRIS,48201,2009-05-15T00:00:00.000Z,ALT REF,2009-05-15T00:00:00.000Z,CHURCHES,17937479,-95.4581414,29.9341837,CHRISTIAN,AMEZ,NOT AVAILABLE,NOT AVAILABLE,Y,N
15564,10684222,DAWN MOUNTAIN TIBETAN TEMPLE COMMUNITY CENTER AND RESEARCH INSTITUTE,HOUSTON,TX,77098,3401,HARRIS,48201,2009-05-22T00:00:00.000Z,ALT REF,2009-05-22T00:00:00.000Z,"TEMPLES, RELIGIOUS",17864192,-95.4080301,29.7339194,BUDDHIST,"NON-SECTARIAN, MINDFULNESS, DZOGCHEN",NOT AVAILABLE,NOT AVAILABLE,N,N
15565,10585082,GREATER TRUE LIGHT MISSIONARY BAPTIST CHURCH,HOUSTON,TX,77016,2115,HARRIS,48201,2009-05-19T00:00:00.000Z,ALT REF,2009-05-19T00:00:00.000Z,CHURCHES,17940419,-95.2882232,29.8833596,CHRISTIAN,BAPT,NOT AVAILABLE,NOT AVAILABLE,Y,N
15566,10581036,GRACE BAPTIST CHURCH,HOUSTON,TX,77087,3505,HARRIS,48201,2009-05-15T00:00:00.000Z,ALT REF,2009-05-15T00:00:00.000Z,CHURCHES,17881712,-95.2983616,29.6902983,CHRISTIAN,BAPT,NOT AVAILABLE,NOT AVAILABLE,Y,N
15567,10581028,NORTHWEST BAPTIST CHURCH,HOUSTON,TX,77018,6218,HARRIS,48201,2009-05-22T00:00:00.000Z,ALT REF,2009-05-22T00:00:00.000Z,CHURCHES,722435770,-95.4289071,29.8177701,CHRISTIAN,BAPT,NOT AVAILABLE,NOT AVAILABLE,Y,N
15568,10581023,WORD OF LIFE BAPTIST CHURCH,HOUSTON,TX,77051,2833,HARRIS,48201,2009-05-19T00:00:00.000Z,ALT REF,2009-05-19T00:00:00.000Z,CHURCHES,17882689,-95.3571556,29.6624596,CHRISTIAN,BAPT,NOT AVAILABLE,NOT AVAILABLE,Y,N
15569,10461295,COVENANT PRESBYTERIAN CHURCH,HOUSTON,TX,77077,6516,HARRIS,48201,2009-05-21T00:00:00.000Z,ALT REF,2009-05-21T00:00:00.000Z,CHURCHES,17853711,-95.5935713,29.7390938,CHRISTIAN,PCA,NOT AVAILABLE,NOT AVAILABLE,Y,N
15570,10759982,KINSMEN LUTHERAN CHURCH,HOUSTON,TX,77066,2704,HARRIS,48201,2009-05-21T00:00:00.000Z,ALT REF,2009-05-21T00:00:00.000Z,CHURCHES,25019187,-95.5064778,29.968055,CHRISTIAN,ELCA,NOT AVAILABLE,NOT AVAILABLE,Y,N
15572,10431718,MASJID AL SHAREEF,HOUSTON,TX,77061,3909,HARRIS,48201,2009-05-21T00:00:00.000Z,ALT REF,2009-05-21T00:00:00.000Z,"MOSQUES, RELIGIOUS",17877512,-95.2896319,29.6578275,MUSLIM,NOT AVAILABLE,NOT AVAILABLE,NOT AVAILABLE,N,N
15573,10581025,SOUTH SHAVER BAPTIST CHURCH,HOUSTON,TX,77034,3621,HARRIS,48201,2009-05-19T00:00:00.000Z,ALT REF,2009-05-19T00:00:00.000Z,CHURCHES,17889962,-95.2177695,29.6325686,CHRISTIAN,BAPT,NOT AVAILABLE,NOT AVAILABLE,Y,N
15574,10581037,EAST BELT BAPTIST CHURCH,HOUSTON,TX,77015,3228,HARRIS,48201,2009-05-19T00:00:00.000Z,ALT REF,2009-05-19T00:00:00.000Z,CHURCHES,126614413,-95.1592605,29.7885767,CHRISTIAN,BAPT,NOT AVAILABLE,NOT AVAILABLE,Y,N
15577,10461340,YE DARM PRESBYTERIAN CHURCH,HOUSTON,TX,77055,6737,HARRIS,48201,2009-05-19T00:00:00.000Z,ALT REF,2009-05-19T00:00:00.000Z,CHURCHES,18020462,-95.494087,29.7944572,CHRISTIAN,PCA,NOT AVAILABLE,NOT AVAILABLE,Y,N
15578,10459974,OAKLAWN PRESBYTERIAN CHURCH,HOUSTON,TX,77011,3137,HARRIS,48201,2009-05-19T00:00:00.000Z,ALT REF,2009-05-19T00:00:00.000Z,CHURCHES,17871686,-95.3253351,29.7456189,CHRISTIAN,PCA,NOT AVAILABLE,NOT AVAILABLE,Y,N
15580,10443725,CHRIST THE KING CATHOLIC CHURCH,HOUSTON,TX,77009,5128,HARRIS,48201,2009-05-26T00:00:00.000Z,ALT REF,2009-05-26T00:00:00.000Z,CHURCHES,126608062,-95.3791346,29.7948597,CHRISTIAN,NOT AVAILABLE,NOT AVAILABLE,NOT AVAILABLE,N,Y
15581,10762549,WATBUDDHAVAS OF HOUSTON,HOUSTON,TX,77086,3930,HARRIS,48201,2009-05-13T00:00:00.000Z,ALT REF,2009-05-13T00:00:00.000Z,PLACES OF WORSHIP,17938210,-95.4795553,29.9011092,BUDDHIST,NOT AVAILABLE,NOT AVAILABLE,NOT AVAILABLE,N,N
15582,10443755,OUR LADY OF SORROWS CHURCH,HOUSTON,TX,77026,5931,HARRIS,48201,2009-05-26T00:00:00.000Z,ALT REF,2009-05-26T00:00:00.000Z,CHURCHES,17917493,-95.3236219,29.7889457,CHRISTIAN,NOT AVAILABLE,NOT AVAILABLE,NOT AVAILABLE,N,Y
15584,10576830,PEACE COMMUNITY CHURCH,HOUSTON,TX,77084,5302,HARRIS,48201,2009-05-19T00:00:00.000Z,ALT REF,2009-05-19T00:00:00.000Z,CHURCHES,17986503,-95.6405335,29.8530648,CHRISTIAN,CRC,NOT AVAILABLE,NOT AVAILABLE,Y,N
15586,10443735,HOLY CROSS CHAPEL,HOUSTON,TX,77002,6408,HARRIS,48201,2009-05-26T00:00:00.000Z,ALT REF,2009-05-26T00:00:00.000Z,CHURCHES,17925172,-95.3642332,29.7572984,CHRISTIAN,NOT AVAILABLE,NOT AVAILABLE,NOT AVAILABLE,N,Y
15587,10443713,SAINT ANDREW KIM CATHOLIC CHURCH,HOUSTON,TX,77055,2336,HARRIS,48201,2009-05-26T00:00:00.000Z,ALT REF,2009-05-26T00:00:00.000Z,CHURCHES,17909220,-95.5004756,29.8006669,CHRISTIAN,NOT AVAILABLE,NOT AVAILABLE,NOT AVAILABLE,N,Y
15588,10443715,SAINT ANNE DE BEAUPRE CHURCH,HOUSTON,TX,77009,1131,HARRIS,48201,2009-05-26T00:00:00.000Z,ALT REF,2009-05-26T00:00:00.000Z,CHURCHES,17898701,-95.3864207,29.813069,CHRISTIAN,NOT AVAILABLE,NOT AVAILABLE,NOT AVAILABLE,N,Y
15589,10581033,HOLMAN STREET BAPTIST CHURCH,HOUSTON,TX,77004,4704,HARRIS,48201,2009-05-21T00:00:00.000Z,ALT REF,2009-05-21T00:00:00.000Z,CHURCHES,17873486,-95.3529047,29.7260072,CHRISTIAN,BAPT,NOT AVAILABLE,NOT AVAILABLE,Y,N
15606,10762435,NORTHWOODS PRESBYTERIAN CHURCH,HOUSTON,TX,77068,NULL,HARRIS,48201,2009-05-27T00:00:00.000Z,ALT REF,2009-05-27T00:00:00.000Z,CHURCHES,17939106,-95.4804105,29.9995593,CHRISTIAN,PCUSA,1581,NOT AVAILABLE,Y,N
15607,10443759,SAINT PAUL CATHOLIC CHURCH,HOUSTON,TX,77058,3516,HARRIS,48201,2009-05-26T00:00:00.000Z,ALT REF,2009-05-26T00:00:00.000Z,CHURCHES,17962179,-95.0924126,29.5454133,CHRISTIAN,NOT AVAILABLE,NOT AVAILABLE,NOT AVAILABLE,N,Y
15608,10443730,SAINT FRANCES CABRINI CATHOLIC CHURCH,HOUSTON,TX,77034,3523,HARRIS,48201,2009-05-28T00:00:00.000Z,ALT REF,2009-05-28T00:00:00.000Z,CHURCHES,17939751,-95.2219547,29.6355343,CHRISTIAN,NOT AVAILABLE,NOT AVAILABLE,NOT AVAILABLE,N,Y
15610,10443756,OUR MOTHER OF MERCY CATHOLIC CHURCH,HOUSTON,TX,77020,2444,HARRIS,48201,2009-05-28T00:00:00.000Z,ALT REF,2009-05-28T00:00:00.000Z,CHURCHES,17919023,-95.3298442,29.7803163,CHRISTIAN,NOT AVAILABLE,NOT AVAILABLE,NOT AVAILABLE,N,Y
15611,10441990,SAINT LUKE THE EVANGELIST CATHOLIC CHURCH,HOUSTON,TX,77089,2930,HARRIS,48201,2009-05-28T00:00:00.000Z,ALT REF,2009-05-28T00:00:00.000Z,CHURCHES,17959099,-95.2331237,29.5927461,CHRISTIAN,NOT AVAILABLE,NOT AVAILABLE,NOT AVAILABLE,N,Y
15612,10443744,SAINT LEO THE GREAT CHURCH,HOUSTON,TX,77039,3109,HARRIS,48201,2009-05-26T00:00:00.000Z,ALT REF,2009-05-26T00:00:00.000Z,CHURCHES,17942262,-95.3520518,29.9139393,CHRISTIAN,NOT AVAILABLE,NOT AVAILABLE,NOT AVAILABLE,N,Y
15613,10443739,IMMACULATE HEART OF MARY CHURCH,HOUSTON,TX,77012,1033,HARRIS,48201,2009-05-26T00:00:00.000Z,ALT REF,2009-05-26T00:00:00.000Z,CHURCHES,17872181,-95.2877126,29.7390219,CHRISTIAN,NOT AVAILABLE,NOT AVAILABLE,NOT AVAILABLE,N,Y
15614,10443728,SAINT CYRIL OF ALEXANDRIA CATHOLIC CHURCH,HOUSTON,TX,77042,3502,HARRIS,48201,2009-05-26T00:00:00.000Z,ALT REF,2009-05-26T00:00:00.000Z,CHURCHES,129369089,-95.5609364,29.7361747,CHRISTIAN,NOT AVAILABLE,NOT AVAILABLE,NOT AVAILABLE,N,Y
15616,10431268,ISLAMIC SOCIETY OF GREATER HOUSTON - NORTH ZONE ADEL ROAD,HOUSTON,TX,77067,2205,HARRIS,48201,2009-05-27T00:00:00.000Z,ALT REF,2009-05-27T00:00:00.000Z,"MOSQUES, RELIGIOUS",17937113,-95.448702,29.9573112,MUSLIM,NOT AVAILABLE,NOT AVAILABLE,NOT AVAILABLE,N,N
15620,10443751,SAINT RAPHAEL THE ARCHANGEL CHURCH,HOUSTON,TX,77063,5417,HARRIS,48201,2009-05-26T00:00:00.000Z,ALT REF,2009-05-26T00:00:00.000Z,CHURCHES,17857332,-95.5287917,29.7220645,CHRISTIAN,NOT AVAILABLE,NOT AVAILABLE,NOT AVAILABLE,N,Y
15621,10678048,HARE KRISHNA DHAM,HOUSTON,TX,77018,6210,HARRIS,48201,2009-05-27T00:00:00.000Z,ALT REF,2009-05-27T00:00:00.000Z,PLACES OF WORSHIP,17906729,-95.4236653,29.8177472,HINDU,NOT AVAILABLE,NOT AVAILABLE,NOT AVAILABLE,N,N
15622,10684806,NICHIREN BUDDHIST SANGHA OF TEXAS,HOUSTON,TX,77004,6604,HARRIS,48201,2009-05-27T00:00:00.000Z,ALT REF,2009-05-27T00:00:00.000Z,PLACES OF WORSHIP,17874139,-95.3472995,29.7134263,BUDDHIST,"MAHAYANA, NICHIREN BUDDHISM",NOT AVAILABLE,NOT AVAILABLE,N,N
15623,10684467,HOUSTON BUDDHIST VIHARA,HOUSTON,TX,77075,1547,HARRIS,48201,2009-05-27T00:00:00.000Z,ALT REF,2009-05-27T00:00:00.000Z,PLACES OF WORSHIP,17880880,-95.2562,29.6423009,BUDDHIST,"THERAVADA, SRI LANKAN",NOT AVAILABLE,NOT AVAILABLE,N,N
15624,10678055,VEDANTA SOCIETY OF GREATER HOUSTON,HOUSTON,TX,77074,7823,HARRIS,48201,2009-05-27T00:00:00.000Z,ALT REF,2009-05-27T00:00:00.000Z,PLACES OF WORSHIP,17860616,-95.496336,29.6897999,HINDU,NOT AVAILABLE,NOT AVAILABLE,NOT AVAILABLE,N,N
15625,10677504,GURUDWARA SAHIB OF HOUSTON,HOUSTON,TX,77086,4043,HARRIS,48201,2009-05-27T00:00:00.000Z,ALT REF,2009-05-27T00:00:00.000Z,"TEMPLES, RELIGIOUS",17938070,-95.4744001,29.9003422,OTHER,NOT AVAILABLE,NOT AVAILABLE,NOT AVAILABLE,N,N
15626,10684888,PHAP LUAN BUDDHIST CULTURAL CENTER,HOUSTON,TX,77045,5139,HARRIS,48201,2009-05-27T00:00:00.000Z,ALT REF,2009-05-27T00:00:00.000Z,PLACES OF WORSHIP,727573591,-95.4637379,29.6248887,BUDDHIST,"THERAVADA, VIPASSANA",NOT AVAILABLE,NOT AVAILABLE,N,N
15627,10443752,OUR LADY OF CZESTOCHOWA CHURCH,HOUSTON,TX,77080,7327,HARRIS,48201,2009-05-26T00:00:00.000Z,ALT REF,2009-05-26T00:00:00.000Z,CHURCHES,17912138,-95.5250925,29.8041586,CHRISTIAN,NOT AVAILABLE,NOT AVAILABLE,NOT AVAILABLE,N,Y
15628,10761602,CY-FAIR CHRISTIAN CHURCH,HOUSTON,TX,77070,4512,HARRIS,48201,2009-05-28T00:00:00.000Z,ALT REF,2009-05-28T00:00:00.000Z,CHURCHES,17931498,-95.562273,29.9675176,CHRISTIAN,CHRISTIAN,NOT AVAILABLE,NOT AVAILABLE,Y,N
15629,10761894,WESTBURY CHURCH OF CHRIST,HOUSTON,TX,77096,4704,HARRIS,48201,2009-05-28T00:00:00.000Z,ALT REF,2009-05-28T00:00:00.000Z,CHURCHES,126611308,-95.4931109,29.6679283,CHRISTIAN,COC,700,NOT AVAILABLE,Y,N
15630,10761141,FIRST CONGREGATIONAL CHURCH OF HOUSTON,HOUSTON,TX,77024,3009,HARRIS,48201,2009-05-27T00:00:00.000Z,ALT REF,2009-05-27T00:00:00.000Z,CHURCHES,17911612,-95.5053099,29.7782362,CHRISTIAN,UCC,411,NOT AVAILABLE,Y,N
15631,10578274,LIBERTY BAPTIST CHURCH,HOUSTON,TX,77035,4004,HARRIS,48201,2009-06-24T00:00:00.000Z,ALT REF,2009-06-24T00:00:00.000Z,CHURCHES,723491957,-95.5089995,29.6467314,CHRISTIAN,BAPT,NOT AVAILABLE,NOT AVAILABLE,Y,N
15632,10760174,SAINT TIMOTHY LUTHERAN CHURCH,HOUSTON,TX,77070,3843,HARRIS,48201,2009-05-27T00:00:00.000Z,ALT REF,2009-05-27T00:00:00.000Z,CHURCHES,17928657,-95.5502652,29.9799562,CHRISTIAN,LCMS,NOT AVAILABLE,NOT AVAILABLE,Y,N
15633,10443729,CORPUS CHRISTI CATHOLIC CHURCH,HOUSTON,TX,77025,4718,HARRIS,48201,2009-05-26T00:00:00.000Z,ALT REF,2009-05-26T00:00:00.000Z,CHURCHES,129369392,-95.4403414,29.6749438,CHRISTIAN,NOT AVAILABLE,NOT AVAILABLE,NOT AVAILABLE,N,Y
15634,10443743,SAINT JOSEPH CATHOLIC CHURCH,HOUSTON,TX,77007,7711,HARRIS,48201,2009-05-28T00:00:00.000Z,ALT REF,2009-05-28T00:00:00.000Z,CHURCHES,17925056,-95.3731306,29.7658654,CHRISTIAN,NOT AVAILABLE,NOT AVAILABLE,NOT AVAILABLE,N,Y
15639,10760175,TRINITY LUTHERAN CHURCH,HOUSTON,TX,77007,7710,HARRIS,48201,2009-05-28T00:00:00.000Z,ALT REF,2009-05-28T00:00:00.000Z,CHURCHES,727791137,-95.371843,29.7663052,CHRISTIAN,LCMS,NOT AVAILABLE,NOT AVAILABLE,Y,N
15640,10677505,GURDWARA NANAKSAR,HOUSTON,TX,77041,2710,HARRIS,48201,2009-05-27T00:00:00.000Z,ALT REF,2009-05-27T00:00:00.000Z,"TEMPLES, RELIGIOUS",17910590,-95.6016565,29.8767754,OTHER,NOT AVAILABLE,NOT AVAILABLE,NOT AVAILABLE,N,N
15643,10761893,TRINITY GARDENS CHURCH OF CHRIST,HOUSTON,TX,77016,6533,HARRIS,48201,2009-05-28T00:00:00.000Z,ALT REF,2009-05-28T00:00:00.000Z,CHURCHES,17921189,-95.3143732,29.8303677,CHRISTIAN,COC,600,NOT AVAILABLE,Y,N
15644,10581046,BELLMAR BAPTIST CHURCH,HOUSTON,TX,77037,3204,HARRIS,48201,2009-06-25T00:00:00.000Z,ALT REF,2009-06-25T00:00:00.000Z,CHURCHES,17935783,-95.3904022,29.8829203,CHRISTIAN,BAPT,NOT AVAILABLE,NOT AVAILABLE,Y,N
15646,10684276,MINDFULNESS PRACTICE COMMUNITY OF HOUSTON,HOUSTON,TX,77006,1711,HARRIS,48201,2009-05-27T00:00:00.000Z,ALT REF,2009-05-27T00:00:00.000Z,PLACES OF WORSHIP,17891639,-95.3995343,29.7461067,BUDDHIST,ZEN BUDDHIST MASTER THICH NHAT HAHN,NOT AVAILABLE,NOT AVAILABLE,N,N
15648,10760173,SAINT MARK LUTHERAN CHURCH,HOUSTON,TX,77055,3411,HARRIS,48201,2009-05-27T00:00:00.000Z,ALT REF,2009-05-27T00:00:00.000Z,CHURCHES,17904157,-95.4938686,29.7980046,CHRISTIAN,LCMS,NOT AVAILABLE,NOT AVAILABLE,Y,N
15653,10761890,CLEAR LAKE CITY CHURCH OF CHRIST,HOUSTON,TX,77062,4020,HARRIS,48201,2009-05-28T00:00:00.000Z,ALT REF,2009-05-28T00:00:00.000Z,CHURCHES,17959868,-95.1337389,29.566035,CHRISTIAN,COC,600,NOT AVAILABLE,Y,N
15655,10762437,CLEAR LAKE PRESBYTERIAN CHURCH,HOUSTON,TX,77062,3422,HARRIS,48201,2009-05-27T00:00:00.000Z,ALT REF,2009-05-27T00:00:00.000Z,CHURCHES,17962102,-95.1254707,29.5737269,CHRISTIAN,PCUSA,1128,NOT AVAILABLE,Y,N
15656,10431435,BAIT US-SALAAM,HOUSTON,TX,77015,5458,HARRIS,48201,2009-05-27T00:00:00.000Z,ALT REF,2009-05-27T00:00:00.000Z,"MOSQUES, RELIGIOUS",17892490,-95.1632834,29.7765985,MUSLIM,NOT AVAILABLE,NOT AVAILABLE,NOT AVAILABLE,N,N
15657,10762436,WINDWOOD PRESBYTERIAN CHURCH,HOUSTON,TX,77070,6425,HARRIS,48201,2009-05-27T00:00:00.000Z,ALT REF,2009-05-27T00:00:00.000Z,CHURCHES,126614795,-95.5806684,30.0131679,CHRISTIAN,PCUSA,1615,NOT AVAILABLE,Y,N
15658,10677506,THE SIKH CENTRE HOUSTON,HOUSTON,TX,77064,7805,HARRIS,48201,2009-05-27T00:00:00.000Z,ALT REF,2009-05-27T00:00:00.000Z,PLACES OF WORSHIP,17929856,-95.530849,29.9053495,OTHER,NOT AVAILABLE,NOT AVAILABLE,NOT AVAILABLE,N,N
15659,10760172,OUR SAVIOR LUTHERAN CHURCH,HOUSTON,TX,77091,4633,HARRIS,48201,2009-05-27T00:00:00.000Z,ALT REF,2009-05-27T00:00:00.000Z,CHURCHES,17903615,-95.4669081,29.8512643,CHRISTIAN,LCMS,NOT AVAILABLE,NOT AVAILABLE,Y,N
15660,10684469,HOUSTON SONGSHAN SHAOLIN TEMPLE,HOUSTON,TX,77072,2450,HARRIS,48201,2009-05-27T00:00:00.000Z,ALT REF,2009-05-27T00:00:00.000Z,"TEMPLES, RELIGIOUS",17859395,-95.5840949,29.7049379,BUDDHIST,"MAHAYANA, SHAOLIN CHAN BUDDHISM",NOT AVAILABLE,NOT AVAILABLE,N,N
15661,10684468,HOUSTON SHAMBHALA MEDITATION CENTER,HOUSTON,TX,77005,3141,HARRIS,48201,2009-05-27T00:00:00.000Z,ALT REF,2009-05-27T00:00:00.000Z,PLACES OF WORSHIP,129381285,-95.4186895,29.7165991,BUDDHIST,"TIBETAN, KAGYU, SHAMBHALA",NOT AVAILABLE,NOT AVAILABLE,N,N
15662,10431395,MUHAMMAD MOSQUE NUMBER 45,HOUSTON,TX,77021,1650,HARRIS,48201,2009-05-28T00:00:00.000Z,ALT REF,2009-05-28T00:00:00.000Z,"MOSQUES, RELIGIOUS",17881995,-95.3453478,29.7063209,MUSLIM,NOT AVAILABLE,NOT AVAILABLE,NOT AVAILABLE,N,N
15665,10437970,GATEWAY COMMUNITY CHURCH,HOUSTON,TX,77598,6600,HARRIS,48201,2007-09-24T00:00:00.000Z,ALT REF,2007-09-24T00:00:00.000Z,CHURCHES,126612535,-95.1581589,29.5759974,CHRISTIAN,UMC,NOT AVAILABLE,NOT AVAILABLE,Y,N
15669,10437979,SAINT PAULS UNITED METHODIST CHURCH,HOUSTON,TX,77004,6917,HARRIS,48201,2007-09-25T00:00:00.000Z,ALT REF,2007-09-25T00:00:00.000Z,CHURCHES,17868482,-95.3887436,29.7260683,CHRISTIAN,UMC,NOT AVAILABLE,NOT AVAILABLE,Y,N
15674,10437974,LAKEWOOD UNITED METHODIST CHURCH,HOUSTON,TX,77070,1358,HARRIS,48201,2007-09-24T00:00:00.000Z,ALT REF,2007-09-24T00:00:00.000Z,CHURCHES,18018929,-95.588847,29.9972842,CHRISTIAN,UMC,NOT AVAILABLE,NOT AVAILABLE,Y,N
15700,10443745,SAINT MARK THE EVANGELIST CHURCH,HOUSTON,TX,77053,3211,FORT BEND,48157,2009-05-19T00:00:00.000Z,ALT REF,2009-05-19T00:00:00.000Z,CHURCHES,17950947,-95.4647117,29.5951729,CHRISTIAN,NOT AVAILABLE,NOT AVAILABLE,NOT AVAILABLE,N,Y
15726,10683926,AMITABHA BUDDHIST SOCIETY OF HOUSTON,HOUSTON,TX,77036,2014,HARRIS,48201,2009-05-27T00:00:00.000Z,ALT REF,2009-05-27T00:00:00.000Z,PLACES OF WORSHIP,17857519,-95.5131462,29.7184024,BUDDHIST,"MAHAYANA, PURELAND LEARNING CENTER",NOT AVAILABLE,NOT AVAILABLE,N,N
15728,10438640,THE CHURCH OF JESUS CHRIST OF LATTER DAY SAINTS - SUNNYSIDE BRANCH,HOUSTON,TX,77004,6710,HARRIS,48201,2007-10-17T00:00:00.000Z,ALT REF,2008-09-05T00:00:00.000Z,CHURCHES,17884171,-95.3411614,29.7142806,CHRISTIAN,LDS,NOT AVAILABLE,NOT AVAILABLE,Y,N