OBJECTID,ID,NAME,CITY,STATE,ZIP,ZIPP4,COUNTY,FIPS,CONTDATE,CONTHOW,GEODATE,NAICSDESCR,GEOLINKID,X,Y,SUBTYPE,DENOM,MEMBERS,LOC_TYPE,PROT,CATH
26504,10433128,COLLEGE PARK CHURCH,INDIANAPOLIS,IN,46268,2901,HAMILTON,18057,2007-09-11T00:00:00.000Z,ALT REF,2007-09-11T00:00:00.000Z,CHURCHES,19498992,-86.2045843,39.9278355,CHRISTIAN,NOT AVAILABLE,NOT AVAILABLE,NOT AVAILABLE,Y,N
26779,10442315,SAINT SIMON THE APOSTLE CATHOLIC CHURCH,INDIANAPOLIS,IN,46236,8578,MARION,18097,2009-03-31T00:00:00.000Z,ALT REF,2009-03-31T00:00:00.000Z,CHURCHES,125157346,-85.9555708,39.9046366,CHRISTIAN,NOT AVAILABLE,NOT AVAILABLE,NOT AVAILABLE,N,Y
26787,10431983,EAST 91ST STREET CHRISTIAN CHURCH,INDIANAPOLIS,IN,46250,1304,MARION,18097,2009-04-03T00:00:00.000Z,ALT REF,2009-04-03T00:00:00.000Z,CHURCHES,19499888,-86.0636394,39.918263,CHRISTIAN,CHRISTIAN,NOT AVAILABLE,NOT AVAILABLE,Y,N
26788,10433129,SAINT LUKES UNITED METHODIST CHURCH,INDIANAPOLIS,IN,46260,2316,MARION,18097,2009-04-03T00:00:00.000Z,ALT REF,2009-04-03T00:00:00.000Z,CHURCHES,19500529,-86.1610852,39.9132335,CHRISTIAN,UMC,NOT AVAILABLE,NOT AVAILABLE,Y,N
26793,10460649,GRACE PRESBYTERIAN CHURCH,INDIANAPOLIS,IN,46250,1702,MARION,18097,2009-04-02T00:00:00.000Z,ALT REF,2009-04-02T00:00:00.000Z,CHURCHES,125158645,-86.0829121,39.8981811,CHRISTIAN,PCA,NOT AVAILABLE,NOT AVAILABLE,Y,N
26797,10760179,HOLY CROSS LUTHERAN CHURCH,INDIANAPOLIS,IN,46236,8578,MARION,18097,2009-04-03T00:00:00.000Z,ALT REF,2009-04-03T00:00:00.000Z,CHURCHES,125157343,-85.9560888,39.9035081,CHRISTIAN,LCMS,NOT AVAILABLE,NOT AVAILABLE,Y,N
26818,10586804,FIRST BAPTIST CHURCH OF INDIANAPOLIS,INDIANAPOLIS,IN,46240,1536,MARION,18097,2009-04-02T00:00:00.000Z,ALT REF,2009-04-02T00:00:00.000Z,CHURCHES,19500486,-86.146393,39.9132329,CHRISTIAN,ABC,NOT AVAILABLE,NOT AVAILABLE,Y,N
26867,10583793,FIRST BAPTIST CHURCH,INDIANAPOLIS,IN,46290,1021,HAMILTON,18057,2009-04-15T00:00:00.000Z,ALT REF,2009-04-15T00:00:00.000Z,CHURCHES,111814604,-86.1565845,39.9346411,CHRISTIAN,BAPT,NOT AVAILABLE,NOT AVAILABLE,Y,N
26877,10762300,ORCHARD PARK PRESBYTERIAN CHURCH,INDIANAPOLIS,IN,46280,1505,HAMILTON,18057,2009-03-26T00:00:00.000Z,ALT REF,2009-03-26T00:00:00.000Z,CHURCHES,19498176,-86.1277881,39.9407141,CHRISTIAN,PCUSA,1323,NOT AVAILABLE,Y,N
30010,10586888,PLEASANT VIEW BAPTIST CHURCH,INDIANAPOLIS,IN,46259,1147,SHELBY,18145,2009-04-09T00:00:00.000Z,ALT REF,2009-04-09T00:00:00.000Z,CHURCHES,103343227,-85.943121,39.6654027,CHRISTIAN,ABC,NOT AVAILABLE,NOT AVAILABLE,Y,N
30018,10677461,SIKH SATSANG OF INDIANAPOLIS,INDIANAPOLIS,IN,46239,1908,MARION,18097,2009-04-06T00:00:00.000Z,ALT REF,2009-04-06T00:00:00.000Z,PLACES OF WORSHIP,19487640,-85.9702541,39.6834268,OTHER,NOT AVAILABLE,NOT AVAILABLE,NOT AVAILABLE,N,N
30019,10457649,SAINT PAUL AFRICAN METHODIST EPISCOPAL CHURCH,INDIANAPOLIS,IN,46218,3425,MARION,18097,2009-04-06T00:00:00.000Z,ALT REF,2009-04-06T00:00:00.000Z,CHURCHES,19474495,-86.1277459,39.8031485,CHRISTIAN,AME,NOT AVAILABLE,NOT AVAILABLE,Y,N
30020,10586674,ARLINGTON HEIGHTS BAPTIST CHURCH,INDIANAPOLIS,IN,46218,5051,MARION,18097,2009-04-01T00:00:00.000Z,ALT REF,2009-04-01T00:00:00.000Z,CHURCHES,19477199,-86.0706772,39.7894497,CHRISTIAN,ABC,NOT AVAILABLE,NOT AVAILABLE,Y,N
30021,10576489,HOPE COMMUNITY CHURCH,INDIANAPOLIS,IN,46256,1930,MARION,18097,2009-04-01T00:00:00.000Z,ALT REF,2009-04-01T00:00:00.000Z,CHURCHES,19503379,-86.0339641,39.8891446,CHRISTIAN,CRC,NOT AVAILABLE,NOT AVAILABLE,Y,N
30022,10586959,WOODLAND BAPTIST CHURCH,INDIANAPOLIS,IN,46227,1116,MARION,18097,2009-04-01T00:00:00.000Z,ALT REF,2009-04-01T00:00:00.000Z,CHURCHES,16890341,-86.1500562,39.7190491,CHRISTIAN,ABC,NOT AVAILABLE,NOT AVAILABLE,Y,N
30023,10585567,GARDEN BAPTIST CHURCH,INDIANAPOLIS,IN,46231,1021,MARION,18097,2009-04-06T00:00:00.000Z,ALT REF,2009-04-06T00:00:00.000Z,CHURCHES,116086042,-86.3260529,39.7409259,CHRISTIAN,ABC,NOT AVAILABLE,NOT AVAILABLE,Y,N
30027,10586713,CHURCH OF THE MASTER,INDIANAPOLIS,IN,46214,2243,MARION,18097,2009-03-31T00:00:00.000Z,ALT REF,2009-03-31T00:00:00.000Z,CHURCHES,125160428,-86.2894475,39.7873093,CHRISTIAN,ABC,NOT AVAILABLE,NOT AVAILABLE,Y,N
30029,10444630,SAINT ANTHONY CATHOLIC CHURCH,INDIANAPOLIS,IN,46222,4079,MARION,18097,2009-03-31T00:00:00.000Z,ALT REF,2009-03-31T00:00:00.000Z,CHURCHES,19481442,-86.2062489,39.7722067,CHRISTIAN,NOT AVAILABLE,NOT AVAILABLE,NOT AVAILABLE,N,Y
30030,10586935,TUXEDO PARK BAPTIST CHURCH,INDIANAPOLIS,IN,46201,3607,MARION,18097,2009-03-31T00:00:00.000Z,ALT REF,2009-03-31T00:00:00.000Z,CHURCHES,19481689,-86.0970709,39.7704698,CHRISTIAN,ABC,NOT AVAILABLE,NOT AVAILABLE,Y,N
30055,10586964,ZION HOPE BAPTIST CHURCH,INDIANAPOLIS,IN,46226,3317,MARION,18097,2009-04-01T00:00:00.000Z,ALT REF,2009-04-01T00:00:00.000Z,CHURCHES,125158836,-86.0662108,39.8409974,CHRISTIAN,ABC,NOT AVAILABLE,NOT AVAILABLE,Y,N
30058,10579183,PROVIDENCE BAPTIST CHURCH,INDIANAPOLIS,IN,46205,1300,MARION,18097,2009-04-01T00:00:00.000Z,ALT REF,2009-04-08T00:00:00.000Z,CHURCHES,19467725,-86.1298111,39.84266,CHRISTIAN,BAPT,NOT AVAILABLE,NOT AVAILABLE,Y,N
30060,11524623,EASTERN STAR CHURCH - NORTHWEST CAMPUS,INDIANAPOLIS,IN,46278,1735,MARION,18097,2009-04-01T00:00:00.000Z,ALT REF,2009-04-01T00:00:00.000Z,CHURCHES,19504073,-86.2656434,39.8840442,CHRISTIAN,NOT AVAILABLE,NOT AVAILABLE,NOT AVAILABLE,Y,N
30061,10761719,KINGSLEY TERRACE CHURCH OF CHRIST,INDIANAPOLIS,IN,46218,2701,MARION,18097,2009-04-02T00:00:00.000Z,ALT REF,2009-04-02T00:00:00.000Z,CHURCHES,19473188,-86.1255641,39.810457,CHRISTIAN,COC,500,NOT AVAILABLE,Y,N
30072,10574961,CALDWELL CHAPEL AFRICAN METHODIST EPISCOPAL ZION CHURCH,INDIANAPOLIS,IN,46222,3135,MARION,18097,2009-03-31T00:00:00.000Z,ALT REF,2009-03-31T00:00:00.000Z,CHURCHES,19478459,-86.1985214,39.7821953,CHRISTIAN,AMEZ,NOT AVAILABLE,NOT AVAILABLE,Y,N
30074,10586726,CROOKED CREEK BAPTIST CHURCH,INDIANAPOLIS,IN,46228,2220,MARION,18097,2009-04-01T00:00:00.000Z,ALT REF,2009-04-01T00:00:00.000Z,CHURCHES,125157998,-86.1947642,39.8523132,CHRISTIAN,ABC,NOT AVAILABLE,NOT AVAILABLE,Y,N
30082,10586827,LYNHURST BAPTIST CHURCH,INDIANAPOLIS,IN,46241,3514,MARION,18097,2009-04-01T00:00:00.000Z,ALT REF,2009-04-01T00:00:00.000Z,CHURCHES,19508609,-86.2505295,39.7490933,CHRISTIAN,ABC,NOT AVAILABLE,NOT AVAILABLE,Y,N
30083,10583751,CROSSROADS BAPTIST CHURCH,INDIANAPOLIS,IN,46203,2603,MARION,18097,2009-03-27T00:00:00.000Z,ALT REF,2009-03-27T00:00:00.000Z,CHURCHES,19484922,-86.0653866,39.7524953,CHRISTIAN,BAPT,NOT AVAILABLE,NOT AVAILABLE,Y,N
30097,10586719,COVENANT COMMUNITY CHURCH,INDIANAPOLIS,IN,46228,1628,MARION,18097,2009-04-24T00:00:00.000Z,ALT REF,2009-04-24T00:00:00.000Z,CHURCHES,19466440,-86.2126874,39.8541804,CHRISTIAN,ABC,NOT AVAILABLE,NOT AVAILABLE,Y,N
30099,10580069,SUBURBAN BAPTIST CHURCH,INDIANAPOLIS,IN,46227,2853,MARION,18097,2009-03-27T00:00:00.000Z,ALT REF,2009-03-27T00:00:00.000Z,CHURCHES,103463569,-86.1437566,39.6360331,CHRISTIAN,BAPT,NOT AVAILABLE,NOT AVAILABLE,Y,N
30102,10586918,SOUTHPORT BAPTIST CHURCH,INDIANAPOLIS,IN,46227,4917,MARION,18097,2009-03-31T00:00:00.000Z,ALT REF,2009-03-31T00:00:00.000Z,CHURCHES,19487935,-86.1128977,39.6716741,CHRISTIAN,ABC,NOT AVAILABLE,NOT AVAILABLE,Y,N
30108,10583745,VICTORY BAPTIST CHURCH,INDIANAPOLIS,IN,46220,4827,MARION,18097,2009-04-01T00:00:00.000Z,ALT REF,2009-04-01T00:00:00.000Z,CHURCHES,19464448,-86.0779338,39.8730202,CHRISTIAN,BAPT,NOT AVAILABLE,NOT AVAILABLE,Y,N
30125,10684312,DROMTONPA BUDDHIST CENTER,INDIANAPOLIS,IN,46220,2422,MARION,18097,2009-04-07T00:00:00.000Z,ALT REF,2009-04-07T00:00:00.000Z,PLACES OF WORSHIP,125168901,-86.1226462,39.8642884,BUDDHIST,"VAJRAYANA, NEW KADAMPA",NOT AVAILABLE,NOT AVAILABLE,N,N
30132,10574956,LIBERATION AFRICAN METHODIST EPISCOPAL ZION CHURCH,INDIANAPOLIS,IN,46205,1357,MARION,18097,2009-03-31T00:00:00.000Z,ALT REF,2009-03-31T00:00:00.000Z,CHURCHES,19467715,-86.1282219,39.8432215,CHRISTIAN,AMEZ,NOT AVAILABLE,NOT AVAILABLE,Y,N
30142,10585211,NEW BEGINNINGS FELLOWSHIP CHURCH,INDIANAPOLIS,IN,46229,2087,MARION,18097,2009-04-15T00:00:00.000Z,ALT REF,2009-04-23T00:00:00.000Z,CHURCHES,125165277,-85.9704868,39.7982566,CHRISTIAN,ABC,NOT AVAILABLE,NOT AVAILABLE,Y,N
30144,10428385,LUBAVITCH OF INDIANA,INDIANAPOLIS,IN,46260,4465,MARION,18097,2007-08-08T00:00:00.000Z,ALT REF,2007-08-08T00:00:00.000Z,SYNAGOGUES,19514514,-86.1770252,39.876445,JUDAIC,CHABAD,NOT AVAILABLE,CHABAD,N,N
30145,10429718,CONGREGATION SHAAREY TEFILLA,INDIANAPOLIS,IN,46220,2509,MARION,18097,2007-08-08T00:00:00.000Z,ALT REF,2007-08-09T00:00:00.000Z,SYNAGOGUES,19465707,-86.149728,39.8617185,JUDAIC,NOT AVAILABLE,NOT AVAILABLE,NOT AVAILABLE,N,N
30146,10429719,BETH EL ZEDECK,INDIANAPOLIS,IN,46260,4137,MARION,18097,2007-08-08T00:00:00.000Z,ALT REF,2007-08-08T00:00:00.000Z,SYNAGOGUES,19504087,-86.169234,39.8818188,JUDAIC,NOT AVAILABLE,NOT AVAILABLE,NOT AVAILABLE,N,N
30147,10429267,CONGREGATION B'NAI TORAH,INDIANAPOLIS,IN,46260,4606,MARION,18097,2007-08-06T00:00:00.000Z,PHONE,2007-08-06T00:00:00.000Z,SYNAGOGUES,19464416,-86.1752906,39.8749394,JUDAIC,ORTHODOX,NOT AVAILABLE,NOT AVAILABLE,N,N
30151,10427781,INDIANAPOLIS HEBREW CONGREGATION,INDIANAPOLIS,IN,46260,4274,MARION,18097,2007-08-08T00:00:00.000Z,ALT REF,2007-08-08T00:00:00.000Z,SYNAGOGUES,19504767,-86.1566898,39.8761345,JUDAIC,REFORM,1165,NOT AVAILABLE,N,N
30155,10428148,ARTHUR M GLICK JEWISH COMMUNITY CENTER,INDIANAPOLIS,IN,46260,4120,MARION,18097,2007-08-08T00:00:00.000Z,ALT REF,2007-08-08T00:00:00.000Z,SYNAGOGUES,19504585,-86.1736423,39.878934,JUDAIC,NOT AVAILABLE,NOT AVAILABLE,NOT AVAILABLE,N,N
30171,10583740,NEW LIBERTY MISSIONARY BAPTIST CHURCH,INDIANAPOLIS,IN,46208,5127,MARION,18097,2009-05-20T00:00:00.000Z,ALT REF,2009-05-20T00:00:00.000Z,CHURCHES,19473611,-86.1599964,39.808569,CHRISTIAN,BAPT,NOT AVAILABLE,NOT AVAILABLE,Y,N
30180,10586771,FREEDOM FULL GOSPEL COMMUNITY CHURCH,INDIANAPOLIS,IN,46208,5014,MARION,18097,2009-04-07T00:00:00.000Z,ALT REF,2009-04-07T00:00:00.000Z,CHURCHES,19473625,-86.1765612,39.8084619,CHRISTIAN,ABC,NOT AVAILABLE,NOT AVAILABLE,Y,N
30229,10444632,SAINT JOHN THE EVANGELIST CATHOLIC CHURCH,INDIANAPOLIS,IN,46225,1004,MARION,18097,2009-03-31T00:00:00.000Z,ALT REF,2009-03-31T00:00:00.000Z,CHURCHES,19482535,-86.1613351,39.7648611,CHRISTIAN,NOT AVAILABLE,NOT AVAILABLE,NOT AVAILABLE,N,Y
30230,10583752,CHARITY BAPTIST CHURCH,INDIANAPOLIS,IN,46234,1517,MARION,18097,2009-03-31T00:00:00.000Z,ALT REF,2009-03-31T00:00:00.000Z,CHURCHES,19506368,-86.3218581,39.8154039,CHRISTIAN,BAPT,NOT AVAILABLE,NOT AVAILABLE,Y,N
30231,10444631,SAINT JOAN OF ARC CATHOLIC CHURCH,INDIANAPOLIS,IN,46205,1803,MARION,18097,2009-03-31T00:00:00.000Z,ALT REF,2009-03-31T00:00:00.000Z,CHURCHES,19469447,-86.1494045,39.8325417,CHRISTIAN,NOT AVAILABLE,NOT AVAILABLE,NOT AVAILABLE,N,Y
30232,10586724,COVENANT BAPTIST CHURCH,INDIANAPOLIS,IN,46222,4713,MARION,18097,2009-04-01T00:00:00.000Z,ALT REF,2009-04-01T00:00:00.000Z,CHURCHES,19473417,-86.2321024,39.8091022,CHRISTIAN,ABC,NOT AVAILABLE,NOT AVAILABLE,Y,N
30234,10445055,SAINT MICHAEL THE ARCHANGEL CATHOLIC CHURCH,INDIANAPOLIS,IN,46222,2106,MARION,18097,2009-04-01T00:00:00.000Z,ALT REF,2009-04-01T00:00:00.000Z,CHURCHES,19473402,-86.2155881,39.8103859,CHRISTIAN,NOT AVAILABLE,NOT AVAILABLE,NOT AVAILABLE,N,Y
30235,10444636,SAINT MARY CATHOLIC CHURCH,INDIANAPOLIS,IN,46204,2112,MARION,18097,2009-03-31T00:00:00.000Z,ALT REF,2009-03-31T00:00:00.000Z,CHURCHES,19481349,-86.1500872,39.7722782,CHRISTIAN,NOT AVAILABLE,NOT AVAILABLE,NOT AVAILABLE,N,Y
30236,10455337,BETHANY MISSIONARY BAPTIST CHURCH,INDIANAPOLIS,IN,46203,4714,MARION,18097,2009-04-01T00:00:00.000Z,ALT REF,2009-04-01T00:00:00.000Z,CHURCHES,19485483,-86.1102109,39.7374745,CHRISTIAN,NBC,NOT AVAILABLE,NOT AVAILABLE,Y,N
30237,10442722,SAINT GABRIEL THE ARCHANGEL CHURCH,INDIANAPOLIS,IN,46224,1262,MARION,18097,2009-03-27T00:00:00.000Z,ALT REF,2009-03-27T00:00:00.000Z,CHURCHES,19506320,-86.2641691,39.8176356,CHRISTIAN,NOT AVAILABLE,NOT AVAILABLE,NOT AVAILABLE,N,Y
30238,10574550,PENICK-MESSIAH AFRICAN METHODIST EPISCOPAL ZION CHURCH,INDIANAPOLIS,IN,46203,2213,MARION,18097,2009-03-31T00:00:00.000Z,ALT REF,2009-03-31T00:00:00.000Z,CHURCHES,19484862,-86.1069512,39.7506956,CHRISTIAN,AMEZ,NOT AVAILABLE,NOT AVAILABLE,Y,N
30239,10444620,CHURCH OF THE HOLY CROSS,INDIANAPOLIS,IN,46202,3875,MARION,18097,2009-03-31T00:00:00.000Z,ALT REF,2009-03-31T00:00:00.000Z,CHURCHES,709192340,-86.134931,39.7692184,CHRISTIAN,NOT AVAILABLE,NOT AVAILABLE,NOT AVAILABLE,N,Y
30240,10444637,SAINT MATTHEW CATHOLIC CHURCH,INDIANAPOLIS,IN,46220,5504,MARION,18097,2009-03-31T00:00:00.000Z,ALT REF,2009-03-31T00:00:00.000Z,CHURCHES,19466260,-86.0968861,39.8560993,CHRISTIAN,NOT AVAILABLE,NOT AVAILABLE,NOT AVAILABLE,N,Y
30241,10440784,TRINITY EPISCOPAL CHURCH,INDIANAPOLIS,IN,46208,4645,MARION,18097,2009-03-27T00:00:00.000Z,ALT REF,2009-03-27T00:00:00.000Z,CHURCHES,19472722,-86.1561184,39.8153538,CHRISTIAN,EPIS,NOT AVAILABLE,NOT AVAILABLE,Y,N
30242,10440789,SAINT ALBANS EPISCOPAL CHURCH,INDIANAPOLIS,IN,46226,2218,MARION,18097,2009-03-27T00:00:00.000Z,ALT REF,2009-03-27T00:00:00.000Z,CHURCHES,19468119,-86.0832373,39.8408445,CHRISTIAN,EPIS,NOT AVAILABLE,NOT AVAILABLE,Y,N
30243,10445060,SAINT RITA CATHOLIC CHURCH,INDIANAPOLIS,IN,46202,1910,MARION,18097,2009-03-27T00:00:00.000Z,ALT REF,2009-03-27T00:00:00.000Z,CHURCHES,19476821,-86.1349242,39.7916092,CHRISTIAN,NOT AVAILABLE,NOT AVAILABLE,NOT AVAILABLE,N,Y
30244,10442269,SAINT BARNABAS CATHOLIC CHURCH,INDIANAPOLIS,IN,46217,4951,MARION,18097,2009-03-27T00:00:00.000Z,ALT REF,2009-03-27T00:00:00.000Z,CHURCHES,19514131,-86.1691202,39.645796,CHRISTIAN,NOT AVAILABLE,NOT AVAILABLE,NOT AVAILABLE,N,Y
30245,10445056,SAINT MONICA CATHOLIC CHURCH,INDIANAPOLIS,IN,46228,1201,MARION,18097,2009-03-27T00:00:00.000Z,ALT REF,2009-03-27T00:00:00.000Z,CHURCHES,19465177,-86.1999805,39.8661828,CHRISTIAN,NOT AVAILABLE,NOT AVAILABLE,NOT AVAILABLE,N,Y
30246,10433127,EASTERN STAR CHURCH - MAIN CAMPUS,INDIANAPOLIS,IN,46218,3314,MARION,18097,2009-04-01T00:00:00.000Z,ALT REF,2009-04-01T00:00:00.000Z,CHURCHES,19473119,-86.0699324,39.8115576,CHRISTIAN,NBC,NOT AVAILABLE,NOT AVAILABLE,Y,N
30247,10445059,SAINT PIUS X CATHOLIC CHURCH,INDIANAPOLIS,IN,46240,3509,MARION,18097,2009-03-27T00:00:00.000Z,ALT REF,2009-03-27T00:00:00.000Z,CHURCHES,19503911,-86.1169641,39.8837162,CHRISTIAN,NOT AVAILABLE,NOT AVAILABLE,NOT AVAILABLE,N,Y
30249,10440782,SAINT TIMOTHYS EPISCOPAL CHURCH,INDIANAPOLIS,IN,46227,4450,MARION,18097,2009-04-02T00:00:00.000Z,ALT REF,2009-04-02T00:00:00.000Z,CHURCHES,19487402,-86.1172269,39.6931844,CHRISTIAN,EPIS,NOT AVAILABLE,NOT AVAILABLE,Y,N
30250,10444628,SAINT ANDREW THE APOSTLE CATHOLIC CHURCH,INDIANAPOLIS,IN,46218,1444,MARION,18097,2009-03-31T00:00:00.000Z,ALT REF,2009-03-31T00:00:00.000Z,CHURCHES,19470603,-86.0995737,39.8257997,CHRISTIAN,NOT AVAILABLE,NOT AVAILABLE,NOT AVAILABLE,N,Y
30251,10440786,SAINT PAULS EPISCOPAL CHURCH,INDIANAPOLIS,IN,46208,1549,MARION,18097,2009-04-02T00:00:00.000Z,ALT REF,2009-04-02T00:00:00.000Z,CHURCHES,125170022,-86.156971,39.864682,CHRISTIAN,EPIS,NOT AVAILABLE,NOT AVAILABLE,Y,N
30252,10586852,MOUNT PLEASANT BAPTIST CHURCH,INDIANAPOLIS,IN,46221,4620,MARION,18097,2009-04-02T00:00:00.000Z,ALT REF,2009-04-02T00:00:00.000Z,CHURCHES,108778164,-86.2462343,39.6715959,CHRISTIAN,ABC,NOT AVAILABLE,NOT AVAILABLE,Y,N
30253,10457507,BETHEL AFRICAN METHODIST EPISCOPAL CHURCH,INDIANAPOLIS,IN,46202,3215,MARION,18097,2009-04-02T00:00:00.000Z,ALT REF,2009-04-02T00:00:00.000Z,CHURCHES,19480883,-86.1658562,39.7731556,CHRISTIAN,AME,NOT AVAILABLE,NOT AVAILABLE,Y,N
30254,10444626,OUR LADY OF LOURDES CATHOLIC CHURCH,INDIANAPOLIS,IN,46219,6436,MARION,18097,2009-04-01T00:00:00.000Z,ALT REF,2009-04-01T00:00:00.000Z,CHURCHES,19481530,-86.0777595,39.7700126,CHRISTIAN,NOT AVAILABLE,NOT AVAILABLE,NOT AVAILABLE,N,Y
30255,10440352,SAINT MATTHEWS EPISCOPAL CHURCH,INDIANAPOLIS,IN,46219,5331,MARION,18097,2009-04-01T00:00:00.000Z,ALT REF,2009-04-01T00:00:00.000Z,CHURCHES,19478772,-86.0194198,39.7823922,CHRISTIAN,EPIS,NOT AVAILABLE,NOT AVAILABLE,Y,N
30256,10583747,TENTH STREET BAPTIST CHURCH,INDIANAPOLIS,IN,46201,2535,MARION,18097,2009-03-31T00:00:00.000Z,ALT REF,2009-03-31T00:00:00.000Z,CHURCHES,19478908,-86.1070012,39.7812468,CHRISTIAN,BAPT,NOT AVAILABLE,NOT AVAILABLE,Y,N
30257,10445061,SAINT ROCH CATHOLIC CHURCH,INDIANAPOLIS,IN,46227,1224,MARION,18097,2009-04-01T00:00:00.000Z,ALT REF,2009-03-27T00:00:00.000Z,CHURCHES,19511494,-86.1565534,39.7146376,CHRISTIAN,NOT AVAILABLE,NOT AVAILABLE,NOT AVAILABLE,N,Y
30258,10762701,CHRIST UNITED METHODIST CHURCH,INDIANAPOLIS,IN,46227,NULL,MARION,18097,2009-04-02T00:00:00.000Z,ALT REF,2009-04-02T00:00:00.000Z,CHURCHES,19514278,-86.1321335,39.6417602,CHRISTIAN,UMC,NOT AVAILABLE,NOT AVAILABLE,Y,N
30259,10583748,SOUTHEAST BAPTIST TABERNACLE,INDIANAPOLIS,IN,46237,9726,MARION,18097,2009-03-31T00:00:00.000Z,ALT REF,2009-03-31T00:00:00.000Z,CHURCHES,123267290,-86.0475262,39.6630499,CHRISTIAN,BAPT,NOT AVAILABLE,NOT AVAILABLE,Y,N
30260,10577385,BETHEL MISSIONARY BAPTIST CHURCH,INDIANAPOLIS,IN,46227,1925,MARION,18097,2009-04-01T00:00:00.000Z,ALT REF,2009-04-01T00:00:00.000Z,CHURCHES,19512693,-86.1535226,39.686868,CHRISTIAN,BAPT,NOT AVAILABLE,NOT AVAILABLE,Y,N
30265,10760181,SAINT JOHN LUTHERAN CHURCH,INDIANAPOLIS,IN,46203,5834,MARION,18097,2009-04-02T00:00:00.000Z,ALT REF,2009-04-02T00:00:00.000Z,CHURCHES,19485860,-86.0503482,39.7281376,CHRISTIAN,LCMS,NOT AVAILABLE,NOT AVAILABLE,Y,N
30266,10443092,HOLY ANGELS CATHOLIC CHURCH,INDIANAPOLIS,IN,46208,5004,MARION,18097,2009-04-01T00:00:00.000Z,ALT REF,2009-04-01T00:00:00.000Z,CHURCHES,19473908,-86.1725802,39.8066394,CHRISTIAN,NOT AVAILABLE,NOT AVAILABLE,NOT AVAILABLE,N,Y
30267,10761720,SOUTHEASTERN CHURCH OF CHRIST,INDIANAPOLIS,IN,46203,5832,MARION,18097,2009-04-02T00:00:00.000Z,ALT REF,2009-04-02T00:00:00.000Z,CHURCHES,19485772,-86.0541094,39.7306115,CHRISTIAN,COC,450,NOT AVAILABLE,Y,N
30271,10684496,INDIANA BUDDHIST CENTER,INDIANAPOLIS,IN,46229,2504,MARION,18097,2009-03-27T00:00:00.000Z,ALT REF,2009-03-27T00:00:00.000Z,PLACES OF WORSHIP,19478752,-86.002371,39.7824159,BUDDHIST,"TIBETAN, GELUGPA",NOT AVAILABLE,NOT AVAILABLE,N,N
30272,10436783,NORTHSIDE BAPTIST CHURCH,INDIANAPOLIS,IN,46220,2205,MARION,18097,2009-03-27T00:00:00.000Z,ALT REF,2009-03-27T00:00:00.000Z,CHURCHES,125158544,-86.1132359,39.8828354,CHRISTIAN,SBC,1907,NOT AVAILABLE,Y,N
30273,10760338,CALVARY LUTHERAN CHURCH,INDIANAPOLIS,IN,46227,4879,MARION,18097,2009-04-02T00:00:00.000Z,ALT REF,2009-04-02T00:00:00.000Z,CHURCHES,19513024,-86.1390068,39.6772304,CHRISTIAN,LCMS,NOT AVAILABLE,NOT AVAILABLE,Y,N
30274,10445062,SAINT THERESE - LITTLE FLOWER ROMAN CATHOLIC CHURCH,INDIANAPOLIS,IN,46201,1704,MARION,18097,2009-04-01T00:00:00.000Z,ALT REF,2009-04-01T00:00:00.000Z,CHURCHES,19478150,-86.0900273,39.7848609,CHRISTIAN,NOT AVAILABLE,NOT AVAILABLE,NOT AVAILABLE,N,Y
30275,10443460,SAINTS PETER AND PAUL CATHEDRAL,INDIANAPOLIS,IN,46202,2302,MARION,18097,2009-04-01T00:00:00.000Z,ALT REF,2009-04-01T00:00:00.000Z,CHURCHES,27662491,-86.1566566,39.785317,CHRISTIAN,NOT AVAILABLE,NOT AVAILABLE,NOT AVAILABLE,N,Y
30276,10586712,CHIN EVANGELICAL BAPTIST CHURCH,INDIANAPOLIS,IN,46227,5027,MARION,18097,2009-04-01T00:00:00.000Z,ALT REF,2009-04-01T00:00:00.000Z,CHURCHES,19513266,-86.1341832,39.6682167,CHRISTIAN,ABC,NOT AVAILABLE,NOT AVAILABLE,Y,N
30277,10448196,SAINT ATHANASIUS THE GREAT BYZANTINE CATHOLIC CHURCH,INDIANAPOLIS,IN,46221,1110,MARION,18097,2009-04-02T00:00:00.000Z,ALT REF,2009-04-02T00:00:00.000Z,CHURCHES,125165484,-86.1883011,39.7523823,CHRISTIAN,NOT AVAILABLE,NOT AVAILABLE,NOT AVAILABLE,N,Y
30279,10433124,LAKEVIEW CHURCH,INDIANAPOLIS,IN,46224,8501,MARION,18097,2009-04-03T00:00:00.000Z,ALT REF,2009-04-03T00:00:00.000Z,CHURCHES,19508039,-86.2648336,39.7667271,CHRISTIAN,AG,NOT AVAILABLE,NOT AVAILABLE,Y,N
30280,10433123,INDIAN CREEK CHRISTIAN CHURCH,INDIANAPOLIS,IN,46259,9602,MARION,18097,2009-04-03T00:00:00.000Z,ALT REF,2009-04-03T00:00:00.000Z,CHURCHES,19487893,-86.0207533,39.6755254,CHRISTIAN,CHRISTIAN,NOT AVAILABLE,NOT AVAILABLE,Y,N
30281,10578156,VILLA OAKS BAPTIST CHURCH,INDIANAPOLIS,IN,46203,5434,MARION,18097,2009-03-31T00:00:00.000Z,ALT REF,2009-04-03T00:00:00.000Z,CHURCHES,19485805,-86.1249633,39.7286184,CHRISTIAN,BAPT,NOT AVAILABLE,NOT AVAILABLE,Y,N
30282,10761147,SAINT JOHN UNITED CHURCH OF CHRIST CUMBERLAND,INDIANAPOLIS,IN,46229,3110,MARION,18097,2009-04-03T00:00:00.000Z,ALT REF,2009-04-03T00:00:00.000Z,CHURCHES,19480303,-85.9710434,39.7761228,CHRISTIAN,UCC,531,NOT AVAILABLE,Y,N
30283,10761146,FRIEDENS UNITED CHURCH OF CHRIST,INDIANAPOLIS,IN,46217,4943,MARION,18097,2009-04-03T00:00:00.000Z,ALT REF,2009-04-03T00:00:00.000Z,CHURCHES,19514127,-86.1598878,39.6446502,CHRISTIAN,UCC,648,NOT AVAILABLE,Y,N
30284,10433121,MOUNT OLIVE MISSIONARY BAPTIST CHURCH,INDIANAPOLIS,IN,46202,2105,MARION,18097,2009-04-03T00:00:00.000Z,ALT REF,2009-04-03T00:00:00.000Z,CHURCHES,19477117,-86.1793052,39.7881292,CHRISTIAN,BAPT,NOT AVAILABLE,NOT AVAILABLE,Y,N
30287,10677459,GURU NANAK SIKH SOCIETY INDIANA,INDIANAPOLIS,IN,46203,3319,MARION,18097,2009-04-03T00:00:00.000Z,ALT REF,2009-04-03T00:00:00.000Z,PLACES OF WORSHIP,19485264,-86.1081718,39.7410521,OTHER,NOT AVAILABLE,NOT AVAILABLE,NOT AVAILABLE,N,N
30288,10455235,PILGRIM MISSIONARY BAPTIST CHURCH,INDIANAPOLIS,IN,46208,4927,MARION,18097,2009-04-03T00:00:00.000Z,ALT REF,2009-04-03T00:00:00.000Z,CHURCHES,19473310,-86.1799973,39.8103672,CHRISTIAN,NBC,NOT AVAILABLE,NOT AVAILABLE,Y,N
30289,10761437,VALLEY MILLS CHRISTIAN CHURCH,INDIANAPOLIS,IN,46221,4417,MARION,18097,2009-04-03T00:00:00.000Z,ALT REF,2009-04-03T00:00:00.000Z,CHURCHES,125158983,-86.2822184,39.6832647,CHRISTIAN,CHRISTIAN,NOT AVAILABLE,NOT AVAILABLE,Y,N
30290,10760180,OUR SHEPHERD LUTHERAN CHURCH,INDIANAPOLIS,IN,46234,2006,MARION,18097,2009-04-03T00:00:00.000Z,ALT REF,2009-04-03T00:00:00.000Z,CHURCHES,19507582,-86.3227057,39.7780694,CHRISTIAN,LCMS,NOT AVAILABLE,NOT AVAILABLE,Y,N
30291,10445063,SAINT THOMAS AQUINAS CATHOLIC CHURCH,INDIANAPOLIS,IN,46208,3528,MARION,18097,2009-04-03T00:00:00.000Z,ALT REF,2009-04-03T00:00:00.000Z,CHURCHES,19468328,-86.1601425,39.8399903,CHRISTIAN,NOT AVAILABLE,NOT AVAILABLE,NOT AVAILABLE,N,Y
30292,10457631,SAINT JOHN AFRICAN METHODIST EPISCOPAL CHURCH,INDIANAPOLIS,IN,46202,1903,MARION,18097,2009-04-03T00:00:00.000Z,ALT REF,2009-04-03T00:00:00.000Z,CHURCHES,19477305,-86.1363183,39.790057,CHRISTIAN,AME,NOT AVAILABLE,NOT AVAILABLE,Y,N
30309,10586742,EMERSON AVENUE BAPTIST CHURCH,INDIANAPOLIS,IN,46219,5602,MARION,18097,2009-03-31T00:00:00.000Z,ALT REF,2009-03-31T00:00:00.000Z,CHURCHES,19481094,-86.0834905,39.7725526,CHRISTIAN,ABC,NOT AVAILABLE,NOT AVAILABLE,Y,N
30310,10586729,CUMBERLAND FIRST BAPTIST CHURCH,INDIANAPOLIS,IN,46229,2927,MARION,18097,2009-04-06T00:00:00.000Z,ALT REF,2009-04-06T00:00:00.000Z,CHURCHES,19480546,-85.9573043,39.7752261,CHRISTIAN,ABC,NOT AVAILABLE,NOT AVAILABLE,Y,N
30311,10453010,LITTLE BETHEL MISSIONARY BAPTIST CHURCH,INDIANAPOLIS,IN,46205,4047,MARION,18097,2009-04-06T00:00:00.000Z,ALT REF,2009-04-06T00:00:00.000Z,CHURCHES,19472808,-86.1379945,39.8155362,CHRISTIAN,NBC,NOT AVAILABLE,NOT AVAILABLE,Y,N
30318,10579756,FAITHWAY BAPTIST CHURCH,INDIANAPOLIS,IN,46226,5828,MARION,18097,2009-04-07T00:00:00.000Z,ALT REF,2009-04-07T00:00:00.000Z,CHURCHES,125142387,-86.034329,39.8262735,CHRISTIAN,BAPT,NOT AVAILABLE,NOT AVAILABLE,Y,N
30319,10454725,CHRIST MISSIONARY BAPTIST CHURCH,INDIANAPOLIS,IN,46208,4930,MARION,18097,2009-04-06T00:00:00.000Z,ALT REF,2009-04-06T00:00:00.000Z,CHURCHES,19473475,-86.178289,39.8089572,CHRISTIAN,NBC,NOT AVAILABLE,NOT AVAILABLE,Y,N
30324,10457469,ALLEN CHAPEL AFRICAN METHODIST EPISCOPAL CHURCH,INDIANAPOLIS,IN,46202,2769,MARION,18097,2009-04-06T00:00:00.000Z,ALT REF,2009-04-06T00:00:00.000Z,CHURCHES,19478719,-86.1460317,39.7814525,CHRISTIAN,AME,NOT AVAILABLE,NOT AVAILABLE,Y,N
30331,10454043,NAZARENE MISSIONARY BAPTIST CHURCH,INDIANAPOLIS,IN,46218,1324,MARION,18097,2009-04-06T00:00:00.000Z,ALT REF,2009-04-06T00:00:00.000Z,CHURCHES,19470609,-86.1067142,39.8251057,CHRISTIAN,NBC,NOT AVAILABLE,NOT AVAILABLE,Y,N
30332,10583753,BLUFF AVENUE BAPTIST CHURCH,INDIANAPOLIS,IN,46217,3174,MARION,18097,2009-04-07T00:00:00.000Z,ALT REF,2009-04-07T00:00:00.000Z,CHURCHES,19511408,-86.1823809,39.7145097,CHRISTIAN,BAPT,NOT AVAILABLE,NOT AVAILABLE,Y,N
30333,10433122,CALVARY TABERNACLE,INDIANAPOLIS,IN,46203,1039,MARION,18097,2009-04-06T00:00:00.000Z,ALT REF,2009-04-06T00:00:00.000Z,CHURCHES,125163955,-86.1410276,39.758869,CHRISTIAN,UPC,NOT AVAILABLE,NOT AVAILABLE,Y,N
30334,10453773,GALILEE MISSIONARY BAPTIST CHURCH,INDIANAPOLIS,IN,46218,3609,MARION,18097,2009-04-06T00:00:00.000Z,ALT REF,2009-04-06T00:00:00.000Z,CHURCHES,709249503,-86.1186355,39.803674,CHRISTIAN,NBC,NOT AVAILABLE,NOT AVAILABLE,Y,N
30335,10457609,ROBINSON COMMUNITY AFRICAN METHODIST EPISCOPAL CHURCH,INDIANAPOLIS,IN,46205,1960,MARION,18097,2009-04-06T00:00:00.000Z,ALT REF,2009-04-06T00:00:00.000Z,CHURCHES,19468303,-86.145687,39.8401416,CHRISTIAN,AME,NOT AVAILABLE,NOT AVAILABLE,Y,N
30336,10586859,NEW BETHEL BAPTIST CHURCH,INDIANAPOLIS,IN,46239,1300,MARION,18097,2009-04-06T00:00:00.000Z,ALT REF,2009-04-06T00:00:00.000Z,CHURCHES,27673904,-86.0074931,39.7037598,CHRISTIAN,ABC,NOT AVAILABLE,NOT AVAILABLE,Y,N
30337,10452462,SHILOH MISSIONARY BAPTIST CHURCH,INDIANAPOLIS,IN,46226,4433,MARION,18097,2009-04-06T00:00:00.000Z,ALT REF,2009-04-06T00:00:00.000Z,CHURCHES,19470413,-86.0975048,39.8263899,CHRISTIAN,NBC,NOT AVAILABLE,NOT AVAILABLE,Y,N
30338,10583750,INDIANAPOLIS BAPTIST TEMPLE,INDIANAPOLIS,IN,46237,3223,MARION,18097,2009-03-27T00:00:00.000Z,ALT REF,2009-03-27T00:00:00.000Z,CHURCHES,19489140,-86.0988274,39.6668564,CHRISTIAN,BAPT,NOT AVAILABLE,NOT AVAILABLE,Y,N
30339,10583746,THOMPSON ROAD BAPTIST CHURCH,INDIANAPOLIS,IN,46227,4506,MARION,18097,2009-03-27T00:00:00.000Z,ALT REF,2009-03-27T00:00:00.000Z,CHURCHES,19512409,-86.1292323,39.694021,CHRISTIAN,BAPT,NOT AVAILABLE,NOT AVAILABLE,Y,N
30340,10583749,MARS HILL BAPTIST BIBLE CHURCH,INDIANAPOLIS,IN,46241,NULL,MARION,18097,2009-03-27T00:00:00.000Z,ALT REF,2009-03-27T00:00:00.000Z,CHURCHES,19510631,-86.2380781,39.7275328,CHRISTIAN,BAPT,NOT AVAILABLE,NOT AVAILABLE,Y,N
30341,10574957,JONES TABERNACLE AFRICAN METHODIST EPISCOPAL ZION CHURCH,INDIANAPOLIS,IN,46218,2010,MARION,18097,2009-03-31T00:00:00.000Z,ALT REF,2009-03-31T00:00:00.000Z,CHURCHES,19472071,-86.1195129,39.8184,CHRISTIAN,AMEZ,NOT AVAILABLE,NOT AVAILABLE,Y,N
30343,10586775,GARFIELD PARK BAPTIST CHURCH,INDIANAPOLIS,IN,46203,5214,MARION,18097,2009-04-02T00:00:00.000Z,ALT REF,2009-04-02T00:00:00.000Z,CHURCHES,19510356,-86.140021,39.7297528,CHRISTIAN,ABC,NOT AVAILABLE,NOT AVAILABLE,Y,N
30344,10444623,HOLY TRINITY CATHOLIC CHURCH,INDIANAPOLIS,IN,46222,3714,MARION,18097,2009-04-01T00:00:00.000Z,ALT REF,2009-04-01T00:00:00.000Z,CHURCHES,19479473,-86.2048458,39.7788186,CHRISTIAN,NOT AVAILABLE,NOT AVAILABLE,NOT AVAILABLE,N,Y
30345,10761718,CENTRAL HEIGHTS CHURCH OF CHRIST,INDIANAPOLIS,IN,46219,1410,MARION,18097,2009-04-02T00:00:00.000Z,ALT REF,2009-04-08T00:00:00.000Z,CHURCHES,19474361,-86.0206384,39.8046567,CHRISTIAN,COC,400,NOT AVAILABLE,Y,N
30346,10684370,FRIENDS OF AWAKENING SANGHA,INDIANAPOLIS,IN,46228,3119,MARION,18097,2009-04-07T00:00:00.000Z,ALT REF,2009-04-07T00:00:00.000Z,PLACES OF WORSHIP,19469260,-86.210168,39.834078,BUDDHIST,ZEN BUDDHIST MASTER THICH NHAT HAHN,NOT AVAILABLE,NOT AVAILABLE,N,N
30350,10434503,TRINITY SOUTHERN BAPTIST CHURCH,INDIANAPOLIS,IN,46227,2355,MARION,18097,2009-04-06T00:00:00.000Z,ALT REF,2009-04-06T00:00:00.000Z,CHURCHES,125158856,-86.1501843,39.6636735,CHRISTIAN,SBC,791,NOT AVAILABLE,Y,N
30351,10445058,SAINT PHILIP NERI CATHOLIC CHURCH,INDIANAPOLIS,IN,46201,2468,MARION,18097,2009-04-02T00:00:00.000Z,ALT REF,2009-04-02T00:00:00.000Z,CHURCHES,125162727,-86.1169987,39.7760157,CHRISTIAN,NOT AVAILABLE,NOT AVAILABLE,NOT AVAILABLE,N,Y
30385,10678012,HINDU TEMPLE OF CENTRAL INDIANA,INDIANAPOLIS,IN,46235,9736,MARION,18097,2009-04-07T00:00:00.000Z,ALT REF,2009-04-07T00:00:00.000Z,"TEMPLES, RELIGIOUS",19473008,-85.9733141,39.8185466,HINDU,NOT AVAILABLE,NOT AVAILABLE,NOT AVAILABLE,N,N
30395,10684499,INDIANAPOLIS ZEN CENTER,INDIANAPOLIS,IN,46205,3535,MARION,18097,2009-04-06T00:00:00.000Z,ALT REF,2009-04-06T00:00:00.000Z,PLACES OF WORSHIP,19470978,-86.1516291,39.8236374,BUDDHIST,KOREAN ZEN,NOT AVAILABLE,NOT AVAILABLE,N,N
30399,10586966,ZOPHEI CHRISTIAN CHURCH,INDIANAPOLIS,IN,46217,4249,MARION,18097,2009-04-09T00:00:00.000Z,ALT REF,2009-04-09T00:00:00.000Z,CHURCHES,125160384,-86.1590083,39.6530082,CHRISTIAN,ABC,NOT AVAILABLE,NOT AVAILABLE,Y,N
30411,10574955,SAINT MARK TEMPLE AFRICAN METHODIST EPISCOPAL ZION CHURCH,INDIANAPOLIS,IN,46203,4043,MARION,18097,2009-03-31T00:00:00.000Z,ALT REF,2009-03-31T00:00:00.000Z,CHURCHES,19509336,-86.1395348,39.7437478,CHRISTIAN,AMEZ,NOT AVAILABLE,NOT AVAILABLE,Y,N
30507,10577985,FRANKLIN ROAD BAPTIST CHURCH,INDIANAPOLIS,IN,46219,5207,MARION,18097,2009-04-23T00:00:00.000Z,ALT REF,2009-04-23T00:00:00.000Z,CHURCHES,19480971,-86.0258599,39.7740794,CHRISTIAN,BAPT,NOT AVAILABLE,NOT AVAILABLE,Y,N
30508,10677458,GURDWARA SAHIB INDIANAPOLIS,INDIANAPOLIS,IN,46254,1504,MARION,18097,2009-04-24T00:00:00.000Z,ALT REF,2009-04-24T00:00:00.000Z,"TEMPLES, RELIGIOUS",16906352,-86.2356719,39.8541339,OTHER,NOT AVAILABLE,NOT AVAILABLE,NOT AVAILABLE,N,N
30753,10577647,BIBLE BAPTIST CHURCH,INDIANAPOLIS,IN,46241,2820,MARION,18097,2009-04-28T00:00:00.000Z,ALT REF,2009-04-28T00:00:00.000Z,CHURCHES,19509283,-86.2844412,39.7430402,CHRISTIAN,BAPT,NOT AVAILABLE,NOT AVAILABLE,Y,N
30760,10578477,GOSPEL BAPTIST CHURCH,INDIANAPOLIS,IN,46201,4333,MARION,18097,2009-04-15T00:00:00.000Z,ALT REF,2009-04-15T00:00:00.000Z,CHURCHES,19483361,-86.111946,39.7615119,CHRISTIAN,BAPT,NOT AVAILABLE,NOT AVAILABLE,Y,N
30781,10460648,ELLENBERGER UNITED CHURCH OF CHRIST,INDIANAPOLIS,IN,46219,4417,MARION,18097,2008-03-05T00:00:00.000Z,ALT REF,2008-03-05T00:00:00.000Z,CHURCHES,19478864,-86.0731524,39.7820096,CHRISTIAN,NOT AVAILABLE,NOT AVAILABLE,NOT AVAILABLE,Y,N
29671,10426675,ETZ CHAIM SEPHARDIC,INDIANAPOLIS,IN,46260,4124,MARION,18097,2007-08-08T00:00:00.000Z,ALT REF,2007-08-08T00:00:00.000Z,SYNAGOGUES,19504585,-86.1740701,39.8810929,JUDAIC,ORTHODOX-SEPHARDIC,NOT AVAILABLE,SYNAGOGUE,N,N
29688,10444629,SAINT ANN CATHOLIC CHURCH,INDIANAPOLIS,IN,46221,NULL,MARION,18097,2009-03-31T00:00:00.000Z,ALT REF,2009-04-01T00:00:00.000Z,CHURCHES,709425658,-86.2708923,39.669815,CHRISTIAN,NOT AVAILABLE,NOT AVAILABLE,NOT AVAILABLE,N,Y
29689,10443136,SAINT JUDE CATHOLIC CHURCH,INDIANAPOLIS,IN,46227,7003,MARION,18097,2007-10-01T00:00:00.000Z,ALT REF,2007-10-01T00:00:00.000Z,CHURCHES,19487507,-86.110701,39.6897501,CHRISTIAN,NOT AVAILABLE,NOT AVAILABLE,NOT AVAILABLE,N,Y
29698,10586705,CALVARY BAPTIST CHURCH,INDIANAPOLIS,IN,46235,8502,MARION,18097,2009-04-01T00:00:00.000Z,ALT REF,2009-04-01T00:00:00.000Z,CHURCHES,19473008,-85.9708443,39.8170109,CHRISTIAN,ABC,NOT AVAILABLE,NOT AVAILABLE,Y,N
29704,10443463,SAINT CHRISTOPHER CATHOLIC CHURCH,INDIANAPOLIS,IN,46224,6402,MARION,18097,2009-03-31T00:00:00.000Z,ALT REF,2009-03-31T00:00:00.000Z,CHURCHES,19507252,-86.2514853,39.7867962,CHRISTIAN,NOT AVAILABLE,NOT AVAILABLE,NOT AVAILABLE,N,Y
29710,10586874,OAK PARK BAPTIST CHURCH,INDIANAPOLIS,IN,46241,4527,MARION,18097,2009-04-01T00:00:00.000Z,ALT REF,2009-04-01T00:00:00.000Z,CHURCHES,19509270,-86.2156473,39.7447003,CHRISTIAN,ABC,NOT AVAILABLE,NOT AVAILABLE,Y,N
29711,10586876,OASIS OF HOPE BAPTIST CHURCH,INDIANAPOLIS,IN,46218,3411,MARION,18097,2009-03-31T00:00:00.000Z,ALT REF,2009-03-31T00:00:00.000Z,CHURCHES,19474486,-86.1297179,39.802536,CHRISTIAN,ABC,NOT AVAILABLE,NOT AVAILABLE,Y,N
29729,10433126,SECOND PRESBYTERIAN CHURCH,INDIANAPOLIS,IN,46260,3652,MARION,18097,2007-09-12T00:00:00.000Z,ALT REF,2007-09-12T00:00:00.000Z,CHURCHES,19516350,-86.1589795,39.8949057,CHRISTIAN,PCUSA,NOT AVAILABLE,NOT AVAILABLE,Y,N
29742,10586855,MOUNT ZION BAPTIST CHURCH,INDIANAPOLIS,IN,46208,4411,MARION,18097,2009-04-02T00:00:00.000Z,ALT REF,2009-04-02T00:00:00.000Z,CHURCHES,19471795,-86.1631083,39.8196159,CHRISTIAN,ABC,NOT AVAILABLE,NOT AVAILABLE,Y,N
29766,10438056,SAINT JOHN'S UNITED CHURCH OF CHRIST,INDIANAPOLIS,IN,46227,8515,MARION,18097,2007-09-25T00:00:00.000Z,ALT REF,2007-09-25T00:00:00.000Z,CHURCHES,19513642,-86.1474397,39.6632711,CHRISTIAN,UCC,779,NOT AVAILABLE,Y,N
29768,10438137,CHAPEL ROCK CHRISTIAN CHURCH,INDIANAPOLIS,IN,46214,2252,MARION,18097,2007-10-10T00:00:00.000Z,ALT REF,2007-10-10T00:00:00.000Z,CHURCHES,19507150,-86.289783,39.7930541,CHRISTIAN,CHRISTIAN,NOT AVAILABLE,NOT AVAILABLE,Y,N
29777,10438219,POST ROAD CHRISTIAN CHURCH,INDIANAPOLIS,IN,46219,4216,MARION,18097,2007-10-10T00:00:00.000Z,ALT REF,2007-10-10T00:00:00.000Z,CHURCHES,125159881,-86.0101798,39.7839748,CHRISTIAN,CHRISTIAN,NOT AVAILABLE,NOT AVAILABLE,Y,N
29782,10438415,SOUTHPORT PRESBYTERIAN CHURCH,INDIANAPOLIS,IN,46227,5027,MARION,18097,2007-10-10T00:00:00.000Z,ALT REF,2007-10-10T00:00:00.000Z,CHURCHES,19513266,-86.1341867,39.6682185,CHRISTIAN,PCUSA,1436,NOT AVAILABLE,Y,N
29783,10438617,THE CHURCH OF JESUS CHRIST OF LATTER DAY SAINTS - GREENWOOD 1ST WARD,INDIANAPOLIS,IN,46227,2547,MARION,18097,2007-10-16T00:00:00.000Z,ALT REF,2007-10-16T00:00:00.000Z,CHURCHES,19513924,-86.1428364,39.6504514,CHRISTIAN,LDS,NOT AVAILABLE,NOT AVAILABLE,Y,N
29785,10579703,FAITH BAPTIST CHURCH,INDIANAPOLIS,IN,46236,8334,MARION,18097,2009-04-15T00:00:00.000Z,ALT REF,2009-06-01T00:00:00.000Z,CHURCHES,19465392,-85.980057,39.8633933,CHRISTIAN,BAPT,NOT AVAILABLE,NOT AVAILABLE,Y,N
29787,10438995,THE CHURCH OF JESUS CHRIST OF LATTER DAY SAINTS - CUMBERLAND WARD,INDIANAPOLIS,IN,46229,NULL,MARION,18097,2007-10-15T00:00:00.000Z,ALT REF,2007-10-15T00:00:00.000Z,CHURCHES,19473003,-85.9676301,39.8124468,CHRISTIAN,LDS,NOT AVAILABLE,NOT AVAILABLE,Y,N
29788,10439326,THE CHURCH OF JESUS CHRIST OF LATTER DAY SAINTS - WHITE RIVER 1ST WARD,INDIANAPOLIS,IN,46222,4401,MARION,18097,2007-10-15T00:00:00.000Z,ALT REF,2007-10-15T00:00:00.000Z,CHURCHES,19481654,-86.1858796,39.7691365,CHRISTIAN,LDS,NOT AVAILABLE,NOT AVAILABLE,Y,N
29789,10439372,THE CHURCH OF JESUS CHRIST OF LATTER DAY SAINTS - INDIANAPOLIS 4TH (YOUNG SINGLE ADULT) BRANCH,INDIANAPOLIS,IN,46222,4401,MARION,18097,2007-10-15T00:00:00.000Z,ALT REF,2007-10-15T00:00:00.000Z,CHURCHES,19481654,-86.1858796,39.7691394,CHRISTIAN,LDS,NOT AVAILABLE,NOT AVAILABLE,Y,N
29792,10439790,THE CHURCH OF JESUS CHRIST OF LATTER DAY SAINTS - WHITE RIVER 2ND (SPANISH) BRANCH,INDIANAPOLIS,IN,46222,4401,MARION,18097,2007-10-15T00:00:00.000Z,ALT REF,2007-10-15T00:00:00.000Z,CHURCHES,19481785,-86.1858718,39.7691391,CHRISTIAN,LDS,NOT AVAILABLE,NOT AVAILABLE,Y,N
29793,10439808,THE CHURCH OF JESUS CHRIST OF LATTER DAY SAINTS - INDIANAPOLIS 2ND WARD,INDIANAPOLIS,IN,46229,NULL,MARION,18097,2007-10-15T00:00:00.000Z,ALT REF,2007-10-15T00:00:00.000Z,CHURCHES,19473003,-85.9676301,39.8124468,CHRISTIAN,LDS,NOT AVAILABLE,NOT AVAILABLE,Y,N
29796,10439855,THE CHURCH OF JESUS CHRIST OF LATTER DAY SAINTS - INDIANAPOLIS 1ST WARD,INDIANAPOLIS,IN,46227,2547,MARION,18097,2007-10-16T00:00:00.000Z,ALT REF,2007-10-16T00:00:00.000Z,CHURCHES,19513924,-86.1428413,39.6504329,CHRISTIAN,LDS,NOT AVAILABLE,NOT AVAILABLE,Y,N
29797,10439856,THE CHURCH OF JESUS CHRIST OF LATTER DAY SAINTS - INDIANAPOLIS 3RD WARD,INDIANAPOLIS,IN,46227,2547,MARION,18097,2007-10-16T00:00:00.000Z,ALT REF,2007-10-16T00:00:00.000Z,CHURCHES,19513924,-86.1428364,39.6504422,CHRISTIAN,LDS,NOT AVAILABLE,NOT AVAILABLE,Y,N
29801,10440173,CHURCH OF THE NATIVITY,INDIANAPOLIS,IN,46256,2118,MARION,18097,2007-11-07T00:00:00.000Z,ALT REF,2007-11-07T00:00:00.000Z,CHURCHES,19503852,-86.0149259,39.8860135,CHRISTIAN,EPIS,NOT AVAILABLE,NOT AVAILABLE,Y,N
29804,10440783,CHRIST CHURCH CATHEDRAL,INDIANAPOLIS,IN,46204,2921,MARION,18097,2007-11-07T00:00:00.000Z,ALT REF,2007-11-07T00:00:00.000Z,CHURCHES,19481845,-86.1576257,39.7693508,CHRISTIAN,EPIS,NOT AVAILABLE,NOT AVAILABLE,Y,N
29805,10440785,EPISCOPAL CHURCH OF ALL SAINTS,INDIANAPOLIS,IN,46202,2606,MARION,18097,2007-11-07T00:00:00.000Z,ALT REF,2007-11-07T00:00:00.000Z,CHURCHES,19477537,-86.1490345,39.7881192,CHRISTIAN,EPIS,NOT AVAILABLE,NOT AVAILABLE,Y,N
29810,10431508,DANIEL MOHAMMED ISLAMIC CENTER,INDIANAPOLIS,IN,46205,1473,MARION,18097,2009-04-06T00:00:00.000Z,ALT REF,2009-04-06T00:00:00.000Z,"MOSQUES, RELIGIOUS",19468191,-86.1261028,39.8403951,MUSLIM,NOT AVAILABLE,NOT AVAILABLE,NOT AVAILABLE,N,N
29818,10761148,ZION EVANGELICAL UNITED CHURCH OF CHRIST,INDIANAPOLIS,IN,46202,3324,MARION,18097,2009-04-03T00:00:00.000Z,ALT REF,2009-04-03T00:00:00.000Z,CHURCHES,19480270,-86.1500716,39.7755776,CHRISTIAN,UCC,590,NOT AVAILABLE,Y,N
29823,10443461,GOOD SHEPHERD CATHOLIC CHURCH,INDIANAPOLIS,IN,46203,5216,MARION,18097,2007-10-01T00:00:00.000Z,ALT REF,2007-10-01T00:00:00.000Z,CHURCHES,19515057,-86.1384199,39.7249031,CHRISTIAN,NOT AVAILABLE,NOT AVAILABLE,NOT AVAILABLE,N,Y
29824,10444619,CHRIST THE KING ROMAN CATHOLIC CHURCH,INDIANAPOLIS,IN,46220,2437,MARION,18097,2007-10-01T00:00:00.000Z,ALT REF,2007-10-01T00:00:00.000Z,CHURCHES,19465428,-86.1287923,39.8618586,CHRISTIAN,NOT AVAILABLE,NOT AVAILABLE,NOT AVAILABLE,N,Y
29825,10444621,OUR LADY OF THE MOST HOLY ROSARY CHURCH,INDIANAPOLIS,IN,46203,1737,MARION,18097,2007-10-01T00:00:00.000Z,ALT REF,2007-10-01T00:00:00.000Z,CHURCHES,19483696,-86.1488009,39.7581477,CHRISTIAN,NOT AVAILABLE,NOT AVAILABLE,NOT AVAILABLE,N,Y
29826,10444622,HOLY SPIRIT CATHOLIC CHURCH,INDIANAPOLIS,IN,46219,4957,MARION,18097,2007-10-01T00:00:00.000Z,ALT REF,2007-10-01T00:00:00.000Z,CHURCHES,19478812,-86.0377679,39.781287,CHRISTIAN,NOT AVAILABLE,NOT AVAILABLE,NOT AVAILABLE,N,Y
29827,10444624,IMMACULATE HEART OF MARY CHURCH,INDIANAPOLIS,IN,46220,3012,MARION,18097,2007-09-28T00:00:00.000Z,ALT REF,2007-09-28T00:00:00.000Z,CHURCHES,19466396,-86.1506848,39.8569144,CHRISTIAN,NOT AVAILABLE,NOT AVAILABLE,NOT AVAILABLE,N,Y
29828,10444625,CHURCH OF THE NATIVITY OF OUR LORD JESUS CHRIST,INDIANAPOLIS,IN,46239,1209,MARION,18097,2007-09-28T00:00:00.000Z,ALT REF,2007-09-28T00:00:00.000Z,CHURCHES,19486281,-86.0393191,39.7205805,CHRISTIAN,NOT AVAILABLE,NOT AVAILABLE,NOT AVAILABLE,N,Y
29829,10444627,SACRED HEART OF JESUS CATHOLIC CHURCH,INDIANAPOLIS,IN,46225,1672,MARION,18097,2007-09-28T00:00:00.000Z,ALT REF,2007-09-28T00:00:00.000Z,CHURCHES,19508943,-86.1578244,39.7467663,CHRISTIAN,NOT AVAILABLE,NOT AVAILABLE,NOT AVAILABLE,N,Y
29830,10444634,SAINT LUKE CATHOLIC CHURCH,INDIANAPOLIS,IN,46260,3613,MARION,18097,2007-09-28T00:00:00.000Z,ALT REF,2007-09-28T00:00:00.000Z,CHURCHES,19503078,-86.160859,39.8921271,CHRISTIAN,NOT AVAILABLE,NOT AVAILABLE,NOT AVAILABLE,N,Y
29831,10444635,SAINT MARK THE EVANGELIST CATHOLIC CHURCH,INDIANAPOLIS,IN,46227,2031,MARION,18097,2007-09-28T00:00:00.000Z,ALT REF,2007-09-28T00:00:00.000Z,CHURCHES,19512945,-86.1481043,39.6783873,CHRISTIAN,NOT AVAILABLE,NOT AVAILABLE,NOT AVAILABLE,N,Y
29832,10445057,SAINT PATRICK CHURCH,INDIANAPOLIS,IN,46203,1810,MARION,18097,2007-09-28T00:00:00.000Z,ALT REF,2007-09-28T00:00:00.000Z,CHURCHES,19484588,-86.1417739,39.7527785,CHRISTIAN,NOT AVAILABLE,NOT AVAILABLE,NOT AVAILABLE,N,Y
29834,10586955,WESTVIEW BAPTIST CHURCH,INDIANAPOLIS,IN,46221,1123,MARION,18097,2009-04-07T00:00:00.000Z,ALT REF,2009-04-07T00:00:00.000Z,CHURCHES,19484584,-86.1965276,39.7517261,CHRISTIAN,ABC,NOT AVAILABLE,NOT AVAILABLE,Y,N
29867,10452557,ANTIOCH MISSIONARY BAPTIST CHURCH,INDIANAPOLIS,IN,46205,3851,MARION,18097,2008-03-05T00:00:00.000Z,ALT REF,2008-03-05T00:00:00.000Z,CHURCHES,19472688,-86.1445401,39.8143402,CHRISTIAN,NBC,NOT AVAILABLE,NOT AVAILABLE,Y,N
29869,10454455,COMMUNITY BAPTIST CHURCH,INDIANAPOLIS,IN,46208,5324,MARION,18097,2008-03-05T00:00:00.000Z,ALT REF,2008-03-05T00:00:00.000Z,CHURCHES,19474228,-86.1847543,39.8047404,CHRISTIAN,NBC,NOT AVAILABLE,NOT AVAILABLE,Y,N
29870,10457538,COPPIN CHAPEL AFRICAN METHODIST EPISCOPAL CHURCH,INDIANAPOLIS,IN,46208,4612,MARION,18097,2008-03-05T00:00:00.000Z,ALT REF,2008-03-05T00:00:00.000Z,CHURCHES,19472734,-86.1612512,39.8138565,CHRISTIAN,AME,NOT AVAILABLE,NOT AVAILABLE,Y,N
29872,10454064,GREATER JOSHUA MISSIONARY BAPTIST CHURCH,INDIANAPOLIS,IN,46218,3430,MARION,18097,2008-03-05T00:00:00.000Z,ALT REF,2008-03-05T00:00:00.000Z,CHURCHES,19475393,-86.1340808,39.7978703,CHRISTIAN,NBC,NOT AVAILABLE,NOT AVAILABLE,Y,N
29874,10452558,MOUNT GERIZIM BAPTIST CHURCH,INDIANAPOLIS,IN,46235,1672,MARION,18097,2008-03-05T00:00:00.000Z,ALT REF,2008-03-05T00:00:00.000Z,CHURCHES,19469267,-85.9971678,39.8340377,CHRISTIAN,NBC,NOT AVAILABLE,NOT AVAILABLE,Y,N
29875,10455425,MOUNT HELM MISSIONARY BAPTIST CHURCH,INDIANAPOLIS,IN,46202,1715,MARION,18097,2008-03-05T00:00:00.000Z,ALT REF,2008-03-05T00:00:00.000Z,CHURCHES,19477316,-86.1451531,39.7892188,CHRISTIAN,NBC,NOT AVAILABLE,NOT AVAILABLE,Y,N
29876,10455280,NEW GARFIELD BAPTIST CHURCH,INDIANAPOLIS,IN,46203,3014,MARION,18097,2008-03-05T00:00:00.000Z,ALT REF,2008-03-05T00:00:00.000Z,CHURCHES,19485132,-86.1143109,39.7453883,CHRISTIAN,NBC,NOT AVAILABLE,NOT AVAILABLE,Y,N
29880,10457599,PROVIDENCE AFRICAN METHODIST EPISCOPAL CHURCH,INDIANAPOLIS,IN,46208,5449,MARION,18097,2008-03-05T00:00:00.000Z,ALT REF,2008-03-05T00:00:00.000Z,CHURCHES,19474839,-86.1778696,39.8011889,CHRISTIAN,AME,NOT AVAILABLE,NOT AVAILABLE,Y,N
29881,10453605,GREATER SAINT JAMES BAPTIST CHURCH,INDIANAPOLIS,IN,46203,1463,MARION,18097,2008-03-05T00:00:00.000Z,ALT REF,2008-03-10T00:00:00.000Z,CHURCHES,19484256,-86.1232814,39.7549643,CHRISTIAN,NBC,NOT AVAILABLE,NOT AVAILABLE,Y,N
29882,10586667,ACTON BAPTIST CHURCH,INDIANAPOLIS,IN,46259,1511,MARION,18097,2009-04-01T00:00:00.000Z,ALT REF,2009-04-01T00:00:00.000Z,CHURCHES,19488580,-85.9695102,39.6533035,CHRISTIAN,ABC,NOT AVAILABLE,NOT AVAILABLE,Y,N
29883,10761452,BEN DAVIS CHRISTIAN CHURCH,INDIANAPOLIS,IN,46241,1121,MARION,18097,2009-04-02T00:00:00.000Z,ALT REF,2009-04-02T00:00:00.000Z,CHURCHES,19508357,-86.2685763,39.7550371,CHRISTIAN,CHRISTIAN,NOT AVAILABLE,NOT AVAILABLE,Y,N
29886,10442338,SAINT BERNADETTE CATHOLIC CHURCH,INDIANAPOLIS,IN,46203,1642,MARION,18097,2009-04-09T00:00:00.000Z,ALT REF,2009-04-01T00:00:00.000Z,CHURCHES,19483639,-86.086126,39.7593305,CHRISTIAN,NOT AVAILABLE,NOT AVAILABLE,NOT AVAILABLE,N,Y
29890,10431727,MASJID AL-FAJR,INDIANAPOLIS,IN,46222,2200,MARION,18097,2009-04-06T00:00:00.000Z,ALT REF,2009-04-06T00:00:00.000Z,"MOSQUES, RELIGIOUS",19474009,-86.2036269,39.8073881,MUSLIM,NOT AVAILABLE,NOT AVAILABLE,NOT AVAILABLE,N,N
29892,10760182,TRINITY LUTHERAN CHURCH,INDIANAPOLIS,IN,46219,2503,MARION,18097,2009-04-02T00:00:00.000Z,ALT REF,2009-04-02T00:00:00.000Z,CHURCHES,19477140,-86.0165128,39.7900862,CHRISTIAN,LCMS,NOT AVAILABLE,NOT AVAILABLE,Y,N
29900,10440126,THE CHURCH OF JESUS CHRIST OF LATTER DAY SAINTS - EAGLE CREEK WARD,INDIANAPOLIS,IN,46234,3136,HENDRICKS,18063,2007-10-16T00:00:00.000Z,ALT REF,2007-10-16T00:00:00.000Z,CHURCHES,130089655,-86.3370884,39.8523787,CHRISTIAN,LDS,NOT AVAILABLE,NOT AVAILABLE,Y,N
29901,10438775,THE CHURCH OF JESUS CHRIST OF LATTER DAY SAINTS - BROWNSBURG WARD,INDIANAPOLIS,IN,46234,3136,HENDRICKS,18063,2007-10-16T00:00:00.000Z,ALT REF,2007-10-16T00:00:00.000Z,CHURCHES,130089655,-86.3371236,39.852377,CHRISTIAN,LDS,NOT AVAILABLE,NOT AVAILABLE,Y,N
29905,10460653,REDEEMER PRESBYTERIAN CHURCH,INDIANAPOLIS,IN,46202,4466,MARION,18097,2008-03-05T00:00:00.000Z,ALT REF,2008-03-05T00:00:00.000Z,CHURCHES,19515956,-86.1535842,39.7877646,CHRISTIAN,PCA,NOT AVAILABLE,NOT AVAILABLE,Y,N
29906,10454211,NEW BAPTIST CHURCH,INDIANAPOLIS,IN,46202,2222,MARION,18097,2008-03-05T00:00:00.000Z,ALT REF,2008-03-05T00:00:00.000Z,CHURCHES,19478304,-86.1679843,39.7840424,CHRISTIAN,NBC,NOT AVAILABLE,NOT AVAILABLE,Y,N
29907,10452369,EDEN MISSIONARY BAPTIST CHURCH,INDIANAPOLIS,IN,46222,3663,MARION,18097,2008-03-05T00:00:00.000Z,ALT REF,2008-03-05T00:00:00.000Z,CHURCHES,19479924,-86.2060102,39.7774361,CHRISTIAN,NBC,NOT AVAILABLE,NOT AVAILABLE,Y,N
29918,10439852,THE CHURCH OF JESUS CHRIST OF LATTER DAY SAINTS - BEECH GROVE WARD,INDIANAPOLIS,IN,46201,2854,MARION,18097,2007-10-15T00:00:00.000Z,ALT REF,2007-10-15T00:00:00.000Z,CHURCHES,19479212,-86.0892374,39.7810235,CHRISTIAN,LDS,NOT AVAILABLE,NOT AVAILABLE,Y,N
29928,10438623,THE CHURCH OF JESUS CHRIST OF LATTER DAY SAINTS - CROSSROADS WARD,INDIANAPOLIS,IN,46201,2854,MARION,18097,2007-10-16T00:00:00.000Z,ALT REF,2007-10-16T00:00:00.000Z,CHURCHES,19479212,-86.0892373,39.781019,CHRISTIAN,LDS,NOT AVAILABLE,NOT AVAILABLE,Y,N
29934,10454561,SOUTH CALVARY BAPTIST CHURCH,INDIANAPOLIS,IN,46225,1414,MARION,18097,2008-03-05T00:00:00.000Z,ALT REF,2008-03-05T00:00:00.000Z,CHURCHES,19484642,-86.1615879,39.7519562,CHRISTIAN,NBC,NOT AVAILABLE,NOT AVAILABLE,Y,N
29957,10440788,SAINT PHILIP'S EPISCOPAL CHURCH,INDIANAPOLIS,IN,46202,3116,MARION,18097,2007-11-07T00:00:00.000Z,ALT REF,2007-11-07T00:00:00.000Z,CHURCHES,27671062,-86.1675058,39.7770459,CHRISTIAN,EPIS,NOT AVAILABLE,NOT AVAILABLE,Y,N
29963,10762699,CASTLETON UNITED METHODIST CHURCH,INDIANAPOLIS,IN,46256,3915,MARION,18097,2009-04-02T00:00:00.000Z,ALT REF,2009-04-02T00:00:00.000Z,CHURCHES,19503942,-86.0430424,39.8843111,CHRISTIAN,UMC,NOT AVAILABLE,NOT AVAILABLE,Y,N
29975,10444633,SAINT LAWRENCE CATHOLIC CHURCH,INDIANAPOLIS,IN,46226,2627,MARION,18097,2009-03-31T00:00:00.000Z,ALT REF,2009-04-09T00:00:00.000Z,CHURCHES,125159237,-86.0465875,39.8423638,CHRISTIAN,NOT AVAILABLE,NOT AVAILABLE,NOT AVAILABLE,N,Y
29984,10448445,SAINT JOSEPH CATHOLIC CHURCH,INDIANAPOLIS,IN,46241,3219,MARION,18097,2009-03-27T00:00:00.000Z,ALT REF,2009-03-27T00:00:00.000Z,CHURCHES,19508973,-86.2594257,39.7469303,CHRISTIAN,NOT AVAILABLE,NOT AVAILABLE,NOT AVAILABLE,N,Y
29994,10454934,SAINT LUKE MISSIONARY BAPTIST CHURCH,INDIANAPOLIS,IN,46218,3219,MARION,18097,2009-04-06T00:00:00.000Z,ALT REF,2009-04-06T00:00:00.000Z,CHURCHES,16889825,-86.076452,39.8104144,CHRISTIAN,NBC,NOT AVAILABLE,NOT AVAILABLE,Y,N
29996,10460646,EUNHYE KOREAN PRESBYTERIAN CHURCH,INDIANAPOLIS,IN,46220,5601,MARION,18097,2009-04-06T00:00:00.000Z,ALT REF,2009-04-06T00:00:00.000Z,CHURCHES,19467181,-86.1014641,39.8488323,CHRISTIAN,PCA,NOT AVAILABLE,NOT AVAILABLE,Y,N