OBJECTID,ID,NAME,CITY,STATE,ZIP,ZIPP4,COUNTY,FIPS,CONTDATE,CONTHOW,GEODATE,NAICSDESCR,GEOLINKID,X,Y,SUBTYPE,DENOM,MEMBERS,LOC_TYPE,PROT,CATH
13704,10584819,BIBLE BAPTIST CHURCH,JACKSONVILLE,AR,72076,1807,PULASKI,5119,2008-11-03T00:00:00.000Z,ALT REF,2008-11-03T00:00:00.000Z,CHURCHES,708958028,-92.1018146,34.8953385,CHRISTIAN,BAPT,NOT AVAILABLE,NOT AVAILABLE,Y,N
13705,10434814,JACKSONVILLE SECOND BAPTIST CHURCH,JACKSONVILLE,AR,72076,3119,PULASKI,5119,2008-11-03T00:00:00.000Z,ALT REF,2008-11-03T00:00:00.000Z,CHURCHES,18108780,-92.1179112,34.8774973,CHRISTIAN,SBC,1293,NOT AVAILABLE,Y,N
13788,10577193,JACKSONVILLE BAPTIST TEMPLE,JACKSONVILLE,AR,72076,3700,PULASKI,5119,2008-10-28T00:00:00.000Z,ALT REF,2008-10-28T00:00:00.000Z,CHURCHES,99942350,-92.1287333,34.8721883,CHRISTIAN,BAPT,NOT AVAILABLE,NOT AVAILABLE,Y,N
13847,10434408,BAYOU METO BAPTIST CHURCH,JACKSONVILLE,AR,72076,NULL,PULASKI,5119,2007-09-18T00:00:00.000Z,ALT REF,2007-09-18T00:00:00.000Z,CHURCHES,100577564,-92.1569603,34.948649,CHRISTIAN,SBC,884,NOT AVAILABLE,Y,N
13858,10434919,GRAVEL RIDGE FIRST BAPTIST CHURCH,JACKSONVILLE,AR,72076,NULL,PULASKI,5119,2007-09-18T00:00:00.000Z,ALT REF,2007-09-18T00:00:00.000Z,CHURCHES,100557819,-92.1968111,34.8673307,CHRISTIAN,SBC,1257,NOT AVAILABLE,Y,N
806,10432712,APPLEGATE CHRISTIAN FELLOWSHIP,JACKSONVILLE,OR,97530,NULL,JACKSON,41029,2007-09-10T00:00:00.000Z,ALT REF,2007-09-10T00:00:00.000Z,CHURCHES,87450606,-123.039844,42.2391498,CHRISTIAN,CAL,NOT AVAILABLE,NOT AVAILABLE,Y,N
14425,10441786,OUR LADY OF SORROWS CHURCH,JACKSONVILLE,TX,75766,3267,CHEROKEE,48073,2007-08-29T00:00:00.000Z,ALT REF,2007-08-29T00:00:00.000Z,CHURCHES,122222899,-95.2562523,31.950668,CHRISTIAN,NOT AVAILABLE,NOT AVAILABLE,NOT AVAILABLE,N,Y
14833,10581015,EMMANUEL BAPTIST CHURCH,JACKSONVILLE,TX,75766,4008,CHEROKEE,48073,2009-05-18T00:00:00.000Z,ALT REF,2009-05-18T00:00:00.000Z,CHURCHES,108433761,-95.2755858,31.9848859,CHRISTIAN,BAPT,NOT AVAILABLE,NOT AVAILABLE,Y,N
14834,10577154,TABERNACLE BAPTIST CHURCH,JACKSONVILLE,TX,75766,3208,CHEROKEE,48073,2009-05-18T00:00:00.000Z,ALT REF,2009-05-18T00:00:00.000Z,CHURCHES,108434899,-95.2478777,31.9498109,CHRISTIAN,BAPT,NOT AVAILABLE,NOT AVAILABLE,Y,N
14835,10434584,CENTRAL BAPTIST CHURCH,JACKSONVILLE,TX,75766,9057,CHEROKEE,48073,2009-05-18T00:00:00.000Z,ALT REF,2009-05-18T00:00:00.000Z,CHURCHES,108459146,-95.2354472,31.9685272,CHRISTIAN,SBC,2197,NOT AVAILABLE,Y,N
19144,10584920,PROFILE BAPTIST CHURCH,JACKSONVILLE,AL,36265,2415,CALHOUN,1015,2008-10-28T00:00:00.000Z,ALT REF,2008-10-28T00:00:00.000Z,CHURCHES,105312885,-85.7700171,33.8118945,CHRISTIAN,BAPT,NOT AVAILABLE,NOT AVAILABLE,Y,N
19166,10453285,BETHEL BAPTIST CHURCH,JACKSONVILLE,AL,36265,5967,CALHOUN,1015,2008-10-14T00:00:00.000Z,ALT REF,2008-10-14T00:00:00.000Z,CHURCHES,105312264,-85.8638825,33.782552,CHRISTIAN,NBC,NOT AVAILABLE,NOT AVAILABLE,Y,N
19180,10436945,FIRST BAPTIST CHURCH,JACKSONVILLE,AL,36265,1626,CALHOUN,1015,2008-10-13T00:00:00.000Z,ALT REF,2008-10-14T00:00:00.000Z,CHURCHES,105313261,-85.7591502,33.8247696,CHRISTIAN,SBC,1246,NOT AVAILABLE,Y,N
19320,10584921,GRACE TABERNACLE BAPTIST CHURCH,JACKSONVILLE,AL,36265,8680,CALHOUN,1015,2008-11-14T00:00:00.000Z,ALT REF,2008-11-14T00:00:00.000Z,CHURCHES,105051958,-85.7017563,33.8035345,CHRISTIAN,BAPT,NOT AVAILABLE,NOT AVAILABLE,Y,N
22792,10457491,BETHEL AFRICAN METHODIST EPISCOPAL CHURCH,JACKSONVILLE,IL,62650,1417,MORGAN,17137,2008-03-06T00:00:00.000Z,ALT REF,2008-03-06T00:00:00.000Z,CHURCHES,95448132,-90.2247423,39.7431858,CHRISTIAN,AME,NOT AVAILABLE,NOT AVAILABLE,Y,N
21526,10458102,MOUNT DOLLAWAY AFRICAN METHODIST EPISCOPAL CHURCH,JACKSONVILLE,GA,31544,NULL,TELFAIR,13271,2008-02-28T00:00:00.000Z,ALT REF,2008-02-28T00:00:00.000Z,CHURCHES,122158740,-82.9540118,31.8357483,CHRISTIAN,AME,NOT AVAILABLE,NOT AVAILABLE,Y,N
21560,10437455,CLAY HILL BAPTIST CHURCH,JACKSONVILLE,FL,32234,3441,CLAY,12019,2007-09-18T00:00:00.000Z,ALT REF,2007-09-18T00:00:00.000Z,CHURCHES,134873782,-81.9984118,30.1260429,CHRISTIAN,SBC,760,NOT AVAILABLE,Y,N
23509,10761430,FIRST CHRISTIAN CHURCH,JACKSONVILLE,IL,62650,3226,MORGAN,17137,2009-04-09T00:00:00.000Z,ALT REF,2009-04-09T00:00:00.000Z,CHURCHES,95453327,-90.2375635,39.7091689,CHRISTIAN,CHRISTIAN,NOT AVAILABLE,NOT AVAILABLE,Y,N
23532,10586538,FIRST BAPTIST CHURCH,JACKSONVILLE,IL,62650,2259,MORGAN,17137,2009-04-09T00:00:00.000Z,ALT REF,2009-04-09T00:00:00.000Z,CHURCHES,95450510,-90.2578403,39.729922,CHRISTIAN,ABC,NOT AVAILABLE,NOT AVAILABLE,Y,N
47014,10460415,CROSS CREEK PRESBYTERIAN CHURCH,JACKSONVILLE,FL,32259,8334,ST JOHNS,12109,2009-03-16T00:00:00.000Z,ALT REF,2009-03-16T00:00:00.000Z,CHURCHES,113380111,-81.6564038,30.0646114,CHRISTIAN,PCA,NOT AVAILABLE,NOT AVAILABLE,Y,N
47263,10579926,FELLOWSHIP BAPTIST CHURCH,JACKSONVILLE,NC,28546,8214,ONSLOW,37133,2009-04-28T00:00:00.000Z,ALT REF,2009-04-28T00:00:00.000Z,CHURCHES,125069423,-77.3598002,34.7401201,CHRISTIAN,BAPT,NOT AVAILABLE,NOT AVAILABLE,Y,N
47264,10582624,CALVARY BAPTIST CHURCH,JACKSONVILLE,NC,28540,6127,ONSLOW,37133,2009-04-29T00:00:00.000Z,ALT REF,2009-04-29T00:00:00.000Z,CHURCHES,102735488,-77.4112473,34.7669065,CHRISTIAN,BAPT,NOT AVAILABLE,NOT AVAILABLE,Y,N
47265,10578296,BETHEL MISSIONARY BAPTIST CHURCH,JACKSONVILLE,NC,28540,8723,ONSLOW,37133,2009-04-29T00:00:00.000Z,ALT REF,2009-04-29T00:00:00.000Z,CHURCHES,102728462,-77.5207377,34.8280477,CHRISTIAN,BAPT,NOT AVAILABLE,NOT AVAILABLE,Y,N
47273,10582626,BIBLE BAPTIST CHURCH,JACKSONVILLE,NC,28546,9247,ONSLOW,37133,2009-04-28T00:00:00.000Z,ALT REF,2009-04-28T00:00:00.000Z,CHURCHES,102726454,-77.4695284,34.8472116,CHRISTIAN,BAPT,NOT AVAILABLE,NOT AVAILABLE,Y,N
47274,10582623,MARANATHA BAPTIST CHURCH,JACKSONVILLE,NC,28546,5811,ONSLOW,37133,2009-04-29T00:00:00.000Z,ALT REF,2009-04-29T00:00:00.000Z,CHURCHES,102733115,-77.413668,34.7807328,CHRISTIAN,BAPT,NOT AVAILABLE,NOT AVAILABLE,Y,N
47281,10582625,AMAZING GRACE BAPTIST CHURCH,JACKSONVILLE,NC,28546,6725,ONSLOW,37133,2009-04-29T00:00:00.000Z,ALT REF,2009-04-29T00:00:00.000Z,CHURCHES,127903257,-77.3844651,34.7547376,CHRISTIAN,BAPT,NOT AVAILABLE,NOT AVAILABLE,Y,N
47293,10575478,SAINT JULIA AFRICAN METHODIST EPISCOPAL ZION CHURCH,JACKSONVILLE,NC,28540,8113,ONSLOW,37133,2009-04-29T00:00:00.000Z,ALT REF,2009-04-29T00:00:00.000Z,CHURCHES,127904463,-77.4334738,34.7471451,CHRISTIAN,AMEZ,NOT AVAILABLE,NOT AVAILABLE,Y,N
47294,10579959,GRACE BAPTIST CHURCH,JACKSONVILLE,NC,28540,6524,ONSLOW,37133,2009-04-29T00:00:00.000Z,ALT REF,2009-04-29T00:00:00.000Z,CHURCHES,102736503,-77.4190327,34.7597201,CHRISTIAN,BAPT,NOT AVAILABLE,NOT AVAILABLE,Y,N
47298,10578902,TEMPLE BAPTIST CHURCH,JACKSONVILLE,NC,28540,4808,ONSLOW,37133,2009-04-29T00:00:00.000Z,ALT REF,2009-04-29T00:00:00.000Z,CHURCHES,102737590,-77.4294469,34.7526084,CHRISTIAN,BAPT,NOT AVAILABLE,NOT AVAILABLE,Y,N
47299,10433541,MIDVILLE BAPTIST CHURCH,JACKSONVILLE,NC,28546,8213,ONSLOW,37133,2009-04-27T00:00:00.000Z,ALT REF,2009-04-27T00:00:00.000Z,CHURCHES,127905822,-77.3583406,34.7395608,CHRISTIAN,SBC,1038,NOT AVAILABLE,Y,N
47300,10436643,BETHLEHEM BAPTIST CHURCH,JACKSONVILLE,NC,28546,9222,ONSLOW,37133,2009-04-27T00:00:00.000Z,ALT REF,2009-04-27T00:00:00.000Z,CHURCHES,127900020,-77.4599381,34.8311389,CHRISTIAN,SBC,1057,NOT AVAILABLE,Y,N
47301,10580311,COASTLINE BAPTIST CHURCH,JACKSONVILLE,NC,28546,9305,ONSLOW,37133,2009-04-27T00:00:00.000Z,ALT REF,2009-04-27T00:00:00.000Z,CHURCHES,116048522,-77.3727933,34.7925635,CHRISTIAN,BAPT,NOT AVAILABLE,NOT AVAILABLE,Y,N
47330,10434952,FIRST BAPTIST CHURCH OF JACKSONVILLE,JACKSONVILLE,NC,28540,4531,ONSLOW,37133,2009-04-28T00:00:00.000Z,ALT REF,2009-04-28T00:00:00.000Z,CHURCHES,127900773,-77.436025,34.7922893,CHRISTIAN,SBC,1893,NOT AVAILABLE,Y,N
47331,10437194,BROOKWOOD BAPTIST CHURCH,JACKSONVILLE,NC,28540,7421,ONSLOW,37133,2009-04-27T00:00:00.000Z,ALT REF,2009-04-27T00:00:00.000Z,CHURCHES,102393993,-77.427376,34.7782703,CHRISTIAN,SBC,882,NOT AVAILABLE,Y,N
47611,10442856,HOLY ROSARY CHURCH,JACKSONVILLE,FL,32206,6151,DUVAL,12031,2009-03-10T00:00:00.000Z,ALT REF,2009-03-10T00:00:00.000Z,CHURCHES,127623175,-81.6623032,30.3689107,CHRISTIAN,NOT AVAILABLE,NOT AVAILABLE,NOT AVAILABLE,N,Y
47613,10442229,PRINCE OF PEACE CHURCH,JACKSONVILLE,FL,32216,5033,DUVAL,12031,2009-03-10T00:00:00.000Z,ALT REF,2009-03-10T00:00:00.000Z,CHURCHES,23064950,-81.5975162,30.2801975,CHRISTIAN,NOT AVAILABLE,NOT AVAILABLE,NOT AVAILABLE,N,Y
46001,10434572,DEERMEADOWS BAPTIST CHURCH,JACKSONVILLE,FL,32256,7985,DUVAL,12031,2007-11-08T00:00:00.000Z,ALT REF,2007-11-08T00:00:00.000Z,CHURCHES,17001268,-81.5566763,30.2187829,CHRISTIAN,SBC,1776,NOT AVAILABLE,Y,N
46002,10434598,MACEDONIA BAPTIST CHURCH,JACKSONVILLE,FL,32221,6628,DUVAL,12031,2007-11-08T00:00:00.000Z,ALT REF,2007-11-08T00:00:00.000Z,CHURCHES,23057469,-81.7834231,30.3012611,CHRISTIAN,SBC,952,NOT AVAILABLE,Y,N
46003,10434638,FORT CAROLINE BAPTIST CHURCH,JACKSONVILLE,FL,32225,1829,DUVAL,12031,2007-11-09T00:00:00.000Z,ALT REF,2007-11-09T00:00:00.000Z,CHURCHES,23064019,-81.5111974,30.3578678,CHRISTIAN,SBC,1425,NOT AVAILABLE,Y,N
46004,10434749,THE FIRST BAPTIST CHURCH OF MANDARIN,JACKSONVILLE,FL,32223,2055,DUVAL,12031,2007-11-09T00:00:00.000Z,ALT REF,2007-11-09T00:00:00.000Z,CHURCHES,127623317,-81.6045714,30.1586977,CHRISTIAN,SBC,3000,NOT AVAILABLE,Y,N
46009,10434812,PARKWOOD BAPTIST CHURCH,JACKSONVILLE,FL,32211,6003,DUVAL,12031,2007-11-09T00:00:00.000Z,ALT REF,2007-11-09T00:00:00.000Z,CHURCHES,23022813,-81.5762758,30.3370442,CHRISTIAN,SBC,2389,NOT AVAILABLE,Y,N
46013,10435252,DINSMORE BAPTIST CHURCH,JACKSONVILLE,FL,32219,2041,DUVAL,12031,2007-09-18T00:00:00.000Z,ALT REF,2007-09-18T00:00:00.000Z,CHURCHES,23015871,-81.7655579,30.4249836,CHRISTIAN,SBC,1088,NOT AVAILABLE,Y,N
46020,10435889,RIVERVIEW BAPTIST CHURCH,JACKSONVILLE,FL,32208,2291,DUVAL,12031,2007-11-09T00:00:00.000Z,ALT REF,2007-11-12T00:00:00.000Z,CHURCHES,127623209,-81.6872597,30.4082937,CHRISTIAN,SBC,982,NOT AVAILABLE,Y,N
46021,10435925,KERNAN BOULEVARD BAPTIST CHURCH,JACKSONVILLE,FL,32224,4631,DUVAL,12031,2007-11-09T00:00:00.000Z,ALT REF,2007-11-09T00:00:00.000Z,CHURCHES,127624756,-81.4946326,30.2787591,CHRISTIAN,SBC,2605,NOT AVAILABLE,Y,N
46024,10436214,WINGATE ROAD BAPTIST CHURCH,JACKSONVILLE,FL,32218,4552,DUVAL,12031,2007-11-09T00:00:00.000Z,ALT REF,2007-11-12T00:00:00.000Z,CHURCHES,23049667,-81.7103496,30.4367882,CHRISTIAN,SBC,850,NOT AVAILABLE,Y,N
46025,10436294,MANDARIN BAPTIST CHURCH,JACKSONVILLE,FL,32223,7218,DUVAL,12031,2007-11-09T00:00:00.000Z,ALT REF,2007-11-09T00:00:00.000Z,CHURCHES,23064324,-81.6303285,30.17058,CHRISTIAN,SBC,1003,NOT AVAILABLE,Y,N
46029,10436522,WESCONNETT BAPTIST CHURCH,JACKSONVILLE,FL,32244,1951,DUVAL,12031,2007-11-09T00:00:00.000Z,ALT REF,2007-11-09T00:00:00.000Z,CHURCHES,23052914,-81.737635,30.2442792,CHRISTIAN,SBC,1141,NOT AVAILABLE,Y,N
46030,10436730,TERRY PARKER BAPTIST CHURCH,JACKSONVILLE,FL,32277,2619,DUVAL,12031,2007-11-08T00:00:00.000Z,ALT REF,2007-11-08T00:00:00.000Z,CHURCHES,23019839,-81.5809599,30.3512087,CHRISTIAN,SBC,1276,NOT AVAILABLE,Y,N
46031,10436754,SOUTHSIDE BAPTIST CHURCH,JACKSONVILLE,FL,32207,3261,DUVAL,12031,2007-11-08T00:00:00.000Z,ALT REF,2007-11-08T00:00:00.000Z,CHURCHES,23031159,-81.6537607,30.30501,CHRISTIAN,SBC,1562,NOT AVAILABLE,Y,N
46032,10436843,OLD PLANK ROAD BAPTIST CHURCH,JACKSONVILLE,FL,32220,1439,DUVAL,12031,2007-11-08T00:00:00.000Z,ALT REF,2007-11-08T00:00:00.000Z,CHURCHES,23025709,-81.8028809,30.3302534,CHRISTIAN,SBC,1103,NOT AVAILABLE,Y,N
46034,10437044,SAINT JOHNS PARK BAPTIST CHURCH,JACKSONVILLE,FL,32210,2135,DUVAL,12031,2007-09-18T00:00:00.000Z,ALT REF,2007-09-18T00:00:00.000Z,CHURCHES,23034966,-81.7160695,30.2881332,CHRISTIAN,SBC,808,NOT AVAILABLE,Y,N
46035,10437086,HENDRICKS AVENUE BAPTIST CHURCH,JACKSONVILLE,FL,32207,6321,DUVAL,12031,2007-11-08T00:00:00.000Z,ALT REF,2007-11-08T00:00:00.000Z,CHURCHES,23036596,-81.6505411,30.2805555,CHRISTIAN,SBC,1530,NOT AVAILABLE,Y,N
46039,10437263,LAKE SHORE BAPTIST CHURCH,JACKSONVILLE,FL,32210,4161,DUVAL,12031,2007-11-08T00:00:00.000Z,ALT REF,2007-11-08T00:00:00.000Z,CHURCHES,127624224,-81.7302281,30.2754185,CHRISTIAN,SBC,1824,NOT AVAILABLE,Y,N
46040,10437511,HOGAN BAPTIST CHURCH,JACKSONVILLE,FL,32216,3120,DUVAL,12031,2007-11-09T00:00:00.000Z,ALT REF,2007-11-09T00:00:00.000Z,CHURCHES,23034992,-81.5777516,30.2857092,CHRISTIAN,SBC,1150,NOT AVAILABLE,Y,N
46041,10437576,FIRST TIMOTHY BAPTIST CHURCH,JACKSONVILLE,FL,32218,7691,DUVAL,12031,2007-11-09T00:00:00.000Z,ALT REF,2007-11-09T00:00:00.000Z,CHURCHES,23049168,-81.668616,30.4522683,CHRISTIAN,SBC,1250,NOT AVAILABLE,Y,N
46045,10437786,CROSSROAD UNITED METHODIST CHURCH,JACKSONVILLE,FL,32246,8203,DUVAL,12031,2007-09-24T00:00:00.000Z,ALT REF,2007-09-24T00:00:00.000Z,CHURCHES,122031851,-81.5410781,30.2590567,CHRISTIAN,UMC,NOT AVAILABLE,NOT AVAILABLE,Y,N
46054,10438277,NORTHSIDE CHURCH OF CHRIST,JACKSONVILLE,FL,32209,3023,DUVAL,12031,2007-10-10T00:00:00.000Z,ALT REF,2007-10-10T00:00:00.000Z,CHURCHES,23017626,-81.6996293,30.3652571,CHRISTIAN,COC,1900,NOT AVAILABLE,Y,N
46055,10438303,SAN JOSE CHURCH OF CHRIST,JACKSONVILLE,FL,32217,2334,DUVAL,12031,2007-10-10T00:00:00.000Z,ALT REF,2007-10-10T00:00:00.000Z,CHURCHES,23062878,-81.642583,30.2575683,CHRISTIAN,COC,1000,NOT AVAILABLE,Y,N
46056,10438327,WESTSIDE CHURCH OF CHRIST,JACKSONVILLE,FL,32206,3677,DUVAL,12031,2007-10-10T00:00:00.000Z,ALT REF,2007-10-10T00:00:00.000Z,CHURCHES,23021408,-81.6543544,30.3459818,CHRISTIAN,COC,800,NOT AVAILABLE,Y,N
46060,10438398,MANDARIN PRESBYTERIAN CHURCH - EAST CAMPUS,JACKSONVILLE,FL,32223,1337,DUVAL,12031,2007-10-10T00:00:00.000Z,ALT REF,2007-10-10T00:00:00.000Z,CHURCHES,23054504,-81.6439276,30.1669683,CHRISTIAN,PCUSA,1616,NOT AVAILABLE,Y,N
46065,10438480,THE CHURCH OF JESUS CHRIST OF LATTER DAY SAINTS - MANDARIN 1ST WARD,JACKSONVILLE,FL,32258,2125,DUVAL,12031,2007-10-15T00:00:00.000Z,ALT REF,2007-10-16T00:00:00.000Z,CHURCHES,23047353,-81.5937902,30.1574801,CHRISTIAN,LDS,NOT AVAILABLE,NOT AVAILABLE,Y,N
46067,10438749,THE CHURCH OF JESUS CHRIST OF LATTER DAY SAINTS - JACKSONVILLE BEACH WARD,JACKSONVILLE,FL,32266,3818,DUVAL,12031,2007-10-15T00:00:00.000Z,ALT REF,2007-10-15T00:00:00.000Z,CHURCHES,23026206,-81.4091742,30.3210994,CHRISTIAN,LDS,NOT AVAILABLE,NOT AVAILABLE,Y,N
46072,10439121,THE CHURCH OF JESUS CHRIST OF LATTER DAY SAINTS - WHITEHOUSE WARD,JACKSONVILLE,FL,32220,1768,DUVAL,12031,2007-10-16T00:00:00.000Z,ALT REF,2007-10-16T00:00:00.000Z,CHURCHES,121885098,-81.8493519,30.3321157,CHRISTIAN,LDS,NOT AVAILABLE,NOT AVAILABLE,Y,N
46074,10439278,THE CHURCH OF JESUS CHRIST OF LATTER DAY SAINTS - MANDARIN 2ND WARD,JACKSONVILLE,FL,32207,6321,DUVAL,12031,2007-10-15T00:00:00.000Z,ALT REF,2007-10-15T00:00:00.000Z,CHURCHES,23036596,-81.6499974,30.2786081,CHRISTIAN,LDS,NOT AVAILABLE,NOT AVAILABLE,Y,N
46075,10439291,THE CHURCH OF JESUS CHRIST OF LATTER DAY SAINTS - ARLINGTON WARD,JACKSONVILLE,FL,32277,2214,DUVAL,12031,2007-10-16T00:00:00.000Z,ALT REF,2007-10-16T00:00:00.000Z,CHURCHES,23016891,-81.5713136,30.3672293,CHRISTIAN,LDS,NOT AVAILABLE,NOT AVAILABLE,Y,N
46079,10439791,THE CHURCH OF JESUS CHRIST OF LATTER DAY SAINTS - NORMANDY WARD,JACKSONVILLE,FL,32210,6722,DUVAL,12031,2007-10-15T00:00:00.000Z,ALT REF,2007-10-15T00:00:00.000Z,CHURCHES,23040200,-81.7649111,30.2515897,CHRISTIAN,LDS,NOT AVAILABLE,NOT AVAILABLE,Y,N
46080,10439793,THE CHURCH OF JESUS CHRIST OF LATTER DAY SAINTS - SAN JOSE (SPANISH) BRANCH,JACKSONVILLE,FL,32207,6321,DUVAL,12031,2007-10-15T00:00:00.000Z,ALT REF,2007-10-15T00:00:00.000Z,CHURCHES,23036596,-81.6499956,30.2786074,CHRISTIAN,LDS,NOT AVAILABLE,NOT AVAILABLE,Y,N
46082,10439830,THE CHURCH OF JESUS CHRIST OF LATTER DAY SAINTS - SAINT JOHNS WARD,JACKSONVILLE,FL,32258,2125,DUVAL,12031,2007-10-16T00:00:00.000Z,ALT REF,2007-10-16T00:00:00.000Z,CHURCHES,23047353,-81.5937943,30.157479,CHRISTIAN,LDS,NOT AVAILABLE,NOT AVAILABLE,Y,N
46084,10439872,THE CHURCH OF JESUS CHRIST OF LATTER DAY SAINTS - ATLANTIC WARD,JACKSONVILLE,FL,32277,2214,DUVAL,12031,2007-10-16T00:00:00.000Z,ALT REF,2007-10-16T00:00:00.000Z,CHURCHES,23016891,-81.5713226,30.3672314,CHRISTIAN,LDS,NOT AVAILABLE,NOT AVAILABLE,Y,N
46085,10439914,THE CHURCH OF JESUS CHRIST OF LATTER DAY SAINTS - JACKSONVILLE 2ND WARD,JACKSONVILLE,FL,32207,6321,DUVAL,12031,2007-10-16T00:00:00.000Z,ALT REF,2007-10-16T00:00:00.000Z,CHURCHES,23036596,-81.6500023,30.2786033,CHRISTIAN,LDS,NOT AVAILABLE,NOT AVAILABLE,Y,N
46086,10439937,THE CHURCH OF JESUS CHRIST OF LATTER DAY SAINTS - TIMUQUANA WARD,JACKSONVILLE,FL,32210,6722,DUVAL,12031,2007-10-15T00:00:00.000Z,ALT REF,2007-10-15T00:00:00.000Z,CHURCHES,23040200,-81.7649064,30.2515893,CHRISTIAN,LDS,NOT AVAILABLE,NOT AVAILABLE,Y,N
46088,10584372,UNIVERSITY BAPTIST CHURCH,JACKSONVILLE,FL,32216,5557,DUVAL,12031,2009-03-10T00:00:00.000Z,ALT REF,2009-03-10T00:00:00.000Z,CHURCHES,23037636,-81.6095358,30.2702487,CHRISTIAN,BAPT,NOT AVAILABLE,NOT AVAILABLE,Y,N
46089,10574644,VARICK MEMORIAL AFRICAN METHODIST EPISCOPAL ZION CHURCH,JACKSONVILLE,FL,32211,5960,DUVAL,12031,2009-03-10T00:00:00.000Z,ALT REF,2009-03-10T00:00:00.000Z,CHURCHES,23056106,-81.5845697,30.329399,CHRISTIAN,AMEZ,NOT AVAILABLE,NOT AVAILABLE,Y,N
46090,10440171,SAINT CATHERINES EPISCOPAL CHURCH,JACKSONVILLE,FL,32210,1716,DUVAL,12031,2007-11-09T00:00:00.000Z,ALT REF,2007-11-09T00:00:00.000Z,CHURCHES,23063309,-81.7277336,30.2888519,CHRISTIAN,EPIS,NOT AVAILABLE,NOT AVAILABLE,Y,N
46092,10440300,THE CHURCH OF EPIPHANY,JACKSONVILLE,FL,32210,6848,DUVAL,12031,2007-11-09T00:00:00.000Z,ALT REF,2007-11-09T00:00:00.000Z,CHURCHES,135861253,-81.758101,30.249107,CHRISTIAN,EPIS,NOT AVAILABLE,NOT AVAILABLE,Y,N
46093,10440324,CHURCH OF THE NATIVITY,JACKSONVILLE,FL,32221,6652,DUVAL,12031,2007-11-09T00:00:00.000Z,ALT REF,2007-11-09T00:00:00.000Z,CHURCHES,23035166,-81.7894783,30.2906599,CHRISTIAN,EPIS,NOT AVAILABLE,NOT AVAILABLE,Y,N
46094,10584381,CALVARY BAPTIST CHURCH,JACKSONVILLE,FL,32218,4408,DUVAL,12031,2009-03-10T00:00:00.000Z,ALT REF,2009-03-10T00:00:00.000Z,CHURCHES,23049590,-81.7116023,30.4372156,CHRISTIAN,BAPT,NOT AVAILABLE,NOT AVAILABLE,Y,N
46096,10440410,CALVARY EPISCOPAL CHURCH,JACKSONVILLE,FL,32224,1032,DUVAL,12031,2007-11-07T00:00:00.000Z,ALT REF,2007-11-07T00:00:00.000Z,CHURCHES,127624976,-81.4491915,30.3143189,CHRISTIAN,EPIS,NOT AVAILABLE,NOT AVAILABLE,Y,N
46097,10440411,ALL SAINTS' EPISCOPAL CHURCH,JACKSONVILLE,FL,32207,6323,DUVAL,12031,2007-11-09T00:00:00.000Z,ALT REF,2007-11-09T00:00:00.000Z,CHURCHES,23036596,-81.6499227,30.2778972,CHRISTIAN,EPIS,NOT AVAILABLE,NOT AVAILABLE,Y,N
46099,10440718,SAINT PHILIP'S EPISCOPAL CHURCH,JACKSONVILLE,FL,32202,4020,DUVAL,12031,2007-11-07T00:00:00.000Z,ALT REF,2007-11-07T00:00:00.000Z,CHURCHES,23024295,-81.6609501,30.333444,CHRISTIAN,EPIS,NOT AVAILABLE,NOT AVAILABLE,Y,N
46101,10440721,SAN JOSE EPISCOPAL PARISH,JACKSONVILLE,FL,32217,3429,DUVAL,12031,2007-11-08T00:00:00.000Z,ALT REF,2007-11-09T00:00:00.000Z,CHURCHES,127623749,-81.6261234,30.2439543,CHRISTIAN,EPIS,NOT AVAILABLE,NOT AVAILABLE,Y,N
46102,10440722,SAINT GEORGE EPISCOPAL CHURCH,JACKSONVILLE,FL,32226,2442,DUVAL,12031,2007-11-07T00:00:00.000Z,ALT REF,2007-11-07T00:00:00.000Z,CHURCHES,23015317,-81.4296038,30.413554,CHRISTIAN,EPIS,NOT AVAILABLE,NOT AVAILABLE,Y,N
46103,10440725,SAINT PAUL'S EPISCOPAL CHURCH,JACKSONVILLE,FL,32207,2204,DUVAL,12031,2007-11-07T00:00:00.000Z,ALT REF,2007-11-07T00:00:00.000Z,CHURCHES,23029153,-81.6054731,30.3115196,CHRISTIAN,EPIS,NOT AVAILABLE,NOT AVAILABLE,Y,N
46104,10440726,SAINT MARK'S EPISCOPAL CHURCH,JACKSONVILLE,FL,32210,4425,DUVAL,12031,2007-11-08T00:00:00.000Z,ALT REF,2007-11-08T00:00:00.000Z,CHURCHES,23037505,-81.702164,30.2729662,CHRISTIAN,EPIS,NOT AVAILABLE,NOT AVAILABLE,Y,N
46106,10440730,SAINT JOHN'S CATHEDRAL,JACKSONVILLE,FL,32202,3132,DUVAL,12031,2007-11-08T00:00:00.000Z,ALT REF,2007-11-08T00:00:00.000Z,CHURCHES,23025234,-81.6534631,30.328747,CHRISTIAN,EPIS,NOT AVAILABLE,NOT AVAILABLE,Y,N
46107,10440731,THE EPISCOPAL CHURCH OF THE GOOD SHEPHERD,JACKSONVILLE,FL,32204,4237,DUVAL,12031,2007-11-08T00:00:00.000Z,ALT REF,2007-11-08T00:00:00.000Z,CHURCHES,23029434,-81.6888999,30.3124598,CHRISTIAN,EPIS,NOT AVAILABLE,NOT AVAILABLE,Y,N
46112,10578240,CORNERSTONE BAPTIST CHURCH,JACKSONVILLE,FL,32254,1238,DUVAL,12031,2009-03-13T00:00:00.000Z,ALT REF,2009-03-13T00:00:00.000Z,CHURCHES,127623751,-81.7435121,30.3638987,CHRISTIAN,BAPT,NOT AVAILABLE,NOT AVAILABLE,Y,N
46116,10441613,CHRIST CHURCH SAN PABLO,JACKSONVILLE,FL,32224,1032,DUVAL,12031,2007-11-07T00:00:00.000Z,ALT REF,2007-11-07T00:00:00.000Z,CHURCHES,127624976,-81.4492034,30.3143241,CHRISTIAN,EPIS,NOT AVAILABLE,NOT AVAILABLE,Y,N
46118,10584380,CROSSROADS BAPTIST CHURCH,JACKSONVILLE,FL,32218,3339,DUVAL,12031,2009-03-12T00:00:00.000Z,ALT REF,2009-03-12T00:00:00.000Z,CHURCHES,721389049,-81.6838582,30.4529068,CHRISTIAN,BAPT,NOT AVAILABLE,NOT AVAILABLE,Y,N
46127,10442692,MARY QUEEN OF HEAVEN CATHOLIC CHURCH,JACKSONVILLE,FL,32244,6336,DUVAL,12031,2007-10-01T00:00:00.000Z,ALT REF,2007-10-01T00:00:00.000Z,CHURCHES,23045772,-81.806774,30.1966402,CHRISTIAN,NOT AVAILABLE,NOT AVAILABLE,NOT AVAILABLE,N,Y
46144,10447105,ASSUMPTION CATHOLIC CHURCH,JACKSONVILLE,FL,32207,3563,DUVAL,12031,2007-10-01T00:00:00.000Z,ALT REF,2007-10-01T00:00:00.000Z,CHURCHES,17002926,-81.6408023,30.30765,CHRISTIAN,NOT AVAILABLE,NOT AVAILABLE,NOT AVAILABLE,N,Y
46145,10447106,BLESSED TRINITY CATHOLIC CHURCH,JACKSONVILLE,FL,32246,3651,DUVAL,12031,2007-10-01T00:00:00.000Z,ALT REF,2007-10-01T00:00:00.000Z,CHURCHES,16999691,-81.5419703,30.2860227,CHRISTIAN,NOT AVAILABLE,NOT AVAILABLE,NOT AVAILABLE,N,Y
46146,10447107,CHURCH OF THE CRUCIFIXION,JACKSONVILLE,FL,32209,2209,DUVAL,12031,2007-10-01T00:00:00.000Z,ALT REF,2007-10-01T00:00:00.000Z,CHURCHES,23016518,-81.7190292,30.373322,CHRISTIAN,NOT AVAILABLE,NOT AVAILABLE,NOT AVAILABLE,N,Y
46147,10447110,IMMACULATE CONCEPTION CATHOLIC CHURCH,JACKSONVILLE,FL,32202,3203,DUVAL,12031,2007-10-01T00:00:00.000Z,ALT REF,2007-10-01T00:00:00.000Z,CHURCHES,23025369,-81.6555166,30.3292168,CHRISTIAN,NOT AVAILABLE,NOT AVAILABLE,NOT AVAILABLE,N,Y
46148,10447113,SACRED HEART CATHOLIC CHURCH,JACKSONVILLE,FL,32244,7842,DUVAL,12031,2007-10-01T00:00:00.000Z,ALT REF,2007-10-01T00:00:00.000Z,CHURCHES,23052958,-81.7432638,30.2441831,CHRISTIAN,NOT AVAILABLE,NOT AVAILABLE,NOT AVAILABLE,N,Y
46149,10447115,SAINT MATTHEW'S CHURCH,JACKSONVILLE,FL,32210,1901,DUVAL,12031,2007-10-01T00:00:00.000Z,ALT REF,2007-10-01T00:00:00.000Z,CHURCHES,23035510,-81.723968,30.2862729,CHRISTIAN,NOT AVAILABLE,NOT AVAILABLE,NOT AVAILABLE,N,Y
46150,10447117,SAINT PAUL'S CATHOLIC CHURCH,JACKSONVILLE,FL,32204,4555,DUVAL,12031,2007-10-01T00:00:00.000Z,ALT REF,2007-10-01T00:00:00.000Z,CHURCHES,23029689,-81.6924376,30.3117276,CHRISTIAN,NOT AVAILABLE,NOT AVAILABLE,NOT AVAILABLE,N,Y
46159,10437448,GREATER MACEDONIA BAPTIST CHURCH,JACKSONVILLE,FL,32208,3021,DUVAL,12031,2007-11-08T00:00:00.000Z,ALT REF,2007-11-08T00:00:00.000Z,CHURCHES,23052028,-81.6894087,30.3843313,CHRISTIAN,SBC,1030,NOT AVAILABLE,Y,N
46163,10454781,DAYSPRING BAPTIST CHURCH,JACKSONVILLE,FL,32218,4334,DUVAL,12031,2008-02-28T00:00:00.000Z,ALT REF,2008-02-28T00:00:00.000Z,CHURCHES,23063900,-81.7381613,30.4371383,CHRISTIAN,NBC,NOT AVAILABLE,NOT AVAILABLE,Y,N
46167,10455328,ABYSSINIA MISSIONARY BAPTIST CHURCH,JACKSONVILLE,FL,32209,5864,DUVAL,12031,2008-02-26T00:00:00.000Z,ALT REF,2008-02-26T00:00:00.000Z,CHURCHES,23020606,-81.7018444,30.3506382,CHRISTIAN,NBC,NOT AVAILABLE,NOT AVAILABLE,Y,N
46168,10454322,SAINT PAUL MISSIONARY BAPTIST CHURCH OF JACKSONVILLE,JACKSONVILLE,FL,32208,2924,DUVAL,12031,2008-02-28T00:00:00.000Z,ALT REF,2008-02-28T00:00:00.000Z,CHURCHES,23051714,-81.7078168,30.3884346,CHRISTIAN,NBC,NOT AVAILABLE,NOT AVAILABLE,Y,N
46169,10453925,PHILADELPHIA BAPTIST CHURCH,JACKSONVILLE,FL,32209,2665,DUVAL,12031,2008-02-26T00:00:00.000Z,ALT REF,2008-02-26T00:00:00.000Z,CHURCHES,23016499,-81.6881876,30.3735142,CHRISTIAN,NBC,NOT AVAILABLE,NOT AVAILABLE,Y,N
46171,10460458,NORTHSHORE COMMUNITY CHURCH,JACKSONVILLE,FL,32208,3818,DUVAL,12031,2008-02-28T00:00:00.000Z,ALT REF,2008-02-28T00:00:00.000Z,CHURCHES,23051674,-81.6572148,30.3880802,CHRISTIAN,PCA,NOT AVAILABLE,NOT AVAILABLE,Y,N
46411,10456283,COLLINS CHAPEL AFRICAN METHODIST EPISCOPAL CHURCH,JACKSONVILLE,FL,32234,NULL,DUVAL,12031,2008-03-04T00:00:00.000Z,ALT REF,2008-03-04T00:00:00.000Z,CHURCHES,23042886,-81.9707905,30.3032598,CHRISTIAN,AME,NOT AVAILABLE,NOT AVAILABLE,Y,N
46476,10460904,HARVEST PRESBYTERIAN CHURCH,JACKSONVILLE,NC,28546,8522,ONSLOW,37133,2008-02-22T00:00:00.000Z,ALT REF,2008-02-22T00:00:00.000Z,CHURCHES,102734566,-77.3494059,34.7692761,CHRISTIAN,PCA,NOT AVAILABLE,NOT AVAILABLE,Y,N
46538,10460469,REDEEMER PRESBYTERIAN CHURCH,JACKSONVILLE,FL,32224,1031,DUVAL,12031,2008-02-25T00:00:00.000Z,ALT REF,2008-02-25T00:00:00.000Z,CHURCHES,127624975,-81.4474665,30.3136297,CHRISTIAN,PCA,NOT AVAILABLE,NOT AVAILABLE,Y,N
46552,10460389,CHRIST CHURCH,JACKSONVILLE,FL,32257,6035,DUVAL,12031,2008-02-28T00:00:00.000Z,ALT REF,2008-02-28T00:00:00.000Z,CHURCHES,23045378,-81.614703,30.1995622,CHRISTIAN,PCA,NOT AVAILABLE,NOT AVAILABLE,Y,N
46564,10448303,SAINT MARON MARONITE MISSION CHURCH,JACKSONVILLE,FL,32216,5733,DUVAL,12031,2007-10-01T00:00:00.000Z,ALT REF,2007-10-01T00:00:00.000Z,CHURCHES,23038415,-81.5879557,30.2638654,CHRISTIAN,NOT AVAILABLE,NOT AVAILABLE,NOT AVAILABLE,N,Y
46572,10459410,SAINT MATTHEWS AFRICAN METHODIST EPISCOPAL CHURCH,JACKSONVILLE,FL,32254,3301,DUVAL,12031,2008-02-28T00:00:00.000Z,ALT REF,2008-02-28T00:00:00.000Z,CHURCHES,23024370,-81.7229158,30.334512,CHRISTIAN,AME,NOT AVAILABLE,NOT AVAILABLE,Y,N
46579,10454818,EMANUEL BAPTIST CHURCH,JACKSONVILLE,FL,32209,NULL,DUVAL,12031,2008-02-28T00:00:00.000Z,ALT REF,2008-03-03T00:00:00.000Z,CHURCHES,23020387,-81.7005242,30.3522669,CHRISTIAN,NBC,NOT AVAILABLE,NOT AVAILABLE,Y,N
46587,10440723,SAINT LUKE'S EPISCOPAL CHURCH,JACKSONVILLE,FL,32211,3322,DUVAL,12031,2007-11-07T00:00:00.000Z,ALT REF,2007-11-07T00:00:00.000Z,CHURCHES,23019675,-81.6028774,30.3541486,CHRISTIAN,EPIS,NOT AVAILABLE,NOT AVAILABLE,Y,N
46591,10432297,NORTH JACKSONVILLE BAPTIST CHURCH,JACKSONVILLE,FL,32218,5731,DUVAL,12031,2007-09-12T00:00:00.000Z,ALT REF,2007-09-14T00:00:00.000Z,CHURCHES,127640533,-81.6488631,30.4008416,CHRISTIAN,SBC,NOT AVAILABLE,NOT AVAILABLE,Y,N
46592,10432304,SHILOH METROPOLITAN BAPTIST CHURCH,JACKSONVILLE,FL,32204,1408,DUVAL,12031,2007-09-11T00:00:00.000Z,ALT REF,2007-09-11T00:00:00.000Z,CHURCHES,23023830,-81.6725912,30.3349405,CHRISTIAN,BAPT,NOT AVAILABLE,NOT AVAILABLE,Y,N
46602,10437360,HILLCREST BAPTIST CHURCH,JACKSONVILLE,FL,32244,7097,DUVAL,12031,2007-11-08T00:00:00.000Z,ALT REF,2007-11-12T00:00:00.000Z,CHURCHES,122664381,-81.7736761,30.2041546,CHRISTIAN,SBC,2427,NOT AVAILABLE,Y,N
46611,10584371,VICTORY BAPTIST CHURCH,JACKSONVILLE,FL,32218,4561,DUVAL,12031,2009-03-09T00:00:00.000Z,ALT REF,2009-03-09T00:00:00.000Z,CHURCHES,127623187,-81.693592,30.4282448,CHRISTIAN,BAPT,NOT AVAILABLE,NOT AVAILABLE,Y,N
46616,10584378,GRACE BAPTIST CHURCH,JACKSONVILLE,FL,32218,2450,DUVAL,12031,2009-03-13T00:00:00.000Z,ALT REF,2009-03-13T00:00:00.000Z,CHURCHES,23048908,-81.649467,30.4774426,CHRISTIAN,BAPT,NOT AVAILABLE,NOT AVAILABLE,Y,N
46622,10452420,GREATER MOUNT SALEM BAPTIST CHURCH,JACKSONVILLE,FL,32209,5068,DUVAL,12031,2009-03-11T00:00:00.000Z,ALT REF,2009-03-11T00:00:00.000Z,CHURCHES,23020269,-81.6706057,30.3527475,CHRISTIAN,NBC,NOT AVAILABLE,NOT AVAILABLE,Y,N
46635,10447108,HOLY FAMILY CATHOLIC CHURCH,JACKSONVILLE,FL,32256,7962,DUVAL,12031,2009-03-10T00:00:00.000Z,ALT REF,2009-03-10T00:00:00.000Z,CHURCHES,17001268,-81.5556528,30.2182896,CHRISTIAN,NOT AVAILABLE,NOT AVAILABLE,NOT AVAILABLE,N,Y
46649,10432303,CELEBRATION CHURCH,JACKSONVILLE,FL,32256,578,DUVAL,12031,2007-09-12T00:00:00.000Z,ALT REF,2007-09-12T00:00:00.000Z,CHURCHES,23043483,-81.5460079,30.2415371,CHRISTIAN,NONDENOM,NOT AVAILABLE,NOT AVAILABLE,Y,N
46650,10432299,BETHEL BAPTIST INSTITUTIONAL CHURCH,JACKSONVILLE,FL,32202,3933,DUVAL,12031,2007-09-13T00:00:00.000Z,ALT REF,2007-09-13T00:00:00.000Z,CHURCHES,23061786,-81.6586837,30.3362416,CHRISTIAN,BAPT,NOT AVAILABLE,NOT AVAILABLE,Y,N
46654,10584369,WHITEHOUSE BAPTIST CHURCH,JACKSONVILLE,FL,32220,1805,DUVAL,12031,2009-03-13T00:00:00.000Z,ALT REF,2009-03-13T00:00:00.000Z,CHURCHES,23029490,-81.8448399,30.316028,CHRISTIAN,BAPT,NOT AVAILABLE,NOT AVAILABLE,Y,N
46655,10584368,YUKON BAPTIST CHURCH,JACKSONVILLE,FL,32244,4015,DUVAL,12031,2009-03-09T00:00:00.000Z,ALT REF,2009-03-09T00:00:00.000Z,CHURCHES,23058170,-81.7005639,30.2320154,CHRISTIAN,BAPT,NOT AVAILABLE,NOT AVAILABLE,Y,N
46656,10579454,BIBLE BAPTIST CHURCH OF MANDARIN,JACKSONVILLE,FL,32223,2019,DUVAL,12031,2009-03-10T00:00:00.000Z,ALT REF,2009-03-10T00:00:00.000Z,CHURCHES,23048117,-81.5971813,30.1401428,CHRISTIAN,BAPT,NOT AVAILABLE,NOT AVAILABLE,Y,N
46660,11518984,FAITH BAPTIST CHURCH OF MANDARIN,JACKSONVILLE,FL,32223,700,DUVAL,12031,2009-03-10T00:00:00.000Z,ALT REF,2009-03-10T00:00:00.000Z,CHURCHES,23055087,-81.6337708,30.1500906,CHRISTIAN,NOT AVAILABLE,NOT AVAILABLE,NOT AVAILABLE,Y,N
46662,10684532,JACKSONVILLE ZEN SANGHA,JACKSONVILLE,FL,32207,3445,DUVAL,12031,2009-03-10T00:00:00.000Z,ALT REF,2009-03-10T00:00:00.000Z,PLACES OF WORSHIP,23030657,-81.6491244,30.3064752,BUDDHIST,MAHAYANA,NOT AVAILABLE,NOT AVAILABLE,N,N
46664,10446049,INFANT OF PRAGUE CATHOLIC CHURCH,JACKSONVILLE,NC,28540,4838,ONSLOW,37133,2007-09-05T00:00:00.000Z,ALT REF,2007-09-05T00:00:00.000Z,CHURCHES,102386024,-77.4281874,34.7542419,CHRISTIAN,NOT AVAILABLE,NOT AVAILABLE,NOT AVAILABLE,N,Y
46665,10436218,PARK LANE BAPTIST CHURCH,JACKSONVILLE,FL,32205,7241,DUVAL,12031,2007-11-09T00:00:00.000Z,ALT REF,2007-11-09T00:00:00.000Z,CHURCHES,23034088,-81.7392065,30.293536,CHRISTIAN,SBC,860,NOT AVAILABLE,Y,N
46676,10436881,SHINDLER DRIVE BAPTIST CHURCH,JACKSONVILLE,FL,32222,2014,DUVAL,12031,2007-11-08T00:00:00.000Z,ALT REF,2007-11-08T00:00:00.000Z,CHURCHES,23045073,-81.7983271,30.2177766,CHRISTIAN,SBC,931,NOT AVAILABLE,Y,N
46678,10433967,WESTSIDE BAPTIST CHURCH,JACKSONVILLE,FL,32210,2527,DUVAL,12031,2007-11-08T00:00:00.000Z,ALT REF,2007-11-08T00:00:00.000Z,CHURCHES,23035821,-81.7765868,30.2846463,CHRISTIAN,SBC,6495,NOT AVAILABLE,Y,N
46690,10440729,SAINT ANDREW'S EPISCOPAL CHURCH,JACKSONVILLE,FL,32211,6001,DUVAL,12031,2007-11-08T00:00:00.000Z,ALT REF,2007-11-08T00:00:00.000Z,CHURCHES,23023127,-81.5793246,30.3362185,CHRISTIAN,EPIS,NOT AVAILABLE,NOT AVAILABLE,Y,N
46691,10440728,RESURRECTION EPISCOPAL CHURCH,JACKSONVILLE,FL,32225,1708,DUVAL,12031,2007-11-07T00:00:00.000Z,ALT REF,2007-11-07T00:00:00.000Z,CHURCHES,23042589,-81.5015667,30.3796751,CHRISTIAN,EPIS,NOT AVAILABLE,NOT AVAILABLE,Y,N
46692,10440724,EPISCOPAL CHURCH OF OUR SAVIOUR,JACKSONVILLE,FL,32223,1813,DUVAL,12031,2007-11-08T00:00:00.000Z,ALT REF,2007-11-08T00:00:00.000Z,CHURCHES,23064704,-81.6524389,30.1627462,CHRISTIAN,EPIS,NOT AVAILABLE,NOT AVAILABLE,Y,N
46694,10442535,CHRIST THE KING CATHOLIC CHURCH,JACKSONVILLE,FL,32211,7306,DUVAL,12031,2007-10-01T00:00:00.000Z,ALT REF,2007-10-01T00:00:00.000Z,CHURCHES,127624537,-81.5857598,30.3262634,CHRISTIAN,NOT AVAILABLE,NOT AVAILABLE,NOT AVAILABLE,N,Y
46695,10440449,SAINT GABRIEL'S EPISCOPAL CHURCH,JACKSONVILLE,FL,32209,1042,DUVAL,12031,2007-11-08T00:00:00.000Z,ALT REF,2007-11-08T00:00:00.000Z,CHURCHES,127639592,-81.7287675,30.3912786,CHRISTIAN,EPIS,NOT AVAILABLE,NOT AVAILABLE,Y,N
46696,10440396,SAINT ELIZABETH'S EPISCOPAL CHURCH,JACKSONVILLE,FL,32218,4727,DUVAL,12031,2007-11-09T00:00:00.000Z,ALT REF,2007-11-09T00:00:00.000Z,CHURCHES,23049827,-81.6746563,30.4300955,CHRISTIAN,EPIS,NOT AVAILABLE,NOT AVAILABLE,Y,N
46697,10440719,SAINT MARY'S EPISCOPAL CHURCH,JACKSONVILLE,FL,32206,3633,DUVAL,12031,2007-11-07T00:00:00.000Z,ALT REF,2007-11-07T00:00:00.000Z,CHURCHES,23021122,-81.655714,30.3475328,CHRISTIAN,EPIS,NOT AVAILABLE,NOT AVAILABLE,Y,N
46698,10440717,SAINT PETER'S CHURCH,JACKSONVILLE,FL,32210,7441,DUVAL,12031,2007-11-09T00:00:00.000Z,ALT REF,2007-11-09T00:00:00.000Z,CHURCHES,127623278,-81.7131048,30.2470999,CHRISTIAN,EPIS,NOT AVAILABLE,NOT AVAILABLE,Y,N
46702,10447109,HOLY SPIRIT CATHOLIC CHURCH,JACKSONVILLE,FL,32225,1602,DUVAL,12031,2009-03-10T00:00:00.000Z,ALT REF,2009-03-10T00:00:00.000Z,CHURCHES,23062250,-81.5145953,30.3713663,CHRISTIAN,NOT AVAILABLE,NOT AVAILABLE,NOT AVAILABLE,N,Y
46703,10577844,HOPE FOR LIFE BAPTIST CHURCH,JACKSONVILLE,FL,32221,3452,DUVAL,12031,2009-03-10T00:00:00.000Z,ALT REF,2009-03-10T00:00:00.000Z,CHURCHES,23029589,-81.7761918,30.3144513,CHRISTIAN,BAPT,NOT AVAILABLE,NOT AVAILABLE,Y,N
46713,10584379,HOSANNA BAPTIST CHURCH,JACKSONVILLE,FL,32221,3367,DUVAL,12031,2009-03-17T00:00:00.000Z,ALT REF,2009-03-10T00:00:00.000Z,CHURCHES,23029610,-81.7788855,30.3125121,CHRISTIAN,BAPT,NOT AVAILABLE,NOT AVAILABLE,Y,N
46733,10579355,HUNTER PARK BAPTIST CHURCH,JACKSONVILLE,FL,32207,4917,DUVAL,12031,2009-03-13T00:00:00.000Z,ALT REF,2009-03-13T00:00:00.000Z,CHURCHES,23034193,-81.6174322,30.29001,CHRISTIAN,BAPT,NOT AVAILABLE,NOT AVAILABLE,Y,N
46753,10430712,JACKSONVILLE MASJID OF AL-ISLAM,JACKSONVILLE,FL,32209,6922,DUVAL,12031,2009-03-10T00:00:00.000Z,ALT REF,2009-03-10T00:00:00.000Z,"MOSQUES, RELIGIOUS",23062159,-81.7004445,30.3364465,MUSLIM,NOT AVAILABLE,NOT AVAILABLE,NOT AVAILABLE,N,N
46769,10577395,MOUNT SINAI BAPTIST CHURCH,JACKSONVILLE,FL,32206,3652,DUVAL,12031,2009-03-13T00:00:00.000Z,ALT REF,2009-03-13T00:00:00.000Z,CHURCHES,23020745,-81.6573848,30.3494841,CHRISTIAN,BAPT,NOT AVAILABLE,NOT AVAILABLE,Y,N
46845,10683873,SOKA GAKKAI INTERNATIONAL - UNITED STATES OF AMERICA,JACKSONVILLE,NC,28540,9178,ONSLOW,37133,2009-08-03T00:00:00.000Z,ALT REF,2009-08-03T00:00:00.000Z,PLACES OF WORSHIP,127905383,-77.4560697,34.8173413,BUDDHIST,"MAHAYANA, NICHIREN BUDDHISM",NOT AVAILABLE,NOT AVAILABLE,N,N
46884,10429654,BETH SHALOM CONGREGATION,JACKSONVILLE,FL,32257,8813,DUVAL,12031,2007-08-08T00:00:00.000Z,ALT REF,2007-08-08T00:00:00.000Z,SYNAGOGUES,23060936,-81.6103854,30.2048331,JUDAIC,NOT AVAILABLE,NOT AVAILABLE,NOT AVAILABLE,N,N
46890,10428476,CHABAD OF SOUTHSIDE,JACKSONVILLE,FL,32256,4642,DUVAL,12031,2007-08-08T00:00:00.000Z,ALT REF,2007-08-08T00:00:00.000Z,SYNAGOGUES,119049868,-81.5162576,30.2289561,JUDAIC,CHABAD,NOT AVAILABLE,CHABAD,N,N
46891,10677964,SHRI GANESHA STHAPANA,JACKSONVILLE,FL,32258,1520,DUVAL,12031,2009-03-11T00:00:00.000Z,ALT REF,2009-03-11T00:00:00.000Z,PLACES OF WORSHIP,127623583,-81.5773838,30.160969,HINDU,NOT AVAILABLE,NOT AVAILABLE,NOT AVAILABLE,N,N
46895,10455641,TABERNACLE BAPTIST INSTITUTIONAL CHURCH,JACKSONVILLE,FL,32206,5748,DUVAL,12031,2009-03-11T00:00:00.000Z,ALT REF,2009-03-11T00:00:00.000Z,CHURCHES,23024666,-81.6437887,30.3315735,CHRISTIAN,NBC,NOT AVAILABLE,NOT AVAILABLE,Y,N
46897,10447114,SAINT JOSEPH CHURCH,JACKSONVILLE,FL,32258,2002,DUVAL,12031,2009-03-09T00:00:00.000Z,ALT REF,2009-03-09T00:00:00.000Z,CHURCHES,23047301,-81.5962305,30.1593158,CHRISTIAN,NOT AVAILABLE,NOT AVAILABLE,NOT AVAILABLE,N,Y
46904,10584383,BETHESDA BAPTIST CHURCH,JACKSONVILLE,FL,32254,NULL,DUVAL,12031,2009-03-12T00:00:00.000Z,ALT REF,2009-03-12T00:00:00.000Z,CHURCHES,23027203,-81.7195023,30.3227925,CHRISTIAN,BAPT,NOT AVAILABLE,NOT AVAILABLE,Y,N
46908,10577997,BIBLE BAPTIST CHURCH,JACKSONVILLE,FL,32208,1372,DUVAL,12031,2009-03-11T00:00:00.000Z,ALT REF,2009-03-11T00:00:00.000Z,CHURCHES,23050202,-81.6992799,30.4144179,CHRISTIAN,BAPT,NOT AVAILABLE,NOT AVAILABLE,Y,N
46909,10429186,ETZ CHAIM SYNAGOGUE,JACKSONVILLE,FL,32257,5837,DUVAL,12031,2007-07-25T00:00:00.000Z,PHONE,2007-07-25T00:00:00.000Z,SYNAGOGUES,23063116,-81.6233058,30.1910553,JUDAIC,ORTHODOX,NOT AVAILABLE,NOT AVAILABLE,N,N
46910,10584382,BIBLE BELIEVERS BAPTIST CHURCH,JACKSONVILLE,FL,32257,6406,DUVAL,12031,2009-03-10T00:00:00.000Z,ALT REF,2009-03-10T00:00:00.000Z,CHURCHES,23063104,-81.613443,30.1850571,CHRISTIAN,BAPT,NOT AVAILABLE,NOT AVAILABLE,Y,N
46913,10579572,BLANDING BOULEVARD BAPTIST CHURCH,JACKSONVILLE,FL,32210,7837,DUVAL,12031,2009-03-10T00:00:00.000Z,ALT REF,2009-03-10T00:00:00.000Z,CHURCHES,23040088,-81.7423926,30.2517168,CHRISTIAN,BAPT,NOT AVAILABLE,NOT AVAILABLE,Y,N
46915,10584373,TEMPLE BAPTIST CHURCH,JACKSONVILLE,FL,32220,1609,DUVAL,12031,2009-03-10T00:00:00.000Z,ALT REF,2009-03-10T00:00:00.000Z,CHURCHES,23027986,-81.8686715,30.3225545,CHRISTIAN,BAPT,NOT AVAILABLE,NOT AVAILABLE,Y,N
46925,10431755,MASJID AL-SALAAM,JACKSONVILLE,FL,32206,4346,DUVAL,12031,2007-10-09T00:00:00.000Z,ALT REF,2007-10-10T00:00:00.000Z,"MOSQUES, RELIGIOUS",23021834,-81.6584904,30.3438964,MUSLIM,NOT AVAILABLE,NOT AVAILABLE,NOT AVAILABLE,N,N
46928,10430713,ISLAMIC CENTER OF NORTHEAST FLORIDA,JACKSONVILLE,FL,32246,2308,DUVAL,12031,2007-10-10T00:00:00.000Z,ALT REF,2007-10-10T00:00:00.000Z,"MOSQUES, RELIGIOUS",16999771,-81.5254852,30.3076729,MUSLIM,NOT AVAILABLE,NOT AVAILABLE,NOT AVAILABLE,N,N
46951,10460447,KOREAN BETHEL PRESBYTERIAN CHURCH OF JACKSONVILLE,JACKSONVILLE,FL,32257,4400,DUVAL,12031,2009-03-10T00:00:00.000Z,ALT REF,2009-03-10T00:00:00.000Z,CHURCHES,23045383,-81.6207163,30.2007253,CHRISTIAN,PCA,NOT AVAILABLE,NOT AVAILABLE,Y,N
46952,10447111,MOST HOLY REDEEMER CATHOLIC CHURCH,JACKSONVILLE,FL,32221,6701,DUVAL,12031,2009-03-09T00:00:00.000Z,ALT REF,2009-03-09T00:00:00.000Z,CHURCHES,23035166,-81.7926873,30.2906684,CHRISTIAN,NOT AVAILABLE,NOT AVAILABLE,NOT AVAILABLE,N,Y
46953,10454281,NEW BETHLEHEM BAPTIST CHURCH,JACKSONVILLE,FL,32208,5616,DUVAL,12031,2009-03-11T00:00:00.000Z,ALT REF,2009-03-11T00:00:00.000Z,CHURCHES,23050918,-81.6811185,30.4005181,CHRISTIAN,NBC,NOT AVAILABLE,NOT AVAILABLE,Y,N
46954,10453615,NEW REDEEM MISSIONARY BAPTIST CHURCH,JACKSONVILLE,FL,32206,1612,DUVAL,12031,2009-03-11T00:00:00.000Z,ALT REF,2009-03-13T00:00:00.000Z,CHURCHES,23017773,-81.6331572,30.3624256,CHRISTIAN,NBC,NOT AVAILABLE,NOT AVAILABLE,Y,N
46955,10453739,SAINT THOMAS MISSIONARY BAPTIST CHURCH,JACKSONVILLE,FL,32209,2557,DUVAL,12031,2009-03-13T00:00:00.000Z,ALT REF,2009-03-13T00:00:00.000Z,CHURCHES,23061817,-81.6929735,30.379155,CHRISTIAN,NBC,NOT AVAILABLE,NOT AVAILABLE,Y,N
46956,10460496,WESTMINSTER PRESBYTERIAN CHURCH,JACKSONVILLE,FL,32216,5814,DUVAL,12031,2009-03-09T00:00:00.000Z,ALT REF,2009-03-09T00:00:00.000Z,CHURCHES,23038959,-81.5794838,30.2601731,CHRISTIAN,PCA,NOT AVAILABLE,NOT AVAILABLE,Y,N
46957,10584384,AMBASSADOR BAPTIST CHURCH,JACKSONVILLE,FL,32233,2712,DUVAL,12031,2009-03-12T00:00:00.000Z,ALT REF,2009-03-12T00:00:00.000Z,CHURCHES,134932079,-81.4137241,30.3440373,CHRISTIAN,BAPT,NOT AVAILABLE,NOT AVAILABLE,Y,N
46959,10576213,BAYMEADOWS COMMUNITY CHURCH,JACKSONVILLE,FL,32217,4708,DUVAL,12031,2009-03-13T00:00:00.000Z,ALT REF,2009-03-16T00:00:00.000Z,CHURCHES,23044627,-81.5996733,30.2201241,CHRISTIAN,CRC,NOT AVAILABLE,NOT AVAILABLE,Y,N
46960,10586269,FIRST BAPTIST CHURCH - OAKLAND,JACKSONVILLE,FL,32206,5714,DUVAL,12031,2009-03-11T00:00:00.000Z,ALT REF,2009-03-11T00:00:00.000Z,CHURCHES,23024046,-81.6415059,30.3339245,CHRISTIAN,ABC,NOT AVAILABLE,NOT AVAILABLE,Y,N
46961,10580004,FIRST COAST BAPTIST CHURCH,JACKSONVILLE,FL,32244,5155,DUVAL,12031,2009-03-10T00:00:00.000Z,ALT REF,2009-03-10T00:00:00.000Z,CHURCHES,23062737,-81.7370191,30.2096457,CHRISTIAN,BAPT,NOT AVAILABLE,NOT AVAILABLE,Y,N
46962,10577682,FOURAKER ROAD BAPTIST CHURCH,JACKSONVILLE,FL,32221,6727,DUVAL,12031,2009-03-16T00:00:00.000Z,ALT REF,2009-03-16T00:00:00.000Z,CHURCHES,23035323,-81.7817555,30.2875015,CHRISTIAN,BAPT,NOT AVAILABLE,NOT AVAILABLE,Y,N
46963,10685499,KARMA THEGSUM CHOLING JACKSONVILLE,JACKSONVILLE,FL,32205,8030,DUVAL,12031,2009-03-10T00:00:00.000Z,ALT REF,2009-03-10T00:00:00.000Z,PLACES OF WORSHIP,23030954,-81.7021666,30.306436,BUDDHIST,"MAHAYANA, VAJRAYANA, KARMA KAGYU",NOT AVAILABLE,NOT AVAILABLE,N,N
46964,10584376,MARANATHA BAPTIST CHURCH,JACKSONVILLE,FL,32246,3664,DUVAL,12031,2009-03-10T00:00:00.000Z,ALT REF,2009-03-10T00:00:00.000Z,CHURCHES,106198372,-81.5354999,30.2926627,CHRISTIAN,BAPT,NOT AVAILABLE,NOT AVAILABLE,Y,N
46965,10584375,MISSIONARY BAPTIST TABERNACLE,JACKSONVILLE,FL,32254,9500,DUVAL,12031,2009-03-13T00:00:00.000Z,ALT REF,2009-03-13T00:00:00.000Z,CHURCHES,23021997,-81.71588,30.3444306,CHRISTIAN,BAPT,NOT AVAILABLE,NOT AVAILABLE,Y,N
46966,10454041,MISSIONARY TABERNACLE BAPTIST CHURCH,JACKSONVILLE,FL,32208,3739,DUVAL,12031,2009-03-11T00:00:00.000Z,ALT REF,2009-03-11T00:00:00.000Z,CHURCHES,23052420,-81.683711,30.3786588,CHRISTIAN,NBC,NOT AVAILABLE,NOT AVAILABLE,Y,N
46967,10579915,MOUNT CHARITY MISSIONARY BAPTIST CHURCH,JACKSONVILLE,FL,32206,4411,DUVAL,12031,2009-03-13T00:00:00.000Z,ALT REF,2009-03-13T00:00:00.000Z,CHURCHES,23022435,-81.6558097,30.3409818,CHRISTIAN,BAPT,NOT AVAILABLE,NOT AVAILABLE,Y,N
46969,10586277,NEW BIRTH COMMUNITY BAPTIST CHURCH,JACKSONVILLE,FL,32208,4179,DUVAL,12031,2009-03-13T00:00:00.000Z,ALT REF,2009-03-13T00:00:00.000Z,CHURCHES,23052020,-81.6542975,30.3842388,CHRISTIAN,ABC,NOT AVAILABLE,NOT AVAILABLE,Y,N
46970,10584374,NEW HAVEN BAPTIST CHURCH,JACKSONVILLE,FL,32206,6355,DUVAL,12031,2009-03-13T00:00:00.000Z,ALT REF,2009-03-13T00:00:00.000Z,CHURCHES,23016629,-81.656913,30.370675,CHRISTIAN,BAPT,NOT AVAILABLE,NOT AVAILABLE,Y,N
46971,10577213,NEW HOPE BAPTIST TEMPLE,JACKSONVILLE,FL,32210,8624,DUVAL,12031,2009-03-10T00:00:00.000Z,ALT REF,2009-03-10T00:00:00.000Z,CHURCHES,737318181,-81.8211709,30.2469323,CHRISTIAN,BAPT,NOT AVAILABLE,NOT AVAILABLE,Y,N
46972,10684815,NORTHEAST FLORIDA BUDDHIST ASSOCIATION,JACKSONVILLE,FL,32220,2469,DUVAL,12031,2009-03-10T00:00:00.000Z,ALT REF,2009-03-10T00:00:00.000Z,PLACES OF WORSHIP,23021718,-81.7639553,30.34909,BUDDHIST,MAHAYANA,NOT AVAILABLE,NOT AVAILABLE,N,N
46973,10578541,NORTHVIEW BAPTIST CHURCH,JACKSONVILLE,FL,32218,3827,DUVAL,12031,2009-03-11T00:00:00.000Z,ALT REF,2009-03-11T00:00:00.000Z,CHURCHES,127623613,-81.6277843,30.4653967,CHRISTIAN,BAPT,NOT AVAILABLE,NOT AVAILABLE,Y,N
46974,10460463,ORTEGA PRESBYTERIAN CHURCH,JACKSONVILLE,FL,32210,5939,DUVAL,12031,2009-03-10T00:00:00.000Z,ALT REF,2009-03-10T00:00:00.000Z,CHURCHES,23038044,-81.7098812,30.2699954,CHRISTIAN,PCA,NOT AVAILABLE,NOT AVAILABLE,Y,N
46975,10453256,PETRA MISSIONARY BAPTIST CHURCH,JACKSONVILLE,FL,32208,2038,DUVAL,12031,2009-03-11T00:00:00.000Z,ALT REF,2009-03-11T00:00:00.000Z,CHURCHES,23050788,-81.6925511,30.4039947,CHRISTIAN,NBC,NOT AVAILABLE,NOT AVAILABLE,Y,N
46976,10445798,SAINT PIUS THE FIFTH ROMAN CATHOLIC CHURCH,JACKSONVILLE,FL,32209,5553,DUVAL,12031,2009-03-10T00:00:00.000Z,ALT REF,2009-03-10T00:00:00.000Z,CHURCHES,23020756,-81.6791183,30.3505732,CHRISTIAN,NOT AVAILABLE,NOT AVAILABLE,NOT AVAILABLE,N,Y
46990,10455533,GREATER SAINT MARK MISSIONARY BAPTIST CHURCH,JACKSONVILLE,FL,32208,2973,DUVAL,12031,2009-03-18T00:00:00.000Z,ALT REF,2009-03-18T00:00:00.000Z,CHURCHES,23051667,-81.6977748,30.3894053,CHRISTIAN,NBC,NOT AVAILABLE,NOT AVAILABLE,Y,N
45902,10433430,MURRAY HILL BAPTIST CHURCH,JACKSONVILLE,FL,32205,5261,DUVAL,12031,2007-11-08T00:00:00.000Z,ALT REF,2007-11-08T00:00:00.000Z,CHURCHES,127623910,-81.7208112,30.3096976,CHRISTIAN,SBC,1888,NOT AVAILABLE,Y,N
45914,10440720,ALL SOULS' ANGLICAN CHURCH,JACKSONVILLE,FL,32257,1122,DUVAL,12031,2007-11-09T00:00:00.000Z,ALT REF,2007-11-12T00:00:00.000Z,CHURCHES,23045899,-81.5880073,30.1901624,CHRISTIAN,EPIS,NOT AVAILABLE,NOT AVAILABLE,Y,N
45919,10433540,MAYFAIR BAPTIST CHURCH,JACKSONVILLE,FL,32207,8905,DUVAL,12031,2007-11-08T00:00:00.000Z,ALT REF,2007-11-09T00:00:00.000Z,CHURCHES,23030635,-81.6302446,30.3062562,CHRISTIAN,SBC,851,NOT AVAILABLE,Y,N
45923,10584370,WEST JACKSONVILLE BAPTIST CHURCH,JACKSONVILLE,FL,32205,6249,DUVAL,12031,2009-03-09T00:00:00.000Z,ALT REF,2009-03-09T00:00:00.000Z,CHURCHES,23030741,-81.7445963,30.3077007,CHRISTIAN,BAPT,NOT AVAILABLE,NOT AVAILABLE,Y,N
45931,10576995,SAN MATEO BAPTIST CHURCH,JACKSONVILLE,FL,32218,3934,DUVAL,12031,2009-03-16T00:00:00.000Z,ALT REF,2009-03-16T00:00:00.000Z,CHURCHES,23049253,-81.6277321,30.4476042,CHRISTIAN,BAPT,NOT AVAILABLE,NOT AVAILABLE,Y,N
45932,10447112,RESURRECTION CATHOLIC CHURCH,JACKSONVILLE,FL,32277,2483,DUVAL,12031,2009-03-10T00:00:00.000Z,ALT REF,2009-03-10T00:00:00.000Z,CHURCHES,23018904,-81.6045012,30.3602321,CHRISTIAN,NOT AVAILABLE,NOT AVAILABLE,NOT AVAILABLE,N,Y
45933,10448467,SAINT FRANCIS CHOI KOREAN CHAPEL,JACKSONVILLE,FL,32244,5624,DUVAL,12031,2009-03-13T00:00:00.000Z,ALT REF,2009-03-13T00:00:00.000Z,CHURCHES,23045446,-81.7642958,30.201745,CHRISTIAN,NOT AVAILABLE,NOT AVAILABLE,NOT AVAILABLE,N,Y
45934,10578067,SOUTHGATE BAPTIST CHURCH,JACKSONVILLE,FL,32207,5621,DUVAL,12031,2009-03-11T00:00:00.000Z,ALT REF,2009-03-11T00:00:00.000Z,CHURCHES,23033350,-81.6277502,30.2950665,CHRISTIAN,BAPT,NOT AVAILABLE,NOT AVAILABLE,Y,N
45944,10447116,SAINT PATRICKS CATHOLIC CHURCH,JACKSONVILLE,FL,32218,5315,DUVAL,12031,2009-03-10T00:00:00.000Z,ALT REF,2009-03-10T00:00:00.000Z,CHURCHES,23050149,-81.6636975,30.4179965,CHRISTIAN,NOT AVAILABLE,NOT AVAILABLE,NOT AVAILABLE,N,Y
45948,10439929,THE CHURCH OF JESUS CHRIST OF LATTER DAY SAINTS - DUNN AVENUE WARD,JACKSONVILLE,FL,32218,4735,DUVAL,12031,2007-11-09T00:00:00.000Z,ALT REF,2007-11-09T00:00:00.000Z,CHURCHES,23049708,-81.6736641,30.4324697,CHRISTIAN,LDS,NOT AVAILABLE,NOT AVAILABLE,Y,N
45949,10580412,TRUTH BAPTIST CHURCH,JACKSONVILLE,FL,32211,5759,DUVAL,12031,2009-03-10T00:00:00.000Z,ALT REF,2009-03-10T00:00:00.000Z,CHURCHES,23023971,-81.5928409,30.3331602,CHRISTIAN,BAPT,NOT AVAILABLE,NOT AVAILABLE,Y,N
45968,10447118,SAN JOSE CATHOLIC CHURCH,JACKSONVILLE,FL,32217,3237,DUVAL,12031,2009-03-10T00:00:00.000Z,ALT REF,2009-03-10T00:00:00.000Z,CHURCHES,23043237,-81.6254254,30.2482027,CHRISTIAN,NOT AVAILABLE,NOT AVAILABLE,NOT AVAILABLE,N,Y
45975,10431952,FIRST BAPTIST CHURCH,JACKSONVILLE,FL,32202,3104,DUVAL,12031,2007-09-12T00:00:00.000Z,ALT REF,2007-09-12T00:00:00.000Z,CHURCHES,23024787,-81.658849,30.3317123,CHRISTIAN,SBC,NOT AVAILABLE,NOT AVAILABLE,Y,N
45976,10432298,CHRIST'S CHURCH,JACKSONVILLE,FL,32258,2405,DUVAL,12031,2007-09-11T00:00:00.000Z,ALT REF,2007-09-11T00:00:00.000Z,CHURCHES,23047152,-81.5462318,30.1647107,CHRISTIAN,NOT AVAILABLE,NOT AVAILABLE,NOT AVAILABLE,Y,N
45977,10432300,FAITH CHRISTIAN CENTER,JACKSONVILLE,FL,32211,5195,DUVAL,12031,2007-09-11T00:00:00.000Z,ALT REF,2007-09-11T00:00:00.000Z,CHURCHES,23022581,-81.5582233,30.3392813,CHRISTIAN,NONDENOM,NOT AVAILABLE,NOT AVAILABLE,Y,N
45978,10432302,NEW LIFE CHRISTIAN FELLOWSHIP,JACKSONVILLE,FL,32224,1264,DUVAL,12031,2007-09-13T00:00:00.000Z,ALT REF,2007-09-13T00:00:00.000Z,CHURCHES,23032381,-81.4572976,30.2978546,CHRISTIAN,NONDENOM,NOT AVAILABLE,NOT AVAILABLE,Y,N
45979,10432305,TRINITY BAPTIST CHURCH,JACKSONVILLE,FL,32221,1342,DUVAL,12031,2007-09-11T00:00:00.000Z,ALT REF,2007-09-11T00:00:00.000Z,CHURCHES,23030756,-81.7977125,30.3107408,CHRISTIAN,NONDENOM,NOT AVAILABLE,NOT AVAILABLE,Y,N
45988,10433323,WOODSTOCK BAPTIST CHURCH,JACKSONVILLE,FL,32221,1315,DUVAL,12031,2007-11-08T00:00:00.000Z,ALT REF,2007-11-08T00:00:00.000Z,CHURCHES,23032499,-81.8061537,30.3014526,CHRISTIAN,SBC,1200,NOT AVAILABLE,Y,N
45990,10433638,HIGHLANDS BAPTIST CHURCH,JACKSONVILLE,FL,32218,5345,DUVAL,12031,2007-11-08T00:00:00.000Z,ALT REF,2007-11-08T00:00:00.000Z,CHURCHES,23050028,-81.6784808,30.4241005,CHRISTIAN,SBC,935,NOT AVAILABLE,Y,N
45994,10433894,DUNNS CREEK BAPTIST CHURCH,JACKSONVILLE,FL,32218,1445,DUVAL,12031,2007-11-08T00:00:00.000Z,ALT REF,2007-11-08T00:00:00.000Z,CHURCHES,127623288,-81.5922551,30.4851485,CHRISTIAN,SBC,933,NOT AVAILABLE,Y,N
45995,10434039,FRUIT COVE BAPTIST CHURCH,JACKSONVILLE,FL,32259,2832,ST JOHNS,12109,2007-09-18T00:00:00.000Z,ALT REF,2007-09-18T00:00:00.000Z,CHURCHES,42737446,-81.6252832,30.1166691,CHRISTIAN,SBC,2424,NOT AVAILABLE,Y,N
45996,10434125,THE CHURCH AT ARGYLE,JACKSONVILLE,FL,32244,5730,DUVAL,12031,2007-11-08T00:00:00.000Z,ALT REF,2007-11-08T00:00:00.000Z,CHURCHES,23045920,-81.7575095,30.1935982,CHRISTIAN,SBC,1255,NOT AVAILABLE,Y,N
46000,10434518,SAN JOSE BAPTIST CHURCH,JACKSONVILLE,FL,32217,2335,DUVAL,12031,2007-11-08T00:00:00.000Z,ALT REF,2007-11-08T00:00:00.000Z,CHURCHES,23062876,-81.6440964,30.2578782,CHRISTIAN,SBC,934,NOT AVAILABLE,Y,N