OBJECTID,ID,NAME,CITY,STATE,ZIP,ZIPP4,COUNTY,FIPS,CONTDATE,CONTHOW,GEODATE,NAICSDESCR,GEOLINKID,X,Y,SUBTYPE,DENOM,MEMBERS,LOC_TYPE,PROT,CATH
2104,10440176,THE EPISCOPAL AFRICAN CHRISTIAN FELLOWSHIP,LAS VEGAS,NV,89104,3200,CLARK,32003,2007-11-06T00:00:00.000Z,ALT REF,2007-12-04T00:00:00.000Z,CHURCHES,24442767,-115.1375307,36.1476744,CHRISTIAN,EPIS,NOT AVAILABLE,NOT AVAILABLE,Y,N
2109,10433632,DESERT HILLS BAPTIST CHURCH,LAS VEGAS,NV,89121,3101,CLARK,32003,2008-12-03T00:00:00.000Z,ALT REF,2008-12-03T00:00:00.000Z,CHURCHES,24430285,-115.0650909,36.1092858,CHRISTIAN,SBC,1137,NOT AVAILABLE,Y,N
2110,10760347,FAITH COMMUNITY LUTHERAN CHURCH,LAS VEGAS,NV,89135,2178,CLARK,32003,2008-12-03T00:00:00.000Z,ALT REF,2008-12-03T00:00:00.000Z,CHURCHES,97832931,-115.3254101,36.1412735,CHRISTIAN,LCMS,NOT AVAILABLE,NOT AVAILABLE,Y,N
2111,10762352,FIRST PRESBYTERIAN CHURCH,LAS VEGAS,NV,89102,2304,CLARK,32003,2008-12-03T00:00:00.000Z,ALT REF,2008-12-03T00:00:00.000Z,CHURCHES,24441754,-115.1620443,36.1584951,CHRISTIAN,PCUSA,850,NOT AVAILABLE,Y,N
2112,10453835,GREATER SAINT JAMES BAPTIST CHURCH,LAS VEGAS,NV,89106,3141,CLARK,32003,2008-12-03T00:00:00.000Z,ALT REF,2008-12-03T00:00:00.000Z,CHURCHES,24439214,-115.1466626,36.1841919,CHRISTIAN,NBC,NOT AVAILABLE,NOT AVAILABLE,Y,N
2114,10437600,HOPE BAPTIST CHURCH,LAS VEGAS,NV,89123,2925,CLARK,32003,2008-12-03T00:00:00.000Z,ALT REF,2008-12-03T00:00:00.000Z,CHURCHES,24428890,-115.1643473,36.0289125,CHRISTIAN,SBC,900,NOT AVAILABLE,Y,N
2115,10760087,LAMB OF GOD LUTHERAN CHURCH,LAS VEGAS,NV,89130,7292,CLARK,32003,2008-12-03T00:00:00.000Z,ALT REF,2008-12-03T00:00:00.000Z,CHURCHES,134763037,-115.2238789,36.2734443,CHRISTIAN,LCMS,NOT AVAILABLE,NOT AVAILABLE,Y,N
2117,10683679,LAS VEGAS SHAMBHALA MEDITATION GROUP,LAS VEGAS,NV,89107,2643,CLARK,32003,2008-12-03T00:00:00.000Z,ALT REF,2008-12-03T00:00:00.000Z,PLACES OF WORSHIP,24440614,-115.2197261,36.1711411,BUDDHIST,"TIBETAN, SHAMBHALA",NOT AVAILABLE,NOT AVAILABLE,N,N
2118,10678102,HINDU SOCIETY OF NEVADA,LAS VEGAS,NV,89144,1660,CLARK,32003,2008-12-04T00:00:00.000Z,ALT REF,2008-12-04T00:00:00.000Z,PLACES OF WORSHIP,134745050,-115.334818,36.1886964,HINDU,NOT AVAILABLE,NOT AVAILABLE,NOT AVAILABLE,N,N
2119,10582285,LIBERTY BAPTIST CHURCH,LAS VEGAS,NV,89108,7012,CLARK,32003,2008-12-03T00:00:00.000Z,ALT REF,2008-12-03T00:00:00.000Z,CHURCHES,134766867,-115.2369603,36.1952719,CHRISTIAN,BAPT,NOT AVAILABLE,NOT AVAILABLE,Y,N
2120,10579054,MOUNTAIN VIEW BAPTIST CHURCH,LAS VEGAS,NV,89149,5603,CLARK,32003,2008-12-03T00:00:00.000Z,ALT REF,2008-12-03T00:00:00.000Z,CHURCHES,28393238,-115.2659664,36.2640213,CHRISTIAN,BAPT,NOT AVAILABLE,NOT AVAILABLE,Y,N
2121,10580360,OASIS BAPTIST CHURCH,LAS VEGAS,NV,89121,2855,CLARK,32003,2008-12-03T00:00:00.000Z,ALT REF,2008-12-03T00:00:00.000Z,CHURCHES,24424945,-115.0694092,36.1302762,CHRISTIAN,BAPT,NOT AVAILABLE,NOT AVAILABLE,Y,N
2122,10445324,OUR LADY OF LAS VEGAS CATHOLIC CHURCH,LAS VEGAS,NV,89107,3202,CLARK,32003,2008-12-03T00:00:00.000Z,ALT REF,2008-12-03T00:00:00.000Z,CHURCHES,134766744,-115.1826767,36.166601,CHRISTIAN,NOT AVAILABLE,NOT AVAILABLE,NOT AVAILABLE,N,Y
2123,10582283,PARADISE BIBLE BAPTIST CHURCH,LAS VEGAS,NV,89121,4012,CLARK,32003,2008-12-02T00:00:00.000Z,ALT REF,2008-12-02T00:00:00.000Z,CHURCHES,24425160,-115.1159943,36.1254074,CHRISTIAN,BAPT,NOT AVAILABLE,NOT AVAILABLE,Y,N
2124,10445327,SAINT BRIDGET CATHOLIC CHURCH,LAS VEGAS,NV,89101,4312,CLARK,32003,2008-12-03T00:00:00.000Z,ALT REF,2008-12-03T00:00:00.000Z,CHURCHES,24440943,-115.1287115,36.1661481,CHRISTIAN,NOT AVAILABLE,NOT AVAILABLE,NOT AVAILABLE,N,Y
2126,10445333,SAINT JOAN OF ARC CATHOLIC CHURCH,LAS VEGAS,NV,89101,6111,CLARK,32003,2008-12-03T00:00:00.000Z,ALT REF,2008-12-03T00:00:00.000Z,CHURCHES,24440809,-115.1454794,36.1678941,CHRISTIAN,NOT AVAILABLE,NOT AVAILABLE,NOT AVAILABLE,N,Y
2127,10445334,SAINT JOSEPH HUSBAND OF MARY ROMAN CATHOLIC CHURCH,LAS VEGAS,NV,89117,2815,CLARK,32003,2008-12-02T00:00:00.000Z,ALT REF,2008-12-02T00:00:00.000Z,CHURCHES,24443089,-115.2514797,36.1444853,CHRISTIAN,NOT AVAILABLE,NOT AVAILABLE,NOT AVAILABLE,N,Y
2128,10588185,FIRST BAPTIST CHURCH,LAS VEGAS,NV,89102,1533,CLARK,32003,2008-12-03T00:00:00.000Z,ALT REF,2008-12-03T00:00:00.000Z,CHURCHES,24442299,-115.2008437,36.1522365,CHRISTIAN,ABC,NOT AVAILABLE,NOT AVAILABLE,Y,N
2129,10448747,SAINT THOMAS AQUINAS NEWMAN CENTER LAS VEGAS,LAS VEGAS,NV,89119,6602,CLARK,32003,2008-12-03T00:00:00.000Z,ALT REF,2008-12-03T00:00:00.000Z,CHURCHES,711253057,-115.1395401,36.1033764,CHRISTIAN,NOT AVAILABLE,NOT AVAILABLE,NOT AVAILABLE,N,Y
2130,10588197,VICTORY MISSIONARY BAPTIST CHURCH,LAS VEGAS,NV,89106,3133,CLARK,32003,2008-12-03T00:00:00.000Z,ALT REF,2008-12-03T00:00:00.000Z,CHURCHES,24439119,-115.1488272,36.1852613,CHRISTIAN,ABC,NOT AVAILABLE,NOT AVAILABLE,Y,N
2131,10455571,SECOND BAPTIST CHURCH,LAS VEGAS,NV,89106,3145,CLARK,32003,2008-12-03T00:00:00.000Z,ALT REF,2008-12-03T00:00:00.000Z,CHURCHES,24439220,-115.1487323,36.1842054,CHRISTIAN,NBC,NOT AVAILABLE,NOT AVAILABLE,Y,N
2132,10576781,SO MANG CHRISTIAN REFORMED CHURCH,LAS VEGAS,NV,89103,2219,CLARK,32003,2008-12-03T00:00:00.000Z,ALT REF,2008-12-03T00:00:00.000Z,CHURCHES,24425910,-115.2289729,36.1193244,CHRISTIAN,CRC,NOT AVAILABLE,NOT AVAILABLE,Y,N
2133,10441010,SOUTH MATTHEWS EPISCOPAL CHURCH,LAS VEGAS,NV,89121,3113,CLARK,32003,2008-12-03T00:00:00.000Z,ALT REF,2008-12-03T00:00:00.000Z,CHURCHES,24430608,-115.064626,36.1036466,CHRISTIAN,EPIS,NOT AVAILABLE,NOT AVAILABLE,Y,N
2134,10437309,SUNRISE SOUTHERN BAPTIST CHURCH,LAS VEGAS,NV,89156,6790,CLARK,32003,2008-12-03T00:00:00.000Z,ALT REF,2008-12-03T00:00:00.000Z,CHURCHES,24557431,-115.0567466,36.1922322,CHRISTIAN,SBC,1228,NOT AVAILABLE,Y,N
2135,10588196,THE ROCK,LAS VEGAS,NV,89113,3240,CLARK,32003,2008-12-03T00:00:00.000Z,ALT REF,2008-12-03T00:00:00.000Z,CHURCHES,134743227,-115.2455785,36.0514632,CHRISTIAN,ABC,NOT AVAILABLE,NOT AVAILABLE,Y,N
2136,10588198,WARM SPRINGS BAPTIST CHURCH,LAS VEGAS,NV,89119,4584,CLARK,32003,2008-12-03T00:00:00.000Z,ALT REF,2008-12-03T00:00:00.000Z,CHURCHES,24604310,-115.1237458,36.0563921,CHRISTIAN,ABC,NOT AVAILABLE,NOT AVAILABLE,Y,N
2137,10432018,WORD OF LIFE CHRISTIAN CENTER,LAS VEGAS,NV,89129,6295,CLARK,32003,2008-12-03T00:00:00.000Z,ALT REF,2008-12-03T00:00:00.000Z,CHURCHES,28396836,-115.2598741,36.2243194,CHRISTIAN,NONDENOM,NOT AVAILABLE,NOT AVAILABLE,Y,N
2141,10588192,PLEASANT GROVE BAPTIST CHURCH,LAS VEGAS,NV,89106,2328,CLARK,32003,2008-12-04T00:00:00.000Z,ALT REF,2008-12-04T00:00:00.000Z,CHURCHES,24437971,-115.1573691,36.1972758,CHRISTIAN,ABC,NOT AVAILABLE,NOT AVAILABLE,Y,N
2142,10577434,GATEWAY BAPTIST CHURCH,LAS VEGAS,NV,89115,6208,CLARK,32003,2008-12-04T00:00:00.000Z,ALT REF,2008-12-04T00:00:00.000Z,CHURCHES,24420849,-115.0862696,36.1939836,CHRISTIAN,BAPT,NOT AVAILABLE,NOT AVAILABLE,Y,N
2144,10577713,HOLY ROCK MISSIONARY BAPTIST CHURCH,LAS VEGAS,NV,89106,2309,CLARK,32003,2008-12-04T00:00:00.000Z,ALT REF,2008-12-04T00:00:00.000Z,CHURCHES,24437969,-115.1550227,36.1972452,CHRISTIAN,BAPT,NOT AVAILABLE,NOT AVAILABLE,Y,N
2158,10588193,PROGRESSIVE PILGRIMS FELLOWSHIP,LAS VEGAS,NV,89120,1960,CLARK,32003,2008-12-04T00:00:00.000Z,ALT REF,2008-12-04T00:00:00.000Z,CHURCHES,24431780,-115.1002183,36.0873243,CHRISTIAN,ABC,NOT AVAILABLE,NOT AVAILABLE,Y,N
2159,10441007,SAINT THOMAS EPISCOPAL CHURCH,LAS VEGAS,NV,89110,1624,CLARK,32003,2007-11-06T00:00:00.000Z,ALT REF,2007-11-06T00:00:00.000Z,CHURCHES,24421033,-115.0554553,36.1883366,CHRISTIAN,EPIS,NOT AVAILABLE,NOT AVAILABLE,Y,N
2160,10441008,CHRIST CHURCH EPISCOPAL,LAS VEGAS,NV,89104,3200,CLARK,32003,2007-11-06T00:00:00.000Z,ALT REF,2007-12-04T00:00:00.000Z,CHURCHES,24442767,-115.1375325,36.1476752,CHRISTIAN,EPIS,NOT AVAILABLE,NOT AVAILABLE,Y,N
2161,10441011,GRACE IN THE DESERT EPISCOPAL CHURCH,LAS VEGAS,NV,89134,6246,CLARK,32003,2007-11-06T00:00:00.000Z,ALT REF,2007-11-06T00:00:00.000Z,CHURCHES,28381561,-115.3058984,36.1966711,CHRISTIAN,EPIS,NOT AVAILABLE,NOT AVAILABLE,Y,N
2162,10441013,SAINT LUKE'S EPISCOPAL CHURCH,LAS VEGAS,NV,89101,2345,CLARK,32003,2007-11-06T00:00:00.000Z,ALT REF,2007-11-06T00:00:00.000Z,CHURCHES,24421810,-115.1153942,36.1792337,CHRISTIAN,EPIS,NOT AVAILABLE,NOT AVAILABLE,Y,N
2166,10453577,NEW REVELATION MISSIONARY BAPTIST CHURCH,LAS VEGAS,NV,89106,3040,CLARK,32003,2008-12-04T00:00:00.000Z,ALT REF,2008-12-04T00:00:00.000Z,CHURCHES,24438962,-115.1503926,36.1866471,CHRISTIAN,NBC,NOT AVAILABLE,NOT AVAILABLE,Y,N
2169,10588187,GREATER CARVER MISSIONARY BAPTIST CHURCH,LAS VEGAS,NV,89106,2801,CLARK,32003,2008-12-04T00:00:00.000Z,ALT REF,2008-12-04T00:00:00.000Z,CHURCHES,24439235,-115.1568328,36.18431,CHRISTIAN,ABC,NOT AVAILABLE,NOT AVAILABLE,Y,N
2173,10577165,OLD FAITH BAPTIST CHURCH,LAS VEGAS,NV,89107,3105,CLARK,32003,2008-12-04T00:00:00.000Z,ALT REF,2008-12-04T00:00:00.000Z,CHURCHES,24440587,-115.1964707,36.1687925,CHRISTIAN,BAPT,NOT AVAILABLE,NOT AVAILABLE,Y,N
2204,10580065,BIBLE BAPTIST CHURCH,LAS VEGAS,NV,89115,5232,CLARK,32003,2008-12-02T00:00:00.000Z,ALT REF,2008-12-02T00:00:00.000Z,CHURCHES,721673332,-115.0935319,36.1998693,CHRISTIAN,BAPT,NOT AVAILABLE,NOT AVAILABLE,Y,N
2206,10441012,ALL SAINTS EPISCOPAL CHURCH,LAS VEGAS,NV,89107,2005,CLARK,32003,2008-12-03T00:00:00.000Z,ALT REF,2008-12-03T00:00:00.000Z,CHURCHES,24439536,-115.1983123,36.1808036,CHRISTIAN,EPIS,NOT AVAILABLE,NOT AVAILABLE,Y,N
2210,10762795,UNIVERSITY UNITED METHODIST CHURCH,LAS VEGAS,NV,89119,7530,CLARK,32003,2008-12-03T00:00:00.000Z,ALT REF,2008-12-03T00:00:00.000Z,CHURCHES,711369473,-115.1365271,36.1098316,CHRISTIAN,UMC,NOT AVAILABLE,NOT AVAILABLE,Y,N
2211,10760209,FIRST GOOD SHEPHERD LUTHERAN CHURCH,LAS VEGAS,NV,89101,5320,CLARK,32003,2008-12-03T00:00:00.000Z,ALT REF,2008-12-03T00:00:00.000Z,CHURCHES,24441337,-115.1340293,36.1630738,CHRISTIAN,LCMS,NOT AVAILABLE,NOT AVAILABLE,Y,N
2212,10685458,LAS VEGAS FIVE BUDDHA SHRINE,LAS VEGAS,NV,89121,2125,CLARK,32003,2008-12-04T00:00:00.000Z,ALT REF,2008-12-04T00:00:00.000Z,"SHRINES, RELIGIOUS",24424743,-115.1127884,36.1342593,BUDDHIST,"VAJRAYANA, HANMI - MAHAVAIROCANA - NAGARJUNA",NOT AVAILABLE,NOT AVAILABLE,N,N
2213,10445321,GUARDIAN ANGEL CATHEDRAL,LAS VEGAS,NV,89109,716,CLARK,32003,2008-12-03T00:00:00.000Z,ALT REF,2008-12-03T00:00:00.000Z,CHURCHES,24597761,-115.163471,36.1304802,CHRISTIAN,NOT AVAILABLE,NOT AVAILABLE,NOT AVAILABLE,N,Y
2215,10445328,SAINT ELIZABETH ANN SETON CATHOLIC CHURCH,LAS VEGAS,NV,89128,2701,CLARK,32003,2008-12-03T00:00:00.000Z,ALT REF,2008-12-03T00:00:00.000Z,CHURCHES,28382481,-115.2704713,36.1933224,CHRISTIAN,NOT AVAILABLE,NOT AVAILABLE,NOT AVAILABLE,N,Y
2216,10448373,SAINT GABRIEL THE ARCHANGEL CATHOLIC CHURCH,LAS VEGAS,NV,89119,4607,CLARK,32003,2008-12-03T00:00:00.000Z,ALT REF,2008-12-03T00:00:00.000Z,CHURCHES,24432485,-115.1212213,36.0648345,CHRISTIAN,NOT AVAILABLE,NOT AVAILABLE,NOT AVAILABLE,N,Y
2217,10432020,CANYON RIDGE CHRISTIAN CHURCH,LAS VEGAS,NV,89130,2118,CLARK,32003,2008-12-03T00:00:00.000Z,ALT REF,2008-12-03T00:00:00.000Z,CHURCHES,97830744,-115.227031,36.2473708,CHRISTIAN,CHRISTIAN,NOT AVAILABLE,NOT AVAILABLE,Y,N
2218,10442977,SAINT VIATOR CATHOLIC COMMUNITY,LAS VEGAS,NV,89121,5273,CLARK,32003,2008-12-03T00:00:00.000Z,ALT REF,2008-12-03T00:00:00.000Z,CHURCHES,37829350,-115.1185208,36.114193,CHRISTIAN,NOT AVAILABLE,NOT AVAILABLE,NOT AVAILABLE,N,Y
2219,10432017,INTERNATIONAL CHURCH OF LAS VEGAS,LAS VEGAS,NV,89145,3958,CLARK,32003,2008-12-03T00:00:00.000Z,ALT REF,2008-12-03T00:00:00.000Z,CHURCHES,28383793,-115.270598,36.1749131,CHRISTIAN,AG,NOT AVAILABLE,NOT AVAILABLE,Y,N
2221,10576780,GRACE VALLEY CHRISTIAN REFORMED CHURCH,LAS VEGAS,NV,89123,1408,CLARK,32003,2008-12-03T00:00:00.000Z,ALT REF,2008-12-03T00:00:00.000Z,CHURCHES,115428522,-115.1337899,36.0503337,CHRISTIAN,CRC,NOT AVAILABLE,NOT AVAILABLE,Y,N
2224,10457761,FOUNTAIN OF HOPE AFRICAN METHODIST EPISCOPAL CHURCH,LAS VEGAS,NV,89120,2428,CLARK,32003,2008-12-04T00:00:00.000Z,ALT REF,2008-12-04T00:00:00.000Z,CHURCHES,24431782,-115.1102753,36.086017,CHRISTIAN,AME,NOT AVAILABLE,NOT AVAILABLE,Y,N
2226,10684648,LIAN HUA TEMPLE,LAS VEGAS,NV,89103,3301,CLARK,32003,2008-12-05T00:00:00.000Z,ALT REF,2008-12-05T00:00:00.000Z,"TEMPLES, RELIGIOUS",24426228,-115.2254524,36.1128781,BUDDHIST,"MAHAYANA, HUMANISTIC BUDDHISM",NOT AVAILABLE,NOT AVAILABLE,N,N
2262,10685265,VAJRARUPINI BUDDHIST CENTER,LAS VEGAS,NV,89104,3226,CLARK,32003,2008-12-05T00:00:00.000Z,ALT REF,2008-12-05T00:00:00.000Z,PLACES OF WORSHIP,24641089,-115.1391931,36.14464,BUDDHIST,"TIBETAN, NEW KADAMPA",NOT AVAILABLE,NOT AVAILABLE,N,N
2280,10445323,HOLY FAMILY CATHOLIC CHURCH,LAS VEGAS,NV,89121,6550,CLARK,32003,2007-08-31T00:00:00.000Z,ALT REF,2007-08-31T00:00:00.000Z,CHURCHES,24430310,-115.0728521,36.1080855,CHRISTIAN,NOT AVAILABLE,NOT AVAILABLE,NOT AVAILABLE,N,Y
2281,10445325,PRINCE OF PEACE CATHOLIC CHURCH,LAS VEGAS,NV,89142,1038,CLARK,32003,2007-08-31T00:00:00.000Z,ALT REF,2007-08-31T00:00:00.000Z,CHURCHES,24423173,-115.0550017,36.1588972,CHRISTIAN,NOT AVAILABLE,NOT AVAILABLE,NOT AVAILABLE,N,Y
2282,10445329,SAINT FRANCIS DE SALES PARISH,LAS VEGAS,NV,89108,1418,CLARK,32003,2007-08-31T00:00:00.000Z,ALT REF,2007-08-31T00:00:00.000Z,CHURCHES,24439450,-115.2161905,36.1824339,CHRISTIAN,NOT AVAILABLE,NOT AVAILABLE,NOT AVAILABLE,N,Y
2283,10445330,SAINT JAMES THE APOSTLE CATHOLIC CHURCH,LAS VEGAS,NV,89106,2108,CLARK,32003,2007-08-31T00:00:00.000Z,ALT REF,2007-08-31T00:00:00.000Z,CHURCHES,134766694,-115.1594605,36.194382,CHRISTIAN,NOT AVAILABLE,NOT AVAILABLE,NOT AVAILABLE,N,Y
2284,10445335,SAINT PAUL JUNG-HA-SANG KOREAN CATHOLIC COMMUNITY,LAS VEGAS,NV,89118,2619,CLARK,32003,2007-08-31T00:00:00.000Z,ALT REF,2007-08-31T00:00:00.000Z,CHURCHES,24427546,-115.2243333,36.0785544,CHRISTIAN,NOT AVAILABLE,NOT AVAILABLE,NOT AVAILABLE,N,Y
2285,10445336,SHRINE OF THE MOST HOLY REDEEMER,LAS VEGAS,NV,89119,1139,CLARK,32003,2007-08-31T00:00:00.000Z,ALT REF,2007-08-31T00:00:00.000Z,"SHRINES, RELIGIOUS",24596760,-115.1697835,36.0967347,CHRISTIAN,NOT AVAILABLE,NOT AVAILABLE,NOT AVAILABLE,N,Y
2549,10580009,IGLESIA BAUTISTA LA GRAN COMISION,LAS VEGAS,NV,89104,3334,CLARK,32003,2008-12-04T00:00:00.000Z,ALT REF,2008-12-04T00:00:00.000Z,CHURCHES,24442288,-115.1296362,36.1523173,CHRISTIAN,BAPT,NOT AVAILABLE,NOT AVAILABLE,Y,N
2576,10432019,SHADOW HILLS BAPTIST CHURCH,LAS VEGAS,NV,89128,8015,CLARK,32003,2007-09-24T00:00:00.000Z,ALT REF,2007-09-24T00:00:00.000Z,CHURCHES,28382355,-115.2655971,36.1884458,CHRISTIAN,BAPT,NOT AVAILABLE,NOT AVAILABLE,Y,N
2582,10448372,OUR LADY OF WISDOM ITALO - GREEK MISSION,LAS VEGAS,NV,89146,387,CLARK,32003,2007-08-31T00:00:00.000Z,ALT REF,2007-08-31T00:00:00.000Z,CHURCHES,24442677,-115.2163927,36.1487014,CHRISTIAN,NOT AVAILABLE,NOT AVAILABLE,NOT AVAILABLE,N,Y
2583,10448675,SAINT SHARBEL CATHOLIC CHURCH,LAS VEGAS,NV,89183,4142,CLARK,32003,2007-08-30T00:00:00.000Z,ALT REF,2007-08-30T00:00:00.000Z,CHURCHES,24429187,-115.1662704,36.0024677,CHRISTIAN,NOT AVAILABLE,NOT AVAILABLE,NOT AVAILABLE,N,Y
2584,10448781,SAINT ANTHONY OF PADUA,LAS VEGAS,NV,89149,1257,CLARK,32003,2007-09-05T00:00:00.000Z,ALT REF,2007-09-05T00:00:00.000Z,CHURCHES,115426551,-115.3192594,36.2776455,CHRISTIAN,NOT AVAILABLE,NOT AVAILABLE,NOT AVAILABLE,N,Y
2589,10684411,GREAT BRIGHT ZEN CENTER,LAS VEGAS,NV,89118,1712,CLARK,32003,2008-12-05T00:00:00.000Z,ALT REF,2008-12-04T00:00:00.000Z,PLACES OF WORSHIP,24427079,-115.1819017,36.0965927,BUDDHIST,KOREAN ZEN (SEON),NOT AVAILABLE,NOT AVAILABLE,N,N
2600,10445322,CHRIST THE KING CATHOLIC COMMUNITY,LAS VEGAS,NV,89118,1109,CLARK,32003,2007-08-31T00:00:00.000Z,ALT REF,2007-08-31T00:00:00.000Z,CHURCHES,24427012,-115.2343826,36.099127,CHRISTIAN,NOT AVAILABLE,NOT AVAILABLE,NOT AVAILABLE,N,Y
2612,10445326,SAINT ANNE CATHOLIC CHURCH,LAS VEGAS,NV,89104,3109,CLARK,32003,2007-08-31T00:00:00.000Z,ALT REF,2007-08-31T00:00:00.000Z,CHURCHES,24442664,-115.1365923,36.1483319,CHRISTIAN,NOT AVAILABLE,NOT AVAILABLE,NOT AVAILABLE,N,Y
2740,10426904,CONGREGATION NER TAMID,LAS VEGAS,NV,89121,3909,CLARK,32003,2007-07-20T00:00:00.000Z,PHONE,2007-07-20T00:00:00.000Z,SYNAGOGUES,24425153,-115.1125863,36.1251763,JUDAIC,NOT AVAILABLE,NOT AVAILABLE,SYNAGOGUE,N,N
2741,10426905,OR - BAMIDBAR ORTHODOX SYNAGOGUE,LAS VEGAS,NV,89121,3920,CLARK,32003,2007-07-24T00:00:00.000Z,PHONE,2007-07-24T00:00:00.000Z,SYNAGOGUES,37829344,-115.1098785,36.1257747,JUDAIC,ORTHODOX,NOT AVAILABLE,SYNAGOGUE,N,N
2746,10426907,VALLEY OUTREACH SYNAGOGUE,LAS VEGAS,NV,89183,4112,CLARK,32003,2007-07-24T00:00:00.000Z,PHONE,2007-07-24T00:00:00.000Z,SYNAGOGUES,28378754,-115.1633389,35.9999593,JUDAIC,NOT AVAILABLE,NOT AVAILABLE,SYNAGOGUE,N,N
2752,10427334,CONGREGATION SHAAREI TEFILLA,LAS VEGAS,NV,89104,3309,CLARK,32003,2007-07-23T00:00:00.000Z,PHONE,2007-07-23T00:00:00.000Z,SYNAGOGUES,134766042,-115.136728,36.1539089,JUDAIC,ORTHODOX-ASHKENAZ,NOT AVAILABLE,SYNAGOGUE,N,N
2753,10428491,CHABAD AT THE UNIVERSITY OF NEVADA - UNIVERSITY OF LAS VEGAS,LAS VEGAS,NV,89107,4318,CLARK,32003,2007-08-08T00:00:00.000Z,ALT REF,2007-08-08T00:00:00.000Z,SYNAGOGUES,24441273,-115.1960725,36.1639648,JUDAIC,CHABAD,NOT AVAILABLE,CHABAD,N,N
2756,10428173,JEWISH COMMUNITY CENTER OF SOUTHERN NEVADA,LAS VEGAS,NV,89119,6145,CLARK,32003,2007-08-08T00:00:00.000Z,ALT REF,2007-08-08T00:00:00.000Z,SYNAGOGUES,134764911,-115.1186186,36.101705,JUDAIC,NOT AVAILABLE,NOT AVAILABLE,NOT AVAILABLE,N,N
2758,10427590,ADAT ARI EL,LAS VEGAS,NV,89103,3788,CLARK,32003,2007-08-08T00:00:00.000Z,ALT REF,2007-08-08T00:00:00.000Z,SYNAGOGUES,24596256,-115.2052311,36.1151282,JUDAIC,REFORM,40,NOT AVAILABLE,N,N
2761,10428820,CHABAD OF SOUTHERN NEVADA,LAS VEGAS,NV,89102,1600,CLARK,32003,2007-07-30T00:00:00.000Z,PHONE,2007-07-30T00:00:00.000Z,SYNAGOGUES,24441971,-115.1994023,36.1581584,JUDAIC,CHABAD,NOT AVAILABLE,CHABAD,N,N
2765,10429882,TEMPLE BETH SHOLOM,LAS VEGAS,NV,89135,2214,CLARK,32003,2007-08-08T00:00:00.000Z,ALT REF,2007-08-08T00:00:00.000Z,SYNAGOGUES,37848678,-115.3257431,36.1337737,JUDAIC,NOT AVAILABLE,NOT AVAILABLE,NOT AVAILABLE,N,N
2770,10426906,TEMPLE OF SINAI,LAS VEGAS,NV,89134,6097,CLARK,32003,2007-07-20T00:00:00.000Z,PHONE,2007-07-20T00:00:00.000Z,SYNAGOGUES,37844110,-115.29246,36.1991624,JUDAIC,NOT AVAILABLE,NOT AVAILABLE,SYNAGOGUE,N,N
2772,10426903,CHABAD OF SOUTH NEVADA,LAS VEGAS,NV,89102,1610,CLARK,32003,2007-07-24T00:00:00.000Z,PHONE,2007-07-24T00:00:00.000Z,SYNAGOGUES,24441975,-115.1978812,36.1578096,JUDAIC,NOT AVAILABLE,NOT AVAILABLE,SYNAGOGUE,N,N
2776,10428561,CHABAD HEBREW CENTER,LAS VEGAS,NV,89128,7671,CLARK,32003,2007-08-08T00:00:00.000Z,ALT REF,2007-08-08T00:00:00.000Z,SYNAGOGUES,97833766,-115.2809485,36.1993909,JUDAIC,CHABAD,NOT AVAILABLE,CHABAD,N,N
2793,10431052,ISLAMIC SOCIETY OF NEVADA - JAMA MASJID,LAS VEGAS,NV,89121,2804,CLARK,32003,2007-10-05T00:00:00.000Z,ALT REF,2007-10-05T00:00:00.000Z,"MOSQUES, RELIGIOUS",24424952,-115.0715963,36.1300744,MUSLIM,NOT AVAILABLE,NOT AVAILABLE,NOT AVAILABLE,N,N
2870,10432022,CALVARY CHAPEL - SPRING VALLEY,LAS VEGAS,NV,89113,211,CLARK,32003,2007-09-10T00:00:00.000Z,ALT REF,2007-09-10T00:00:00.000Z,CHURCHES,37835479,-115.2486074,36.0807148,CHRISTIAN,CAL,NOT AVAILABLE,NOT AVAILABLE,Y,N
1564,10579584,FAITH BAPTIST CHURCH,LAS VEGAS,NV,89146,8710,CLARK,32003,2008-12-03T00:00:00.000Z,ALT REF,2008-12-03T00:00:00.000Z,CHURCHES,24444185,-115.2222733,36.1269518,CHRISTIAN,BAPT,NOT AVAILABLE,NOT AVAILABLE,Y,N
1591,10428676,CHABAD OF SUMMERLIN,LAS VEGAS,NV,89128,6888,CLARK,32003,2007-08-08T00:00:00.000Z,ALT REF,2007-08-08T00:00:00.000Z,SYNAGOGUES,28382715,-115.269188,36.2073841,JUDAIC,CHABAD,NOT AVAILABLE,CHABAD,N,N
1601,10588184,FELLOWSHIP CHRISTIAN CHURCH,LAS VEGAS,NV,89108,4307,CLARK,32003,2008-12-05T00:00:00.000Z,ALT REF,2008-12-05T00:00:00.000Z,CHURCHES,24437067,-115.2304982,36.2180616,CHRISTIAN,ABC,NOT AVAILABLE,NOT AVAILABLE,Y,N
1615,10588191,NORTHWEST COMMUNITY CHURCH,LAS VEGAS,NV,89128,258,CLARK,32003,2008-12-05T00:00:00.000Z,ALT REF,2008-12-05T00:00:00.000Z,CHURCHES,28382436,-115.2520665,36.2040721,CHRISTIAN,ABC,NOT AVAILABLE,NOT AVAILABLE,Y,N
1683,10582286,DESERT STORM BAPTIST CHURCH,LAS VEGAS,NV,89106,4412,CLARK,32003,2008-12-05T00:00:00.000Z,ALT REF,2008-12-05T00:00:00.000Z,CHURCHES,24441128,-115.1612007,36.1650232,CHRISTIAN,BAPT,NOT AVAILABLE,NOT AVAILABLE,Y,N
1684,10685202,TIBETAN BUDDHIST SANGHA OF AMERICA,LAS VEGAS,NV,89102,NULL,CLARK,32003,2008-12-05T00:00:00.000Z,ALT REF,2008-12-05T00:00:00.000Z,PLACES OF WORSHIP,134764247,-115.1978198,36.1266488,BUDDHIST,ECLECTIC,NOT AVAILABLE,NOT AVAILABLE,N,N
1787,10432021,CORNERSTONE CHRISTIAN FELLOWSHIP,LAS VEGAS,NV,89146,5313,CLARK,32003,2007-09-10T00:00:00.000Z,ALT REF,2007-09-10T00:00:00.000Z,CHURCHES,24443250,-115.2217049,36.1398691,CHRISTIAN,NOT AVAILABLE,NOT AVAILABLE,NOT AVAILABLE,Y,N
1813,10433312,COMMUNITY LUTHERAN CHURCH,LAS VEGAS,NV,89121,7337,CLARK,32003,2007-09-17T00:00:00.000Z,ALT REF,2007-09-17T00:00:00.000Z,CHURCHES,24430844,-115.093787,36.1005166,CHRISTIAN,ELCA,NOT AVAILABLE,NOT AVAILABLE,Y,N
1849,10435133,FIRST SOUTHERN BAPTIST CHURCH - LAS VEGAS,LAS VEGAS,NV,89104,2823,CLARK,32003,2007-09-20T00:00:00.000Z,ALT REF,2007-09-20T00:00:00.000Z,CHURCHES,24442715,-115.1455975,36.1474139,CHRISTIAN,SBC,1759,NOT AVAILABLE,Y,N
1891,10437429,REDROCK BAPTIST CHURCH,LAS VEGAS,NV,89107,3805,CLARK,32003,2007-09-20T00:00:00.000Z,ALT REF,2007-09-20T00:00:00.000Z,CHURCHES,24440998,-115.2172804,36.1663223,CHRISTIAN,SBC,1472,NOT AVAILABLE,Y,N
1900,10762535,WAT BUDDHAYANANDHARAMA,LAS VEGAS,NV,89156,6700,CLARK,32003,2008-12-04T00:00:00.000Z,ALT REF,2008-12-04T00:00:00.000Z,PLACES OF WORSHIP,24420757,-115.0570193,36.1932019,BUDDHIST,NOT AVAILABLE,NOT AVAILABLE,NOT AVAILABLE,N,N
1901,10460991,SPRING MEADOWS PRESBYTERIAN CHURCH,LAS VEGAS,NV,89113,3700,CLARK,32003,2008-12-03T00:00:00.000Z,ALT REF,2008-12-05T00:00:00.000Z,CHURCHES,97811825,-115.2686029,36.0500019,CHRISTIAN,PCA,NOT AVAILABLE,NOT AVAILABLE,Y,N
1902,10685506,LOTUS IN THE DESERT SANGHA,LAS VEGAS,NV,89117,5959,CLARK,32003,2008-12-04T00:00:00.000Z,ALT REF,2008-12-04T00:00:00.000Z,PLACES OF WORSHIP,97832968,-115.3054332,36.1451139,BUDDHIST,"VIPASSANA, ONE DHARMA",NOT AVAILABLE,NOT AVAILABLE,N,N
1958,10576782,YUNG KWANG PRESBYTERIAN CHURCH,LAS VEGAS,NV,89104,3251,CLARK,32003,2008-12-05T00:00:00.000Z,ALT REF,2008-12-05T00:00:00.000Z,CHURCHES,24442852,-115.1373487,36.1463262,CHRISTIAN,CRC,NOT AVAILABLE,NOT AVAILABLE,Y,N