OBJECTID,ID,NAME,CITY,STATE,ZIP,ZIPP4,COUNTY,FIPS,CONTDATE,CONTHOW,GEODATE,NAICSDESCR,GEOLINKID,X,Y,SUBTYPE,DENOM,MEMBERS,LOC_TYPE,PROT,CATH
5006,10431775,MASJID BILAL IBN RABAH,LOS ANGELES,CA,90043,2408,LOS ANGELES,6037,2007-10-09T00:00:00.000Z,ALT REF,2007-10-09T00:00:00.000Z,"MOSQUES, RELIGIOUS",24613611,-118.3302447,33.9926464,MUSLIM,NOT AVAILABLE,NOT AVAILABLE,NOT AVAILABLE,N,N
5030,10430612,MUSLIM STUDENT ORGANIZATION,LOS ANGELES,CA,90024,5000,LOS ANGELES,6037,2007-07-18T00:00:00.000Z,PHONE,2007-07-18T00:00:00.000Z,"MOSQUES, RELIGIOUS",126537542,-118.4435578,34.0703235,MUSLIM,NOT AVAILABLE,NOT AVAILABLE,NOT AVAILABLE,N,N
5040,10428886,CHABAD MID CITY CENTER,LOS ANGELES,CA,90036,1717,LOS ANGELES,6037,2007-08-02T00:00:00.000Z,PHONE,2008-11-04T00:00:00.000Z,SYNAGOGUES,724675232,-118.3611313,34.079185,JUDAIC,CHABAD,NOT AVAILABLE,CHABAD,N,N
5041,10428989,CONGREGATION BAIS NAFTOLI,LOS ANGELES,CA,90036,3022,LOS ANGELES,6037,2007-08-02T00:00:00.000Z,PHONE,2008-11-03T00:00:00.000Z,SYNAGOGUES,722898370,-118.3443862,34.0706246,JUDAIC,ORTHODOX,NOT AVAILABLE,NOT AVAILABLE,N,N
5042,10428315,CHABAD OF HANCOCK PARK,LOS ANGELES,CA,90036,2518,LOS ANGELES,6037,2007-08-02T00:00:00.000Z,PHONE,2008-11-04T00:00:00.000Z,SYNAGOGUES,722754772,-118.3437026,34.0771067,JUDAIC,CHABAD,NOT AVAILABLE,CHABAD,N,N
5044,10426723,CONGREGATION BAIS YEHUDA,LOS ANGELES,CA,90036,2518,LOS ANGELES,6037,2007-08-02T00:00:00.000Z,PHONE,2008-11-04T00:00:00.000Z,SYNAGOGUES,722754772,-118.3437061,34.0773334,JUDAIC,NOT AVAILABLE,NOT AVAILABLE,SYNAGOGUE,N,N
5045,10448164,OUR LADY OF MOUNT LEBANON - SAINT PETER CATHEDRAL,LOS ANGELES,CA,90048,3313,LOS ANGELES,6037,2007-08-31T00:00:00.000Z,ALT REF,2008-11-04T00:00:00.000Z,CHURCHES,727638989,-118.3777176,34.0726102,CHRISTIAN,NOT AVAILABLE,NOT AVAILABLE,NOT AVAILABLE,N,Y
5046,10427309,WESTWOOD KEHILLA,LOS ANGELES,CA,90025,4907,LOS ANGELES,6037,2007-08-02T00:00:00.000Z,PHONE,2008-11-04T00:00:00.000Z,SYNAGOGUES,711610124,-118.4277829,34.055446,JUDAIC,ORTHODOX,NOT AVAILABLE,SYNAGOGUE,N,N
5048,10426717,AHAVAS YISROEL SYNAGOGUE,LOS ANGELES,CA,90038,3350,LOS ANGELES,6037,2007-08-03T00:00:00.000Z,PHONE,2008-11-04T00:00:00.000Z,SYNAGOGUES,128789179,-118.3444187,34.0841038,JUDAIC,NOT AVAILABLE,NOT AVAILABLE,SYNAGOGUE,N,N
5050,10447606,OUR LADY OF THE BRIGHT MOUNT PARISH,LOS ANGELES,CA,90018,1820,LOS ANGELES,6037,2008-11-04T00:00:00.000Z,ALT REF,2008-11-05T00:00:00.000Z,CHURCHES,128790134,-118.3220489,34.0322834,CHRISTIAN,NOT AVAILABLE,NOT AVAILABLE,NOT AVAILABLE,N,Y
5051,10447670,SAINT THOMAS THE APOSTLE PARISH,LOS ANGELES,CA,90006,4305,LOS ANGELES,6037,2008-11-04T00:00:00.000Z,ALT REF,2008-11-04T00:00:00.000Z,CHURCHES,23841906,-118.2988679,34.0467873,CHRISTIAN,NOT AVAILABLE,NOT AVAILABLE,NOT AVAILABLE,N,Y
5053,10684240,DETROIT STREET ZEN CENTER,LOS ANGELES,CA,90036,4020,LOS ANGELES,6037,2008-11-04T00:00:00.000Z,ALT REF,2008-11-04T00:00:00.000Z,PLACES OF WORSHIP,23920563,-118.3469485,34.0634107,BUDDHIST,SOTO ZEN,NOT AVAILABLE,NOT AVAILABLE,N,N
5055,10684298,DONT WORRY ZENDO,LOS ANGELES,CA,90048,2612,LOS ANGELES,6037,2008-11-04T00:00:00.000Z,ALT REF,2008-11-04T00:00:00.000Z,PLACES OF WORSHIP,23915428,-118.3707852,34.0793641,BUDDHIST,MIXED - NON-SECTARIAN,NOT AVAILABLE,NOT AVAILABLE,N,N
5088,10684435,HANMAUM SEONWON OF LOS ANGELES,LOS ANGELES,CA,90004,4604,LOS ANGELES,6037,2008-10-29T00:00:00.000Z,ALT REF,2008-10-29T00:00:00.000Z,PLACES OF WORSHIP,23916490,-118.295148,34.0748796,BUDDHIST,KOREAN ZEN/SEON,NOT AVAILABLE,NOT AVAILABLE,N,N
5089,10684576,KANZEONJI NON-SECTARIAN BUDDHIST TEMPLE AND SIVA ASHRAM YOGA CENTER,LOS ANGELES,CA,90042,3138,LOS ANGELES,6037,2008-10-29T00:00:00.000Z,ALT REF,2008-10-29T00:00:00.000Z,"TEMPLES, RELIGIOUS",23903037,-118.2127319,34.1148932,BUDDHIST,SOTO ZEN,NOT AVAILABLE,NOT AVAILABLE,N,N
5096,10452463,NEW LIFE BAPTIST CHURCH,LOS ANGELES,CA,90011,2726,LOS ANGELES,6037,2008-11-05T00:00:00.000Z,ALT REF,2008-11-05T00:00:00.000Z,CHURCHES,23844344,-118.261703,34.0102909,CHRISTIAN,NBC,NOT AVAILABLE,NOT AVAILABLE,Y,N
5097,10685026,SENSHIN BUDDHIST TEMPLE,LOS ANGELES,CA,90007,3960,LOS ANGELES,6037,2008-11-05T00:00:00.000Z,ALT REF,2008-11-05T00:00:00.000Z,"TEMPLES, RELIGIOUS",23843590,-118.2982497,34.0214684,BUDDHIST,JODO SHINSHU BUDDHISM,NOT AVAILABLE,NOT AVAILABLE,N,N
5098,10684404,GOLD WHEEL MONASTERY,LOS ANGELES,CA,90042,4207,LOS ANGELES,6037,2008-11-05T00:00:00.000Z,ALT REF,2008-11-05T00:00:00.000Z,MONASTERIES (EXCEPT SCHOOLS),23903528,-118.1929962,34.1120878,BUDDHIST,"MAHAYANA, CH'AN (ZEN)",NOT AVAILABLE,NOT AVAILABLE,N,N
5099,10454102,WELCOME MISSIONARY BAPTIST CHURCH,LOS ANGELES,CA,90002,1113,LOS ANGELES,6037,2008-11-05T00:00:00.000Z,ALT REF,2008-11-05T00:00:00.000Z,CHURCHES,23941749,-118.2567809,33.9595857,CHRISTIAN,NBC,NOT AVAILABLE,NOT AVAILABLE,Y,N
5108,10457887,WALKER TEMPLE AFRICAN METHODIST EPISCOPAL CHURCH,LOS ANGELES,CA,90011,1543,LOS ANGELES,6037,2008-11-26T00:00:00.000Z,ALT REF,2008-12-04T00:00:00.000Z,CHURCHES,23843514,-118.2632505,34.0227983,CHRISTIAN,AME,NOT AVAILABLE,NOT AVAILABLE,Y,N
5109,10457723,BEVERLY HILLS COMMUNITY AFRICAN METHODIST EPISCOPAL CHURCH,LOS ANGELES,CA,90034,3119,LOS ANGELES,6037,2008-03-03T00:00:00.000Z,ALT REF,2008-03-03T00:00:00.000Z,CHURCHES,23902163,-118.3887536,34.0344827,CHRISTIAN,AME,NOT AVAILABLE,NOT AVAILABLE,Y,N
5124,10447600,IMMACULATE HEART OF MARY CHURCH,LOS ANGELES,CA,90029,2539,LOS ANGELES,6037,2008-11-21T00:00:00.000Z,ALT REF,2008-11-21T00:00:00.000Z,CHURCHES,23916642,-118.2974424,34.0904931,CHRISTIAN,NOT AVAILABLE,NOT AVAILABLE,NOT AVAILABLE,N,Y
5128,10576300,KINGDOM LIFE CHRISTIAN FELLOWSHIP,LOS ANGELES,CA,90062,2603,LOS ANGELES,6037,2008-11-21T00:00:00.000Z,ALT REF,2008-12-03T00:00:00.000Z,CHURCHES,23932070,-118.3103418,33.9930742,CHRISTIAN,NOT AVAILABLE,NOT AVAILABLE,NOT AVAILABLE,Y,N
4006,10447629,SAINT BERNARD CATHOLIC FAITH COMMUNITY,LOS ANGELES,CA,90065,2863,LOS ANGELES,6037,2008-11-21T00:00:00.000Z,ALT REF,2008-12-04T00:00:00.000Z,CHURCHES,23902936,-118.2351008,34.1102677,CHRISTIAN,NOT AVAILABLE,NOT AVAILABLE,NOT AVAILABLE,N,Y
4009,10585867,GREATER MOUNT CARMEL MISSIONARY BAPTIST CHURCH,LOS ANGELES,CA,90044,5504,LOS ANGELES,6037,2008-12-02T00:00:00.000Z,ALT REF,2008-12-02T00:00:00.000Z,CHURCHES,23940174,-118.287366,33.985359,CHRISTIAN,ABC,NOT AVAILABLE,NOT AVAILABLE,Y,N
4011,10586017,IGLESIA BAUTISTA HISPANA,LOS ANGELES,CA,90015,3329,LOS ANGELES,6037,2008-12-04T00:00:00.000Z,ALT REF,2008-12-04T00:00:00.000Z,CHURCHES,110164786,-118.2777665,34.0394322,CHRISTIAN,ABC,NOT AVAILABLE,NOT AVAILABLE,Y,N
4012,10585887,IGLESIA BAUTISTA VIDA NUEVA,LOS ANGELES,CA,90065,2105,LOS ANGELES,6037,2008-12-04T00:00:00.000Z,ALT REF,2008-12-04T00:00:00.000Z,CHURCHES,23903140,-118.2386443,34.1061665,CHRISTIAN,ABC,NOT AVAILABLE,NOT AVAILABLE,Y,N
4024,10585899,IGLESIA BAUTISTA LA HERMOSA,LOS ANGELES,CA,90032,NULL,LOS ANGELES,6037,2008-12-05T00:00:00.000Z,ALT REF,2008-12-05T00:00:00.000Z,CHURCHES,23906248,-118.1844015,34.085617,CHRISTIAN,ABC,NOT AVAILABLE,NOT AVAILABLE,Y,N
4042,10437775,HOLMAN UNITED METHODIST CHURCH,LOS ANGELES,CA,90018,1838,LOS ANGELES,6037,2007-09-24T00:00:00.000Z,ALT REF,2007-09-24T00:00:00.000Z,CHURCHES,23921787,-118.3205867,34.0321957,CHRISTIAN,UMC,NOT AVAILABLE,NOT AVAILABLE,Y,N
4044,10437778,WILSHIRE UNITED METHODIST CHURCH,LOS ANGELES,CA,90005,3722,LOS ANGELES,6037,2007-09-24T00:00:00.000Z,ALT REF,2007-09-24T00:00:00.000Z,CHURCHES,23921960,-118.3233093,34.0614379,CHRISTIAN,UMC,NOT AVAILABLE,NOT AVAILABLE,Y,N
4049,10438296,SOUTHSIDE CHURCH OF CHRIST,LOS ANGELES,CA,90047,5430,LOS ANGELES,6037,2007-10-10T00:00:00.000Z,ALT REF,2007-10-10T00:00:00.000Z,CHURCHES,23932729,-118.3065712,33.9602647,CHRISTIAN,COC,1200,NOT AVAILABLE,Y,N
4190,10442443,SAINT LAWRENCE OF BRINDISI CATHOLIC CHURCH,LOS ANGELES,CA,90002,2853,LOS ANGELES,6037,2008-11-24T00:00:00.000Z,ALT REF,2008-11-24T00:00:00.000Z,CHURCHES,121241306,-118.245901,33.9445573,CHRISTIAN,NOT AVAILABLE,NOT AVAILABLE,NOT AVAILABLE,N,Y
4204,10440847,SAINT BEDE'S EPISCOPAL CHURCH,LOS ANGELES,CA,90066,1904,LOS ANGELES,6037,2007-11-05T00:00:00.000Z,ALT REF,2007-11-05T00:00:00.000Z,CHURCHES,23900393,-118.4340317,34.0094514,CHRISTIAN,EPIS,NOT AVAILABLE,NOT AVAILABLE,Y,N
4205,10440848,CHURCH OF SAINT MARY IN PALMS,LOS ANGELES,CA,90034,3914,LOS ANGELES,6037,2007-11-05T00:00:00.000Z,ALT REF,2007-11-05T00:00:00.000Z,CHURCHES,23902333,-118.3994694,34.0274877,CHRISTIAN,EPIS,NOT AVAILABLE,NOT AVAILABLE,Y,N
4225,10455511,SECOND BAPTIST CHURCH,LOS ANGELES,CA,90011,1631,LOS ANGELES,6037,2008-11-24T00:00:00.000Z,ALT REF,2008-11-24T00:00:00.000Z,CHURCHES,23843608,-118.2562035,34.0211593,CHRISTIAN,NBC,NOT AVAILABLE,NOT AVAILABLE,Y,N
4231,10576309,TTO KAM SA HOME CHURCH,LOS ANGELES,CA,90012,1924,LOS ANGELES,6037,2008-11-21T00:00:00.000Z,ALT REF,2008-11-21T00:00:00.000Z,CHURCHES,23908367,-118.2311649,34.0672422,CHRISTIAN,CRC,NOT AVAILABLE,NOT AVAILABLE,Y,N
4233,10444783,ASSUMPTION CATHOLIC CHURCH,LOS ANGELES,CA,90033,2617,LOS ANGELES,6037,2008-11-21T00:00:00.000Z,ALT REF,2008-11-21T00:00:00.000Z,CHURCHES,23908581,-118.1981679,34.0482463,CHRISTIAN,NOT AVAILABLE,NOT AVAILABLE,NOT AVAILABLE,N,Y
4234,10447611,OUR LADY OF VICTORY CATHOLIC CHURCH,LOS ANGELES,CA,90023,4009,LOS ANGELES,6037,2008-11-21T00:00:00.000Z,ALT REF,2008-11-21T00:00:00.000Z,CHURCHES,23910647,-118.1834249,34.0161562,CHRISTIAN,NOT AVAILABLE,NOT AVAILABLE,NOT AVAILABLE,N,Y
4238,10452716,SAINT ANDREWS BAPTIST CHURCH,LOS ANGELES,CA,90018,3809,LOS ANGELES,6037,2008-11-21T00:00:00.000Z,ALT REF,2008-11-21T00:00:00.000Z,CHURCHES,23912828,-118.3116971,34.0216204,CHRISTIAN,NBC,NOT AVAILABLE,NOT AVAILABLE,Y,N
4239,10447630,SAINT BRENDAN CHURCH,LOS ANGELES,CA,90020,4613,LOS ANGELES,6037,2008-11-21T00:00:00.000Z,ALT REF,2008-11-21T00:00:00.000Z,CHURCHES,23921812,-118.314753,34.0687041,CHRISTIAN,NOT AVAILABLE,NOT AVAILABLE,NOT AVAILABLE,N,Y
4241,10447632,SAINT BRIDGET CHINESE CATHOLIC CENTER,LOS ANGELES,CA,90012,1416,LOS ANGELES,6037,2008-11-21T00:00:00.000Z,ALT REF,2008-11-21T00:00:00.000Z,CHURCHES,23905143,-118.2356111,34.0689655,CHRISTIAN,NOT AVAILABLE,NOT AVAILABLE,NOT AVAILABLE,N,Y
4248,10447626,SAINT ANTHONY CROATIAN CATHOLIC CHURCH,LOS ANGELES,CA,90012,2214,LOS ANGELES,6037,2008-11-21T00:00:00.000Z,ALT REF,2008-11-21T00:00:00.000Z,CHURCHES,23924960,-118.2432231,34.0632766,CHRISTIAN,NOT AVAILABLE,NOT AVAILABLE,NOT AVAILABLE,N,Y
4249,10447639,SAINT DOMINIC CHURCH,LOS ANGELES,CA,90041,1912,LOS ANGELES,6037,2008-11-21T00:00:00.000Z,ALT REF,2008-11-21T00:00:00.000Z,CHURCHES,24025003,-118.2119896,34.1378518,CHRISTIAN,NOT AVAILABLE,NOT AVAILABLE,NOT AVAILABLE,N,Y
4250,10430615,MASJID AS-SABIQUN,LOS ANGELES,CA,90011,5455,LOS ANGELES,6037,2008-11-21T00:00:00.000Z,ALT REF,2008-11-21T00:00:00.000Z,"MOSQUES, RELIGIOUS",23912753,-118.2563123,34.0017538,MUSLIM,NOT AVAILABLE,NOT AVAILABLE,NOT AVAILABLE,N,N
4255,10447622,SAINT ALPHONSUS CATHOLIC CHURCH,LOS ANGELES,CA,90022,2625,LOS ANGELES,6037,2008-11-24T00:00:00.000Z,ALT REF,2008-11-24T00:00:00.000Z,CHURCHES,23912505,-118.1550119,34.0260734,CHRISTIAN,NOT AVAILABLE,NOT AVAILABLE,NOT AVAILABLE,N,Y
4261,10585971,PARADISE BAPTIST CHURCH,LOS ANGELES,CA,90037,3837,LOS ANGELES,6037,2008-11-21T00:00:00.000Z,ALT REF,2008-11-21T00:00:00.000Z,CHURCHES,23932856,-118.2779426,33.9963423,CHRISTIAN,ABC,NOT AVAILABLE,NOT AVAILABLE,Y,N
4263,10447665,SAINT PETERS ITALIAN CHURCH IN LOS ANGELES,LOS ANGELES,CA,90012,1429,LOS ANGELES,6037,2008-11-21T00:00:00.000Z,ALT REF,2008-11-21T00:00:00.000Z,CHURCHES,23908369,-118.235065,34.0679941,CHRISTIAN,NOT AVAILABLE,NOT AVAILABLE,NOT AVAILABLE,N,Y
4264,10454948,GOOD NEWS MISSIONARY BAPTIST CHURCH,LOS ANGELES,CA,90008,4040,LOS ANGELES,6037,2008-11-25T00:00:00.000Z,ALT REF,2008-11-25T00:00:00.000Z,CHURCHES,23913154,-118.3193801,34.0034133,CHRISTIAN,NBC,NOT AVAILABLE,NOT AVAILABLE,Y,N
4267,10447631,SAINT BRIGID CATHOLIC CHURCH,LOS ANGELES,CA,90062,2701,LOS ANGELES,6037,2008-11-26T00:00:00.000Z,ALT REF,2008-11-26T00:00:00.000Z,CHURCHES,23932970,-118.308462,33.9943297,CHRISTIAN,NOT AVAILABLE,NOT AVAILABLE,NOT AVAILABLE,N,Y
4268,10585907,IMMANUEL BAPTIST CHURCH,LOS ANGELES,CA,90043,1449,LOS ANGELES,6037,2008-12-03T00:00:00.000Z,ALT REF,2008-12-03T00:00:00.000Z,CHURCHES,23913222,-118.3178057,34.0002491,CHRISTIAN,ABC,NOT AVAILABLE,NOT AVAILABLE,Y,N
4269,10453244,BETHANY BAPTIST CHURCH,LOS ANGELES,CA,90037,3325,LOS ANGELES,6037,2008-12-02T00:00:00.000Z,ALT REF,2008-12-02T00:00:00.000Z,CHURCHES,24593487,-118.2832384,33.9981882,CHRISTIAN,NBC,NOT AVAILABLE,NOT AVAILABLE,Y,N
4270,10684624,LOS ANGELES DHARMA,LOS ANGELES,CA,90025,3430,LOS ANGELES,6037,2008-12-01T00:00:00.000Z,ALT REF,2008-12-01T00:00:00.000Z,PLACES OF WORSHIP,23896878,-118.4446304,34.0530371,BUDDHIST,THERAVADA / VIPASSANA,NOT AVAILABLE,NOT AVAILABLE,N,N
4273,10447625,SAINT ANSELM CATHOLIC CHURCH,LOS ANGELES,CA,90043,4412,LOS ANGELES,6037,2008-11-24T00:00:00.000Z,ALT REF,2008-11-24T00:00:00.000Z,CHURCHES,23926817,-118.318192,33.9761269,CHRISTIAN,NOT AVAILABLE,NOT AVAILABLE,NOT AVAILABLE,N,Y
4274,10447601,MOTHER OF SORROWS CATHOLIC CHURCH,LOS ANGELES,CA,90003,3310,LOS ANGELES,6037,2008-11-24T00:00:00.000Z,ALT REF,2008-11-24T00:00:00.000Z,CHURCHES,23940911,-118.2742001,33.9580551,CHRISTIAN,NOT AVAILABLE,NOT AVAILABLE,NOT AVAILABLE,N,Y
4275,10447654,SAINT LUCY CATHOLIC CHURCH,LOS ANGELES,CA,90063,1113,LOS ANGELES,6037,2008-11-24T00:00:00.000Z,ALT REF,2008-11-24T00:00:00.000Z,CHURCHES,23908702,-118.1791444,34.0560239,CHRISTIAN,NOT AVAILABLE,NOT AVAILABLE,NOT AVAILABLE,N,Y
4276,10684972,RISSHO KOSEI-KAI BUDDHIST CHURCH OF LOS ANGELES,LOS ANGELES,CA,90033,3633,LOS ANGELES,6037,2008-12-03T00:00:00.000Z,ALT REF,2008-12-03T00:00:00.000Z,PLACES OF WORSHIP,23910372,-118.205352,34.0424409,BUDDHIST,MAHAYANA,NOT AVAILABLE,NOT AVAILABLE,N,N
4281,10447647,SAINT IGNATIUS OF LOYOLA CATHOLIC CHURCH,LOS ANGELES,CA,90042,3459,LOS ANGELES,6037,2008-11-21T00:00:00.000Z,ALT REF,2008-11-21T00:00:00.000Z,CHURCHES,23903504,-118.1904494,34.1141865,CHRISTIAN,NOT AVAILABLE,NOT AVAILABLE,NOT AVAILABLE,N,Y
4282,10585885,IGLESIA BAUTISTA SHALOM,LOS ANGELES,CA,90042,2742,LOS ANGELES,6037,2008-12-02T00:00:00.000Z,ALT REF,2008-12-02T00:00:00.000Z,CHURCHES,23903795,-118.1866594,34.1203675,CHRISTIAN,ABC,NOT AVAILABLE,NOT AVAILABLE,Y,N
4283,10585696,ATWATER PARK BAPTIST CHURCH,LOS ANGELES,CA,90039,2220,LOS ANGELES,6037,2008-12-02T00:00:00.000Z,ALT REF,2008-12-02T00:00:00.000Z,CHURCHES,23924132,-118.2562853,34.1168202,CHRISTIAN,ABC,NOT AVAILABLE,NOT AVAILABLE,Y,N
4284,10585699,BELMONT BAPTIST CHURCH,LOS ANGELES,CA,90003,3834,LOS ANGELES,6037,2008-12-02T00:00:00.000Z,ALT REF,2008-12-02T00:00:00.000Z,CHURCHES,23941669,-118.265381,33.952172,CHRISTIAN,ABC,NOT AVAILABLE,NOT AVAILABLE,Y,N
4285,10574846,METROPOLITAN AFRICAN METHODIST EPISCOPAL ZION CHURCH,LOS ANGELES,CA,90016,2814,LOS ANGELES,6037,2008-12-02T00:00:00.000Z,ALT REF,2008-12-02T00:00:00.000Z,CHURCHES,23920945,-118.3484473,34.0330721,CHRISTIAN,AMEZ,NOT AVAILABLE,NOT AVAILABLE,Y,N
4286,10684970,RINZAI-JI ZEN CENTER,LOS ANGELES,CA,90018,2020,LOS ANGELES,6037,2008-12-02T00:00:00.000Z,ALT REF,2008-12-02T00:00:00.000Z,PLACES OF WORSHIP,23921696,-118.3157471,34.0335494,BUDDHIST,RINZAI ZEN,NOT AVAILABLE,NOT AVAILABLE,N,N
4287,10585694,ATHENS BAPTIST CHURCH,LOS ANGELES,CA,90044,2916,LOS ANGELES,6037,2008-12-02T00:00:00.000Z,ALT REF,2008-12-02T00:00:00.000Z,CHURCHES,128797066,-118.2921626,33.9234149,CHRISTIAN,ABC,NOT AVAILABLE,NOT AVAILABLE,Y,N
4290,10447653,SAINT KEVIN CATHOLIC CHURCH,LOS ANGELES,CA,90004,3314,LOS ANGELES,6037,2008-11-24T00:00:00.000Z,ALT REF,2008-11-24T00:00:00.000Z,CHURCHES,23916213,-118.2981095,34.0759353,CHRISTIAN,NOT AVAILABLE,NOT AVAILABLE,NOT AVAILABLE,N,Y
4291,10444779,CATHEDRAL OF OUR LADY OF THE ANGELS,LOS ANGELES,CA,90012,2707,LOS ANGELES,6037,2008-11-24T00:00:00.000Z,ALT REF,2008-11-24T00:00:00.000Z,CHURCHES,23923941,-118.2454185,34.0579976,CHRISTIAN,NOT AVAILABLE,NOT AVAILABLE,NOT AVAILABLE,N,Y
4292,10444788,DOLORES MISSION,LOS ANGELES,CA,90033,3307,LOS ANGELES,6037,2008-11-24T00:00:00.000Z,ALT REF,2008-11-24T00:00:00.000Z,CHURCHES,23907911,-118.2232235,34.04659,CHRISTIAN,NOT AVAILABLE,NOT AVAILABLE,NOT AVAILABLE,N,Y
4293,10447663,SAINT PAUL CATHOLIC CHURCH,LOS ANGELES,CA,90018,1039,LOS ANGELES,6037,2008-11-24T00:00:00.000Z,ALT REF,2008-11-24T00:00:00.000Z,CHURCHES,23922275,-118.3293951,34.0395455,CHRISTIAN,NOT AVAILABLE,NOT AVAILABLE,NOT AVAILABLE,N,Y
4294,10432985,WARD AFRICAN METHODIST EPISCOPAL CHURCH,LOS ANGELES,CA,90007,1736,LOS ANGELES,6037,2008-11-26T00:00:00.000Z,ALT REF,2008-11-26T00:00:00.000Z,CHURCHES,23842743,-118.2862153,34.0338332,CHRISTIAN,AME,NOT AVAILABLE,NOT AVAILABLE,Y,N
4295,10447612,OUR LADY QUEEN OF THE ANGELS CHURCH,LOS ANGELES,CA,90012,2828,LOS ANGELES,6037,2008-11-21T00:00:00.000Z,ALT REF,2008-11-21T00:00:00.000Z,CHURCHES,724570164,-118.239635,34.0570887,CHRISTIAN,NOT AVAILABLE,NOT AVAILABLE,NOT AVAILABLE,N,Y
4296,10586013,SOUTH LOS ANGELES BAPTIST CHURCH,LOS ANGELES,CA,90003,3834,LOS ANGELES,6037,2008-12-01T00:00:00.000Z,ALT REF,2008-12-01T00:00:00.000Z,CHURCHES,23941669,-118.2654442,33.952719,CHRISTIAN,ABC,NOT AVAILABLE,NOT AVAILABLE,Y,N
4297,10585556,BETHANY BAPTIST CHURCH,LOS ANGELES,CA,90023,2138,LOS ANGELES,6037,2008-12-01T00:00:00.000Z,ALT REF,2008-12-01T00:00:00.000Z,CHURCHES,23893358,-118.2127985,34.0249301,CHRISTIAN,ABC,NOT AVAILABLE,NOT AVAILABLE,Y,N
4298,10457818,PRICE CHAPEL AFRICAN METHODIST EPISCOPAL CHURCH,LOS ANGELES,CA,90043,2804,LOS ANGELES,6037,2008-11-26T00:00:00.000Z,ALT REF,2008-11-26T00:00:00.000Z,CHURCHES,23932843,-118.3442565,33.9886435,CHRISTIAN,AME,NOT AVAILABLE,NOT AVAILABLE,Y,N
4299,10440371,THE CATHEDRAL CENTER OF SAINT PAUL,LOS ANGELES,CA,90026,4209,LOS ANGELES,6037,2008-11-25T00:00:00.000Z,ALT REF,2008-11-25T00:00:00.000Z,CHURCHES,724617507,-118.2591097,34.0733053,CHRISTIAN,EPIS,NOT AVAILABLE,NOT AVAILABLE,Y,N
4304,10576301,GRACIOUS ARK CHURCH,LOS ANGELES,CA,90006,5224,LOS ANGELES,6037,2008-11-21T00:00:00.000Z,ALT REF,2008-11-21T00:00:00.000Z,CHURCHES,23842030,-118.3035899,34.0439119,CHRISTIAN,CRC,NOT AVAILABLE,NOT AVAILABLE,Y,N
4320,10585741,CULVER COMMUNITY CHURCH,LOS ANGELES,CA,90066,6004,LOS ANGELES,6037,2008-12-01T00:00:00.000Z,ALT REF,2008-12-01T00:00:00.000Z,CHURCHES,23901671,-118.4145105,34.0037662,CHRISTIAN,ABC,NOT AVAILABLE,NOT AVAILABLE,Y,N
4323,10761675,CRENSHAW CHURCH OF CHRIST,LOS ANGELES,CA,90008,2746,LOS ANGELES,6037,2008-11-21T00:00:00.000Z,ALT REF,2008-11-21T00:00:00.000Z,CHURCHES,23913162,-118.3228556,34.0110972,CHRISTIAN,COC,450,NOT AVAILABLE,Y,N
4324,10447616,PRECIOUS BLOOD PARISH,LOS ANGELES,CA,90057,1505,LOS ANGELES,6037,2008-11-21T00:00:00.000Z,ALT REF,2008-11-21T00:00:00.000Z,CHURCHES,24581195,-118.2840829,34.0652379,CHRISTIAN,NOT AVAILABLE,NOT AVAILABLE,NOT AVAILABLE,N,Y
4346,10447614,OUR MOTHER OF GOOD COUNSEL CATHOLIC CHURCH,LOS ANGELES,CA,90027,1919,LOS ANGELES,6037,2008-11-24T00:00:00.000Z,ALT REF,2008-11-24T00:00:00.000Z,CHURCHES,23914635,-118.2912233,34.109674,CHRISTIAN,NOT AVAILABLE,NOT AVAILABLE,NOT AVAILABLE,N,Y
4348,10453730,SECOND MOUNT CARMEL MISSIONARY BAPTIST CHURCH,LOS ANGELES,CA,90003,2604,LOS ANGELES,6037,2008-11-26T00:00:00.000Z,ALT REF,2008-11-26T00:00:00.000Z,CHURCHES,23940619,-118.2653875,33.966618,CHRISTIAN,NBC,NOT AVAILABLE,NOT AVAILABLE,Y,N
4350,10447644,SAINT FRANCIS OF ASSISI CHURCH,LOS ANGELES,CA,90026,1011,LOS ANGELES,6037,2008-11-21T00:00:00.000Z,ALT REF,2008-11-21T00:00:00.000Z,CHURCHES,23918419,-118.2759802,34.0899297,CHRISTIAN,NOT AVAILABLE,NOT AVAILABLE,NOT AVAILABLE,N,Y
4351,10447643,SAINT FRANCIS XAVIER CHAPEL,LOS ANGELES,CA,90012,4309,LOS ANGELES,6037,2008-11-21T00:00:00.000Z,ALT REF,2008-11-21T00:00:00.000Z,CHURCHES,23907890,-118.2359617,34.04609,CHRISTIAN,NOT AVAILABLE,NOT AVAILABLE,NOT AVAILABLE,N,Y
4352,10447660,SAINT MICHAEL CATHOLIC CHURCH,LOS ANGELES,CA,90044,3428,LOS ANGELES,6037,2008-11-21T00:00:00.000Z,ALT REF,2008-11-21T00:00:00.000Z,CHURCHES,128796540,-118.2929692,33.9596893,CHRISTIAN,NOT AVAILABLE,NOT AVAILABLE,NOT AVAILABLE,N,Y
4377,10447650,SAINT JOAN OF ARC PARISH,LOS ANGELES,CA,90064,3010,LOS ANGELES,6037,2008-11-21T00:00:00.000Z,ALT REF,2008-11-21T00:00:00.000Z,CHURCHES,23897822,-118.4417885,34.0320823,CHRISTIAN,NOT AVAILABLE,NOT AVAILABLE,NOT AVAILABLE,N,Y
4380,10447656,SAINT MARCELLINUS CATHOLIC CHURCH,LOS ANGELES,CA,90040,2119,LOS ANGELES,6037,2008-11-24T00:00:00.000Z,ALT REF,2008-11-24T00:00:00.000Z,CHURCHES,23925505,-118.1630029,34.0044455,CHRISTIAN,NOT AVAILABLE,NOT AVAILABLE,NOT AVAILABLE,N,Y
4381,10447620,SAINT AGNES CATHOLIC CHURCH,LOS ANGELES,CA,90007,2223,LOS ANGELES,6037,2008-11-24T00:00:00.000Z,ALT REF,2008-11-24T00:00:00.000Z,CHURCHES,128791708,-118.291937,34.0318006,CHRISTIAN,NOT AVAILABLE,NOT AVAILABLE,NOT AVAILABLE,N,Y
4382,10444787,DIVINE SAVIOR CATHOLIC CHURCH,LOS ANGELES,CA,90065,1504,LOS ANGELES,6037,2008-11-24T00:00:00.000Z,ALT REF,2008-11-24T00:00:00.000Z,CHURCHES,23905383,-118.2223823,34.0881802,CHRISTIAN,NOT AVAILABLE,NOT AVAILABLE,NOT AVAILABLE,N,Y
4384,10447599,IMMACULATE CONCEPTION CATHOLIC CHURCH,LOS ANGELES,CA,90015,1229,LOS ANGELES,6037,2008-11-24T00:00:00.000Z,ALT REF,2008-11-24T00:00:00.000Z,CHURCHES,23922941,-118.27159,34.0505088,CHRISTIAN,NOT AVAILABLE,NOT AVAILABLE,NOT AVAILABLE,N,Y
4385,10447628,SAINT BERNADETTE CATHOLIC CHURCH,LOS ANGELES,CA,90008,4263,LOS ANGELES,6037,2008-11-24T00:00:00.000Z,ALT REF,2008-11-24T00:00:00.000Z,CHURCHES,23919041,-118.3424824,34.0079461,CHRISTIAN,NOT AVAILABLE,NOT AVAILABLE,NOT AVAILABLE,N,Y
4386,10448503,SAINT MARY COPTIC CATHOLIC CHURCH,LOS ANGELES,CA,90039,3815,LOS ANGELES,6037,2008-11-24T00:00:00.000Z,ALT REF,2008-11-24T00:00:00.000Z,CHURCHES,23914461,-118.2462919,34.1002401,CHRISTIAN,NOT AVAILABLE,NOT AVAILABLE,NOT AVAILABLE,N,Y
4395,10440842,SAINT PHILIPS CHURCH,LOS ANGELES,CA,90011,5506,LOS ANGELES,6037,2008-11-24T00:00:00.000Z,ALT REF,2008-11-24T00:00:00.000Z,CHURCHES,23843813,-118.2602739,34.0191717,CHRISTIAN,EPIS,NOT AVAILABLE,NOT AVAILABLE,Y,N
4397,10684132,CHAGDUD GONPA - THONDUP LING,LOS ANGELES,CA,90027,2913,LOS ANGELES,6037,2008-11-24T00:00:00.000Z,ALT REF,2008-11-24T00:00:00.000Z,PLACES OF WORSHIP,23914236,-118.2787765,34.1110128,BUDDHIST,"TIBETAN, NYINGMAPA",NOT AVAILABLE,NOT AVAILABLE,N,N
4398,10447674,VISITATION CATHOLIC CHURCH,LOS ANGELES,CA,90045,3772,LOS ANGELES,6037,2008-11-24T00:00:00.000Z,ALT REF,2008-11-24T00:00:00.000Z,CHURCHES,23929504,-118.4038934,33.9574933,CHRISTIAN,NOT AVAILABLE,NOT AVAILABLE,NOT AVAILABLE,N,Y
4399,10586025,TABERNACLE OF FAITH BAPTIST CHURCH,LOS ANGELES,CA,90059,1642,LOS ANGELES,6037,2008-11-24T00:00:00.000Z,ALT REF,2008-11-24T00:00:00.000Z,CHURCHES,128797814,-118.2538508,33.9312702,CHRISTIAN,ABC,NOT AVAILABLE,NOT AVAILABLE,Y,N
4402,10576297,BODY OF THE LORD,LOS ANGELES,CA,90057,5402,LOS ANGELES,6037,2008-11-21T00:00:00.000Z,ALT REF,2008-11-25T00:00:00.000Z,CHURCHES,23923421,-118.2822279,34.0636326,CHRISTIAN,CRC,NOT AVAILABLE,NOT AVAILABLE,Y,N
4404,10685259,VAJRAKILAYA CENTRES,LOS ANGELES,CA,90019,1707,LOS ANGELES,6037,2008-11-24T00:00:00.000Z,ALT REF,2008-11-24T00:00:00.000Z,PLACES OF WORSHIP,23922351,-118.3363227,34.0557212,BUDDHIST,"TIBETAN, NYINGMAPA",NOT AVAILABLE,NOT AVAILABLE,N,N
4405,10586060,ZION HILL BAPTIST CHURCH,LOS ANGELES,CA,90043,5234,LOS ANGELES,6037,2008-12-02T00:00:00.000Z,ALT REF,2008-12-02T00:00:00.000Z,CHURCHES,23939914,-118.3280803,33.9677811,CHRISTIAN,ABC,NOT AVAILABLE,NOT AVAILABLE,Y,N
4409,10585880,BARRINGTON AVENUE BAPTIST CHURCH,LOS ANGELES,CA,90025,5318,LOS ANGELES,6037,2008-12-02T00:00:00.000Z,ALT REF,2008-12-02T00:00:00.000Z,CHURCHES,23901046,-118.4515593,34.0381658,CHRISTIAN,ABC,NOT AVAILABLE,NOT AVAILABLE,Y,N
4410,10585869,GREATER NEW VISION MISSIONARY BAPTIST CHURCH,LOS ANGELES,CA,90062,1747,LOS ANGELES,6037,2008-12-02T00:00:00.000Z,ALT REF,2008-12-02T00:00:00.000Z,CHURCHES,23844307,-118.3059543,34.0110589,CHRISTIAN,ABC,NOT AVAILABLE,NOT AVAILABLE,Y,N
4413,10432991,WEST ANGELES CHURCH OF GOD IN CHRIST,LOS ANGELES,CA,90016,4820,LOS ANGELES,6037,2008-12-01T00:00:00.000Z,ALT REF,2008-12-01T00:00:00.000Z,CHURCHES,23919148,-118.3343919,34.0231719,CHRISTIAN,COGIC,NOT AVAILABLE,NOT AVAILABLE,Y,N
4416,10839150,DIAMOND WAY BUDDHIST CENTER LOS ANGELES,LOS ANGELES,CA,90036,2569,LOS ANGELES,6037,2008-11-24T00:00:00.000Z,ALT REF,2008-11-24T00:00:00.000Z,PLACES OF WORSHIP,722754769,-118.3448519,34.0757916,BUDDHIST,NOT AVAILABLE,NOT AVAILABLE,NOT AVAILABLE,N,N
4418,10584675,FLORENCE MISSIONARY BAPTIST CHURCH,LOS ANGELES,CA,90044,1906,LOS ANGELES,6037,2008-11-24T00:00:00.000Z,ALT REF,2008-11-24T00:00:00.000Z,CHURCHES,23931724,-118.3004647,33.9490754,CHRISTIAN,BAPT,NOT AVAILABLE,NOT AVAILABLE,Y,N
4440,10447605,OUR LADY HELP OF CHRISTIANS LOS ANGELES CHURCH,LOS ANGELES,CA,90031,3215,LOS ANGELES,6037,2008-11-24T00:00:00.000Z,ALT REF,2008-11-24T00:00:00.000Z,CHURCHES,128797277,-118.217879,34.067319,CHRISTIAN,NOT AVAILABLE,NOT AVAILABLE,NOT AVAILABLE,N,Y
4441,10440843,SAINT STEPHENS EPISCOPAL CHURCH,LOS ANGELES,CA,90028,5214,LOS ANGELES,6037,2008-11-24T00:00:00.000Z,ALT REF,2008-11-24T00:00:00.000Z,CHURCHES,121241235,-118.3231602,34.1035312,CHRISTIAN,EPIS,NOT AVAILABLE,NOT AVAILABLE,Y,N
4442,10447627,SAINT BASIL CATHOLIC CHURCH,LOS ANGELES,CA,90005,2319,LOS ANGELES,6037,2008-11-24T00:00:00.000Z,ALT REF,2008-11-24T00:00:00.000Z,CHURCHES,23921921,-118.3032047,34.0621323,CHRISTIAN,NOT AVAILABLE,NOT AVAILABLE,NOT AVAILABLE,N,Y
4443,10457840,SAINT JAMES AFRICAN METHODIST EPISCOPAL CHURCH,LOS ANGELES,CA,90044,6262,LOS ANGELES,6037,2008-11-24T00:00:00.000Z,ALT REF,2008-11-24T00:00:00.000Z,CHURCHES,23947093,-118.2852415,33.9763152,CHRISTIAN,AME,NOT AVAILABLE,NOT AVAILABLE,Y,N
4444,10684671,KADAMPA BUDDHIST MEDITATION CENTER,LOS ANGELES,CA,90031,1151,LOS ANGELES,6037,2008-12-02T00:00:00.000Z,ALT REF,2008-12-02T00:00:00.000Z,PLACES OF WORSHIP,23905637,-118.2378261,34.0920118,BUDDHIST,"TIBETAN, NEW KADAMPA",NOT AVAILABLE,NOT AVAILABLE,N,N
4445,10585852,FIRST SOUTHERN BAPTIST,LOS ANGELES,CA,90028,6716,LOS ANGELES,6037,2008-12-02T00:00:00.000Z,ALT REF,2008-12-02T00:00:00.000Z,CHURCHES,23916856,-118.3133161,34.0991314,CHRISTIAN,ABC,NOT AVAILABLE,NOT AVAILABLE,Y,N
4446,10585721,COCHRAN AVENUE BAPTIST CHURCH,LOS ANGELES,CA,90019,2847,LOS ANGELES,6037,2008-12-02T00:00:00.000Z,ALT REF,2008-12-02T00:00:00.000Z,CHURCHES,23919961,-118.351516,34.0506604,CHRISTIAN,ABC,NOT AVAILABLE,NOT AVAILABLE,Y,N
4447,10585993,REDEEMER BAPTIST CHURCH OF WEST LOS ANGELES,LOS ANGELES,CA,90064,4234,LOS ANGELES,6037,2008-12-01T00:00:00.000Z,ALT REF,2008-12-01T00:00:00.000Z,CHURCHES,126493822,-118.4193271,34.0310943,CHRISTIAN,ABC,NOT AVAILABLE,NOT AVAILABLE,Y,N
4448,10447640,SAINT EUGENE CATHOLIC CHURCH,LOS ANGELES,CA,90047,3739,LOS ANGELES,6037,2008-12-01T00:00:00.000Z,ALT REF,2008-12-01T00:00:00.000Z,CHURCHES,23927307,-118.3173317,33.9500411,CHRISTIAN,NOT AVAILABLE,NOT AVAILABLE,NOT AVAILABLE,N,Y
4449,10444786,CRISTO REY CATHOLIC CHURCH,LOS ANGELES,CA,90039,1203,LOS ANGELES,6037,2008-11-26T00:00:00.000Z,ALT REF,2008-11-26T00:00:00.000Z,CHURCHES,24028202,-118.2676569,34.1325809,CHRISTIAN,NOT AVAILABLE,NOT AVAILABLE,NOT AVAILABLE,N,Y
4450,10447607,OUR LADY OF GUADALUPE CHURCH,LOS ANGELES,CA,90063,3402,LOS ANGELES,6037,2008-11-24T00:00:00.000Z,ALT REF,2008-11-24T00:00:00.000Z,CHURCHES,23908783,-118.1795451,34.0421541,CHRISTIAN,NOT AVAILABLE,NOT AVAILABLE,NOT AVAILABLE,N,Y
4451,10447655,SAINT MALACHY CHURCH,LOS ANGELES,CA,90001,3311,LOS ANGELES,6037,2008-11-24T00:00:00.000Z,ALT REF,2008-11-24T00:00:00.000Z,CHURCHES,23941987,-118.253845,33.9649257,CHRISTIAN,NOT AVAILABLE,NOT AVAILABLE,NOT AVAILABLE,N,Y
4452,10430567,AL QUDDUS MOSQUE,LOS ANGELES,CA,90019,3916,LOS ANGELES,6037,2008-12-02T00:00:00.000Z,ALT REF,2008-12-02T00:00:00.000Z,"MOSQUES, RELIGIOUS",23920204,-118.3587443,34.0491112,MUSLIM,NOT AVAILABLE,NOT AVAILABLE,NOT AVAILABLE,N,N
4453,10430645,ISLAMIC CENTER OF SOUTHERN CALIFORNIA,LOS ANGELES,CA,90020,1910,LOS ANGELES,6037,2008-12-02T00:00:00.000Z,ALT REF,2008-12-02T00:00:00.000Z,"MOSQUES, RELIGIOUS",23923873,-118.2912822,34.0664219,MUSLIM,NOT AVAILABLE,NOT AVAILABLE,NOT AVAILABLE,N,N
4454,10685043,SHANTIDEVA SANGAMAYA,LOS ANGELES,CA,90013,2158,LOS ANGELES,6037,2008-12-02T00:00:00.000Z,ALT REF,2008-12-02T00:00:00.000Z,PLACES OF WORSHIP,23908013,-118.2422762,34.0409895,BUDDHIST,NON-SECTARIAN,NOT AVAILABLE,NOT AVAILABLE,N,N
4455,10678087,ISKCON RUKMINI DWARAKADISH TEMPLE,LOS ANGELES,CA,90034,4005,LOS ANGELES,6037,2008-12-02T00:00:00.000Z,ALT REF,2008-12-04T00:00:00.000Z,"TEMPLES, RELIGIOUS",23901703,-118.3970787,34.0252291,HINDU,NOT AVAILABLE,NOT AVAILABLE,NOT AVAILABLE,N,N
4456,10454416,HEAVENLY VISION MISSIONARY BAPTIST CHURCH,LOS ANGELES,CA,90003,3332,LOS ANGELES,6037,2008-11-24T00:00:00.000Z,ALT REF,2008-11-24T00:00:00.000Z,CHURCHES,23940752,-118.277512,33.9616433,CHRISTIAN,NBC,NOT AVAILABLE,NOT AVAILABLE,Y,N
4457,10447645,SAINT GERARD MAJELLA ROMAN CATHOLIC CHURCH,LOS ANGELES,CA,90066,6209,LOS ANGELES,6037,2008-11-24T00:00:00.000Z,ALT REF,2008-11-24T00:00:00.000Z,CHURCHES,23938057,-118.4191095,33.9952899,CHRISTIAN,NOT AVAILABLE,NOT AVAILABLE,NOT AVAILABLE,N,Y
4458,10447613,OUR LADY OF THE ROSARY OF TALPA CATHOLIC CHURCH,LOS ANGELES,CA,90033,4406,LOS ANGELES,6037,2008-12-01T00:00:00.000Z,ALT REF,2008-12-01T00:00:00.000Z,CHURCHES,23911092,-118.2047149,34.0371242,CHRISTIAN,NOT AVAILABLE,NOT AVAILABLE,NOT AVAILABLE,N,Y
4461,10574851,SAINT MARK AFRICAN METHODIST EPISCOPAL ZION CHURCH,LOS ANGELES,CA,90011,3227,LOS ANGELES,6037,2008-11-24T00:00:00.000Z,ALT REF,2008-11-24T00:00:00.000Z,CHURCHES,23844643,-118.2542017,34.0059479,CHRISTIAN,AMEZ,NOT AVAILABLE,NOT AVAILABLE,Y,N
4462,10585962,NUEVA IGLESIA BAUTISTA EN CRISTO,LOS ANGELES,CA,90011,2032,LOS ANGELES,6037,2008-11-24T00:00:00.000Z,ALT REF,2008-11-24T00:00:00.000Z,CHURCHES,23843887,-118.257088,34.0176882,CHRISTIAN,ABC,NOT AVAILABLE,NOT AVAILABLE,Y,N
4463,10585727,COMMUNITY BAPTIST CHURCH OF EAST LOS ANGELES,LOS ANGELES,CA,90022,2924,LOS ANGELES,6037,2008-11-25T00:00:00.000Z,ALT REF,2008-11-25T00:00:00.000Z,CHURCHES,23912651,-118.1686087,34.0192931,CHRISTIAN,ABC,NOT AVAILABLE,NOT AVAILABLE,Y,N
4464,10447652,SAINT JOSEPH CHURCH,LOS ANGELES,CA,90015,2533,LOS ANGELES,6037,2008-11-24T00:00:00.000Z,ALT REF,2008-11-24T00:00:00.000Z,CHURCHES,23842505,-118.2581157,34.0364579,CHRISTIAN,NOT AVAILABLE,NOT AVAILABLE,NOT AVAILABLE,N,Y
4465,10585834,FIRST BAPTIST CHURCH,LOS ANGELES,CA,90045,3903,LOS ANGELES,6037,2008-11-24T00:00:00.000Z,ALT REF,2008-11-24T00:00:00.000Z,CHURCHES,23938663,-118.3905856,33.9601761,CHRISTIAN,ABC,NOT AVAILABLE,NOT AVAILABLE,Y,N
4466,10447666,SAINT RAPHAEL CATHOLIC CHURCH,LOS ANGELES,CA,90044,5221,LOS ANGELES,6037,2008-11-24T00:00:00.000Z,ALT REF,2008-12-04T00:00:00.000Z,CHURCHES,23947090,-118.2908005,33.9757929,CHRISTIAN,NOT AVAILABLE,NOT AVAILABLE,NOT AVAILABLE,N,Y
4467,10447646,SAINT GREGORY NAZIANZEN CHURCH,LOS ANGELES,CA,90019,1935,LOS ANGELES,6037,2008-11-24T00:00:00.000Z,ALT REF,2008-11-24T00:00:00.000Z,CHURCHES,23921371,-118.3203389,34.0554936,CHRISTIAN,NOT AVAILABLE,NOT AVAILABLE,NOT AVAILABLE,N,Y
4468,10447648,SANTA ISABEL CATHOLIC CHURCH,LOS ANGELES,CA,90023,1323,LOS ANGELES,6037,2008-11-24T00:00:00.000Z,ALT REF,2008-11-24T00:00:00.000Z,CHURCHES,128801027,-118.2157793,34.0335201,CHRISTIAN,NOT AVAILABLE,NOT AVAILABLE,NOT AVAILABLE,N,Y
4469,10440844,SAINT BARNABAS EPISCOPAL CHURCH,LOS ANGELES,CA,90041,1904,LOS ANGELES,6037,2008-11-24T00:00:00.000Z,ALT REF,2008-11-24T00:00:00.000Z,CHURCHES,24025618,-118.2136956,34.1371726,CHRISTIAN,EPIS,NOT AVAILABLE,NOT AVAILABLE,Y,N
4471,10430553,IRANIAN AMERICAN MUSLIM ASSOCIATION OF NORTH AMERICA,LOS ANGELES,CA,90034,3712,LOS ANGELES,6037,2008-12-02T00:00:00.000Z,ALT REF,2008-12-02T00:00:00.000Z,"MOSQUES, RELIGIOUS",23902214,-118.4095302,34.028218,MUSLIM,NOT AVAILABLE,NOT AVAILABLE,NOT AVAILABLE,N,N
4472,10684445,HAZY MOON ZEN CENTER,LOS ANGELES,CA,90019,6348,LOS ANGELES,6037,2008-12-02T00:00:00.000Z,ALT REF,2008-12-02T00:00:00.000Z,PLACES OF WORSHIP,23921536,-118.313368,34.0420923,BUDDHIST,SOTO AND RINZAI ZEN,NOT AVAILABLE,NOT AVAILABLE,N,N
4473,10684037,DIAMOND WAY BUDDHIST CENTER LOS ANGELES,LOS ANGELES,CA,90036,5220,LOS ANGELES,6037,2008-11-24T00:00:00.000Z,ALT REF,2008-11-24T00:00:00.000Z,PLACES OF WORSHIP,23920573,-118.353504,34.067939,BUDDHIST,"TIBETAN, KARMA KAGYU",NOT AVAILABLE,NOT AVAILABLE,N,N
4475,10447619,SACRED HEART CATHOLIC CHURCH,LOS ANGELES,CA,90031,3030,LOS ANGELES,6037,2008-11-24T00:00:00.000Z,ALT REF,2008-11-24T00:00:00.000Z,CHURCHES,23905234,-118.212661,34.0703263,CHRISTIAN,NOT AVAILABLE,NOT AVAILABLE,NOT AVAILABLE,N,Y
4476,10447598,HOLY TRINITY CATHOLIC CHURCH,LOS ANGELES,CA,90039,1810,LOS ANGELES,6037,2008-11-24T00:00:00.000Z,ALT REF,2008-11-24T00:00:00.000Z,CHURCHES,24581830,-118.2614928,34.1210952,CHRISTIAN,NOT AVAILABLE,NOT AVAILABLE,NOT AVAILABLE,N,Y
4477,10447602,NATIVITY CATHOLIC CHURCH,LOS ANGELES,CA,90037,3629,LOS ANGELES,6037,2008-11-24T00:00:00.000Z,ALT REF,2008-11-24T00:00:00.000Z,CHURCHES,23940232,-118.2912366,33.9907461,CHRISTIAN,NOT AVAILABLE,NOT AVAILABLE,NOT AVAILABLE,N,Y
4478,10447623,SAINT ANASTASIA CATHOLIC CHURCH,LOS ANGELES,CA,90045,2340,LOS ANGELES,6037,2008-11-24T00:00:00.000Z,ALT REF,2008-11-24T00:00:00.000Z,CHURCHES,23933093,-118.4251912,33.9593929,CHRISTIAN,NOT AVAILABLE,NOT AVAILABLE,NOT AVAILABLE,N,Y
4479,10447637,SAINT COLUMBKILLE CATHOLIC CHURCH,LOS ANGELES,CA,90003,1537,LOS ANGELES,6037,2008-11-24T00:00:00.000Z,ALT REF,2008-11-24T00:00:00.000Z,CHURCHES,23931696,-118.2743034,33.9815105,CHRISTIAN,NOT AVAILABLE,NOT AVAILABLE,NOT AVAILABLE,N,Y
4480,10447634,SAINT CASIMIR CHURCH (LITHUANIAN),LOS ANGELES,CA,90027,3321,LOS ANGELES,6037,2008-11-24T00:00:00.000Z,ALT REF,2008-11-24T00:00:00.000Z,CHURCHES,23914261,-118.2747958,34.1086021,CHRISTIAN,NOT AVAILABLE,NOT AVAILABLE,NOT AVAILABLE,N,Y
4481,10684282,DHARMA VIJAYA BUDDHIST VIHARA,LOS ANGELES,CA,90019,6039,LOS ANGELES,6037,2008-12-02T00:00:00.000Z,ALT REF,2008-12-02T00:00:00.000Z,PLACES OF WORSHIP,23922269,-118.3307421,34.0411807,BUDDHIST,THERAVADA (SRI LANKAN),NOT AVAILABLE,NOT AVAILABLE,N,N
4484,10432986,MOUNT ZION MISSIONARY BAPTIST CHURCH,LOS ANGELES,CA,90011,4218,LOS ANGELES,6037,2008-11-25T00:00:00.000Z,ALT REF,2008-11-25T00:00:00.000Z,CHURCHES,23926321,-118.2518197,33.9972575,CHRISTIAN,BAPT,NOT AVAILABLE,NOT AVAILABLE,Y,N
4485,10585996,ROGER WILLIAMS BAPTIST CHURCH,LOS ANGELES,CA,90007,1635,LOS ANGELES,6037,2008-11-21T00:00:00.000Z,ALT REF,2008-11-21T00:00:00.000Z,CHURCHES,23842787,-118.2894638,34.0324282,CHRISTIAN,ABC,NOT AVAILABLE,NOT AVAILABLE,Y,N
4487,10585804,FIRST BAPTIST CHURCH OF LOS ANGELES,LOS ANGELES,CA,90005,1409,LOS ANGELES,6037,2008-11-21T00:00:00.000Z,ALT REF,2008-11-21T00:00:00.000Z,CHURCHES,23923665,-118.288826,34.0581848,CHRISTIAN,ABC,NOT AVAILABLE,NOT AVAILABLE,Y,N
4489,10585753,ETERNAL PROMISE BAPTIST CHURCH,LOS ANGELES,CA,90047,4031,LOS ANGELES,6037,2008-11-25T00:00:00.000Z,ALT REF,2008-11-25T00:00:00.000Z,CHURCHES,23932757,-118.315089,33.9457626,CHRISTIAN,ABC,NOT AVAILABLE,NOT AVAILABLE,Y,N
4495,10455289,GREATER LIBERTY BAPTIST CHURCH,LOS ANGELES,CA,90047,1814,LOS ANGELES,6037,2008-11-24T00:00:00.000Z,ALT REF,2008-11-24T00:00:00.000Z,CHURCHES,23932917,-118.3092641,33.9795388,CHRISTIAN,NBC,NOT AVAILABLE,NOT AVAILABLE,Y,N
4496,10585973,PARK WINDSOR BAPTIST CHURCH,LOS ANGELES,CA,90047,4418,LOS ANGELES,6037,2008-11-24T00:00:00.000Z,ALT REF,2008-11-24T00:00:00.000Z,CHURCHES,23943200,-118.3104412,33.9379184,CHRISTIAN,ABC,NOT AVAILABLE,NOT AVAILABLE,Y,N
4497,10585994,REHOBOTH MISSIONARY BAPTIST CHURCH,LOS ANGELES,CA,90008,5228,LOS ANGELES,6037,2008-11-24T00:00:00.000Z,ALT REF,2008-11-24T00:00:00.000Z,CHURCHES,23919617,-118.3288003,34.0034137,CHRISTIAN,ABC,NOT AVAILABLE,NOT AVAILABLE,Y,N
4510,10447604,OUR LADY OF SOLITUDE CATHOLIC CHURCH,LOS ANGELES,CA,90022,1116,LOS ANGELES,6037,2007-08-30T00:00:00.000Z,ALT REF,2007-08-30T00:00:00.000Z,CHURCHES,128799164,-118.1674389,34.0408682,CHRISTIAN,NOT AVAILABLE,NOT AVAILABLE,NOT AVAILABLE,N,Y
4511,10447651,SAINT JOHN THE EVANGELIST CATHOLIC CHURCH,LOS ANGELES,CA,90043,3908,LOS ANGELES,6037,2007-08-31T00:00:00.000Z,ALT REF,2007-08-31T00:00:00.000Z,CHURCHES,23939808,-118.3320201,33.9850072,CHRISTIAN,NOT AVAILABLE,NOT AVAILABLE,NOT AVAILABLE,N,Y
4512,10447657,SAINT MARTIN OF TOURS CATHOLIC CHURCH,LOS ANGELES,CA,90049,4220,LOS ANGELES,6037,2007-09-05T00:00:00.000Z,ALT REF,2007-09-06T00:00:00.000Z,CHURCHES,126547410,-118.474483,34.0619791,CHRISTIAN,NOT AVAILABLE,NOT AVAILABLE,NOT AVAILABLE,N,Y
4513,10447659,SAINT MARY MAGDALEN CATHOLIC CHURCH,LOS ANGELES,CA,90035,2403,LOS ANGELES,6037,2007-09-05T00:00:00.000Z,ALT REF,2007-09-06T00:00:00.000Z,CHURCHES,23920443,-118.3776416,34.0541537,CHRISTIAN,NOT AVAILABLE,NOT AVAILABLE,NOT AVAILABLE,N,Y
4514,10447664,SAINT PAUL THE APOSTLE CHURCH,LOS ANGELES,CA,90024,5032,LOS ANGELES,6037,2007-09-05T00:00:00.000Z,ALT REF,2007-09-06T00:00:00.000Z,CHURCHES,23896843,-118.4370582,34.0558576,CHRISTIAN,NOT AVAILABLE,NOT AVAILABLE,NOT AVAILABLE,N,Y
4515,10447668,SAINT TERESA OF AVILA CHURCH,LOS ANGELES,CA,90039,3108,LOS ANGELES,6037,2007-09-05T00:00:00.000Z,ALT REF,2007-09-06T00:00:00.000Z,CHURCHES,23918478,-118.2591451,34.0918002,CHRISTIAN,NOT AVAILABLE,NOT AVAILABLE,NOT AVAILABLE,N,Y
4564,10448805,LOYOLA MARYMOUNT UNIVERSITY - MARYMOUNT CHAPEL,LOS ANGELES,CA,90045,NULL,LOS ANGELES,6037,2007-09-06T00:00:00.000Z,ALT REF,2007-09-06T00:00:00.000Z,CHURCHES,110113510,-118.4225974,33.966524,CHRISTIAN,NOT AVAILABLE,NOT AVAILABLE,NOT AVAILABLE,N,Y
4568,10455431,VICTORY BAPTIST CHURCH,LOS ANGELES,CA,90011,5423,LOS ANGELES,6037,2008-02-22T00:00:00.000Z,ALT REF,2008-02-22T00:00:00.000Z,CHURCHES,23926307,-118.2605536,33.9999451,CHRISTIAN,NBC,NOT AVAILABLE,NOT AVAILABLE,Y,N
4570,10452961,MCCOY MEMORIAL BAPTIST CHURCH,LOS ANGELES,CA,90011,3612,LOS ANGELES,6037,2008-02-22T00:00:00.000Z,ALT REF,2008-02-22T00:00:00.000Z,CHURCHES,23912714,-118.2616584,34.0013577,CHRISTIAN,NBC,NOT AVAILABLE,NOT AVAILABLE,Y,N
4572,10457709,BETHEL AFRICAN METHODIST EPISCOPAL CHURCH,LOS ANGELES,CA,90047,2715,LOS ANGELES,6037,2008-02-22T00:00:00.000Z,ALT REF,2008-02-22T00:00:00.000Z,CHURCHES,23932690,-118.3086691,33.966989,CHRISTIAN,AME,NOT AVAILABLE,NOT AVAILABLE,Y,N
4580,10460341,SEGAERO PRESBYTERIAN CHURCH,LOS ANGELES,CA,90033,2414,LOS ANGELES,6037,2008-02-22T00:00:00.000Z,ALT REF,2008-02-22T00:00:00.000Z,CHURCHES,128815227,-118.2174109,34.0507857,CHRISTIAN,PCA,NOT AVAILABLE,NOT AVAILABLE,Y,N
4587,10457725,BROOKINS COMMUNITY AFRICAN METHODIST EPISCOPAL CHURCH,LOS ANGELES,CA,90062,2238,LOS ANGELES,6037,2008-03-03T00:00:00.000Z,ALT REF,2008-02-26T00:00:00.000Z,CHURCHES,23926318,-118.3141417,33.9990487,CHRISTIAN,AME,NOT AVAILABLE,NOT AVAILABLE,Y,N
4592,10454328,GREATER BEREAN BAPTIST CHURCH,LOS ANGELES,CA,90061,2300,LOS ANGELES,6037,2008-03-10T00:00:00.000Z,ALT REF,2008-03-10T00:00:00.000Z,CHURCHES,126485998,-118.27423,33.9190559,CHRISTIAN,NBC,NOT AVAILABLE,NOT AVAILABLE,Y,N
4593,10452850,GREATER NEW UNITY BAPTIST CHURCH,LOS ANGELES,CA,90003,4312,LOS ANGELES,6037,2008-03-10T00:00:00.000Z,ALT REF,2008-03-10T00:00:00.000Z,CHURCHES,23941722,-118.2654864,33.9476906,CHRISTIAN,NBC,NOT AVAILABLE,NOT AVAILABLE,Y,N
4594,10452971,GREATER NEW ZION BAPTIST CHURCH,LOS ANGELES,CA,90044,5901,LOS ANGELES,6037,2008-03-10T00:00:00.000Z,ALT REF,2008-03-10T00:00:00.000Z,CHURCHES,23942102,-118.2830265,33.9668891,CHRISTIAN,NBC,NOT AVAILABLE,NOT AVAILABLE,Y,N
4596,10453026,MCKINLEY AVENUE BAPTIST CHURCH,LOS ANGELES,CA,90011,4025,LOS ANGELES,6037,2008-03-10T00:00:00.000Z,ALT REF,2008-03-10T00:00:00.000Z,CHURCHES,23926050,-118.2611,33.9968547,CHRISTIAN,NBC,NOT AVAILABLE,NOT AVAILABLE,Y,N
4597,10453899,MOUNT SINAI MISSIONARY BAPTIST CHURCH,LOS ANGELES,CA,90019,6321,LOS ANGELES,6037,2008-03-10T00:00:00.000Z,ALT REF,2008-03-10T00:00:00.000Z,CHURCHES,23921546,-118.3125532,34.0415072,CHRISTIAN,NBC,NOT AVAILABLE,NOT AVAILABLE,Y,N
4600,10460332,PACIFIC CROSSROADS CHURCH,LOS ANGELES,CA,90025,1402,LOS ANGELES,6037,2008-03-07T00:00:00.000Z,ALT REF,2008-03-07T00:00:00.000Z,CHURCHES,23897761,-118.4610077,34.0454378,CHRISTIAN,PCA,NOT AVAILABLE,NOT AVAILABLE,Y,N
4602,10455209,RAY OF LIGHT BAPTIST CHURCH,LOS ANGELES,CA,90062,1646,LOS ANGELES,6037,2008-03-10T00:00:00.000Z,ALT REF,2008-03-10T00:00:00.000Z,CHURCHES,23844695,-118.3091698,34.006076,CHRISTIAN,NBC,NOT AVAILABLE,NOT AVAILABLE,Y,N
4603,10453449,REDEEMER MISSIONARY BAPTIST CHURCH,LOS ANGELES,CA,90007,1533,LOS ANGELES,6037,2008-03-10T00:00:00.000Z,ALT REF,2008-03-10T00:00:00.000Z,CHURCHES,23842803,-118.2983754,34.0331016,CHRISTIAN,NBC,NOT AVAILABLE,NOT AVAILABLE,Y,N
4604,10460334,REDEEMER PRESBYTERIAN CHURCH,LOS ANGELES,CA,90036,3135,LOS ANGELES,6037,2008-03-10T00:00:00.000Z,ALT REF,2008-03-10T00:00:00.000Z,CHURCHES,23915228,-118.3610896,34.0694474,CHRISTIAN,PCA,NOT AVAILABLE,NOT AVAILABLE,Y,N
4606,10454120,SAINT JOHN BAPTIST CHURCH,LOS ANGELES,CA,90037,2934,LOS ANGELES,6037,2008-03-10T00:00:00.000Z,ALT REF,2008-03-10T00:00:00.000Z,CHURCHES,23940068,-118.2904172,33.9984471,CHRISTIAN,NBC,NOT AVAILABLE,NOT AVAILABLE,Y,N
4607,10454299,SAINT PAUL BAPTIST CHURCH,LOS ANGELES,CA,90037,3202,LOS ANGELES,6037,2008-03-10T00:00:00.000Z,ALT REF,2008-03-10T00:00:00.000Z,CHURCHES,23927825,-118.2743738,33.9980465,CHRISTIAN,NBC,NOT AVAILABLE,NOT AVAILABLE,Y,N
4609,10452932,TABERNACLE BAPTIST CHURCH,LOS ANGELES,CA,90011,3143,LOS ANGELES,6037,2008-03-10T00:00:00.000Z,ALT REF,2008-03-10T00:00:00.000Z,CHURCHES,23844532,-118.2615615,34.0080294,CHRISTIAN,NBC,NOT AVAILABLE,NOT AVAILABLE,Y,N
4610,10453176,TRINITY BAPTIST CHURCH,LOS ANGELES,CA,90018,3418,LOS ANGELES,6037,2008-03-10T00:00:00.000Z,ALT REF,2008-03-10T00:00:00.000Z,CHURCHES,23921657,-118.3163326,34.0251769,CHRISTIAN,NBC,NOT AVAILABLE,NOT AVAILABLE,Y,N
4615,10455469,GREATER NEW LIGHT MISSIONARY BAPTIST CHURCH,LOS ANGELES,CA,90002,1703,LOS ANGELES,6037,2008-02-22T00:00:00.000Z,ALT REF,2008-03-17T00:00:00.000Z,CHURCHES,23946948,-118.2543742,33.9530717,CHRISTIAN,NBC,NOT AVAILABLE,NOT AVAILABLE,Y,N
4617,10452500,CHARITY MISSION BAPTIST CHURCH,LOS ANGELES,CA,90061,1924,LOS ANGELES,6037,2008-03-10T00:00:00.000Z,ALT REF,2008-03-10T00:00:00.000Z,CHURCHES,126485662,-118.2762371,33.9307409,CHRISTIAN,NBC,NOT AVAILABLE,NOT AVAILABLE,Y,N
4621,10457785,HENRY MCNEIL TURNER AFRICAN METHODIST EPISCOPAL CHURCH,LOS ANGELES,CA,90230,6532,LOS ANGELES,6037,2008-03-03T00:00:00.000Z,ALT REF,2008-03-04T00:00:00.000Z,CHURCHES,24592899,-118.3824946,33.988735,CHRISTIAN,AME,NOT AVAILABLE,NOT AVAILABLE,Y,N
4624,10459977,THE LORDS CHURCH,LOS ANGELES,CA,90019,3202,LOS ANGELES,6037,2008-02-22T00:00:00.000Z,ALT REF,2008-02-22T00:00:00.000Z,CHURCHES,23921415,-118.3216206,34.0527843,CHRISTIAN,PCA,NOT AVAILABLE,NOT AVAILABLE,Y,N
4625,10460284,ANTIOCH KOREAN CHRISTIAN COMMUNITY CHURCH,LOS ANGELES,CA,90019,1900,LOS ANGELES,6037,2008-02-21T00:00:00.000Z,ALT REF,2008-02-21T00:00:00.000Z,CHURCHES,23921382,-118.323196,34.0536076,CHRISTIAN,PCA,NOT AVAILABLE,NOT AVAILABLE,Y,N
4627,10453090,CEDAR GROVE BAPTIST CHURCH,LOS ANGELES,CA,90043,5201,LOS ANGELES,6037,2008-02-21T00:00:00.000Z,ALT REF,2008-02-21T00:00:00.000Z,CHURCHES,23931916,-118.3268422,33.9705186,CHRISTIAN,NBC,NOT AVAILABLE,NOT AVAILABLE,Y,N
4636,10448322,NATIVITY OF THE BLESSED VIRGIN MARY,LOS ANGELES,CA,90027,5702,LOS ANGELES,6037,2007-08-31T00:00:00.000Z,ALT REF,2007-08-30T00:00:00.000Z,CHURCHES,23916730,-118.3019556,34.0963608,CHRISTIAN,NOT AVAILABLE,NOT AVAILABLE,NOT AVAILABLE,N,Y
4644,10448450,OUR LADY QUEEN OF MARTYRS CHURCH (ARMENIAN),LOS ANGELES,CA,90033,2328,LOS ANGELES,6037,2007-08-30T00:00:00.000Z,ALT REF,2007-08-30T00:00:00.000Z,CHURCHES,23907723,-118.2219206,34.0516425,CHRISTIAN,NOT AVAILABLE,NOT AVAILABLE,NOT AVAILABLE,N,Y
4657,10448694,SAINT PIUS X KNANAYA CATHOLIC MISSION,LOS ANGELES,CA,90045,2141,LOS ANGELES,6037,2007-08-31T00:00:00.000Z,ALT REF,2007-08-31T00:00:00.000Z,CHURCHES,23938747,-118.3772157,33.9732105,CHRISTIAN,NOT AVAILABLE,NOT AVAILABLE,NOT AVAILABLE,N,Y
4660,10442495,LOYOLA MARYMOUNT UNIVERSITY - LEAVEY CHAPEL,LOS ANGELES,CA,90045,NULL,LOS ANGELES,6037,2007-09-06T00:00:00.000Z,ALT REF,2007-09-06T00:00:00.000Z,CHURCHES,28488831,-118.4175611,33.9695995,CHRISTIAN,NOT AVAILABLE,NOT AVAILABLE,NOT AVAILABLE,N,Y
4678,10460051,CHOONG HYUN MISSION CHURCH,LOS ANGELES,CA,90039,1103,LOS ANGELES,6037,2008-02-22T00:00:00.000Z,ALT REF,2008-02-22T00:00:00.000Z,CHURCHES,121206786,-118.2734783,34.1421912,CHRISTIAN,PCA,NOT AVAILABLE,NOT AVAILABLE,Y,N
4683,10447615,OUR SAVIOR CATHOLIC CENTER,LOS ANGELES,CA,90007,3624,LOS ANGELES,6037,2007-08-30T00:00:00.000Z,ALT REF,2007-08-30T00:00:00.000Z,CHURCHES,23843423,-118.2832283,34.0250735,CHRISTIAN,NOT AVAILABLE,NOT AVAILABLE,NOT AVAILABLE,N,Y
4684,10447618,THE RESURRECTION CATHOLIC CHURCH,LOS ANGELES,CA,90023,2917,LOS ANGELES,6037,2007-08-30T00:00:00.000Z,ALT REF,2007-08-30T00:00:00.000Z,CHURCHES,23925944,-118.2053726,34.0225009,CHRISTIAN,NOT AVAILABLE,NOT AVAILABLE,NOT AVAILABLE,N,Y
4685,10447636,SAINT COLUMBAN CATHOLIC CHURCH,LOS ANGELES,CA,90026,5712,LOS ANGELES,6037,2007-09-05T00:00:00.000Z,ALT REF,2007-09-05T00:00:00.000Z,CHURCHES,28486897,-118.2635871,34.0632743,CHRISTIAN,NOT AVAILABLE,NOT AVAILABLE,NOT AVAILABLE,N,Y
4686,10447673,TRANSFIGURATION CATHOLIC CHURCH,LOS ANGELES,CA,90008,2728,LOS ANGELES,6037,2007-08-31T00:00:00.000Z,ALT REF,2007-08-31T00:00:00.000Z,CHURCHES,23913148,-118.3209962,34.0110644,CHRISTIAN,NOT AVAILABLE,NOT AVAILABLE,NOT AVAILABLE,N,Y
4693,10448804,LOYOLA MARYMOUNT UNIVERSITY - CHAPEL OF THE SACRED HEART,LOS ANGELES,CA,90045,NULL,LOS ANGELES,6037,2007-09-06T00:00:00.000Z,ALT REF,2007-09-06T00:00:00.000Z,CHURCHES,110113497,-118.4165858,33.972299,CHRISTIAN,NOT AVAILABLE,NOT AVAILABLE,NOT AVAILABLE,N,Y
4694,10448803,LOYOLA MARYMOUNT UNIVERSITY - HUESMAN CHAPEL,LOS ANGELES,CA,90045,NULL,LOS ANGELES,6037,2007-09-06T00:00:00.000Z,ALT REF,2007-09-06T00:00:00.000Z,CHURCHES,110113498,-118.4149655,33.9709051,CHRISTIAN,NOT AVAILABLE,NOT AVAILABLE,NOT AVAILABLE,N,Y
4695,10432992,LOS ANGELES INTERNATIONAL CHURCH OF CHRIST,LOS ANGELES,CA,90010,2850,LOS ANGELES,6037,2008-11-25T00:00:00.000Z,ALT REF,2008-11-25T00:00:00.000Z,CHURCHES,23921940,-118.3072303,34.0622693,CHRISTIAN,ICC,NOT AVAILABLE,NOT AVAILABLE,Y,N
4696,10585930,LOS ANGELES JAPANESE BAPTIST CHURCH,LOS ANGELES,CA,90033,4104,LOS ANGELES,6037,2008-11-25T00:00:00.000Z,ALT REF,2008-11-25T00:00:00.000Z,CHURCHES,23925787,-118.2029699,34.0389414,CHRISTIAN,ABC,NOT AVAILABLE,NOT AVAILABLE,Y,N
4700,10457860,SAINT MARK AFRICAN METHODIST EPISCOPAL CHURCH,LOS ANGELES,CA,90061,2733,LOS ANGELES,6037,2008-02-26T00:00:00.000Z,ALT REF,2008-02-26T00:00:00.000Z,CHURCHES,23943887,-118.2656122,33.9151143,CHRISTIAN,AME,NOT AVAILABLE,NOT AVAILABLE,Y,N
4715,10443111,SAN ANTONIO DE PADUA PARISH,LOS ANGELES,CA,90033,NULL,LOS ANGELES,6037,2007-08-31T00:00:00.000Z,ALT REF,2007-08-31T00:00:00.000Z,CHURCHES,23907682,-118.220599,34.0529843,CHRISTIAN,NOT AVAILABLE,NOT AVAILABLE,NOT AVAILABLE,N,Y
4734,10447669,SANTA TERESITA CATHOLIC CHURCH,LOS ANGELES,CA,90033,1435,LOS ANGELES,6037,2007-08-31T00:00:00.000Z,ALT REF,2007-08-31T00:00:00.000Z,CHURCHES,23908502,-118.197515,34.057384,CHRISTIAN,NOT AVAILABLE,NOT AVAILABLE,NOT AVAILABLE,N,Y
4735,10447662,SAINT PATRICK CATHOLIC CHURCH,LOS ANGELES,CA,90011,2527,LOS ANGELES,6037,2007-09-05T00:00:00.000Z,ALT REF,2007-09-06T00:00:00.000Z,CHURCHES,23844182,-118.2568818,34.0124968,CHRISTIAN,NOT AVAILABLE,NOT AVAILABLE,NOT AVAILABLE,N,Y
4736,10447661,SAN MIGUEL CATHOLIC CHURCH,LOS ANGELES,CA,90059,1302,LOS ANGELES,6037,2007-09-05T00:00:00.000Z,ALT REF,2007-09-05T00:00:00.000Z,CHURCHES,23865678,-118.2326363,33.9372109,CHRISTIAN,NOT AVAILABLE,NOT AVAILABLE,NOT AVAILABLE,N,Y
4737,10447649,SAINT JEROME CATHOLIC CHURCH,LOS ANGELES,CA,90045,2141,LOS ANGELES,6037,2007-08-31T00:00:00.000Z,ALT REF,2007-08-31T00:00:00.000Z,CHURCHES,23938747,-118.3772157,33.9732105,CHRISTIAN,NOT AVAILABLE,NOT AVAILABLE,NOT AVAILABLE,N,Y
4738,10447621,SAINT ALOYSIUS GONZAGA PARISH (HISPANIC),LOS ANGELES,CA,90001,3121,LOS ANGELES,6037,2007-08-30T00:00:00.000Z,ALT REF,2007-08-30T00:00:00.000Z,CHURCHES,23873679,-118.2366017,33.9678256,CHRISTIAN,NOT AVAILABLE,NOT AVAILABLE,NOT AVAILABLE,N,Y
4739,10447617,PRESENTATION OF THE BLESSED VIRGIN MARY PARISH,LOS ANGELES,CA,90001,1243,LOS ANGELES,6037,2007-08-31T00:00:00.000Z,ALT REF,2007-08-30T00:00:00.000Z,CHURCHES,23873427,-118.2495617,33.981252,CHRISTIAN,NOT AVAILABLE,NOT AVAILABLE,NOT AVAILABLE,N,Y
4740,10447597,HOLY SPIRIT CATHOLIC CHURCH,LOS ANGELES,CA,90019,4031,LOS ANGELES,6037,2007-08-31T00:00:00.000Z,ALT REF,2007-08-30T00:00:00.000Z,CHURCHES,23920030,-118.3543193,34.047765,CHRISTIAN,NOT AVAILABLE,NOT AVAILABLE,NOT AVAILABLE,N,Y
4744,10432982,CHURCH OF THE HARVEST,LOS ANGELES,CA,90028,8704,LOS ANGELES,6037,2007-09-11T00:00:00.000Z,ALT REF,2007-09-14T00:00:00.000Z,CHURCHES,23916616,-118.3242722,34.0982963,CHRISTIAN,NONDENOM,NOT AVAILABLE,NOT AVAILABLE,Y,N
4747,10443231,SAINT AGATHA'S PARISH FAMILY,LOS ANGELES,CA,90016,3512,LOS ANGELES,6037,2007-08-30T00:00:00.000Z,ALT REF,2007-08-30T00:00:00.000Z,CHURCHES,23920994,-118.3520427,34.03211,CHRISTIAN,NOT AVAILABLE,NOT AVAILABLE,NOT AVAILABLE,N,Y
4756,10442544,SAINT ODILIA CATHOLIC CHURCH,LOS ANGELES,CA,90011,4807,LOS ANGELES,6037,2007-08-30T00:00:00.000Z,ALT REF,2007-08-30T00:00:00.000Z,CHURCHES,23931660,-118.2517916,33.9951431,CHRISTIAN,NOT AVAILABLE,NOT AVAILABLE,NOT AVAILABLE,N,Y
4765,10453243,CALVARY BAPTIST CHURCH,LOS ANGELES,CA,90056,1710,LOS ANGELES,6037,2008-02-22T00:00:00.000Z,ALT REF,2008-02-27T00:00:00.000Z,CHURCHES,23930695,-118.3626269,33.9867936,CHRISTIAN,NBC,NOT AVAILABLE,NOT AVAILABLE,Y,N
4771,10427664,CONGREGATION BETH CHAYIM CHADASHIM,LOS ANGELES,CA,90035,2625,LOS ANGELES,6037,2007-08-02T00:00:00.000Z,PHONE,2007-08-02T00:00:00.000Z,SYNAGOGUES,23920268,-118.3716242,34.0521544,JUDAIC,REFORM,208,NOT AVAILABLE,N,N
4772,10429565,BEIT MIDRASH SARA VE' SIMHA,LOS ANGELES,CA,90077,1519,LOS ANGELES,6037,2007-07-27T00:00:00.000Z,PHONE,2007-07-27T00:00:00.000Z,SYNAGOGUES,128797702,-118.4716786,34.1281735,JUDAIC,NOT AVAILABLE,NOT AVAILABLE,NOT AVAILABLE,N,N
4777,10429563,TEMPLE BETH AM,LOS ANGELES,CA,90035,2507,LOS ANGELES,6037,2007-08-03T00:00:00.000Z,PHONE,2007-08-03T00:00:00.000Z,SYNAGOGUES,23920811,-118.3765841,34.05827,JUDAIC,NOT AVAILABLE,NOT AVAILABLE,NOT AVAILABLE,N,N
4778,10429564,TEMPLE BETH ZION,LOS ANGELES,CA,90036,4716,LOS ANGELES,6037,2007-08-01T00:00:00.000Z,PHONE,2007-08-01T00:00:00.000Z,SYNAGOGUES,23919821,-118.3505705,34.0576467,JUDAIC,NOT AVAILABLE,NOT AVAILABLE,NOT AVAILABLE,N,N
4779,10428888,CHABAD OF BRENTWOOD,LOS ANGELES,CA,90049,4927,LOS ANGELES,6037,2007-08-03T00:00:00.000Z,PHONE,2007-08-03T00:00:00.000Z,SYNAGOGUES,23896166,-118.4742654,34.050322,JUDAIC,CHABAD,NOT AVAILABLE,CHABAD,N,N
4783,10426171,HOR CHAIM CONGREGATION,LOS ANGELES,CA,90036,2727,LOS ANGELES,6037,2007-08-01T00:00:00.000Z,PHONE,2007-08-01T00:00:00.000Z,SYNAGOGUES,23915237,-118.3566387,34.0763712,JUDAIC,NOT AVAILABLE,NOT AVAILABLE,SYNAGOGUE,N,N
4784,10427974,TEMPLE ISAIAH,LOS ANGELES,CA,90064,2607,LOS ANGELES,6037,2007-08-02T00:00:00.000Z,PHONE,2007-08-02T00:00:00.000Z,SYNAGOGUES,23898292,-118.4152557,34.0475674,JUDAIC,REFORM,921,NOT AVAILABLE,N,N
4785,10427983,TEMPLE ISRAEL,LOS ANGELES,CA,90046,2904,LOS ANGELES,6037,2007-08-02T00:00:00.000Z,PHONE,2007-08-02T00:00:00.000Z,SYNAGOGUES,23911378,-118.3492993,34.1014023,JUDAIC,REFORM,790,NOT AVAILABLE,N,N
4788,10430274,KABBALAH CENTRE INTERNATIONAL INCORPORATED,LOS ANGELES,CA,90035,1505,LOS ANGELES,6037,2007-08-07T00:00:00.000Z,ALT REF,2007-08-07T00:00:00.000Z,SYNAGOGUES,23898473,-118.3833218,34.0579864,JUDAIC,NOT AVAILABLE,NOT AVAILABLE,NOT AVAILABLE,N,N
4790,10426718,AISH HATORAH OF LOS ANGELES,LOS ANGELES,CA,90035,1321,LOS ANGELES,6037,2007-07-27T00:00:00.000Z,PHONE,2007-07-27T00:00:00.000Z,SYNAGOGUES,23898251,-118.390132,34.0550555,JUDAIC,OTHER,NOT AVAILABLE,SYNAGOGUE,N,N
4791,10426720,B'NAI DAVID - JUDEA CONGREGATION,LOS ANGELES,CA,90035,3304,LOS ANGELES,6037,2007-07-30T00:00:00.000Z,PHONE,2007-07-30T00:00:00.000Z,SYNAGOGUES,23898268,-118.385843,34.0548168,JUDAIC,ORTHODOX,NOT AVAILABLE,SYNAGOGUE,N,N
4792,10426722,CONGREGATION AHAVATH ISRAEL,LOS ANGELES,CA,90029,2331,LOS ANGELES,6037,2007-08-02T00:00:00.000Z,PHONE,2007-08-02T00:00:00.000Z,SYNAGOGUES,23916795,-118.3087207,34.0917165,JUDAIC,ORTHODOX,NOT AVAILABLE,SYNAGOGUE,N,N
4793,10426724,CONGREGATION BETH ISRAEL,LOS ANGELES,CA,90048,4518,LOS ANGELES,6037,2007-07-31T00:00:00.000Z,PHONE,2007-07-31T00:00:00.000Z,SYNAGOGUES,23915220,-118.3653782,34.0758583,JUDAIC,ORTHODOX,NOT AVAILABLE,SYNAGOGUE,N,N
4794,10426726,CONGREGATION SHAAREI TEFILA,LOS ANGELES,CA,90036,2546,LOS ANGELES,6037,2007-07-31T00:00:00.000Z,PHONE,2007-07-31T00:00:00.000Z,SYNAGOGUES,23915205,-118.3482281,34.0764046,JUDAIC,ORTHODOX,NOT AVAILABLE,SYNAGOGUE,N,N
4795,10426727,CONGREGATION TIFERETH ZVI,LOS ANGELES,CA,90036,2728,LOS ANGELES,6037,2007-07-31T00:00:00.000Z,PHONE,2007-07-31T00:00:00.000Z,SYNAGOGUES,23915211,-118.3547119,34.0763463,JUDAIC,ORTHODOX,NOT AVAILABLE,SYNAGOGUE,N,N
4797,10426728,CONGREGATION TORAH OHR,LOS ANGELES,CA,90036,2537,LOS ANGELES,6037,2007-08-06T00:00:00.000Z,PHONE,2007-08-06T00:00:00.000Z,SYNAGOGUES,23915204,-118.3465044,34.0760016,JUDAIC,NOT AVAILABLE,NOT AVAILABLE,SYNAGOGUE,N,N
4806,10429100,YESHIVA OF LOS ANGELES BEIS MIDRASH,LOS ANGELES,CA,90035,4720,LOS ANGELES,6037,2007-08-06T00:00:00.000Z,PHONE,2007-08-06T00:00:00.000Z,SYNAGOGUES,126495915,-118.4011844,34.0540207,JUDAIC,ORTHODOX,NOT AVAILABLE,NOT AVAILABLE,N,N
4809,10429107,ANSHE EMES SYNAGOGUE,LOS ANGELES,CA,90035,3402,LOS ANGELES,6037,2007-07-30T00:00:00.000Z,PHONE,2007-07-30T00:00:00.000Z,SYNAGOGUES,23898308,-118.3838336,34.052307,JUDAIC,ORTHODOX,NOT AVAILABLE,NOT AVAILABLE,N,N
4810,10429111,KAHAL JOSEPH CONGREGATION,LOS ANGELES,CA,90025,4907,LOS ANGELES,6037,2007-08-01T00:00:00.000Z,PHONE,2007-08-01T00:00:00.000Z,SYNAGOGUES,23897241,-118.4273259,34.0556891,JUDAIC,SEPHARDIC,NOT AVAILABLE,NOT AVAILABLE,N,N
4812,10429112,BET MIDRASH RAV SHIMON BAR YOHAI,LOS ANGELES,CA,90036,2542,LOS ANGELES,6037,2007-07-30T00:00:00.000Z,PHONE,2007-07-30T00:00:00.000Z,SYNAGOGUES,23914885,-118.347706,34.0771173,JUDAIC,ORTHODOX,NOT AVAILABLE,NOT AVAILABLE,N,N
4828,10426739,YOUNG ISRAEL OF CENTURY CITY,LOS ANGELES,CA,90035,1205,LOS ANGELES,6037,2007-07-26T00:00:00.000Z,PHONE,2007-07-30T00:00:00.000Z,SYNAGOGUES,23898246,-118.3934039,34.0555749,JUDAIC,NOT AVAILABLE,NOT AVAILABLE,SYNAGOGUE,N,N
4830,10428610,CHABAD OF BEVERLYWOOD,LOS ANGELES,CA,90034,1129,LOS ANGELES,6037,2007-08-01T00:00:00.000Z,PHONE,2007-08-01T00:00:00.000Z,SYNAGOGUES,23898279,-118.3866681,34.0434513,JUDAIC,CHABAD,NOT AVAILABLE,CHABAD,N,N
4836,10428415,MAALOT CHABAD CENTER,LOS ANGELES,CA,90036,3874,LOS ANGELES,6037,2007-08-01T00:00:00.000Z,PHONE,2007-08-01T00:00:00.000Z,SYNAGOGUES,23920721,-118.3519904,34.057734,JUDAIC,CHABAD,NOT AVAILABLE,CHABAD,N,N
4840,10428759,CHABAD OF CHEVIOT HILLS,LOS ANGELES,CA,90064,4738,LOS ANGELES,6037,2007-08-06T00:00:00.000Z,PHONE,2007-08-06T00:00:00.000Z,SYNAGOGUES,23902271,-118.4114428,34.0314955,JUDAIC,CHABAD,NOT AVAILABLE,CHABAD,N,N
4860,10428099,WESTSIDE JEWISH COMMUNITY CENTER,LOS ANGELES,CA,90036,4657,LOS ANGELES,6037,2007-08-03T00:00:00.000Z,PHONE,2007-08-03T00:00:00.000Z,SYNAGOGUES,23920711,-118.3590151,34.0569314,JUDAIC,NOT AVAILABLE,NOT AVAILABLE,NOT AVAILABLE,N,N
4861,10428082,WILSHIRE BOULEVARD TEMPLE,LOS ANGELES,CA,90010,2703,LOS ANGELES,6037,2007-07-31T00:00:00.000Z,PHONE,2007-07-31T00:00:00.000Z,SYNAGOGUES,23921938,-118.3049687,34.0621407,JUDAIC,REFORM,2081,NOT AVAILABLE,N,N
4863,10426735,SEPHARDIC TEMPLE TIFERETH ISRAEL,LOS ANGELES,CA,90024,4510,LOS ANGELES,6037,2007-07-30T00:00:00.000Z,PHONE,2007-07-30T00:00:00.000Z,SYNAGOGUES,23897393,-118.431841,34.0637624,JUDAIC,ORTHODOX-SEPHARDIC,NOT AVAILABLE,SYNAGOGUE,N,N
4864,10428645,CHABAD JEWISH STUDENT CENTER AT UNIVERSITY OF SOUTHERN CALIFORNIA,LOS ANGELES,CA,90007,2542,LOS ANGELES,6037,2007-07-30T00:00:00.000Z,ALT REF,2007-07-31T00:00:00.000Z,SYNAGOGUES,23843107,-118.2820506,34.0290586,JUDAIC,CHABAD,NOT AVAILABLE,CHABAD,N,N
4875,10428535,CHABAD OF THE MIRACLE MILE AREA,LOS ANGELES,CA,90048,4216,LOS ANGELES,6037,2007-08-07T00:00:00.000Z,ALT REF,2007-08-07T00:00:00.000Z,SYNAGOGUES,23915418,-118.3684908,34.0712686,JUDAIC,CHABAD,NOT AVAILABLE,CHABAD,N,N
4876,10429104,MISHKAN ISRAEL,LOS ANGELES,CA,90048,4315,LOS ANGELES,6037,2007-08-03T00:00:00.000Z,PHONE,2007-08-03T00:00:00.000Z,SYNAGOGUES,23915343,-118.3695454,34.0729057,JUDAIC,ORTHODOX,NOT AVAILABLE,NOT AVAILABLE,N,N
4879,10428510,CHABAD PERSIAN YOUTH CENTER,LOS ANGELES,CA,90035,1310,LOS ANGELES,6037,2007-08-03T00:00:00.000Z,PHONE,2007-08-03T00:00:00.000Z,SYNAGOGUES,23898260,-118.3883358,34.0549698,JUDAIC,CHABAD,NOT AVAILABLE,CHABAD,N,N
4886,10427792,LEO BAECK TEMPLE,LOS ANGELES,CA,90049,1656,LOS ANGELES,6037,2007-07-30T00:00:00.000Z,PHONE,2007-07-30T00:00:00.000Z,SYNAGOGUES,23893797,-118.4741716,34.0878838,JUDAIC,REFORM,570,NOT AVAILABLE,N,N
4901,10429017,TORAT HAYIM,LOS ANGELES,CA,90035,2521,LOS ANGELES,6037,2007-08-06T00:00:00.000Z,PHONE,2007-08-06T00:00:00.000Z,SYNAGOGUES,23920378,-118.3758537,34.0555221,JUDAIC,ORTHODOX,NOT AVAILABLE,NOT AVAILABLE,N,N
4908,10426155,SHARIE TEFILAH,LOS ANGELES,CA,90013,2336,LOS ANGELES,6037,2007-08-01T00:00:00.000Z,PHONE,2007-08-01T00:00:00.000Z,SYNAGOGUES,23923229,-118.2516431,34.046662,JUDAIC,NOT AVAILABLE,NOT AVAILABLE,SYNAGOGUE,N,N
4910,10426172,YOUNG ISRAEL OF HANCOCK PARK,LOS ANGELES,CA,90036,3022,LOS ANGELES,6037,2007-08-01T00:00:00.000Z,PHONE,2007-08-01T00:00:00.000Z,SYNAGOGUES,23915229,-118.3443409,34.0703746,JUDAIC,NOT AVAILABLE,NOT AVAILABLE,SYNAGOGUE,N,N
4912,10426733,OHEV SHALOM CONGREGATION,LOS ANGELES,CA,90036,3130,LOS ANGELES,6037,2007-08-03T00:00:00.000Z,PHONE,2007-08-03T00:00:00.000Z,SYNAGOGUES,24594763,-118.3616397,34.0667141,JUDAIC,ORTHODOX,NOT AVAILABLE,SYNAGOGUE,N,N
4914,10426738,YOUNG ISRAEL OF BEVERLY HILLS,LOS ANGELES,CA,90035,2205,LOS ANGELES,6037,2007-08-02T00:00:00.000Z,PHONE,2007-08-02T00:00:00.000Z,SYNAGOGUES,23898304,-118.381842,34.0546046,JUDAIC,NOT AVAILABLE,NOT AVAILABLE,SYNAGOGUE,N,N
4919,10428899,CHABAD OF BEL AIR,LOS ANGELES,CA,90077,2023,LOS ANGELES,6037,2007-07-30T00:00:00.000Z,PHONE,2007-07-30T00:00:00.000Z,SYNAGOGUES,23893454,-118.4477485,34.123632,JUDAIC,CHABAD,NOT AVAILABLE,CHABAD,N,N
4920,10428608,CHABAD OF LARCHMONT VILLAGE,LOS ANGELES,CA,90004,1206,LOS ANGELES,6037,2007-08-07T00:00:00.000Z,PHONE,2007-08-07T00:00:00.000Z,SYNAGOGUES,23916133,-118.3252087,34.0824392,JUDAIC,CHABAD,NOT AVAILABLE,CHABAD,N,N
4926,10428643,CHABAD OF THE HILLS - BEVERLY HILLS,LOS ANGELES,CA,90069,3114,LOS ANGELES,6037,2007-08-01T00:00:00.000Z,PHONE,2007-08-01T00:00:00.000Z,SYNAGOGUES,23895759,-118.3918312,34.0898006,JUDAIC,CHABAD,NOT AVAILABLE,CHABAD,N,N
4931,10428691,CHABAD OF MOUNT OLYMPUS,LOS ANGELES,CA,90046,1512,LOS ANGELES,6037,2007-08-02T00:00:00.000Z,PHONE,2007-08-02T00:00:00.000Z,SYNAGOGUES,23911168,-118.3713377,34.1121589,JUDAIC,CHABAD,NOT AVAILABLE,CHABAD,N,N
4937,10429109,THE JEWISH LEARNING EXCHANGE,LOS ANGELES,CA,90036,2016,LOS ANGELES,6037,2007-08-03T00:00:00.000Z,PHONE,2007-08-03T00:00:00.000Z,SYNAGOGUES,128789199,-118.3437193,34.0807769,JUDAIC,ORTHODOX,NOT AVAILABLE,NOT AVAILABLE,N,N
4940,10429561,SINAI TEMPLE,LOS ANGELES,CA,90024,4602,LOS ANGELES,6037,2007-08-01T00:00:00.000Z,PHONE,2007-08-01T00:00:00.000Z,SYNAGOGUES,23897404,-118.4290728,34.0661478,JUDAIC,NOT AVAILABLE,NOT AVAILABLE,NOT AVAILABLE,N,N
4941,10429562,ADAT SHALOM,LOS ANGELES,CA,90034,3416,LOS ANGELES,6037,2007-08-02T00:00:00.000Z,PHONE,2007-08-02T00:00:00.000Z,SYNAGOGUES,23901117,-118.420369,34.0304407,JUDAIC,NOT AVAILABLE,NOT AVAILABLE,NOT AVAILABLE,N,N
4942,10428890,CHABAD ISRAEL CENTER,LOS ANGELES,CA,90035,4232,LOS ANGELES,6037,2007-08-03T00:00:00.000Z,PHONE,2007-08-03T00:00:00.000Z,SYNAGOGUES,23898309,-118.3838408,34.0517157,JUDAIC,CHABAD,NOT AVAILABLE,CHABAD,N,N
4958,10426211,NETANELI HEBREW SYNAGOGUE,LOS ANGELES,CA,90035,3414,LOS ANGELES,6037,2007-08-02T00:00:00.000Z,PHONE,2007-08-02T00:00:00.000Z,SYNAGOGUES,23898307,-118.3842991,34.0534814,JUDAIC,NOT AVAILABLE,NOT AVAILABLE,SYNAGOGUE,N,N
4969,10428889,CHABAD WEST COAST HEADQUARTERS,LOS ANGELES,CA,90024,2410,LOS ANGELES,6037,2007-08-01T00:00:00.000Z,PHONE,2007-08-01T00:00:00.000Z,SYNAGOGUES,23897362,-118.4484068,34.0647081,JUDAIC,CHABAD,NOT AVAILABLE,CHABAD,N,N
4977,10426732,METIVTA,LOS ANGELES,CA,90025,5337,LOS ANGELES,6037,2007-07-24T00:00:00.000Z,PHONE,2007-07-24T00:00:00.000Z,SYNAGOGUES,23901047,-118.4503189,34.0366537,JUDAIC,LIBERAL,NOT AVAILABLE,SYNAGOGUE,N,N
4979,10428078,UNIVERSITY SYNAGOGUE,LOS ANGELES,CA,90049,4228,LOS ANGELES,6037,2007-07-30T00:00:00.000Z,PHONE,2007-07-30T00:00:00.000Z,SYNAGOGUES,126547410,-118.4736764,34.0615437,JUDAIC,REFORM,624,NOT AVAILABLE,N,N
4980,10426133,CONGREGATION KEHILLAS YAAKOV,LOS ANGELES,CA,90036,2536,LOS ANGELES,6037,2007-08-01T00:00:00.000Z,PHONE,2007-08-01T00:00:00.000Z,SYNAGOGUES,23915204,-118.3466778,34.0763701,JUDAIC,NOT AVAILABLE,NOT AVAILABLE,SYNAGOGUE,N,N
4981,10426159,CONGREGATION OHEL DAVID,LOS ANGELES,CA,90048,4510,LOS ANGELES,6037,2007-07-31T00:00:00.000Z,PHONE,2007-07-31T00:00:00.000Z,SYNAGOGUES,23915218,-118.363327,34.0763096,JUDAIC,ORTHODOX,NOT AVAILABLE,SYNAGOGUE,N,N
4982,10428703,CHABAD OF GREATER LOS FELIZ,LOS ANGELES,CA,90027,2712,LOS ANGELES,6037,2007-07-30T00:00:00.000Z,PHONE,2007-07-30T00:00:00.000Z,SYNAGOGUES,23914659,-118.2871329,34.1063024,JUDAIC,CHABAD,NOT AVAILABLE,CHABAD,N,N
4992,10426512,OHR HA TORAH SYNAGOGUE,LOS ANGELES,CA,90025,6215,LOS ANGELES,6037,2007-08-02T00:00:00.000Z,PHONE,2007-08-02T00:00:00.000Z,SYNAGOGUES,23900994,-118.4435729,34.0370807,JUDAIC,NOT AVAILABLE,NOT AVAILABLE,SYNAGOGUE,N,N
4994,10428926,CHABAD OF CENTURY CITY,LOS ANGELES,CA,90067,NULL,LOS ANGELES,6037,2007-07-31T00:00:00.000Z,PHONE,2007-07-31T00:00:00.000Z,SYNAGOGUES,24577609,-118.4158161,34.0574853,JUDAIC,CHABAD,NOT AVAILABLE,CHABAD,N,N
4998,10426104,OHEL MOSHE CONGREGATION,LOS ANGELES,CA,90035,2314,LOS ANGELES,6037,2007-07-30T00:00:00.000Z,PHONE,2007-07-30T00:00:00.000Z,SYNAGOGUES,23898330,-118.3801186,34.0537967,JUDAIC,NOT AVAILABLE,NOT AVAILABLE,SYNAGOGUE,N,N
5000,10429037,OHEL MOSHE CONGREGATION,LOS ANGELES,CA,90035,2212,LOS ANGELES,6037,2007-07-30T00:00:00.000Z,PHONE,2007-07-30T00:00:00.000Z,SYNAGOGUES,23898303,-118.3832065,34.0549804,JUDAIC,ORTHODOX,NOT AVAILABLE,NOT AVAILABLE,N,N
3185,10585932,IGLESIA ENCUENTRO CON DIOS,LOS ANGELES,CA,90003,4136,LOS ANGELES,6037,2008-12-05T00:00:00.000Z,ALT REF,2008-12-05T00:00:00.000Z,CHURCHES,23941696,-118.2735278,33.9479746,CHRISTIAN,ABC,NOT AVAILABLE,NOT AVAILABLE,Y,N
3190,10452811,LIBERTY BAPTIST CHURCH,LOS ANGELES,CA,90062,2422,LOS ANGELES,6037,2008-02-22T00:00:00.000Z,ALT REF,2008-02-22T00:00:00.000Z,CHURCHES,23927853,-118.3034491,33.9956649,CHRISTIAN,NBC,NOT AVAILABLE,NOT AVAILABLE,Y,N
3194,10457743,DAMASCUS ROAD AFRICAN METHODIST EPISCOPAL CHURCH,LOS ANGELES,CA,90019,6907,LOS ANGELES,6037,2008-02-25T00:00:00.000Z,ALT REF,2008-02-25T00:00:00.000Z,CHURCHES,128791921,-118.3437608,34.0552049,CHRISTIAN,AME,NOT AVAILABLE,NOT AVAILABLE,Y,N
3197,10427831,STEPHEN S WISE TEMPLE,LOS ANGELES,CA,90077,1520,LOS ANGELES,6037,2007-07-24T00:00:00.000Z,PHONE,2007-07-23T00:00:00.000Z,SYNAGOGUES,24029329,-118.4688903,34.128464,JUDAIC,REFORM,2942,NOT AVAILABLE,N,N
3205,10428990,YOUNG ISRAEL OF LOS ANGELES,LOS ANGELES,CA,90036,1806,LOS ANGELES,6037,2007-07-27T00:00:00.000Z,PHONE,2007-07-27T00:00:00.000Z,SYNAGOGUES,23915010,-118.35716,34.0833842,JUDAIC,YOUNG ISRAEL,NOT AVAILABLE,NOT AVAILABLE,N,N
3208,10426730,HOLLYWOOD TEMPLE BETH EL,LOS ANGELES,CA,90046,4506,LOS ANGELES,6037,2007-07-31T00:00:00.000Z,PHONE,2007-07-31T00:00:00.000Z,SYNAGOGUES,128818968,-118.3663944,34.0947132,JUDAIC,NOT AVAILABLE,NOT AVAILABLE,SYNAGOGUE,N,N
3225,10453525,TREE OF LIFE SOUTHERN BAPTIST CHURCH,LOS ANGELES,CA,90002,3030,LOS ANGELES,6037,2008-02-21T00:00:00.000Z,ALT REF,2008-02-21T00:00:00.000Z,CHURCHES,23866078,-118.2405046,33.9477809,CHRISTIAN,NBC,NOT AVAILABLE,NOT AVAILABLE,Y,N
3226,10460084,HOLY HILL COMMUNITY CHURCH,LOS ANGELES,CA,90012,1216,LOS ANGELES,6037,2008-02-21T00:00:00.000Z,ALT REF,2008-02-21T00:00:00.000Z,CHURCHES,23923955,-118.2489777,34.0666009,CHRISTIAN,PCA,NOT AVAILABLE,NOT AVAILABLE,Y,N
3227,10454982,FULL GOSPEL MISSIONARY BAPTIST CHURCH,LOS ANGELES,CA,90061,2524,LOS ANGELES,6037,2008-02-21T00:00:00.000Z,ALT REF,2008-02-21T00:00:00.000Z,CHURCHES,23944133,-118.2693049,33.9391831,CHRISTIAN,NBC,NOT AVAILABLE,NOT AVAILABLE,Y,N
3238,10684847,ORDINARY DHARMA,LOS ANGELES,CA,90024,4326,LOS ANGELES,6037,2008-10-29T00:00:00.000Z,ALT REF,2008-10-29T00:00:00.000Z,PLACES OF WORSHIP,23897281,-118.4416671,34.0590231,BUDDHIST,"VIPASSANA, ZEN, SOCIAL JUSTICE, ENGAGED BUDDHISM",NOT AVAILABLE,NOT AVAILABLE,N,N
3239,10453923,AVENUE CHRISTIAN LOVE MISSIONARY BAPTIST CHURCH,LOS ANGELES,CA,90001,2427,LOS ANGELES,6037,2008-11-25T00:00:00.000Z,ALT REF,2008-11-25T00:00:00.000Z,CHURCHES,23941913,-118.2561087,33.971755,CHRISTIAN,NBC,NOT AVAILABLE,NOT AVAILABLE,Y,N
3242,10457875,SAINT STEPHEN AFRICAN METHODIST EPISCOPAL CHURCH,LOS ANGELES,CA,90001,1659,LOS ANGELES,6037,2008-12-05T00:00:00.000Z,ALT REF,2008-12-05T00:00:00.000Z,CHURCHES,23933368,-118.2521879,33.9818372,CHRISTIAN,AME,NOT AVAILABLE,NOT AVAILABLE,Y,N
3304,10683780,KOYASAN BEIKOKU BETSUIN,LOS ANGELES,CA,90012,3902,LOS ANGELES,6037,2008-11-06T00:00:00.000Z,ALT REF,2008-11-06T00:00:00.000Z,PLACES OF WORSHIP,723521458,-118.2403003,34.049201,BUDDHIST,NOT AVAILABLE,NOT AVAILABLE,NOT AVAILABLE,N,N
3309,10457766,GRANT AFRICAN METHODIST EPISCOPAL CHURCH,LOS ANGELES,CA,90002,3325,LOS ANGELES,6037,2008-11-06T00:00:00.000Z,ALT REF,2008-11-06T00:00:00.000Z,CHURCHES,23941860,-118.2545235,33.941188,CHRISTIAN,AME,NOT AVAILABLE,NOT AVAILABLE,Y,N
3310,10457830,SECOND AFRICAN METHODIST EPISCOPAL CHURCH,LOS ANGELES,CA,90037,4004,LOS ANGELES,6037,2008-11-06T00:00:00.000Z,ALT REF,2008-11-06T00:00:00.000Z,CHURCHES,23940225,-118.2868656,33.99206,CHRISTIAN,AME,NOT AVAILABLE,NOT AVAILABLE,Y,N
3368,10453323,SAINT REED MISSIONARY BAPTIST CHURCH,LOS ANGELES,CA,90001,3206,LOS ANGELES,6037,2008-02-25T00:00:00.000Z,ALT REF,2008-02-27T00:00:00.000Z,CHURCHES,23941684,-118.2631544,33.9671767,CHRISTIAN,NBC,NOT AVAILABLE,NOT AVAILABLE,Y,N
3370,10454643,VILLAGE BAPTIST CHURCH,LOS ANGELES,CA,90059,1131,LOS ANGELES,6037,2008-02-22T00:00:00.000Z,ALT REF,2008-02-22T00:00:00.000Z,CHURCHES,23868402,-118.247792,33.9350302,CHRISTIAN,NBC,NOT AVAILABLE,NOT AVAILABLE,Y,N
3378,10440852,SAINT JOHNS CATHEDRAL,LOS ANGELES,CA,90007,2616,LOS ANGELES,6037,2008-11-21T00:00:00.000Z,ALT REF,2008-11-21T00:00:00.000Z,CHURCHES,128791622,-118.2755573,34.0274695,CHRISTIAN,EPIS,NOT AVAILABLE,NOT AVAILABLE,Y,N
3390,10576303,JOY COMMUNITY CHURCH,LOS ANGELES,CA,90015,3844,LOS ANGELES,6037,2008-11-25T00:00:00.000Z,ALT REF,2008-11-25T00:00:00.000Z,CHURCHES,23841766,-118.2735813,34.0492063,CHRISTIAN,CRC,NOT AVAILABLE,NOT AVAILABLE,Y,N
3391,10447642,SAN FRANCISCO CATHOLIC CHURCH,LOS ANGELES,CA,90022,3718,LOS ANGELES,6037,2008-11-21T00:00:00.000Z,ALT REF,2008-11-21T00:00:00.000Z,CHURCHES,23925654,-118.1657258,34.0174972,CHRISTIAN,NOT AVAILABLE,NOT AVAILABLE,NOT AVAILABLE,N,Y
3394,10585940,MINISTERIOS MANANTIAL DE AMOR,LOS ANGELES,CA,90007,2042,LOS ANGELES,6037,2008-12-02T00:00:00.000Z,ALT REF,2008-12-02T00:00:00.000Z,CHURCHES,23842860,-118.275904,34.0324641,CHRISTIAN,ABC,NOT AVAILABLE,NOT AVAILABLE,Y,N
3395,10437401,MOUNT CARMEL HOLY ASSEMBLY BAPTIST CHURCH,LOS ANGELES,CA,90003,4320,LOS ANGELES,6037,2008-12-05T00:00:00.000Z,ALT REF,2008-12-05T00:00:00.000Z,CHURCHES,23940855,-118.2699204,33.9508737,CHRISTIAN,SBC,1271,NOT AVAILABLE,Y,N
3396,10585944,MISION EVANGELICA MONTE HEBRON,LOS ANGELES,CA,90020,3449,LOS ANGELES,6037,2008-11-26T00:00:00.000Z,ALT REF,2008-12-08T00:00:00.000Z,CHURCHES,23916317,-118.3070364,34.0688067,CHRISTIAN,ABC,NOT AVAILABLE,NOT AVAILABLE,Y,N
3400,10685392,ZEN CENTER OF LOS ANGELES,LOS ANGELES,CA,90006,1301,LOS ANGELES,6037,2008-12-01T00:00:00.000Z,ALT REF,2008-12-01T00:00:00.000Z,PLACES OF WORSHIP,23923708,-118.3000598,34.055075,BUDDHIST,WHITE PLUM SANGHA,NOT AVAILABLE,NOT AVAILABLE,N,N
3401,10585886,IGLESIA BAUTISTA UNIDA,LOS ANGELES,CA,90033,2905,LOS ANGELES,6037,2008-12-02T00:00:00.000Z,ALT REF,2008-12-02T00:00:00.000Z,CHURCHES,23907922,-118.2114043,34.045549,CHRISTIAN,ABC,NOT AVAILABLE,NOT AVAILABLE,Y,N
3402,10585533,IGLESIA BAUTISTA CAMINO AL CIELO,LOS ANGELES,CA,90023,2915,LOS ANGELES,6037,2008-12-02T00:00:00.000Z,ALT REF,2008-12-02T00:00:00.000Z,CHURCHES,126495329,-118.2030768,34.023917,CHRISTIAN,ABC,NOT AVAILABLE,NOT AVAILABLE,Y,N
3403,10585884,IGLESIA BAUTISTA MONTE DE SION,LOS ANGELES,CA,90006,3917,LOS ANGELES,6037,2008-12-02T00:00:00.000Z,ALT REF,2008-12-08T00:00:00.000Z,CHURCHES,23841824,-118.2971743,34.0474563,CHRISTIAN,ABC,NOT AVAILABLE,NOT AVAILABLE,Y,N
3404,10436073,BERENDO STREET BAPTIST CHURCH,LOS ANGELES,CA,90006,1620,LOS ANGELES,6037,2008-12-02T00:00:00.000Z,ALT REF,2008-12-02T00:00:00.000Z,CHURCHES,23923716,-118.2940531,34.053475,CHRISTIAN,SBC,2500,NOT AVAILABLE,Y,N
3405,10440846,SAINT ALBANS EPISCOPAL CHURCH,LOS ANGELES,CA,90024,3234,LOS ANGELES,6037,2008-12-01T00:00:00.000Z,ALT REF,2008-12-01T00:00:00.000Z,CHURCHES,23893749,-118.4383905,34.0699041,CHRISTIAN,EPIS,NOT AVAILABLE,NOT AVAILABLE,Y,N
3406,10440359,SAINT MARYS EPISCOPAL CHURCH,LOS ANGELES,CA,90006,1413,LOS ANGELES,6037,2008-11-24T00:00:00.000Z,ALT REF,2008-11-26T00:00:00.000Z,CHURCHES,23923719,-118.2991582,34.0539333,CHRISTIAN,EPIS,NOT AVAILABLE,NOT AVAILABLE,Y,N
3407,10684740,MING YA BUDDHIST FOUNDATION OF LOS ANGELES,LOS ANGELES,CA,90032,3632,LOS ANGELES,6037,2008-12-02T00:00:00.000Z,ALT REF,2008-12-02T00:00:00.000Z,PLACES OF WORSHIP,24578647,-118.1904373,34.0640199,BUDDHIST,MAHAYANA,NOT AVAILABLE,NOT AVAILABLE,N,N
3408,10585883,IGLESIA BAUTISTA LA RESURRECCION,LOS ANGELES,CA,90022,5613,LOS ANGELES,6037,2008-12-02T00:00:00.000Z,ALT REF,2008-12-02T00:00:00.000Z,CHURCHES,23912536,-118.1736742,34.0145011,CHRISTIAN,ABC,NOT AVAILABLE,NOT AVAILABLE,Y,N
3409,10435199,MOUNT TABOR MISSIONARY BAPTIST CHURCH,LOS ANGELES,CA,90047,1834,LOS ANGELES,6037,2008-11-26T00:00:00.000Z,ALT REF,2008-11-26T00:00:00.000Z,CHURCHES,23932918,-118.3086295,33.9788032,CHRISTIAN,SBC,3500,NOT AVAILABLE,Y,N
3410,10452742,PILGRIM MISSIONARY BAPTIST CHURCH,LOS ANGELES,CA,90011,3623,LOS ANGELES,6037,2008-11-21T00:00:00.000Z,ALT REF,2008-11-21T00:00:00.000Z,CHURCHES,23912740,-118.2589135,34.0026368,CHRISTIAN,NBC,NOT AVAILABLE,NOT AVAILABLE,Y,N
3411,10576298,CHOSEN PEOPLE CHRISTIAN REFORMED CHURCH,LOS ANGELES,CA,90057,3215,LOS ANGELES,6037,2008-12-01T00:00:00.000Z,ALT REF,2008-12-01T00:00:00.000Z,CHURCHES,23923297,-118.2821214,34.0623905,CHRISTIAN,CRC,NOT AVAILABLE,NOT AVAILABLE,Y,N
3412,10447658,SAINT MARY CATHOLIC CHURCH,LOS ANGELES,CA,90033,4311,LOS ANGELES,6037,2008-12-01T00:00:00.000Z,ALT REF,2008-12-01T00:00:00.000Z,CHURCHES,23908053,-118.2146139,34.041616,CHRISTIAN,NOT AVAILABLE,NOT AVAILABLE,NOT AVAILABLE,N,Y
3413,10585872,HIGHLAND PARK BAPTIST CHURCH,LOS ANGELES,CA,90042,3429,LOS ANGELES,6037,2008-12-01T00:00:00.000Z,ALT REF,2008-12-01T00:00:00.000Z,CHURCHES,23903647,-118.1931396,34.1129095,CHRISTIAN,ABC,NOT AVAILABLE,NOT AVAILABLE,Y,N
3414,10585935,MANCHESTER MISSIONARY BAPTIST CHURCH,LOS ANGELES,CA,90044,3532,LOS ANGELES,6037,2008-12-02T00:00:00.000Z,ALT REF,2008-12-02T00:00:00.000Z,CHURCHES,23932807,-118.2912187,33.9669635,CHRISTIAN,ABC,NOT AVAILABLE,NOT AVAILABLE,Y,N
3415,10683650,DHARMA ZEN CENTER,LOS ANGELES,CA,90019,6733,LOS ANGELES,6037,2008-12-01T00:00:00.000Z,ALT REF,2008-12-08T00:00:00.000Z,PLACES OF WORSHIP,23919852,-118.3485359,34.0565698,BUDDHIST,KWAN UM SCHOOL OF ZEN (KOREAN),NOT AVAILABLE,NOT AVAILABLE,N,N
3417,10432988,GLORY CHURCH OF JESUS CHRIST,LOS ANGELES,CA,90015,3505,LOS ANGELES,6037,2008-12-01T00:00:00.000Z,ALT REF,2008-12-01T00:00:00.000Z,CHURCHES,128791474,-118.2679811,34.0340903,CHRISTIAN,NONDENOM,NOT AVAILABLE,NOT AVAILABLE,Y,N
3418,10574842,FIRST AFRICAN METHODIST EPISCOPAL ZION CHURCH,LOS ANGELES,CA,90007,1641,LOS ANGELES,6037,2008-12-02T00:00:00.000Z,ALT REF,2008-12-02T00:00:00.000Z,CHURCHES,128790237,-118.2928939,34.033024,CHRISTIAN,AMEZ,NOT AVAILABLE,NOT AVAILABLE,Y,N
3419,10455057,MACEDONIA BAPTIST CHURCH,LOS ANGELES,CA,90059,1940,LOS ANGELES,6037,2008-12-02T00:00:00.000Z,ALT REF,2008-12-02T00:00:00.000Z,CHURCHES,23866509,-118.2421829,33.9313918,CHRISTIAN,NBC,NOT AVAILABLE,NOT AVAILABLE,Y,N
3423,10585687,AMBASSADORS FOR CHRIST MISSIONARY BAPTIST CHURCH,LOS ANGELES,CA,90047,4518,LOS ANGELES,6037,2008-12-01T00:00:00.000Z,ALT REF,2008-12-01T00:00:00.000Z,CHURCHES,23927489,-118.3005265,33.9420367,CHRISTIAN,ABC,NOT AVAILABLE,NOT AVAILABLE,Y,N
3425,10585947,MOUNT GILEAD BAPTIST CHURCH,LOS ANGELES,CA,90044,2003,LOS ANGELES,6037,2008-11-25T00:00:00.000Z,ALT REF,2008-11-25T00:00:00.000Z,CHURCHES,23931718,-118.3005577,33.9523766,CHRISTIAN,ABC,NOT AVAILABLE,NOT AVAILABLE,Y,N
3428,10447608,OUR LADY OF GUADALUPE CHURCH - ROSEHILL,LOS ANGELES,CA,90032,1832,LOS ANGELES,6037,2008-12-02T00:00:00.000Z,ALT REF,2008-12-02T00:00:00.000Z,CHURCHES,23905969,-118.1897402,34.0861131,CHRISTIAN,NOT AVAILABLE,NOT AVAILABLE,NOT AVAILABLE,N,Y
3430,10684612,KUAN YIN BUDDHIST TEMPLE,LOS ANGELES,CA,90031,1511,LOS ANGELES,6037,2008-12-03T00:00:00.000Z,ALT REF,2008-12-03T00:00:00.000Z,"TEMPLES, RELIGIOUS",23906450,-118.2087144,34.0894736,BUDDHIST,"MAHAYANA, PURE LAND",NOT AVAILABLE,NOT AVAILABLE,N,N
3431,10447641,SAINT FRANCES XAVIER CABRINI CATHOLIC CHURCH,LOS ANGELES,CA,90047,4901,LOS ANGELES,6037,2008-11-21T00:00:00.000Z,ALT REF,2008-11-21T00:00:00.000Z,CHURCHES,128797018,-118.3021861,33.930423,CHRISTIAN,NOT AVAILABLE,NOT AVAILABLE,NOT AVAILABLE,N,Y
3437,10447672,OUR LADY OF GUADALUPE SANCTUARY,LOS ANGELES,CA,90063,1413,LOS ANGELES,6037,2008-12-02T00:00:00.000Z,ALT REF,2008-12-02T00:00:00.000Z,CHURCHES,23911029,-118.1773005,34.0336735,CHRISTIAN,NOT AVAILABLE,NOT AVAILABLE,NOT AVAILABLE,N,Y
3438,10432995,FIRST AFRICAN METHODIST EPISCOPAL CHURCH,LOS ANGELES,CA,90018,2142,LOS ANGELES,6037,2008-11-25T00:00:00.000Z,ALT REF,2008-11-25T00:00:00.000Z,CHURCHES,23842673,-118.3061543,34.0342881,CHRISTIAN,AME,NOT AVAILABLE,NOT AVAILABLE,Y,N
3548,10426729,ETZ JACOB CONGREGATION,LOS ANGELES,CA,90036,2727,LOS ANGELES,6037,2008-03-27T00:00:00.000Z,ALT REF,2008-03-27T00:00:00.000Z,SYNAGOGUES,23915237,-118.3566428,34.076377,JUDAIC,ORTHODOX,NOT AVAILABLE,SYNAGOGUE,N,N
3553,10576304,LOS ANGELES GLOBAL MISSION CHURCH,LOS ANGELES,CA,90017,4315,LOS ANGELES,6037,2008-11-25T00:00:00.000Z,ALT REF,2008-11-25T00:00:00.000Z,CHURCHES,23922917,-118.2701804,34.0514645,CHRISTIAN,CRC,NOT AVAILABLE,NOT AVAILABLE,Y,N
3555,10584674,HILLSIDE BIBLE BAPTIST CHURCH,LOS ANGELES,CA,90042,4452,LOS ANGELES,6037,2008-11-21T00:00:00.000Z,ALT REF,2008-11-21T00:00:00.000Z,CHURCHES,128795099,-118.202353,34.1043493,CHRISTIAN,BAPT,NOT AVAILABLE,NOT AVAILABLE,Y,N
3556,10432981,YOUNG NAK PRESBYTERIAN CHURCH OF LOS ANGELES,LOS ANGELES,CA,90031,1763,LOS ANGELES,6037,2008-11-25T00:00:00.000Z,ALT REF,2008-11-25T00:00:00.000Z,CHURCHES,128797341,-118.2235184,34.0722865,CHRISTIAN,KPC,NOT AVAILABLE,NOT AVAILABLE,Y,N
3557,10576307,SMYRNA CHURCH,LOS ANGELES,CA,90018,1838,LOS ANGELES,6037,2008-11-21T00:00:00.000Z,ALT REF,2008-11-21T00:00:00.000Z,CHURCHES,23921786,-118.3201655,34.0317038,CHRISTIAN,CRC,NOT AVAILABLE,NOT AVAILABLE,Y,N
3558,10432993,IGLESIAS DE RESTAURACION INCORPORATED,LOS ANGELES,CA,90016,3019,LOS ANGELES,6037,2008-11-25T00:00:00.000Z,ALT REF,2008-11-25T00:00:00.000Z,CHURCHES,23922536,-118.3354736,34.0330157,CHRISTIAN,PENT,NOT AVAILABLE,NOT AVAILABLE,Y,N
3565,10761676,NORMANDIE CHURCH OF CHRIST,LOS ANGELES,CA,90044,2628,LOS ANGELES,6037,2008-11-25T00:00:00.000Z,ALT REF,2008-11-25T00:00:00.000Z,CHURCHES,128795892,-118.299814,33.9816162,CHRISTIAN,COC,550,NOT AVAILABLE,Y,N
3567,10444782,ASCENSION HISPANIC-AFRICAN-AMERICAN,LOS ANGELES,CA,90044,4203,LOS ANGELES,6037,2008-11-25T00:00:00.000Z,ALT REF,2008-11-25T00:00:00.000Z,CHURCHES,23944120,-118.2830206,33.9330748,CHRISTIAN,NOT AVAILABLE,NOT AVAILABLE,NOT AVAILABLE,N,Y
3575,10452895,GOOD SHEPHERD BAPTIST CHURCH,LOS ANGELES,CA,90037,3712,LOS ANGELES,6037,2008-11-25T00:00:00.000Z,ALT REF,2008-11-25T00:00:00.000Z,CHURCHES,23940120,-118.2831172,33.9939983,CHRISTIAN,NBC,NOT AVAILABLE,NOT AVAILABLE,Y,N
3576,10457747,EMMANUEL AFRICAN METHODIST EPISCOPAL CHURCH,LOS ANGELES,CA,90011,4916,LOS ANGELES,6037,2008-11-21T00:00:00.000Z,ALT REF,2008-11-21T00:00:00.000Z,CHURCHES,23864840,-118.2473437,33.9955829,CHRISTIAN,AME,NOT AVAILABLE,NOT AVAILABLE,Y,N
3577,10430644,MASJID FELIX BILAL,LOS ANGELES,CA,90011,2708,LOS ANGELES,6037,2008-11-25T00:00:00.000Z,ALT REF,2008-11-25T00:00:00.000Z,"MOSQUES, RELIGIOUS",23844348,-118.2557517,34.010663,MUSLIM,NOT AVAILABLE,NOT AVAILABLE,NOT AVAILABLE,N,N
3578,10430614,MASJID AL RASUL,LOS ANGELES,CA,90059,1639,LOS ANGELES,6037,2008-12-04T00:00:00.000Z,ALT REF,2008-12-04T00:00:00.000Z,"MOSQUES, RELIGIOUS",128797815,-118.2545918,33.9327977,MUSLIM,NOT AVAILABLE,NOT AVAILABLE,NOT AVAILABLE,N,N
3580,10585892,IGLESIA BAUTISTA CRISTO REDENTOR,LOS ANGELES,CA,90029,3411,LOS ANGELES,6037,2008-12-02T00:00:00.000Z,ALT REF,2008-12-02T00:00:00.000Z,CHURCHES,722685255,-118.2996508,34.0834044,CHRISTIAN,ABC,NOT AVAILABLE,NOT AVAILABLE,Y,N
3586,10447624,SAINT ANN CATHOLIC CHURCH,LOS ANGELES,CA,90031,1133,LOS ANGELES,6037,2008-11-24T00:00:00.000Z,ALT REF,2008-11-24T00:00:00.000Z,CHURCHES,23905662,-118.2350989,34.0903619,CHRISTIAN,NOT AVAILABLE,NOT AVAILABLE,NOT AVAILABLE,N,Y
3587,10585685,AJALON TEMPLE OF TRUTH,LOS ANGELES,CA,90059,2920,LOS ANGELES,6037,2008-11-25T00:00:00.000Z,ALT REF,2008-11-25T00:00:00.000Z,CHURCHES,126486051,-118.2464839,33.9201992,CHRISTIAN,ABC,NOT AVAILABLE,NOT AVAILABLE,Y,N
3588,10457729,BRYANT TEMPLE AFRICAN METHODIST EPISCOPAL CHURCH,LOS ANGELES,CA,90008,3927,LOS ANGELES,6037,2008-11-25T00:00:00.000Z,ALT REF,2008-11-25T00:00:00.000Z,CHURCHES,23913156,-118.3211527,34.0038879,CHRISTIAN,AME,NOT AVAILABLE,NOT AVAILABLE,Y,N
3589,10586056,WILSHIRE BAPTIST CHURCH,LOS ANGELES,CA,90004,2709,LOS ANGELES,6037,2008-12-01T00:00:00.000Z,ALT REF,2008-12-01T00:00:00.000Z,CHURCHES,23916081,-118.3083771,34.0764791,CHRISTIAN,ABC,NOT AVAILABLE,NOT AVAILABLE,Y,N
3590,10454152,PRAISES OF ZION BAPTIST CHURCH,LOS ANGELES,CA,90003,3030,LOS ANGELES,6037,2008-11-25T00:00:00.000Z,ALT REF,2008-11-25T00:00:00.000Z,CHURCHES,23940646,-118.2691578,33.9639515,CHRISTIAN,NBC,NOT AVAILABLE,NOT AVAILABLE,Y,N
3591,10440341,CHURCH OF THE EPIPHANY,LOS ANGELES,CA,90031,2305,LOS ANGELES,6037,2008-11-25T00:00:00.000Z,ALT REF,2008-11-25T00:00:00.000Z,CHURCHES,23905262,-118.2128833,34.0752679,CHRISTIAN,EPIS,NOT AVAILABLE,NOT AVAILABLE,Y,N
3592,10444790,HOLY NAME OF JESUS,LOS ANGELES,CA,90018,3423,LOS ANGELES,6037,2008-11-25T00:00:00.000Z,ALT REF,2008-11-25T00:00:00.000Z,CHURCHES,23921774,-118.314822,34.0262459,CHRISTIAN,NOT AVAILABLE,NOT AVAILABLE,NOT AVAILABLE,N,Y
3593,10585849,FIRST NEW CHRISTIAN FELLOWSHIP,LOS ANGELES,CA,90047,4906,LOS ANGELES,6037,2008-11-25T00:00:00.000Z,ALT REF,2008-11-25T00:00:00.000Z,CHURCHES,23944425,-118.3044372,33.938485,CHRISTIAN,ABC,NOT AVAILABLE,NOT AVAILABLE,Y,N
3594,10440215,CHAPEL OF SAINT FRANCIS,LOS ANGELES,CA,90039,1727,LOS ANGELES,6037,2008-11-25T00:00:00.000Z,ALT REF,2008-11-25T00:00:00.000Z,CHURCHES,23924073,-118.2605717,34.1193463,CHRISTIAN,EPIS,NOT AVAILABLE,NOT AVAILABLE,Y,N
3595,10430643,MASJID IBAADILLAH,LOS ANGELES,CA,90018,3742,LOS ANGELES,6037,2008-11-21T00:00:00.000Z,ALT REF,2008-11-21T00:00:00.000Z,"MOSQUES, RELIGIOUS",128789849,-118.320514,34.0254004,MUSLIM,NOT AVAILABLE,NOT AVAILABLE,NOT AVAILABLE,N,N
3596,10585972,IGLESIA BAUTISTA PARK VISTA,LOS ANGELES,CA,90063,3433,LOS ANGELES,6037,2008-11-25T00:00:00.000Z,ALT REF,2008-11-25T00:00:00.000Z,CHURCHES,23909043,-118.1751303,34.0384341,CHRISTIAN,ABC,NOT AVAILABLE,NOT AVAILABLE,Y,N
3600,10432983,CRENSHAW CHRISTIAN CENTER,LOS ANGELES,CA,90044,3531,LOS ANGELES,6037,2007-09-10T00:00:00.000Z,ALT REF,2007-09-10T00:00:00.000Z,CHURCHES,23942127,-118.2969957,33.9683206,CHRISTIAN,NONDENOM,NOT AVAILABLE,NOT AVAILABLE,Y,N
3603,10432989,THE ORIENTAL MISSION CHURCH,LOS ANGELES,CA,90004,2604,LOS ANGELES,6037,2007-09-11T00:00:00.000Z,ALT REF,2007-09-11T00:00:00.000Z,CHURCHES,23916271,-118.3089416,34.0785461,CHRISTIAN,NOT AVAILABLE,NOT AVAILABLE,NOT AVAILABLE,Y,N
3604,10454898,MESSIAH MISSIONARY BAPTIST CHURCH,LOS ANGELES,CA,90016,3022,LOS ANGELES,6037,2008-11-24T00:00:00.000Z,ALT REF,2008-11-24T00:00:00.000Z,CHURCHES,23922529,-118.3386761,34.0322354,CHRISTIAN,NBC,NOT AVAILABLE,NOT AVAILABLE,Y,N
3605,10447610,OUR LADY OF LOURDES CHURCH,LOS ANGELES,CA,90063,2408,LOS ANGELES,6037,2008-11-24T00:00:00.000Z,ALT REF,2008-11-24T00:00:00.000Z,CHURCHES,23925440,-118.1870543,34.0328646,CHRISTIAN,NOT AVAILABLE,NOT AVAILABLE,NOT AVAILABLE,N,Y
3606,10447667,SAINT STEPHENS CHURCH,LOS ANGELES,CA,90011,2642,LOS ANGELES,6037,2008-11-24T00:00:00.000Z,ALT REF,2008-11-24T00:00:00.000Z,CHURCHES,23844153,-118.2731677,34.0143709,CHRISTIAN,NOT AVAILABLE,NOT AVAILABLE,NOT AVAILABLE,N,Y
3622,10440849,CHRIST THE GOOD SHEPHERD CHURCH,LOS ANGELES,CA,90008,5229,LOS ANGELES,6037,2008-11-25T00:00:00.000Z,ALT REF,2008-11-25T00:00:00.000Z,CHURCHES,24576811,-118.3295761,34.003882,CHRISTIAN,EPIS,NOT AVAILABLE,NOT AVAILABLE,Y,N
3626,10452790,UPPER ROOM FELLOWSHIP BAPTIST CHURCH,LOS ANGELES,CA,90044,2726,LOS ANGELES,6037,2008-12-01T00:00:00.000Z,ALT REF,2008-12-01T00:00:00.000Z,CHURCHES,23932099,-118.3000418,33.9830578,CHRISTIAN,NBC,NOT AVAILABLE,NOT AVAILABLE,Y,N
3630,10576306,OLYMPIC PRESBYTERIAN CHURCH,LOS ANGELES,CA,90015,1004,LOS ANGELES,6037,2008-11-21T00:00:00.000Z,ALT REF,2008-12-01T00:00:00.000Z,CHURCHES,23841712,-118.2759761,34.0496235,CHRISTIAN,CRC,NOT AVAILABLE,NOT AVAILABLE,Y,N
3631,10586028,TEMPLE BAPTIST CHURCH,LOS ANGELES,CA,90015,3228,LOS ANGELES,6037,2008-11-21T00:00:00.000Z,ALT REF,2008-11-21T00:00:00.000Z,CHURCHES,23842226,-118.2754339,34.0395762,CHRISTIAN,ABC,NOT AVAILABLE,NOT AVAILABLE,Y,N
3640,10432990,BEL AIR PRESBYTERIAN CHURCH,LOS ANGELES,CA,90049,1126,LOS ANGELES,6037,2008-11-25T00:00:00.000Z,ALT REF,2008-11-25T00:00:00.000Z,CHURCHES,128797532,-118.4855092,34.1305386,CHRISTIAN,PCUSA,NOT AVAILABLE,NOT AVAILABLE,Y,N
3788,10585712,CHINESE ZION BAPTIST CHURCH,LOS ANGELES,CA,90065,2839,LOS ANGELES,6037,2008-12-08T00:00:00.000Z,ALT REF,2008-12-08T00:00:00.000Z,CHURCHES,23902914,-118.2366095,34.1115292,CHRISTIAN,ABC,NOT AVAILABLE,NOT AVAILABLE,Y,N
3794,10585894,IGLESIA BAUTISTA EMMANUEL,LOS ANGELES,CA,90032,1913,LOS ANGELES,6037,2008-12-03T00:00:00.000Z,ALT REF,2008-12-03T00:00:00.000Z,CHURCHES,23906255,-118.1875392,34.0844234,CHRISTIAN,ABC,NOT AVAILABLE,NOT AVAILABLE,Y,N
3806,10576197,GREENFIELD PRESBYTERIAN CHURCH,LOS ANGELES,CA,90020,5108,LOS ANGELES,6037,2008-12-04T00:00:00.000Z,ALT REF,2008-12-04T00:00:00.000Z,CHURCHES,23921872,-118.3037491,34.0638558,CHRISTIAN,CRC,NOT AVAILABLE,NOT AVAILABLE,Y,N
3807,10433975,NEW MOUNT CALVARY BAPTIST,LOS ANGELES,CA,90061,2742,LOS ANGELES,6037,2008-11-24T00:00:00.000Z,ALT REF,2008-12-05T00:00:00.000Z,CHURCHES,128797104,-118.267198,33.9161447,CHRISTIAN,SBC,6142,NOT AVAILABLE,Y,N
3821,10585282,IGLESIA BAUTISTA UNA IGLESIA FAMILIAR,LOS ANGELES,CA,90063,2340,LOS ANGELES,6037,2008-12-04T00:00:00.000Z,ALT REF,2008-12-11T00:00:00.000Z,CHURCHES,23910995,-118.1849268,34.035773,CHRISTIAN,ABC,NOT AVAILABLE,NOT AVAILABLE,Y,N
3864,10585893,IGLESIA BAUTISTA DE LINCOLN HEIGHTS,LOS ANGELES,CA,90031,3235,LOS ANGELES,6037,2008-12-08T00:00:00.000Z,ALT REF,2008-12-08T00:00:00.000Z,CHURCHES,23905514,-118.2178561,34.0690814,CHRISTIAN,ABC,NOT AVAILABLE,NOT AVAILABLE,Y,N
3870,10684672,SHAMBHALA MEDITATION CENTER LOS ANGELES,LOS ANGELES,CA,90041,1705,LOS ANGELES,6037,2008-11-21T00:00:00.000Z,ALT REF,2008-12-04T00:00:00.000Z,PLACES OF WORSHIP,128794012,-118.186809,34.1387949,BUDDHIST,"TIBETAN, KAGYU LINEAGE",NOT AVAILABLE,NOT AVAILABLE,N,N
3871,10586022,SUNNYSIDE BAPTIST CHURCH,LOS ANGELES,CA,90044,1908,LOS ANGELES,6037,2008-12-04T00:00:00.000Z,ALT REF,2008-12-04T00:00:00.000Z,CHURCHES,23940730,-118.2961671,33.9512594,CHRISTIAN,ABC,NOT AVAILABLE,NOT AVAILABLE,Y,N
3878,10684670,LOS ANGELES HOMPA HONGWANJI BUDDHIST TEMPLE,LOS ANGELES,CA,90012,4304,LOS ANGELES,6037,2008-12-05T00:00:00.000Z,ALT REF,2008-12-05T00:00:00.000Z,"TEMPLES, RELIGIOUS",23908172,-118.2347576,34.0487989,BUDDHIST,JODO SHINSHU BUDDHISM,NOT AVAILABLE,NOT AVAILABLE,N,N
3890,10684669,LOS ANGELES FRIENDSHIP CENTER,LOS ANGELES,CA,90019,5024,LOS ANGELES,6037,2008-12-05T00:00:00.000Z,ALT REF,2008-12-05T00:00:00.000Z,PLACES OF WORSHIP,23919764,-118.3696728,34.0406886,BUDDHIST,"MAHAYANA, NICHIREN",NOT AVAILABLE,NOT AVAILABLE,N,N
3892,10684519,INTERNATIONAL BUDDHIST MEDITATION CENTER,LOS ANGELES,CA,90006,1623,LOS ANGELES,6037,2008-12-04T00:00:00.000Z,ALT REF,2008-12-04T00:00:00.000Z,PLACES OF WORSHIP,23923691,-118.2925651,34.0547942,BUDDHIST,VIETNAMESE / AMERICAN ZEN,NOT AVAILABLE,NOT AVAILABLE,N,N
3896,10585901,IGLESIA EVANGELICA GUERREROS DE CRISTO,LOS ANGELES,CA,90015,1004,LOS ANGELES,6037,2008-12-08T00:00:00.000Z,ALT REF,2008-12-08T00:00:00.000Z,CHURCHES,23841712,-118.2759738,34.0496264,CHRISTIAN,ABC,NOT AVAILABLE,NOT AVAILABLE,Y,N
3901,10452505,MORNING STAR MISSIONARY BAPTIST CHURCH,LOS ANGELES,CA,90011,3302,LOS ANGELES,6037,2008-12-03T00:00:00.000Z,ALT REF,2008-12-08T00:00:00.000Z,CHURCHES,709460981,-118.2508298,34.0088173,CHRISTIAN,NBC,NOT AVAILABLE,NOT AVAILABLE,Y,N
3915,10684873,PALYUL CHANGCHUB DARGYELING,LOS ANGELES,CA,90069,1627,LOS ANGELES,6037,2008-12-08T00:00:00.000Z,ALT REF,2008-12-11T00:00:00.000Z,PLACES OF WORSHIP,23915763,-118.3704425,34.0991322,BUDDHIST,"VAJRAYANA, TIBETAN, NYINGMAPA, PALYUL LINEAGE",NOT AVAILABLE,NOT AVAILABLE,N,N
3924,10585761,FAITH IN CHRIST MINISTRIES,LOS ANGELES,CA,90062,1608,LOS ANGELES,6037,2008-11-21T00:00:00.000Z,ALT REF,2008-11-21T00:00:00.000Z,CHURCHES,23913013,-118.30916,34.0024936,CHRISTIAN,ABC,NOT AVAILABLE,NOT AVAILABLE,Y,N
3927,10447635,SAINT CECILIA CATHOLIC CHURCH,LOS ANGELES,CA,90037,2325,LOS ANGELES,6037,2008-11-21T00:00:00.000Z,ALT REF,2008-11-21T00:00:00.000Z,CHURCHES,23844676,-118.2997691,34.0058601,CHRISTIAN,NOT AVAILABLE,NOT AVAILABLE,NOT AVAILABLE,N,Y
3930,10443112,SAINT TIMOTHYS CHURCH,LOS ANGELES,CA,90064,2307,LOS ANGELES,6037,2008-11-21T00:00:00.000Z,ALT REF,2008-11-21T00:00:00.000Z,CHURCHES,23898682,-118.4176969,34.0462707,CHRISTIAN,NOT AVAILABLE,NOT AVAILABLE,NOT AVAILABLE,N,Y
3934,10444785,CHRIST THE KING,LOS ANGELES,CA,90004,1211,LOS ANGELES,6037,2008-11-21T00:00:00.000Z,ALT REF,2008-11-21T00:00:00.000Z,CHURCHES,23916248,-118.3263614,34.0824941,CHRISTIAN,NOT AVAILABLE,NOT AVAILABLE,NOT AVAILABLE,N,Y
3940,10585975,PILGRIMS HOPE BAPTIST CHURCH,LOS ANGELES,CA,90001,2526,LOS ANGELES,6037,2008-11-25T00:00:00.000Z,ALT REF,2008-11-25T00:00:00.000Z,CHURCHES,23873489,-118.2473417,33.9760825,CHRISTIAN,ABC,NOT AVAILABLE,NOT AVAILABLE,Y,N
3943,10684621,KWAN UM SAH TEMPLE,LOS ANGELES,CA,90020,3809,LOS ANGELES,6037,2008-11-24T00:00:00.000Z,ALT REF,2008-11-24T00:00:00.000Z,"TEMPLES, RELIGIOUS",722940971,-118.3086501,34.0692663,BUDDHIST,"MAHAYANA, KOREAN ZEN/SOEN",NOT AVAILABLE,NOT AVAILABLE,N,N
3944,10685555,SRI RATANA INTERNATIONAL BUDDHIST MEDITATION CENTER,LOS ANGELES,CA,90029,3415,LOS ANGELES,6037,2008-11-24T00:00:00.000Z,ALT REF,2008-11-24T00:00:00.000Z,PLACES OF WORSHIP,121237439,-118.3001113,34.0850633,BUDDHIST,THERAVADA,NOT AVAILABLE,NOT AVAILABLE,N,N
3945,10447638,SAN CONRADO MISSION,LOS ANGELES,CA,90012,1017,LOS ANGELES,6037,2008-11-21T00:00:00.000Z,ALT REF,2008-11-21T00:00:00.000Z,CHURCHES,23905468,-118.2351611,34.0776359,CHRISTIAN,NOT AVAILABLE,NOT AVAILABLE,NOT AVAILABLE,N,Y
3946,10447671,SAINT VINCENT CATHOLIC CHURCH,LOS ANGELES,CA,90007,2546,LOS ANGELES,6037,2008-11-21T00:00:00.000Z,ALT REF,2008-11-21T00:00:00.000Z,CHURCHES,23843112,-118.2763067,34.0289451,CHRISTIAN,NOT AVAILABLE,NOT AVAILABLE,NOT AVAILABLE,N,Y
3947,10447609,OUR LADY OF LORETTO CATHOLIC CHURCH,LOS ANGELES,CA,90026,5435,LOS ANGELES,6037,2008-11-21T00:00:00.000Z,ALT REF,2008-11-21T00:00:00.000Z,CHURCHES,23923346,-118.2641993,34.0663922,CHRISTIAN,NOT AVAILABLE,NOT AVAILABLE,NOT AVAILABLE,N,Y
3958,10440845,ALL SAINTS EPISCOPAL CHURCH,LOS ANGELES,CA,90042,3425,LOS ANGELES,6037,2008-11-21T00:00:00.000Z,ALT REF,2008-11-21T00:00:00.000Z,CHURCHES,23903651,-118.1953223,34.1116895,CHRISTIAN,EPIS,NOT AVAILABLE,NOT AVAILABLE,Y,N
3963,10444781,ALL SAINTS CATHOLIC CHURCH,LOS ANGELES,CA,90032,2215,LOS ANGELES,6037,2008-11-21T00:00:00.000Z,ALT REF,2008-11-21T00:00:00.000Z,CHURCHES,23906009,-118.1729875,34.085634,CHRISTIAN,NOT AVAILABLE,NOT AVAILABLE,NOT AVAILABLE,N,Y
3966,10460349,VICTORY PRESBYTERIAN CHURCH,LOS ANGELES,CA,90029,2701,LOS ANGELES,6037,2008-11-21T00:00:00.000Z,ALT REF,2008-11-21T00:00:00.000Z,CHURCHES,23918762,-118.2899333,34.0858681,CHRISTIAN,PCA,NOT AVAILABLE,NOT AVAILABLE,Y,N
3967,10576305,NEW GROUND HARVEST CHURCH,LOS ANGELES,CA,90043,1335,LOS ANGELES,6037,2008-11-21T00:00:00.000Z,ALT REF,2008-11-21T00:00:00.000Z,CHURCHES,23913032,-118.3259778,33.9997927,CHRISTIAN,CRC,NOT AVAILABLE,NOT AVAILABLE,Y,N
3969,10430642,MASJID UMAR IBN AL-KHATTAB,LOS ANGELES,CA,90007,4241,LOS ANGELES,6037,2008-11-24T00:00:00.000Z,ALT REF,2008-12-02T00:00:00.000Z,"MOSQUES, RELIGIOUS",23843768,-118.2924876,34.0185631,MUSLIM,NOT AVAILABLE,NOT AVAILABLE,NOT AVAILABLE,N,N
3971,10444789,HOLY CROSS PARISH,LOS ANGELES,CA,90037,NULL,LOS ANGELES,6037,2008-11-21T00:00:00.000Z,ALT REF,2008-11-21T00:00:00.000Z,CHURCHES,23912759,-118.2744146,34.0006297,CHRISTIAN,NOT AVAILABLE,NOT AVAILABLE,NOT AVAILABLE,N,Y
3979,10444780,CATHEDRAL CHAPEL OF SAINT VIBIANA,LOS ANGELES,CA,90036,4807,LOS ANGELES,6037,2008-11-21T00:00:00.000Z,ALT REF,2008-11-21T00:00:00.000Z,CHURCHES,128789200,-118.3460821,34.057964,CHRISTIAN,NOT AVAILABLE,NOT AVAILABLE,NOT AVAILABLE,N,Y
3980,10440851,TRINITY EPISCOPAL CHURCH,LOS ANGELES,CA,90029,3541,LOS ANGELES,6037,2008-11-21T00:00:00.000Z,ALT REF,2008-12-02T00:00:00.000Z,CHURCHES,128787244,-118.293828,34.083244,CHRISTIAN,EPIS,NOT AVAILABLE,NOT AVAILABLE,Y,N
3981,10436701,GETHSEMANE CHRISTIAN LOVE MISSIONARY BAPTIST CHURCH,LOS ANGELES,CA,90003,4311,LOS ANGELES,6037,2007-09-18T00:00:00.000Z,ALT REF,2007-09-18T00:00:00.000Z,CHURCHES,23941691,-118.2648859,33.9486468,CHRISTIAN,SBC,2188,NOT AVAILABLE,Y,N
3982,10434009,FIRST CHINESE BAPTIST CHURCH,LOS ANGELES,CA,90012,1725,LOS ANGELES,6037,2008-11-21T00:00:00.000Z,ALT REF,2008-11-21T00:00:00.000Z,CHURCHES,717754343,-118.2393951,34.0666053,CHRISTIAN,SBC,1335,NOT AVAILABLE,Y,N
3993,10440841,SAINT THOMAS THE APOSTLE,LOS ANGELES,CA,90046,2813,LOS ANGELES,6037,2008-11-21T00:00:00.000Z,ALT REF,2008-11-21T00:00:00.000Z,CHURCHES,23911374,-118.35309,34.101909,CHRISTIAN,EPIS,NOT AVAILABLE,NOT AVAILABLE,Y,N
3997,10440850,SAINT JAMES EPISCOPAL CHURCH,LOS ANGELES,CA,90005,3301,LOS ANGELES,6037,2008-11-21T00:00:00.000Z,ALT REF,2008-11-21T00:00:00.000Z,CHURCHES,23921946,-118.311822,34.062031,CHRISTIAN,EPIS,NOT AVAILABLE,NOT AVAILABLE,Y,N
4000,10576299,COMMUNITY CHRISTIAN REFORMED CHURCH OF LOS ANGELES,LOS ANGELES,CA,90044,4443,LOS ANGELES,6037,2008-11-21T00:00:00.000Z,ALT REF,2008-11-21T00:00:00.000Z,CHURCHES,23943322,-118.2872147,33.9394821,CHRISTIAN,CRC,NOT AVAILABLE,NOT AVAILABLE,Y,N