OBJECTID,ID,NAME,CITY,STATE,ZIP,ZIPP4,COUNTY,FIPS,CONTDATE,CONTHOW,GEODATE,NAICSDESCR,GEOLINKID,X,Y,SUBTYPE,DENOM,MEMBERS,LOC_TYPE,PROT,CATH
30148,10429726,CONGREGATION ADATH JESHURUN,LOUISVILLE,KY,40205,1719,JEFFERSON,21111,2007-08-08T00:00:00.000Z,ALT REF,2007-08-09T00:00:00.000Z,SYNAGOGUES,38678320,-85.684749,38.227975,JUDAIC,NOT AVAILABLE,NOT AVAILABLE,NOT AVAILABLE,N,N
30149,10428024,TEMPLE SHALOM,LOUISVILLE,KY,40220,1531,JEFFERSON,21111,2007-07-23T00:00:00.000Z,PHONE,2007-07-23T00:00:00.000Z,SYNAGOGUES,38679510,-85.6092835,38.2234084,JUDAIC,REFORM,224,NOT AVAILABLE,N,N
30150,10429727,KENESETH ISRAEL CONGREGATION,LOUISVILLE,KY,40205,2224,JEFFERSON,21111,2007-08-08T00:00:00.000Z,ALT REF,2007-08-09T00:00:00.000Z,SYNAGOGUES,38679062,-85.6748545,38.2241178,JUDAIC,NOT AVAILABLE,NOT AVAILABLE,NOT AVAILABLE,N,N
30154,10428151,JEWISH COMMUNITY CENTER OF LOUISVILLE,LOUISVILLE,KY,40205,3302,JEFFERSON,21111,2007-08-08T00:00:00.000Z,ALT REF,2007-08-09T00:00:00.000Z,SYNAGOGUES,38678659,-85.649856,38.2256626,JUDAIC,NOT AVAILABLE,NOT AVAILABLE,NOT AVAILABLE,N,N
30156,10426712,ANSHEI SFARD CONGREGATION,LOUISVILLE,KY,40205,3217,JEFFERSON,21111,2007-08-08T00:00:00.000Z,ALT REF,2007-08-08T00:00:00.000Z,SYNAGOGUES,38678659,-85.648904,38.2263146,JUDAIC,ORTHODOX,NOT AVAILABLE,SYNAGOGUE,N,N
30157,10426179,BETH ISRAEL CONGREGATION,LOUISVILLE,KY,40205,3203,JEFFERSON,21111,2007-08-08T00:00:00.000Z,ALT REF,2007-08-08T00:00:00.000Z,SYNAGOGUES,38678578,-85.6452999,38.2265783,JUDAIC,NOT AVAILABLE,NOT AVAILABLE,SYNAGOGUE,N,N
30160,10428069,THE TEMPLE CONGREGATION ADATH ISRAEL B'RITH SHOLOM,LOUISVILLE,KY,40241,NULL,JEFFERSON,21111,2007-07-23T00:00:00.000Z,PHONE,2007-07-23T00:00:00.000Z,SYNAGOGUES,38668220,-85.6301136,38.2912365,JUDAIC,REFORM,765,NOT AVAILABLE,N,N
30161,10426715,TEMPLE BETH SHALOM,LOUISVILLE,KY,40204,1015,JEFFERSON,21111,2007-08-08T00:00:00.000Z,ALT REF,2007-08-08T00:00:00.000Z,SYNAGOGUES,38674431,-85.7386943,38.246592,JUDAIC,NOT AVAILABLE,NOT AVAILABLE,SYNAGOGUE,N,N
30162,10428912,CHABAD OF KENTUCKY,LOUISVILLE,KY,40205,3217,JEFFERSON,21111,2007-07-26T00:00:00.000Z,PHONE,2007-07-26T00:00:00.000Z,SYNAGOGUES,38678659,-85.6479643,38.2263495,JUDAIC,CHABAD,NOT AVAILABLE,CHABAD,N,N
30166,10430831,ISLAMIC CULTURAL CENTER OF LOUISVILLE,LOUISVILLE,KY,40207,1043,JEFFERSON,21111,2007-07-19T00:00:00.000Z,PHONE,2007-07-20T00:00:00.000Z,"MOSQUES, RELIGIOUS",38668143,-85.678991,38.2911878,MUSLIM,NOT AVAILABLE,NOT AVAILABLE,NOT AVAILABLE,N,N
30173,10430834,BOSNIAN-AMERICAN ISLAMIC CENTER,LOUISVILLE,KY,40218,2623,JEFFERSON,21111,2007-07-17T00:00:00.000Z,PHONE,2007-07-17T00:00:00.000Z,"MOSQUES, RELIGIOUS",38683659,-85.6501599,38.1964637,MUSLIM,NOT AVAILABLE,NOT AVAILABLE,NOT AVAILABLE,N,N
30175,10456540,NEW COVENANT COMMUNITY AFRICAN METHODIST EPISCOPAL CHURCH,LOUISVILLE,KY,40299,1579,JEFFERSON,21111,2008-03-04T00:00:00.000Z,ALT REF,2008-03-21T00:00:00.000Z,CHURCHES,38683359,-85.5876315,38.1986039,CHRISTIAN,AME,NOT AVAILABLE,NOT AVAILABLE,Y,N
30302,10583526,MARYVILLE BAPTIST CHURCH,LOUISVILLE,KY,40229,4000,BULLITT,21029,2009-03-31T00:00:00.000Z,ALT REF,2009-03-31T00:00:00.000Z,CHURCHES,107305655,-85.6853026,38.078047,CHRISTIAN,BAPT,NOT AVAILABLE,NOT AVAILABLE,Y,N
30307,10446007,SAINT MARYS CATHOLIC CHURCH,LOUISVILLE,KY,40229,3210,BULLITT,21029,2009-03-30T00:00:00.000Z,ALT REF,2009-03-30T00:00:00.000Z,CHURCHES,107063500,-85.6754334,38.0756579,CHRISTIAN,NOT AVAILABLE,NOT AVAILABLE,NOT AVAILABLE,N,Y
30427,10430830,MASJID MUHAMMAD,LOUISVILLE,KY,40203,3559,JEFFERSON,21111,2009-04-14T00:00:00.000Z,ALT REF,2009-04-14T00:00:00.000Z,"MOSQUES, RELIGIOUS",38673431,-85.7837043,38.2506537,MUSLIM,NOT AVAILABLE,NOT AVAILABLE,NOT AVAILABLE,N,N
30451,10459723,QUINN CHAPEL AFRICAN METHODIST EPISCOPAL CHURCH,LOUISVILLE,KY,40203,1553,JEFFERSON,21111,2009-04-10T00:00:00.000Z,ALT REF,2009-04-10T00:00:00.000Z,CHURCHES,38672650,-85.7828183,38.2542201,CHRISTIAN,AME,NOT AVAILABLE,NOT AVAILABLE,Y,N
30452,10454450,FIRST BAPTIST CHURCH - JEFFERSONTOWN,LOUISVILLE,KY,40299,3818,JEFFERSON,21111,2009-04-09T00:00:00.000Z,ALT REF,2009-04-09T00:00:00.000Z,CHURCHES,38701326,-85.5629898,38.1954213,CHRISTIAN,NBC,NOT AVAILABLE,NOT AVAILABLE,Y,N
30453,10684302,DREPUNG GOMANG INSTITUTE,LOUISVILLE,KY,40205,1120,JEFFERSON,21111,2009-04-10T00:00:00.000Z,ALT REF,2009-04-10T00:00:00.000Z,PLACES OF WORSHIP,38677462,-85.7033852,38.2322525,BUDDHIST,"TIBETAN, GELUGPA",NOT AVAILABLE,NOT AVAILABLE,N,N
30454,10435969,MELBOURNE HEIGHTS BAPTIST CHURCH,LOUISVILLE,KY,40220,1344,JEFFERSON,21111,2009-04-10T00:00:00.000Z,ALT REF,2009-04-10T00:00:00.000Z,CHURCHES,38697605,-85.6426338,38.2202785,CHRISTIAN,SBC,825,NOT AVAILABLE,Y,N
30455,10574977,WALTERS CLEMENT AFRICAN METHODIST EPISCOPAL ZION CHURCH,LOUISVILLE,KY,40213,2929,JEFFERSON,21111,2009-04-10T00:00:00.000Z,ALT REF,2009-04-10T00:00:00.000Z,CHURCHES,38686096,-85.6741231,38.1801174,CHRISTIAN,AMEZ,NOT AVAILABLE,NOT AVAILABLE,Y,N
30456,10445981,SAINT CECILIA CHURCH,LOUISVILLE,KY,40212,1455,JEFFERSON,21111,2009-04-10T00:00:00.000Z,ALT REF,2009-04-10T00:00:00.000Z,CHURCHES,38670508,-85.79094,38.2645906,CHRISTIAN,NOT AVAILABLE,NOT AVAILABLE,NOT AVAILABLE,N,Y
30461,10583527,SHAWNEE BAPTIST CHURCH,LOUISVILLE,KY,40212,1211,JEFFERSON,21111,2009-04-03T00:00:00.000Z,ALT REF,2009-04-03T00:00:00.000Z,CHURCHES,38698381,-85.7858396,38.266528,CHRISTIAN,BAPT,NOT AVAILABLE,NOT AVAILABLE,Y,N
30473,10435100,EIGHTEENTH STREET BAPTIST CHURCH,LOUISVILLE,KY,40210,2223,JEFFERSON,21111,2009-04-09T00:00:00.000Z,ALT REF,2009-04-09T00:00:00.000Z,CHURCHES,38699064,-85.7920969,38.2226666,CHRISTIAN,SBC,852,NOT AVAILABLE,Y,N
30478,10460663,COMMUNITY PRESBYTERIAN CHURCH,LOUISVILLE,KY,40245,2022,JEFFERSON,21111,2009-04-09T00:00:00.000Z,ALT REF,2009-04-09T00:00:00.000Z,CHURCHES,125266252,-85.4923314,38.2825486,CHRISTIAN,PCA,NOT AVAILABLE,NOT AVAILABLE,Y,N
30480,10437364,SAINT MATTHEWS BAPTIST CHURCH,LOUISVILLE,KY,40207,3707,JEFFERSON,21111,2009-04-08T00:00:00.000Z,ALT REF,2009-04-08T00:00:00.000Z,CHURCHES,38675027,-85.6567467,38.2466908,CHRISTIAN,SBC,2889,NOT AVAILABLE,Y,N
30481,10440806,SAINT MATTHEWS EPISCOPAL CHURCH,LOUISVILLE,KY,40207,2253,JEFFERSON,21111,2009-04-07T00:00:00.000Z,ALT REF,2009-04-07T00:00:00.000Z,CHURCHES,38671119,-85.6443974,38.262829,CHRISTIAN,EPIS,NOT AVAILABLE,NOT AVAILABLE,Y,N
30482,10436190,WALNUT STREET BAPTIST CHURCH,LOUISVILLE,KY,40203,2901,JEFFERSON,21111,2009-04-08T00:00:00.000Z,ALT REF,2009-04-08T00:00:00.000Z,CHURCHES,38676643,-85.7579279,38.2369568,CHRISTIAN,SBC,6021,NOT AVAILABLE,Y,N
30485,10440815,SAINT ANDREWS EPISCOPAL CHURCH,LOUISVILLE,KY,40205,2105,JEFFERSON,21111,2009-04-10T00:00:00.000Z,ALT REF,2009-04-10T00:00:00.000Z,CHURCHES,38678381,-85.6854916,38.2275551,CHRISTIAN,EPIS,NOT AVAILABLE,NOT AVAILABLE,Y,N
30487,10443214,SAINT BARNABAS CHURCH,LOUISVILLE,KY,40220,2017,JEFFERSON,21111,2009-04-07T00:00:00.000Z,ALT REF,2009-04-07T00:00:00.000Z,CHURCHES,38697687,-85.6351039,38.2136822,CHRISTIAN,NOT AVAILABLE,NOT AVAILABLE,NOT AVAILABLE,N,Y
30488,10459775,SAINT PAUL AFRICAN METHODIST EPISCOPAL CHURCH,LOUISVILLE,KY,40211,1702,JEFFERSON,21111,2009-04-10T00:00:00.000Z,ALT REF,2009-04-10T00:00:00.000Z,CHURCHES,38677439,-85.8015313,38.2307602,CHRISTIAN,AME,NOT AVAILABLE,NOT AVAILABLE,Y,N
30490,10443215,SAINT MARTHA CHURCH,LOUISVILLE,KY,40218,1661,JEFFERSON,21111,2009-04-07T00:00:00.000Z,ALT REF,2009-04-07T00:00:00.000Z,CHURCHES,38682727,-85.6415461,38.2028311,CHRISTIAN,NOT AVAILABLE,NOT AVAILABLE,NOT AVAILABLE,N,Y
30557,10577122,RIVER CITY BAPTIST CHURCH,LOUISVILLE,KY,40229,1308,JEFFERSON,21111,2009-04-03T00:00:00.000Z,ALT REF,2009-04-03T00:00:00.000Z,CHURCHES,38704513,-85.6578691,38.1027716,CHRISTIAN,BAPT,NOT AVAILABLE,NOT AVAILABLE,Y,N
30590,10445982,CHRIST THE KING CHURCH,LOUISVILLE,KY,40211,2722,JEFFERSON,21111,2009-04-13T00:00:00.000Z,ALT REF,2009-04-13T00:00:00.000Z,CHURCHES,38698428,-85.8256008,38.2492085,CHRISTIAN,NOT AVAILABLE,NOT AVAILABLE,NOT AVAILABLE,N,Y
30591,10578793,LYNDON INDEPENDENT BAPTIST CHURCH,LOUISVILLE,KY,40242,3538,JEFFERSON,21111,2009-04-15T00:00:00.000Z,ALT REF,2009-04-15T00:00:00.000Z,CHURCHES,38669928,-85.5838027,38.2705973,CHRISTIAN,BAPT,NOT AVAILABLE,NOT AVAILABLE,Y,N
30593,10574976,TAYLORTOWN AFRICAN METHODIST EPISCOPAL ZION CHURCH,LOUISVILLE,KY,40241,1236,JEFFERSON,21111,2009-04-10T00:00:00.000Z,ALT REF,2009-04-10T00:00:00.000Z,CHURCHES,38666821,-85.5475845,38.3178642,CHRISTIAN,AMEZ,NOT AVAILABLE,NOT AVAILABLE,Y,N
30594,10574968,HUGHLETT TEMPLE AFRICAN METHODIST EPISCOPAL ZION CHURCH,LOUISVILLE,KY,40212,1653,JEFFERSON,21111,2009-04-10T00:00:00.000Z,ALT REF,2009-04-10T00:00:00.000Z,CHURCHES,38671918,-85.7859217,38.2574017,CHRISTIAN,AMEZ,NOT AVAILABLE,NOT AVAILABLE,Y,N
30595,10574970,STONER MEMORIAL AFRICAN METHODIST EPISCOPAL ZION CHURCH,LOUISVILLE,KY,40210,1530,JEFFERSON,21111,2009-04-10T00:00:00.000Z,ALT REF,2009-04-10T00:00:00.000Z,CHURCHES,38676425,-85.7729859,38.2364293,CHRISTIAN,AMEZ,NOT AVAILABLE,NOT AVAILABLE,Y,N
30598,10587157,RIDGEWOOD BAPTIST CHURCH,LOUISVILLE,KY,40258,2501,JEFFERSON,21111,2009-04-10T00:00:00.000Z,ALT REF,2009-04-10T00:00:00.000Z,CHURCHES,38689851,-85.8675671,38.1453815,CHRISTIAN,ABC,NOT AVAILABLE,NOT AVAILABLE,Y,N
30599,10587155,CENTENNIAL OLIVET BAPTIST CHURCH,LOUISVILLE,KY,40210,1557,JEFFERSON,21111,2009-04-15T00:00:00.000Z,ALT REF,2009-04-15T00:00:00.000Z,CHURCHES,38698758,-85.7802316,38.2371307,CHRISTIAN,ABC,NOT AVAILABLE,NOT AVAILABLE,Y,N
30600,10445988,THE CATHOLIC COMMUNITY OF SAINT FRANCIS OF ASSISI,LOUISVILLE,KY,40205,1572,JEFFERSON,21111,2009-04-03T00:00:00.000Z,ALT REF,2009-04-08T00:00:00.000Z,CHURCHES,38678534,-85.6975648,38.2254283,CHRISTIAN,NOT AVAILABLE,NOT AVAILABLE,NOT AVAILABLE,N,Y
30601,10446011,OUR LADY OF LOURDES,LOUISVILLE,KY,40207,3833,JEFFERSON,21111,2009-04-03T00:00:00.000Z,ALT REF,2009-04-03T00:00:00.000Z,CHURCHES,38697113,-85.6492795,38.2440761,CHRISTIAN,NOT AVAILABLE,NOT AVAILABLE,NOT AVAILABLE,N,Y
30602,10440816,MESSIAH-TRINITY CHURCH,LOUISVILLE,KY,40219,5037,JEFFERSON,21111,2009-04-16T00:00:00.000Z,ALT REF,2009-04-16T00:00:00.000Z,CHURCHES,38692282,-85.6659815,38.1238479,CHRISTIAN,EPIS,NOT AVAILABLE,NOT AVAILABLE,Y,N
30603,10579864,LANDMARK INDEPENDENT BAPTIST CHURCH,LOUISVILLE,KY,40272,3624,JEFFERSON,21111,2009-04-03T00:00:00.000Z,ALT REF,2009-04-03T00:00:00.000Z,CHURCHES,38692675,-85.8872893,38.115528,CHRISTIAN,BAPT,NOT AVAILABLE,NOT AVAILABLE,Y,N
30604,10574967,BROWN TEMPLE AFRICAN METHODIST EPISCOPAL ZION CHURCH,LOUISVILLE,KY,40211,2338,JEFFERSON,21111,2009-04-08T00:00:00.000Z,ALT REF,2009-04-08T00:00:00.000Z,CHURCHES,115970924,-85.8168636,38.2312244,CHRISTIAN,AMEZ,NOT AVAILABLE,NOT AVAILABLE,Y,N
30605,10762301,HIGHLAND PRESBYTERIAN CHURCH,LOUISVILLE,KY,40204,1213,JEFFERSON,21111,2009-04-03T00:00:00.000Z,ALT REF,2009-04-03T00:00:00.000Z,CHURCHES,38675995,-85.7223776,38.2410655,CHRISTIAN,PCUSA,1214,NOT AVAILABLE,Y,N
30606,10587156,CRESCENT HILL BAPTIST CHURCH,LOUISVILLE,KY,40206,2640,JEFFERSON,21111,2009-04-03T00:00:00.000Z,ALT REF,2009-04-03T00:00:00.000Z,CHURCHES,38672719,-85.6900002,38.2543109,CHRISTIAN,ABC,NOT AVAILABLE,NOT AVAILABLE,Y,N
30607,10445976,SAINT AUGUSTINE CATHOLIC CHURCH,LOUISVILLE,KY,40203,2058,JEFFERSON,21111,2009-04-03T00:00:00.000Z,ALT REF,2009-04-03T00:00:00.000Z,CHURCHES,38698895,-85.7737282,38.2475203,CHRISTIAN,NOT AVAILABLE,NOT AVAILABLE,NOT AVAILABLE,N,Y
30608,10445985,SAINT ELIZABETH OF HUNGARY CATHOLIC CHURCH,LOUISVILLE,KY,40217,1206,JEFFERSON,21111,2009-04-06T00:00:00.000Z,ALT REF,2009-04-06T00:00:00.000Z,CHURCHES,38679027,-85.7397382,38.2227821,CHRISTIAN,NOT AVAILABLE,NOT AVAILABLE,NOT AVAILABLE,N,Y
30609,10440812,SAINT MARKS EPISCOPAL CHURCH,LOUISVILLE,KY,40206,2640,JEFFERSON,21111,2009-04-06T00:00:00.000Z,ALT REF,2009-04-06T00:00:00.000Z,CHURCHES,38672719,-85.689537,38.2543801,CHRISTIAN,EPIS,NOT AVAILABLE,NOT AVAILABLE,Y,N
30610,10437512,SHIVELY HEIGHTS BAPTIST CHURCH,LOUISVILLE,KY,40216,3605,JEFFERSON,21111,2009-04-03T00:00:00.000Z,ALT REF,2009-04-03T00:00:00.000Z,CHURCHES,38683430,-85.8234363,38.1956495,CHRISTIAN,SBC,1232,NOT AVAILABLE,Y,N
30611,10578836,BIBLE BAPTIST CHURCH,LOUISVILLE,KY,40208,1523,JEFFERSON,21111,2009-04-07T00:00:00.000Z,ALT REF,2009-04-07T00:00:00.000Z,CHURCHES,38699305,-85.7655134,38.2088538,CHRISTIAN,BAPT,NOT AVAILABLE,NOT AVAILABLE,Y,N
30612,10446000,SAINT JOSEPH CATHOLIC CHURCH,LOUISVILLE,KY,40206,1829,JEFFERSON,21111,2009-04-08T00:00:00.000Z,ALT REF,2009-04-08T00:00:00.000Z,CHURCHES,38671938,-85.7263912,38.2575579,CHRISTIAN,NOT AVAILABLE,NOT AVAILABLE,NOT AVAILABLE,N,Y
30613,10574966,BROADWAY TEMPLE AFRICAN METHODIST EPISCOPAL ZION CHURCH,LOUISVILLE,KY,40203,2057,JEFFERSON,21111,2009-04-08T00:00:00.000Z,ALT REF,2009-04-08T00:00:00.000Z,CHURCHES,38698895,-85.7734501,38.2481342,CHRISTIAN,AMEZ,NOT AVAILABLE,NOT AVAILABLE,Y,N
30614,10445971,SAINT AGNES,LOUISVILLE,KY,40205,1424,JEFFERSON,21111,2009-04-03T00:00:00.000Z,ALT REF,2009-04-03T00:00:00.000Z,CHURCHES,38679525,-85.7110755,38.2211183,CHRISTIAN,NOT AVAILABLE,NOT AVAILABLE,NOT AVAILABLE,N,Y
30615,10446008,MOST BLESSED SACRAMENT CATHOLIC CHURCH,LOUISVILLE,KY,40215,2608,JEFFERSON,21111,2009-04-03T00:00:00.000Z,ALT REF,2009-04-03T00:00:00.000Z,CHURCHES,38683463,-85.7824548,38.1954875,CHRISTIAN,NOT AVAILABLE,NOT AVAILABLE,NOT AVAILABLE,N,Y
30616,10443825,SAINT THERESE ROMAN CATHOLIC CHURCH,LOUISVILLE,KY,40204,1944,JEFFERSON,21111,2009-04-08T00:00:00.000Z,ALT REF,2009-04-08T00:00:00.000Z,CHURCHES,38697767,-85.7319304,38.2351813,CHRISTIAN,NOT AVAILABLE,NOT AVAILABLE,NOT AVAILABLE,N,Y
30617,10762655,SAINT PAUL UNITED METHODIST CHURCH,LOUISVILLE,KY,40205,1928,JEFFERSON,21111,2009-04-06T00:00:00.000Z,ALT REF,2009-04-06T00:00:00.000Z,CHURCHES,38678787,-85.6929933,38.2246452,CHRISTIAN,UMC,NOT AVAILABLE,NOT AVAILABLE,Y,N
30618,10761729,WESTPORT ROAD CHURCH OF CHRIST,LOUISVILLE,KY,40207,2462,JEFFERSON,21111,2009-04-06T00:00:00.000Z,ALT REF,2009-04-06T00:00:00.000Z,CHURCHES,38671068,-85.6269765,38.2633633,CHRISTIAN,COC,450,NOT AVAILABLE,Y,N
30619,10440253,CHURCH OF THE ADVENT,LOUISVILLE,KY,40204,2046,JEFFERSON,21111,2009-04-09T00:00:00.000Z,ALT REF,2009-04-09T00:00:00.000Z,CHURCHES,38675397,-85.7260331,38.2429725,CHRISTIAN,EPIS,NOT AVAILABLE,NOT AVAILABLE,Y,N
30620,10761487,FERN CREEK CHRISTIAN CHURCH,LOUISVILLE,KY,40291,3051,JEFFERSON,21111,2009-04-03T00:00:00.000Z,ALT REF,2009-04-03T00:00:00.000Z,CHURCHES,125267012,-85.5858986,38.1514126,CHRISTIAN,CHRISTIAN,NOT AVAILABLE,NOT AVAILABLE,Y,N
30621,10459687,GREATER SAINT JAMES AFRICAN METHODIST EPISCOPAL CHURCH,LOUISVILLE,KY,40210,1420,JEFFERSON,21111,2009-04-10T00:00:00.000Z,ALT REF,2009-04-10T00:00:00.000Z,CHURCHES,38676163,-85.7889023,38.2370431,CHRISTIAN,AME,NOT AVAILABLE,NOT AVAILABLE,Y,N
30622,10431631,ISLAMIC CULTURAL ASSOCIATION OF LOUISVILLE,LOUISVILLE,KY,40218,3501,JEFFERSON,21111,2009-04-10T00:00:00.000Z,ALT REF,2009-04-10T00:00:00.000Z,"MOSQUES, RELIGIOUS",38686292,-85.6488948,38.1790651,MUSLIM,NOT AVAILABLE,NOT AVAILABLE,NOT AVAILABLE,N,N
30623,10683767,WA DOK TEA AND SUTRAS,LOUISVILLE,KY,40205,1545,JEFFERSON,21111,2009-04-14T00:00:00.000Z,ALT REF,2009-04-14T00:00:00.000Z,PLACES OF WORSHIP,38678591,-85.6966097,38.2259805,BUDDHIST,MAHAYANA,NOT AVAILABLE,NOT AVAILABLE,N,N
30624,10452566,NEW ZION BAPTIST CHURCH,LOUISVILLE,KY,40211,1851,JEFFERSON,21111,2009-04-13T00:00:00.000Z,ALT REF,2009-04-13T00:00:00.000Z,CHURCHES,38677192,-85.8111929,38.2319229,CHRISTIAN,NBC,NOT AVAILABLE,NOT AVAILABLE,Y,N
30625,10446012,OUR LADY OF MOUNT CARMEL,LOUISVILLE,KY,40214,4329,JEFFERSON,21111,2009-04-03T00:00:00.000Z,ALT REF,2009-04-13T00:00:00.000Z,CHURCHES,38690202,-85.7738522,38.1465542,CHRISTIAN,NOT AVAILABLE,NOT AVAILABLE,NOT AVAILABLE,N,Y
30626,10443559,SAINTS SIMON AND JUDE CATHOLIC CHURCH,LOUISVILLE,KY,40215,1111,JEFFERSON,21111,2009-04-14T00:00:00.000Z,ALT REF,2009-04-14T00:00:00.000Z,CHURCHES,38686150,-85.7894443,38.177718,CHRISTIAN,NOT AVAILABLE,NOT AVAILABLE,NOT AVAILABLE,N,Y
30627,10453126,MOUNT OLIVE MISSIONARY BAPTIST CHURCH,LOUISVILLE,KY,40203,2523,JEFFERSON,21111,2009-04-14T00:00:00.000Z,ALT REF,2009-04-14T00:00:00.000Z,CHURCHES,38676248,-85.7474417,38.2378846,CHRISTIAN,NBC,NOT AVAILABLE,NOT AVAILABLE,Y,N
30628,10583524,TRINITY BAPTIST TEMPLE,LOUISVILLE,KY,40214,5509,JEFFERSON,21111,2009-04-28T00:00:00.000Z,ALT REF,2009-04-28T00:00:00.000Z,CHURCHES,38690667,-85.7833517,38.138326,CHRISTIAN,BAPT,NOT AVAILABLE,NOT AVAILABLE,Y,N
30632,10434221,FARMDALE BAPTIST CHURCH,LOUISVILLE,KY,40213,2058,JEFFERSON,21111,2009-04-09T00:00:00.000Z,ALT REF,2009-04-09T00:00:00.000Z,CHURCHES,38684897,-85.7200491,38.1881373,CHRISTIAN,SBC,1339,NOT AVAILABLE,Y,N
30633,10459787,TRINITY AFRICAN METHODIST EPISCOPAL CHURCH,LOUISVILLE,KY,40203,2431,JEFFERSON,21111,2009-04-10T00:00:00.000Z,ALT REF,2009-04-10T00:00:00.000Z,CHURCHES,38675650,-85.745976,38.2414661,CHRISTIAN,AME,NOT AVAILABLE,NOT AVAILABLE,Y,N
30634,10433405,BUECHEL PARK BAPTIST CHURCH,LOUISVILLE,KY,40218,1411,JEFFERSON,21111,2009-04-10T00:00:00.000Z,ALT REF,2009-04-10T00:00:00.000Z,CHURCHES,115960878,-85.6560561,38.202255,CHRISTIAN,SBC,768,NOT AVAILABLE,Y,N
30635,10431564,MUSLIM CENTER,LOUISVILLE,KY,40211,2475,JEFFERSON,21111,2009-04-10T00:00:00.000Z,ALT REF,2009-04-10T00:00:00.000Z,"MOSQUES, RELIGIOUS",38675495,-85.8233985,38.2409344,MUSLIM,NOT AVAILABLE,NOT AVAILABLE,NOT AVAILABLE,N,N
30636,10446006,SAINT MARTIN DE PORRES CATHOLIC CHURCH,LOUISVILLE,KY,40211,1441,JEFFERSON,21111,2009-04-06T00:00:00.000Z,ALT REF,2009-04-06T00:00:00.000Z,CHURCHES,38673491,-85.8050824,38.2492685,CHRISTIAN,NOT AVAILABLE,NOT AVAILABLE,NOT AVAILABLE,N,Y
30637,10684676,LOUISVILLE COMMUNITY OF MINDFUL LIVING,LOUISVILLE,KY,40206,2011,JEFFERSON,21111,2009-04-10T00:00:00.000Z,ALT REF,2009-04-10T00:00:00.000Z,PLACES OF WORSHIP,38699504,-85.7070086,38.2528729,BUDDHIST,MAHAYANA,NOT AVAILABLE,NOT AVAILABLE,N,N
30638,10578153,VICTORY BAPTIST CHURCH,LOUISVILLE,KY,40228,1741,JEFFERSON,21111,2009-04-16T00:00:00.000Z,ALT REF,2009-04-16T00:00:00.000Z,CHURCHES,724129701,-85.6157876,38.1344531,CHRISTIAN,BAPT,NOT AVAILABLE,NOT AVAILABLE,Y,N
30639,10677995,HINDU TEMPLE OF KENTUCKY,LOUISVILLE,KY,40241,1829,JEFFERSON,21111,2009-04-10T00:00:00.000Z,ALT REF,2009-04-10T00:00:00.000Z,"TEMPLES, RELIGIOUS",27635694,-85.5442275,38.3070536,HINDU,NOT AVAILABLE,NOT AVAILABLE,NOT AVAILABLE,N,N
30640,10452871,JOSHUA TABERNACLE BAPTIST CHURCH,LOUISVILLE,KY,40203,1718,JEFFERSON,21111,2009-04-10T00:00:00.000Z,ALT REF,2009-04-10T00:00:00.000Z,CHURCHES,38672874,-85.7760093,38.2537987,CHRISTIAN,NBC,NOT AVAILABLE,NOT AVAILABLE,Y,N
30641,10761170,IMMANUEL UNITED CHURCH OF CHRIST,LOUISVILLE,KY,40205,2230,JEFFERSON,21111,2009-04-03T00:00:00.000Z,ALT REF,2009-04-03T00:00:00.000Z,CHURCHES,38678967,-85.6815421,38.2235367,CHRISTIAN,UCC,469,NOT AVAILABLE,Y,N
30642,10574969,SPRADLING MEMORIAL AFRICAN METHODIST EPISCOPAL ZION CHURCH,LOUISVILLE,KY,40203,2356,JEFFERSON,21111,2009-04-10T00:00:00.000Z,ALT REF,2009-04-10T00:00:00.000Z,CHURCHES,38676201,-85.7485096,38.2382929,CHRISTIAN,AMEZ,NOT AVAILABLE,NOT AVAILABLE,Y,N
30643,10445991,HOLY FAMILY CATHOLIC CHURCH,LOUISVILLE,KY,40213,1463,JEFFERSON,21111,2009-04-09T00:00:00.000Z,ALT REF,2009-04-09T00:00:00.000Z,CHURCHES,38682522,-85.7109911,38.2020649,CHRISTIAN,NOT AVAILABLE,NOT AVAILABLE,NOT AVAILABLE,N,Y
30644,10445983,NOTRE DAME ACADEMY - SAINT DENIS CHURCH,LOUISVILLE,KY,40216,4403,JEFFERSON,21111,2009-04-16T00:00:00.000Z,ALT REF,2009-04-16T00:00:00.000Z,CHURCHES,38700679,-85.8333089,38.2014828,CHRISTIAN,NOT AVAILABLE,NOT AVAILABLE,NOT AVAILABLE,N,Y
30645,10452744,EASTERN STAR BAPTIST CHURCH,LOUISVILLE,KY,40211,1148,JEFFERSON,21111,2009-04-09T00:00:00.000Z,ALT REF,2009-04-09T00:00:00.000Z,CHURCHES,38674385,-85.7925373,38.2457559,CHRISTIAN,NBC,NOT AVAILABLE,NOT AVAILABLE,Y,N
30646,10430832,ISLAMIC CENTER OF LOUISVILLE,LOUISVILLE,KY,40208,1752,JEFFERSON,21111,2009-04-10T00:00:00.000Z,ALT REF,2009-04-10T00:00:00.000Z,"MOSQUES, RELIGIOUS",38699387,-85.7621755,38.2226978,MUSLIM,NOT AVAILABLE,NOT AVAILABLE,NOT AVAILABLE,N,N
30647,10448746,SAINT LOUIS BERTRAND CHURCH,LOUISVILLE,KY,40203,3114,JEFFERSON,21111,2009-04-06T00:00:00.000Z,ALT REF,2009-04-06T00:00:00.000Z,CHURCHES,38676545,-85.7637648,38.2369295,CHRISTIAN,NOT AVAILABLE,NOT AVAILABLE,NOT AVAILABLE,N,Y
30648,10684881,PEACE AND COMPASSION BUDDHA CIRCLE,LOUISVILLE,KY,40205,1070,JEFFERSON,21111,2009-04-14T00:00:00.000Z,ALT REF,2009-04-14T00:00:00.000Z,PLACES OF WORSHIP,38677977,-85.7117478,38.2288249,BUDDHIST,VIETNAMESE ZEN OF THICH NHAT HAHN,NOT AVAILABLE,NOT AVAILABLE,N,N
30649,10685028,SOKA GAKKAI INTERNATIONAL - KENTUCKY COMMUNITY CENTER,LOUISVILLE,KY,40205,1526,JEFFERSON,21111,2009-04-08T00:00:00.000Z,ALT REF,2009-04-15T00:00:00.000Z,PLACES OF WORSHIP,38678406,-85.6988843,38.2266284,BUDDHIST,NICHIREN,NOT AVAILABLE,NOT AVAILABLE,N,N
30650,10440809,CHRIST CHURCH CATHEDRAL,LOUISVILLE,KY,40202,1417,JEFFERSON,21111,2009-04-03T00:00:00.000Z,ALT REF,2009-04-03T00:00:00.000Z,CHURCHES,38673414,-85.7535622,38.2519911,CHRISTIAN,EPIS,NOT AVAILABLE,NOT AVAILABLE,Y,N
30651,10446010,CHURCH OF OUR LADY,LOUISVILLE,KY,40212,2150,JEFFERSON,21111,2009-04-03T00:00:00.000Z,ALT REF,2009-04-03T00:00:00.000Z,CHURCHES,38669041,-85.8057022,38.2763845,CHRISTIAN,NOT AVAILABLE,NOT AVAILABLE,NOT AVAILABLE,N,Y
30652,10434197,PARKLAND BAPTIST CHURCH,LOUISVILLE,KY,40219,2220,JEFFERSON,21111,2009-04-03T00:00:00.000Z,ALT REF,2009-04-03T00:00:00.000Z,CHURCHES,38690167,-85.6607981,38.1450959,CHRISTIAN,SBC,1753,NOT AVAILABLE,Y,N
30653,10446005,SAINT MARTIN OF TOURS CATHOLIC CHURCH,LOUISVILLE,KY,40202,1657,JEFFERSON,21111,2009-04-06T00:00:00.000Z,ALT REF,2009-04-06T00:00:00.000Z,CHURCHES,38674806,-85.7387382,38.245483,CHRISTIAN,NOT AVAILABLE,NOT AVAILABLE,NOT AVAILABLE,N,Y
30654,10434685,WESTPORT ROAD BAPTIST CHURCH,LOUISVILLE,KY,40241,2137,JEFFERSON,21111,2009-04-06T00:00:00.000Z,ALT REF,2009-04-06T00:00:00.000Z,CHURCHES,38668373,-85.5719847,38.2885384,CHRISTIAN,SBC,1700,NOT AVAILABLE,Y,N
30655,10761486,SHIVELY CHRISTIAN CHURCH,LOUISVILLE,KY,40216,2808,JEFFERSON,21111,2009-04-08T00:00:00.000Z,ALT REF,2009-04-08T00:00:00.000Z,CHURCHES,38685903,-85.8192243,38.1790014,CHRISTIAN,CHRISTIAN,NOT AVAILABLE,NOT AVAILABLE,Y,N
30656,10434950,HAZELWOOD BAPTIST CHURCH,LOUISVILLE,KY,40215,2329,JEFFERSON,21111,2009-04-03T00:00:00.000Z,ALT REF,2009-04-03T00:00:00.000Z,CHURCHES,38695151,-85.7826935,38.1793967,CHRISTIAN,SBC,928,NOT AVAILABLE,Y,N
30657,10434433,SOJOURN COMMUNITY CHURCH,LOUISVILLE,KY,40204,2425,JEFFERSON,21111,2009-04-03T00:00:00.000Z,ALT REF,2009-04-09T00:00:00.000Z,CHURCHES,38676907,-85.7380854,38.2337363,CHRISTIAN,SBC,250,NOT AVAILABLE,Y,N
30658,10453317,FIRST VIRGINIA AVENUE BAPTIST CHURCH,LOUISVILLE,KY,40211,1663,JEFFERSON,21111,2009-04-09T00:00:00.000Z,ALT REF,2009-04-09T00:00:00.000Z,CHURCHES,38675703,-85.8138954,38.2396247,CHRISTIAN,NBC,NOT AVAILABLE,NOT AVAILABLE,Y,N
30659,10459662,ASBURY CHAPEL AFRICAN METHODIST EPISCOPAL CHURCH,LOUISVILLE,KY,40203,1537,JEFFERSON,21111,2009-04-07T00:00:00.000Z,ALT REF,2009-04-07T00:00:00.000Z,CHURCHES,38697092,-85.7812523,38.2517301,CHRISTIAN,AME,NOT AVAILABLE,NOT AVAILABLE,Y,N
30660,10445974,CHURCH OF THE ASCENSION,LOUISVILLE,KY,40220,1041,JEFFERSON,21111,2009-04-03T00:00:00.000Z,ALT REF,2009-04-03T00:00:00.000Z,CHURCHES,38677370,-85.6165374,38.2332388,CHRISTIAN,NOT AVAILABLE,NOT AVAILABLE,NOT AVAILABLE,N,Y
30661,10440814,CALVARY EPISCOPAL CHURCH,LOUISVILLE,KY,40203,2115,JEFFERSON,21111,2009-04-03T00:00:00.000Z,ALT REF,2009-04-03T00:00:00.000Z,CHURCHES,38698815,-85.7583594,38.2432544,CHRISTIAN,EPIS,NOT AVAILABLE,NOT AVAILABLE,Y,N
30662,10440805,CHURCH OF OUR MERCIFUL SAVIOUR,LOUISVILLE,KY,40203,1875,JEFFERSON,21111,2009-04-08T00:00:00.000Z,ALT REF,2009-04-08T00:00:00.000Z,CHURCHES,38673052,-85.7688238,38.2526049,CHRISTIAN,EPIS,NOT AVAILABLE,NOT AVAILABLE,Y,N
30663,10432449,HIGHVIEW BAPTIST CHURCH,LOUISVILLE,KY,40228,1707,JEFFERSON,21111,2009-04-09T00:00:00.000Z,ALT REF,2009-04-09T00:00:00.000Z,CHURCHES,38690634,-85.6175088,38.1403245,CHRISTIAN,SBC,NOT AVAILABLE,NOT AVAILABLE,Y,N
30664,11524698,SAINT PETER THE APOSTLE CATHOLIC CHURCH - DEERING ROAD,LOUISVILLE,KY,40272,4127,JEFFERSON,21111,2009-04-10T00:00:00.000Z,ALT REF,2009-04-10T00:00:00.000Z,CHURCHES,38694120,-85.8606803,38.0964257,CHRISTIAN,NOT AVAILABLE,NOT AVAILABLE,NOT AVAILABLE,N,Y
30665,10685039,LOUISVILLE SHAMBHALA MEDITATION GROUP,LOUISVILLE,KY,40214,1320,JEFFERSON,21111,2009-04-14T00:00:00.000Z,ALT REF,2009-04-14T00:00:00.000Z,PLACES OF WORSHIP,38695693,-85.7718829,38.1764245,BUDDHIST,TIBETAN,NOT AVAILABLE,NOT AVAILABLE,N,N
30666,10583479,HERITAGE BAPTIST CHURCH,LOUISVILLE,KY,40272,3946,JEFFERSON,21111,2009-04-06T00:00:00.000Z,ALT REF,2009-04-06T00:00:00.000Z,CHURCHES,127060952,-85.8658415,38.1100521,CHRISTIAN,BAPT,NOT AVAILABLE,NOT AVAILABLE,Y,N
30667,10446017,SAINT RITA CATHOLIC CHURCH,LOUISVILLE,KY,40219,4413,JEFFERSON,21111,2009-04-06T00:00:00.000Z,ALT REF,2009-04-06T00:00:00.000Z,CHURCHES,127026951,-85.6790104,38.1258211,CHRISTIAN,NOT AVAILABLE,NOT AVAILABLE,NOT AVAILABLE,N,Y
30670,10445990,SAINT HELEN CATHOLIC COMMUNITY,LOUISVILLE,KY,40216,3807,JEFFERSON,21111,2009-04-03T00:00:00.000Z,ALT REF,2009-04-06T00:00:00.000Z,CHURCHES,38684342,-85.8074618,38.1912778,CHRISTIAN,NOT AVAILABLE,NOT AVAILABLE,NOT AVAILABLE,N,Y
30671,10434182,EASTERN PARKWAY BAPTIST CHURCH,LOUISVILLE,KY,40217,1921,JEFFERSON,21111,2009-04-09T00:00:00.000Z,ALT REF,2009-04-09T00:00:00.000Z,CHURCHES,38702383,-85.7470115,38.2129761,CHRISTIAN,SBC,1304,NOT AVAILABLE,Y,N
30672,10437132,FIRST GETHSEMANE BAPTIST CHURCH,LOUISVILLE,KY,40208,1618,JEFFERSON,21111,2009-04-03T00:00:00.000Z,ALT REF,2009-04-03T00:00:00.000Z,CHURCHES,38679838,-85.7753985,38.2182173,CHRISTIAN,SBC,2070,NOT AVAILABLE,Y,N
30673,10442482,GUARDIAN ANGELS CATHOLIC CHURCH,LOUISVILLE,KY,40219,1318,JEFFERSON,21111,2009-04-03T00:00:00.000Z,ALT REF,2009-04-03T00:00:00.000Z,CHURCHES,38688177,-85.7019611,38.1632608,CHRISTIAN,NOT AVAILABLE,NOT AVAILABLE,NOT AVAILABLE,N,Y
30674,10433785,BETHLEHEM BAPTIST CHURCH,LOUISVILLE,KY,40219,1306,JEFFERSON,21111,2009-04-03T00:00:00.000Z,ALT REF,2009-04-03T00:00:00.000Z,CHURCHES,38687809,-85.7051269,38.1666249,CHRISTIAN,SBC,2040,NOT AVAILABLE,Y,N
30675,10436444,BEECHMONT BAPTIST CHURCH,LOUISVILLE,KY,40214,1930,JEFFERSON,21111,2009-04-03T00:00:00.000Z,ALT REF,2009-04-03T00:00:00.000Z,CHURCHES,38685303,-85.7661672,38.1842984,CHRISTIAN,SBC,1620,NOT AVAILABLE,Y,N
30676,10432452,CANAAN CHRISTIAN CHURCH,LOUISVILLE,KY,40218,1665,JEFFERSON,21111,2009-04-07T00:00:00.000Z,ALT REF,2009-04-07T00:00:00.000Z,CHURCHES,38681643,-85.6451959,38.2072908,CHRISTIAN,NBC,NOT AVAILABLE,NOT AVAILABLE,Y,N
30677,10435611,HIGHLAND PARK FIRST BAPTIST CHURCH,LOUISVILLE,KY,40299,5143,JEFFERSON,21111,2009-04-03T00:00:00.000Z,ALT REF,2009-04-03T00:00:00.000Z,CHURCHES,724128845,-85.5378447,38.1381811,CHRISTIAN,SBC,787,NOT AVAILABLE,Y,N
30678,10445986,CHURCH OF THE EPIPHANY,LOUISVILLE,KY,40223,2541,JEFFERSON,21111,2009-04-03T00:00:00.000Z,ALT REF,2009-04-03T00:00:00.000Z,CHURCHES,38672538,-85.550788,38.2592575,CHRISTIAN,NOT AVAILABLE,NOT AVAILABLE,NOT AVAILABLE,N,Y
30679,10446004,SAINT MARGARET MARY CATHOLIC COMMUNITY,LOUISVILLE,KY,40222,5413,JEFFERSON,21111,2009-04-06T00:00:00.000Z,ALT REF,2009-04-06T00:00:00.000Z,CHURCHES,125263714,-85.6091447,38.2505588,CHRISTIAN,NOT AVAILABLE,NOT AVAILABLE,NOT AVAILABLE,N,Y
30680,10434768,HURSTBOURNE BAPTIST CHURCH,LOUISVILLE,KY,40222,5308,JEFFERSON,21111,2009-04-03T00:00:00.000Z,ALT REF,2009-04-03T00:00:00.000Z,CHURCHES,38700474,-85.5880369,38.2467259,CHRISTIAN,SBC,1147,NOT AVAILABLE,Y,N
30681,10440287,SAINT PETER THE APOSTLE CATHOLIC CHURCH - COLUMBINE DIVE,LOUISVILLE,KY,40258,2424,JEFFERSON,21111,2009-04-10T00:00:00.000Z,ALT REF,2009-04-10T00:00:00.000Z,CHURCHES,38690408,-85.865073,38.1418726,CHRISTIAN,NOT AVAILABLE,NOT AVAILABLE,NOT AVAILABLE,N,Y
30682,10445978,SAINT BERNARD CATHOLIC CHURCH,LOUISVILLE,KY,40228,1531,JEFFERSON,21111,2009-04-03T00:00:00.000Z,ALT REF,2009-04-03T00:00:00.000Z,CHURCHES,38689929,-85.6216813,38.14714,CHRISTIAN,NOT AVAILABLE,NOT AVAILABLE,NOT AVAILABLE,N,Y
30683,10439264,THE CHURCH OF JESUS CHRIST OF LATTER DAY SAINTS - SHAWNEE WARD,LOUISVILLE,KY,40211,1806,JEFFERSON,21111,2009-04-14T00:00:00.000Z,ALT REF,2009-04-14T00:00:00.000Z,CHURCHES,38698561,-85.8088904,38.2303089,CHRISTIAN,LDS,NOT AVAILABLE,NOT AVAILABLE,Y,N
30684,10440813,SAINT PAULS EPISCOPAL CHURCH,LOUISVILLE,KY,40220,1532,JEFFERSON,21111,2009-04-06T00:00:00.000Z,ALT REF,2009-04-14T00:00:00.000Z,CHURCHES,38679797,-85.6087953,38.2203565,CHRISTIAN,EPIS,NOT AVAILABLE,NOT AVAILABLE,Y,N
30685,10436348,NINTH AND O BAPTIST CHURCH,LOUISVILLE,KY,40218,4009,JEFFERSON,21111,2009-04-06T00:00:00.000Z,ALT REF,2009-04-06T00:00:00.000Z,CHURCHES,38685746,-85.6248722,38.1834745,CHRISTIAN,SBC,2848,NOT AVAILABLE,Y,N
30686,10445998,SAINT JAMES CATHOLIC CHURCH,LOUISVILLE,KY,40204,1522,JEFFERSON,21111,2009-04-06T00:00:00.000Z,ALT REF,2009-04-06T00:00:00.000Z,CHURCHES,38677468,-85.710873,38.2323926,CHRISTIAN,NOT AVAILABLE,NOT AVAILABLE,NOT AVAILABLE,N,Y
30700,10446003,SAINT LUKE CATHOLIC CHURCH,LOUISVILLE,KY,40229,2059,JEFFERSON,21111,2009-04-06T00:00:00.000Z,ALT REF,2009-04-06T00:00:00.000Z,CHURCHES,38693632,-85.6855951,38.1057329,CHRISTIAN,NOT AVAILABLE,NOT AVAILABLE,NOT AVAILABLE,N,Y
30701,10446015,SAINT PIUS X CATHOLIC COMMUNITY,LOUISVILLE,KY,40220,2313,JEFFERSON,21111,2009-04-06T00:00:00.000Z,ALT REF,2009-04-06T00:00:00.000Z,CHURCHES,38681778,-85.6520637,38.2092263,CHRISTIAN,NOT AVAILABLE,NOT AVAILABLE,NOT AVAILABLE,N,Y
30702,10443813,SAINT STEPHEN MARTYR,LOUISVILLE,KY,40217,1752,JEFFERSON,21111,2009-04-06T00:00:00.000Z,ALT REF,2009-04-06T00:00:00.000Z,CHURCHES,38681434,-85.7295354,38.2088664,CHRISTIAN,NOT AVAILABLE,NOT AVAILABLE,NOT AVAILABLE,N,Y
30703,10446016,SAINT RAPHAEL THE ARCHANGEL CATHOLIC CHURCH,LOUISVILLE,KY,40205,2957,JEFFERSON,21111,2009-04-06T00:00:00.000Z,ALT REF,2009-04-06T00:00:00.000Z,CHURCHES,38680432,-85.6764292,38.2161431,CHRISTIAN,NOT AVAILABLE,NOT AVAILABLE,NOT AVAILABLE,N,Y
30704,10434474,RALPH AVENUE BAPTIST CHURCH,LOUISVILLE,KY,40216,4820,JEFFERSON,21111,2009-04-15T00:00:00.000Z,ALT REF,2009-04-15T00:00:00.000Z,CHURCHES,38681503,-85.8205176,38.2064679,CHRISTIAN,SBC,822,NOT AVAILABLE,Y,N
30705,10452802,GREATER FRIENDSHIP BAPTIST CHURCH,LOUISVILLE,KY,40210,1113,JEFFERSON,21111,2009-04-09T00:00:00.000Z,ALT REF,2009-04-09T00:00:00.000Z,CHURCHES,38675700,-85.7940776,38.2399915,CHRISTIAN,NBC,NOT AVAILABLE,NOT AVAILABLE,Y,N
30706,10446014,THE CATHOLIC COMMUNITY OF SAINT PATRICK,LOUISVILLE,KY,40245,4550,JEFFERSON,21111,2009-04-07T00:00:00.000Z,ALT REF,2009-04-07T00:00:00.000Z,CHURCHES,38701207,-85.4782162,38.2516952,CHRISTIAN,NOT AVAILABLE,NOT AVAILABLE,NOT AVAILABLE,N,Y
30707,10445992,HOLY NAME CATHOLIC CHURCH,LOUISVILLE,KY,40208,1415,JEFFERSON,21111,2009-04-03T00:00:00.000Z,ALT REF,2009-04-03T00:00:00.000Z,CHURCHES,38681705,-85.7641855,38.2066008,CHRISTIAN,NOT AVAILABLE,NOT AVAILABLE,NOT AVAILABLE,N,Y
30708,10446002,SAINT LEONARD CATHOLIC COMMUNITY,LOUISVILLE,KY,40206,1417,JEFFERSON,21111,2009-04-06T00:00:00.000Z,ALT REF,2009-04-06T00:00:00.000Z,CHURCHES,134038897,-85.6895135,38.2640043,CHRISTIAN,NOT AVAILABLE,NOT AVAILABLE,NOT AVAILABLE,N,Y
30709,10445993,CHURCH OF THE HOLY SPIRIT,LOUISVILLE,KY,40206,3047,JEFFERSON,21111,2009-04-03T00:00:00.000Z,ALT REF,2009-04-03T00:00:00.000Z,CHURCHES,38674032,-85.6679774,38.2499486,CHRISTIAN,NOT AVAILABLE,NOT AVAILABLE,NOT AVAILABLE,N,Y
30710,10445994,HOLY TRINITY CATHOLIC CHURCH,LOUISVILLE,KY,40207,2103,JEFFERSON,21111,2009-04-03T00:00:00.000Z,ALT REF,2009-04-03T00:00:00.000Z,CHURCHES,38671126,-85.6529522,38.263562,CHRISTIAN,NOT AVAILABLE,NOT AVAILABLE,NOT AVAILABLE,N,Y
30711,10445984,SAINT ELIZABETH ANN SETON,LOUISVILLE,KY,40229,2210,JEFFERSON,21111,2009-04-16T00:00:00.000Z,ALT REF,2009-04-16T00:00:00.000Z,CHURCHES,38694140,-85.6596408,38.0975329,CHRISTIAN,NOT AVAILABLE,NOT AVAILABLE,NOT AVAILABLE,N,Y
30712,10446009,SAINT BERNADETTE CATHOLIC CHURCH,LOUISVILLE,KY,40242,3047,JEFFERSON,21111,2009-04-13T00:00:00.000Z,ALT REF,2009-04-13T00:00:00.000Z,CHURCHES,38669013,-85.5956534,38.280864,CHRISTIAN,NOT AVAILABLE,NOT AVAILABLE,NOT AVAILABLE,N,Y
30713,10445996,IMMACULATE HEART OF MARY CATHOLIC CHURCH,LOUISVILLE,KY,40211,1871,JEFFERSON,21111,2009-04-03T00:00:00.000Z,ALT REF,2009-04-13T00:00:00.000Z,CHURCHES,38697460,-85.8110136,38.2309952,CHRISTIAN,NOT AVAILABLE,NOT AVAILABLE,NOT AVAILABLE,N,Y
30714,10445999,SAINT JOHN VIANNEY CATHOLIC CHURCH,LOUISVILLE,KY,40214,2111,JEFFERSON,21111,2009-04-13T00:00:00.000Z,ALT REF,2009-04-13T00:00:00.000Z,CHURCHES,38686384,-85.7636794,38.1776702,CHRISTIAN,NOT AVAILABLE,NOT AVAILABLE,NOT AVAILABLE,N,Y
30715,10446001,SAINT LAWRENCE CATHOLIC CHURCH,LOUISVILLE,KY,40216,2523,JEFFERSON,21111,2009-04-15T00:00:00.000Z,ALT REF,2009-04-15T00:00:00.000Z,CHURCHES,38696869,-85.8311681,38.1737943,CHRISTIAN,NOT AVAILABLE,NOT AVAILABLE,NOT AVAILABLE,N,Y
30716,10434338,HIGHVIEW BAPTIST CHURCH - VALLEY STATION CAMPUS,LOUISVILLE,KY,40272,3960,JEFFERSON,21111,2009-04-16T00:00:00.000Z,ALT REF,2009-04-16T00:00:00.000Z,CHURCHES,38693402,-85.8636665,38.107132,CHRISTIAN,SBC,1600,NOT AVAILABLE,Y,N
30717,10446013,OUR MOTHER OF SORROWS,LOUISVILLE,KY,40217,1931,JEFFERSON,21111,2009-04-03T00:00:00.000Z,ALT REF,2009-04-03T00:00:00.000Z,CHURCHES,38680671,-85.7449088,38.2130843,CHRISTIAN,NOT AVAILABLE,NOT AVAILABLE,NOT AVAILABLE,N,Y
30718,10446019,SAINT WILLIAM CHURCH,LOUISVILLE,KY,40210,1533,JEFFERSON,21111,2009-04-06T00:00:00.000Z,ALT REF,2009-04-06T00:00:00.000Z,CHURCHES,38676397,-85.7751097,38.2361088,CHRISTIAN,NOT AVAILABLE,NOT AVAILABLE,NOT AVAILABLE,N,Y
30719,10460667,FIRST ALLIANCE CHURCH,LOUISVILLE,KY,40218,2209,JEFFERSON,21111,2009-04-03T00:00:00.000Z,ALT REF,2009-04-03T00:00:00.000Z,CHURCHES,38683353,-85.6586301,38.1969625,CHRISTIAN,PCA,NOT AVAILABLE,NOT AVAILABLE,Y,N
30720,10445972,SAINT ALBERT THE GREAT ROMAN CATHOLIC CHURCH,LOUISVILLE,KY,40222,6642,JEFFERSON,21111,2009-04-08T00:00:00.000Z,ALT REF,2009-04-08T00:00:00.000Z,CHURCHES,38670000,-85.620898,38.2710142,CHRISTIAN,NOT AVAILABLE,NOT AVAILABLE,NOT AVAILABLE,N,Y
30721,10445987,SAINT FRANCES OF ROME CHURCH,LOUISVILLE,KY,40206,2011,JEFFERSON,21111,2009-04-03T00:00:00.000Z,ALT REF,2009-04-03T00:00:00.000Z,CHURCHES,38699504,-85.7064493,38.2530065,CHRISTIAN,NOT AVAILABLE,NOT AVAILABLE,NOT AVAILABLE,N,Y
30722,10445989,SAINT GABRIEL THE ARCHANGEL,LOUISVILLE,KY,40291,1909,JEFFERSON,21111,2009-04-06T00:00:00.000Z,ALT REF,2009-04-06T00:00:00.000Z,CHURCHES,38688094,-85.5992371,38.1662685,CHRISTIAN,NOT AVAILABLE,NOT AVAILABLE,NOT AVAILABLE,N,Y
30723,10445995,SAINT IGNATIUS MARTYR CHURCH,LOUISVILLE,KY,40219,5414,JEFFERSON,21111,2009-04-06T00:00:00.000Z,ALT REF,2009-04-06T00:00:00.000Z,CHURCHES,125260277,-85.6641798,38.1640453,CHRISTIAN,NOT AVAILABLE,NOT AVAILABLE,NOT AVAILABLE,N,Y
30724,10445980,SAINT BRIGID CATHOLIC CHURCH,LOUISVILLE,KY,40204,1618,JEFFERSON,21111,2009-04-13T00:00:00.000Z,ALT REF,2009-04-13T00:00:00.000Z,CHURCHES,38676151,-85.7236131,38.2387802,CHRISTIAN,NOT AVAILABLE,NOT AVAILABLE,NOT AVAILABLE,N,Y
30757,10436907,LYNDON BAPTIST CHURCH,LOUISVILLE,KY,40222,4707,JEFFERSON,21111,2009-04-15T00:00:00.000Z,ALT REF,2009-08-26T00:00:00.000Z,CHURCHES,38672121,-85.605162,38.2584416,CHRISTIAN,SBC,904,NOT AVAILABLE,Y,N
30778,10583528,GRACE TABERNACLE - JOHNSONTOWN CAMPUS,LOUISVILLE,KY,40272,3415,JEFFERSON,21111,2009-04-16T00:00:00.000Z,ALT REF,2009-04-16T00:00:00.000Z,CHURCHES,38692224,-85.871825,38.121946,CHRISTIAN,NOT AVAILABLE,NOT AVAILABLE,NOT AVAILABLE,Y,N
30779,10583525,GRACE TABERNACLE - SAINT ANDREWS CAMPUS,LOUISVILLE,KY,40214,4014,JEFFERSON,21111,2009-04-16T00:00:00.000Z,ALT REF,2009-04-16T00:00:00.000Z,CHURCHES,38688978,-85.8070669,38.1550711,CHRISTIAN,NOT AVAILABLE,NOT AVAILABLE,NOT AVAILABLE,Y,N
30780,10460668,CALVARY LUTHERAN CHURCH,LOUISVILLE,KY,40205,1434,JEFFERSON,21111,2008-03-04T00:00:00.000Z,ALT REF,2008-03-04T00:00:00.000Z,CHURCHES,38678246,-85.6999631,38.227492,CHRISTIAN,NOT AVAILABLE,NOT AVAILABLE,NOT AVAILABLE,Y,N
30783,10440808,SAINT THOMAS EPISCOPAL CHURCH,LOUISVILLE,KY,40241,2224,JEFFERSON,21111,2009-04-07T00:00:00.000Z,ALT REF,2009-04-07T00:00:00.000Z,CHURCHES,38668469,-85.5744394,38.2862836,CHRISTIAN,EPIS,NOT AVAILABLE,NOT AVAILABLE,Y,N
29676,10452808,GUIDING STAR BAPTIST CHURCH,LOUISVILLE,KY,40212,1743,JEFFERSON,21111,2008-03-04T00:00:00.000Z,ALT REF,2008-03-04T00:00:00.000Z,CHURCHES,38672239,-85.796958,38.2553161,CHRISTIAN,NBC,NOT AVAILABLE,NOT AVAILABLE,Y,N
29717,10432447,SAINT STEPHEN CHURCH,LOUISVILLE,KY,40210,1321,JEFFERSON,21111,2007-09-11T00:00:00.000Z,ALT REF,2007-09-11T00:00:00.000Z,CHURCHES,38675585,-85.7782849,38.2406978,CHRISTIAN,BAPT,NOT AVAILABLE,NOT AVAILABLE,Y,N
29718,10432448,VALLEY VIEW CHURCH,LOUISVILLE,KY,40272,2501,JEFFERSON,21111,2007-09-11T00:00:00.000Z,ALT REF,2007-09-11T00:00:00.000Z,CHURCHES,38692705,-85.8150319,38.1161436,CHRISTIAN,SBC,NOT AVAILABLE,NOT AVAILABLE,Y,N
29719,10432450,NORTHEAST CHRISTIAN CHURCH,LOUISVILLE,KY,40241,1128,JEFFERSON,21111,2007-09-11T00:00:00.000Z,ALT REF,2007-09-11T00:00:00.000Z,CHURCHES,38666948,-85.5648379,38.3132416,CHRISTIAN,CHRISTIAN,NOT AVAILABLE,NOT AVAILABLE,Y,N
29720,10432451,EVANGEL WORLD PRAYER CENTER,LOUISVILLE,KY,40219,3019,JEFFERSON,21111,2007-09-11T00:00:00.000Z,ALT REF,2007-09-11T00:00:00.000Z,CHURCHES,38690345,-85.7066442,38.143454,CHRISTIAN,AG,NOT AVAILABLE,NOT AVAILABLE,Y,N
29721,10432453,SOUTHEAST CHRISTIAN CHURCH,LOUISVILLE,KY,40243,1845,JEFFERSON,21111,2007-09-11T00:00:00.000Z,ALT REF,2007-09-11T00:00:00.000Z,CHURCHES,38678752,-85.5454425,38.2282093,CHRISTIAN,CHRISTIAN,NOT AVAILABLE,NOT AVAILABLE,Y,N
29764,10437860,CHRIST CHURCH UNITED METHODIST,LOUISVILLE,KY,40207,1745,JEFFERSON,21111,2007-09-24T00:00:00.000Z,ALT REF,2007-09-24T00:00:00.000Z,CHURCHES,38669449,-85.6442315,38.274073,CHRISTIAN,UMC,NOT AVAILABLE,NOT AVAILABLE,Y,N
29775,10438210,OKOLONA CHRISTIAN CHURCH,LOUISVILLE,KY,40229,2490,JEFFERSON,21111,2007-10-10T00:00:00.000Z,ALT REF,2007-10-10T00:00:00.000Z,CHURCHES,38694320,-85.667615,38.0944933,CHRISTIAN,CHRISTIAN,NOT AVAILABLE,NOT AVAILABLE,Y,N
29786,10438922,THE CHURCH OF JESUS CHRIST OF LATTER DAY SAINTS - LOUISVILLE 4TH WARD,LOUISVILLE,KY,40258,3826,JEFFERSON,21111,2007-10-16T00:00:00.000Z,ALT REF,2007-10-16T00:00:00.000Z,CHURCHES,38689433,-85.8267668,38.1488665,CHRISTIAN,LDS,NOT AVAILABLE,NOT AVAILABLE,Y,N
29790,10439475,THE CHURCH OF JESUS CHRIST OF LATTER DAY SAINTS - LOUISVILLE 5TH (SPANISH) BRANCH,LOUISVILLE,KY,40222,5715,JEFFERSON,21111,2007-10-15T00:00:00.000Z,ALT REF,2007-10-16T00:00:00.000Z,CHURCHES,38678226,-85.5782611,38.2294811,CHRISTIAN,LDS,NOT AVAILABLE,NOT AVAILABLE,Y,N
29791,10439777,THE CHURCH OF JESUS CHRIST OF LATTER DAY SAINTS - LOUISVILLE 6TH WARD,LOUISVILLE,KY,40222,5715,JEFFERSON,21111,2007-10-15T00:00:00.000Z,ALT REF,2007-10-16T00:00:00.000Z,CHURCHES,38678226,-85.5782596,38.2294806,CHRISTIAN,LDS,NOT AVAILABLE,NOT AVAILABLE,Y,N
29795,10439854,THE CHURCH OF JESUS CHRIST OF LATTER DAY SAINTS - LOUISVILLE 2ND WARD,LOUISVILLE,KY,40222,5715,JEFFERSON,21111,2007-10-15T00:00:00.000Z,ALT REF,2007-10-19T00:00:00.000Z,CHURCHES,38678226,-85.5782597,38.2294804,CHRISTIAN,LDS,NOT AVAILABLE,NOT AVAILABLE,Y,N
29798,10440032,THE CHURCH OF JESUS CHRIST OF LATTER DAY SAINTS - LOUISVILLE 1ST WARD,LOUISVILLE,KY,40204,1509,JEFFERSON,21111,2007-10-16T00:00:00.000Z,ALT REF,2007-10-16T00:00:00.000Z,CHURCHES,38678392,-85.7195393,38.2273518,CHRISTIAN,LDS,NOT AVAILABLE,NOT AVAILABLE,Y,N
29803,10440254,RESURRECTION EPISCOPAL CHURCH,LOUISVILLE,KY,40214,1648,JEFFERSON,21111,2007-11-06T00:00:00.000Z,ALT REF,2007-11-06T00:00:00.000Z,CHURCHES,38683716,-85.7673423,38.1951462,CHRISTIAN,EPIS,NOT AVAILABLE,NOT AVAILABLE,Y,N
29806,10440804,SAINT GEORGE'S EPISCOPAL CHURCH,LOUISVILLE,KY,40210,1425,JEFFERSON,21111,2007-11-06T00:00:00.000Z,ALT REF,2007-11-06T00:00:00.000Z,CHURCHES,38676221,-85.7959999,38.2375972,CHRISTIAN,EPIS,NOT AVAILABLE,NOT AVAILABLE,Y,N
29807,10440810,SAINT ALBAN'S EPISCOPAL CHURCH,LOUISVILLE,KY,40291,2702,JEFFERSON,21111,2007-11-06T00:00:00.000Z,ALT REF,2007-11-21T00:00:00.000Z,CHURCHES,38689926,-85.5946332,38.1470978,CHRISTIAN,EPIS,NOT AVAILABLE,NOT AVAILABLE,Y,N
29808,10440811,THE EPISCOPAL CHURCH HOME SAINT LUKE'S CHAPEL,LOUISVILLE,KY,40222,4108,JEFFERSON,21111,2007-11-06T00:00:00.000Z,ALT REF,2007-11-26T00:00:00.000Z,CHURCHES,38703012,-85.6120004,38.2701311,CHRISTIAN,EPIS,NOT AVAILABLE,NOT AVAILABLE,Y,N
29845,10445970,CATHEDRAL OF THE ASSUMPTION,LOUISVILLE,KY,40202,2334,JEFFERSON,21111,2007-09-04T00:00:00.000Z,ALT REF,2007-09-04T00:00:00.000Z,CHURCHES,115971242,-85.7585571,38.2519168,CHRISTIAN,NOT AVAILABLE,NOT AVAILABLE,NOT AVAILABLE,N,Y
29846,10445973,SAINT ANTHONY PARISH,LOUISVILLE,KY,40212,1535,JEFFERSON,21111,2007-09-05T00:00:00.000Z,ALT REF,2007-09-04T00:00:00.000Z,CHURCHES,38671637,-85.787961,38.2583289,CHRISTIAN,NOT AVAILABLE,NOT AVAILABLE,NOT AVAILABLE,N,Y
29847,10445977,SAINT BARTHOLOMEW CHURCH,LOUISVILLE,KY,40218,3568,JEFFERSON,21111,2007-09-05T00:00:00.000Z,ALT REF,2007-09-05T00:00:00.000Z,CHURCHES,38685406,-85.6475296,38.1852983,CHRISTIAN,NOT AVAILABLE,NOT AVAILABLE,NOT AVAILABLE,N,Y
29848,10445979,SAINT BONIFACE CATHOLIC CHURCH,LOUISVILLE,KY,40202,1107,JEFFERSON,21111,2007-09-05T00:00:00.000Z,ALT REF,2007-09-05T00:00:00.000Z,CHURCHES,38700775,-85.743836,38.2514145,CHRISTIAN,NOT AVAILABLE,NOT AVAILABLE,NOT AVAILABLE,N,Y
29849,10445997,INCARNATION CHURCH,LOUISVILLE,KY,40216,1358,JEFFERSON,21111,2007-09-04T00:00:00.000Z,ALT REF,2007-09-06T00:00:00.000Z,CHURCHES,38696596,-85.8486933,38.1607214,CHRISTIAN,NOT AVAILABLE,NOT AVAILABLE,NOT AVAILABLE,N,Y
29850,10446018,SAINT THOMAS MORE PARISH,LOUISVILLE,KY,40214,2702,JEFFERSON,21111,2007-09-05T00:00:00.000Z,ALT REF,2007-09-06T00:00:00.000Z,CHURCHES,38687696,-85.7682127,38.1670193,CHRISTIAN,NOT AVAILABLE,NOT AVAILABLE,NOT AVAILABLE,N,Y
29855,10448487,SAINT MATTHIAS PARISH,LOUISVILLE,KY,40210,2244,JEFFERSON,21111,2007-09-05T00:00:00.000Z,ALT REF,2007-09-05T00:00:00.000Z,CHURCHES,38679891,-85.7959394,38.2175586,CHRISTIAN,NOT AVAILABLE,NOT AVAILABLE,NOT AVAILABLE,N,Y
29861,10455056,BETHEL BAPTIST CHURCH,LOUISVILLE,KY,40223,2148,JEFFERSON,21111,2008-03-04T00:00:00.000Z,ALT REF,2008-03-04T00:00:00.000Z,CHURCHES,38670447,-85.5225597,38.2710443,CHRISTIAN,NBC,NOT AVAILABLE,NOT AVAILABLE,Y,N
29862,10454380,BURNETT AVENUE BAPTIST CHURCH,LOUISVILLE,KY,40217,1119,JEFFERSON,21111,2008-03-04T00:00:00.000Z,ALT REF,2008-03-04T00:00:00.000Z,CHURCHES,38678479,-85.7481891,38.226023,CHRISTIAN,NBC,NOT AVAILABLE,NOT AVAILABLE,Y,N
29863,10456539,SAINT JOHN AFRICAN METHODIST EPISCOPAL CHURCH,LOUISVILLE,KY,40208,1066,JEFFERSON,21111,2008-03-04T00:00:00.000Z,ALT REF,2008-03-04T00:00:00.000Z,CHURCHES,38680435,-85.7743241,38.2133726,CHRISTIAN,AME,NOT AVAILABLE,NOT AVAILABLE,Y,N
29865,10453501,MOUNT ZION BAPTIST CHURCH,LOUISVILLE,KY,40210,1768,JEFFERSON,21111,2008-03-04T00:00:00.000Z,ALT REF,2008-03-13T00:00:00.000Z,CHURCHES,38677852,-85.7905888,38.2289654,CHRISTIAN,NBC,NOT AVAILABLE,NOT AVAILABLE,Y,N
29915,10453728,GALILEE BAPTIST CHURCH,LOUISVILLE,KY,40211,2852,JEFFERSON,21111,2008-03-04T00:00:00.000Z,ALT REF,2008-03-04T00:00:00.000Z,CHURCHES,38673352,-85.8174479,38.2499169,CHRISTIAN,NBC,NOT AVAILABLE,NOT AVAILABLE,Y,N
29940,10445975,SAINT ATHANASIUS CHURCH,LOUISVILLE,KY,40219,4136,JEFFERSON,21111,2007-09-05T00:00:00.000Z,ALT REF,2007-09-05T00:00:00.000Z,CHURCHES,38690726,-85.6517289,38.1387749,CHRISTIAN,NOT AVAILABLE,NOT AVAILABLE,NOT AVAILABLE,N,Y
29956,10440803,SAINT PETER'S EPISCOPAL CHURCH,LOUISVILLE,KY,40258,3832,JEFFERSON,21111,2007-11-06T00:00:00.000Z,ALT REF,2007-11-06T00:00:00.000Z,CHURCHES,38696245,-85.8314423,38.1462617,CHRISTIAN,EPIS,NOT AVAILABLE,NOT AVAILABLE,Y,N