OBJECTID,ID,NAME,CITY,STATE,ZIP,ZIPP4,COUNTY,FIPS,CONTDATE,CONTHOW,GEODATE,NAICSDESCR,GEOLINKID,X,Y,SUBTYPE,DENOM,MEMBERS,LOC_TYPE,PROT,CATH
22416,10577960,EMMANUEL BAPTIST CHURCH,MEMPHIS,TN,38116,6241,SHELBY,47157,2009-06-30T00:00:00.000Z,ALT REF,2009-06-26T00:00:00.000Z,CHURCHES,24914629,-90.0362535,35.0274822,CHRISTIAN,BAPT,NOT AVAILABLE,NOT AVAILABLE,Y,N
22417,10578519,EVANGEL CHURCH,MEMPHIS,TN,38117,2444,SHELBY,47157,2009-06-26T00:00:00.000Z,ALT REF,2009-06-26T00:00:00.000Z,CHURCHES,24943451,-89.9077954,35.1381817,CHRISTIAN,BAPT,NOT AVAILABLE,NOT AVAILABLE,Y,N
22418,10577703,WILLOW PARK BAPTIST CHURCH,MEMPHIS,TN,38117,7105,SHELBY,47157,2009-06-29T00:00:00.000Z,ALT REF,2009-06-29T00:00:00.000Z,CHURCHES,24927397,-89.9012978,35.0851326,CHRISTIAN,BAPT,NOT AVAILABLE,NOT AVAILABLE,Y,N
22423,10440437,SAINT JOSEPH'S CHURCH,MEMPHIS,TN,38127,4312,SHELBY,47157,2007-11-07T00:00:00.000Z,ALT REF,2007-11-07T00:00:00.000Z,CHURCHES,24906028,-90.009076,35.2314004,CHRISTIAN,EPIS,NOT AVAILABLE,NOT AVAILABLE,Y,N
22439,10453368,ELLIS GROVE BAPTIST CHURCH,MEMPHIS,TN,38122,2062,SHELBY,47157,2009-06-26T00:00:00.000Z,ALT REF,2009-06-26T00:00:00.000Z,CHURCHES,24941492,-89.9437771,35.1620279,CHRISTIAN,NBC,NOT AVAILABLE,NOT AVAILABLE,Y,N
22441,10454083,FELLOWSHIP OF BELIEVERS IN CHRIST CHURCH,MEMPHIS,TN,38111,5532,SHELBY,47157,2009-07-06T00:00:00.000Z,ALT REF,2009-07-07T00:00:00.000Z,CHURCHES,24926367,-89.9472146,35.0986969,CHRISTIAN,NOT AVAILABLE,NOT AVAILABLE,NOT AVAILABLE,Y,N
22443,10445838,SAINT MICHAEL CHURCH,MEMPHIS,TN,38122,3808,SHELBY,47157,2009-06-30T00:00:00.000Z,ALT REF,2009-06-30T00:00:00.000Z,CHURCHES,24942640,-89.9324466,35.1485599,CHRISTIAN,NOT AVAILABLE,NOT AVAILABLE,NOT AVAILABLE,N,Y
22452,10440245,EMMANUEL EPISCOPAL CHURCH,MEMPHIS,TN,38116,6007,SHELBY,47157,2009-06-26T00:00:00.000Z,ALT REF,2009-06-26T00:00:00.000Z,CHURCHES,24929778,-89.996101,35.0351465,CHRISTIAN,EPIS,NOT AVAILABLE,NOT AVAILABLE,Y,N
22483,10440418,SAINT JOHNS EPISCOPAL CHURCH,MEMPHIS,TN,38111,4409,SHELBY,47157,2009-07-01T00:00:00.000Z,ALT REF,2009-07-01T00:00:00.000Z,CHURCHES,24924503,-89.9536592,35.1228106,CHRISTIAN,EPIS,NOT AVAILABLE,NOT AVAILABLE,Y,N
22495,10452333,GREATER MIDDLE BAPTIST CHURCH,MEMPHIS,TN,38118,3449,SHELBY,47157,2009-06-29T00:00:00.000Z,ALT REF,2009-06-29T00:00:00.000Z,CHURCHES,24928534,-89.8979545,35.0625795,CHRISTIAN,NBC,NOT AVAILABLE,NOT AVAILABLE,Y,N
22499,10441556,THE CHURCH OF THE GOOD SHEPHERD,MEMPHIS,TN,38107,4614,SHELBY,47157,2009-06-26T00:00:00.000Z,ALT REF,2009-06-26T00:00:00.000Z,CHURCHES,24941519,-89.9924364,35.1594844,CHRISTIAN,EPIS,NOT AVAILABLE,NOT AVAILABLE,Y,N
22500,10442480,CATHEDRAL OF THE IMMACULATE CONCEPTION,MEMPHIS,TN,38104,5036,SHELBY,47157,2009-06-26T00:00:00.000Z,ALT REF,2009-06-26T00:00:00.000Z,CHURCHES,24909423,-90.0051724,35.1257313,CHRISTIAN,NOT AVAILABLE,NOT AVAILABLE,NOT AVAILABLE,N,Y
22501,10454174,BRANCH OF CHRIST MISSIONARY BAPTIST CHURCH,MEMPHIS,TN,38106,5403,SHELBY,47157,2009-06-26T00:00:00.000Z,ALT REF,2009-06-26T00:00:00.000Z,CHURCHES,24911398,-90.0495367,35.105985,CHRISTIAN,NBC,NOT AVAILABLE,NOT AVAILABLE,Y,N
22502,10761841,RALEIGH CHURCH OF CHRIST,MEMPHIS,TN,38128,3367,SHELBY,47157,2009-07-01T00:00:00.000Z,ALT REF,2009-07-01T00:00:00.000Z,CHURCHES,126477779,-89.9249721,35.2130628,CHRISTIAN,COC,400,NOT AVAILABLE,Y,N
22517,10432634,MOUNT VERNON BAPTIST CHURCH,MEMPHIS,TN,38109,5229,SHELBY,47157,2007-09-10T00:00:00.000Z,ALT REF,2007-09-10T00:00:00.000Z,CHURCHES,24914546,-90.0843631,35.027194,CHRISTIAN,BAPT,NOT AVAILABLE,NOT AVAILABLE,Y,N
22522,10432796,TEMPLE OF DELIVERANCE CHURCH OF GOD IN CHRIST,MEMPHIS,TN,38126,3301,SHELBY,47157,2007-09-10T00:00:00.000Z,ALT REF,2007-09-10T00:00:00.000Z,CHURCHES,24908963,-90.0493869,35.1315251,CHRISTIAN,COGIC,NOT AVAILABLE,NOT AVAILABLE,Y,N
22529,10459711,NEW ALLEN AFRICAN METHODIST EPISCOPAL CHURCH,MEMPHIS,TN,38106,5209,SHELBY,47157,2009-06-30T00:00:00.000Z,ALT REF,2009-06-30T00:00:00.000Z,CHURCHES,24911479,-90.055734,35.1047687,CHRISTIAN,AME,NOT AVAILABLE,NOT AVAILABLE,Y,N
22536,10433602,BROADMOOR BAPTIST CHURCH,MEMPHIS,TN,38128,3722,SHELBY,47157,2007-09-20T00:00:00.000Z,ALT REF,2007-09-20T00:00:00.000Z,CHURCHES,24938131,-89.8992574,35.2298552,CHRISTIAN,SBC,2317,NOT AVAILABLE,Y,N
22539,10441560,SAINT MARYS EPISCOPAL CATHEDRAL,MEMPHIS,TN,38105,4512,SHELBY,47157,2009-06-29T00:00:00.000Z,ALT REF,2009-06-29T00:00:00.000Z,CHURCHES,24908232,-90.0366174,35.1467511,CHRISTIAN,EPIS,NOT AVAILABLE,NOT AVAILABLE,Y,N
22540,10455169,LAKE GROVE MISSIONARY BAPTIST CHURCH,MEMPHIS,TN,38105,3803,SHELBY,47157,2009-06-30T00:00:00.000Z,ALT REF,2009-06-30T00:00:00.000Z,CHURCHES,24908248,-90.0337311,35.1478601,CHRISTIAN,NBC,NOT AVAILABLE,NOT AVAILABLE,Y,N
22543,10459777,SAINT PAUL AFRICAN METHODIST EPISCOPAL CHURCH,MEMPHIS,TN,38108,1031,SHELBY,47157,2009-06-29T00:00:00.000Z,ALT REF,2009-06-29T00:00:00.000Z,CHURCHES,24906858,-90.0071902,35.1770773,CHRISTIAN,AME,NOT AVAILABLE,NOT AVAILABLE,Y,N
22544,10435869,MERTON AVENUE BAPTIST CHURCH,MEMPHIS,TN,38112,3313,SHELBY,47157,2009-07-01T00:00:00.000Z,ALT REF,2009-07-01T00:00:00.000Z,CHURCHES,24942712,-89.97617,35.144647,CHRISTIAN,SBC,1679,NOT AVAILABLE,Y,N
22545,10433835,HEALING CENTER FULL GOSPEL BAPTIST CHURCH,MEMPHIS,TN,38118,5819,SHELBY,47157,2007-09-20T00:00:00.000Z,ALT REF,2007-09-20T00:00:00.000Z,CHURCHES,24929673,-89.9553353,35.0421617,CHRISTIAN,SBC,782,NOT AVAILABLE,Y,N
22547,10433947,HIGHLAND HEIGHTS BAPTIST CHURCH,MEMPHIS,TN,38122,3618,SHELBY,47157,2007-09-20T00:00:00.000Z,ALT REF,2007-09-20T00:00:00.000Z,CHURCHES,24942457,-89.9482996,35.1504968,CHRISTIAN,SBC,1078,NOT AVAILABLE,Y,N
22549,10434277,ARDMORE TERRACE BAPTIST CHURCH,MEMPHIS,TN,38127,4915,SHELBY,47157,2007-09-20T00:00:00.000Z,ALT REF,2007-09-20T00:00:00.000Z,CHURCHES,24937807,-89.9688288,35.2311011,CHRISTIAN,SBC,1183,NOT AVAILABLE,Y,N
22550,10453767,MOUNT PISGAH BAPTIST CHURCH,MEMPHIS,TN,38109,8040,SHELBY,47157,2009-07-01T00:00:00.000Z,ALT REF,2009-07-01T00:00:00.000Z,CHURCHES,24913465,-90.0963028,35.0492765,CHRISTIAN,NBC,NOT AVAILABLE,NOT AVAILABLE,Y,N
22565,10445941,SAINT THERESE CHURCH,MEMPHIS,TN,38107,5053,SHELBY,47157,2009-07-01T00:00:00.000Z,ALT REF,2009-07-01T00:00:00.000Z,CHURCHES,24907622,-90.00282,35.1608429,CHRISTIAN,NOT AVAILABLE,NOT AVAILABLE,NOT AVAILABLE,N,Y
22581,10445932,HOLY ROSARY CATHOLIC CHURCH,MEMPHIS,TN,38117,5662,SHELBY,47157,2009-06-29T00:00:00.000Z,ALT REF,2009-06-29T00:00:00.000Z,CHURCHES,24925914,-89.9002908,35.1063034,CHRISTIAN,NOT AVAILABLE,NOT AVAILABLE,NOT AVAILABLE,N,Y
22585,10436221,GEORGIAN HILLS BAPTIST CHURCH,MEMPHIS,TN,38127,4333,SHELBY,47157,2007-09-20T00:00:00.000Z,ALT REF,2007-09-20T00:00:00.000Z,CHURCHES,24906074,-90.0035807,35.2282318,CHRISTIAN,SBC,1310,NOT AVAILABLE,Y,N
22591,10431246,ISLAMIC ASSOCIATION OF GREATER MEMPHIS MASJID AL-NOOR,MEMPHIS,TN,38111,5907,SHELBY,47157,2009-06-26T00:00:00.000Z,ALT REF,2009-06-26T00:00:00.000Z,"MOSQUES, RELIGIOUS",24924867,-89.9445382,35.1174707,MUSLIM,NOT AVAILABLE,NOT AVAILABLE,NOT AVAILABLE,N,N
22593,10436974,CHEROKEE BAPTIST CHURCH,MEMPHIS,TN,38119,5935,SHELBY,47157,2007-09-20T00:00:00.000Z,ALT REF,2007-09-20T00:00:00.000Z,CHURCHES,24927148,-89.8843947,35.0907672,CHRISTIAN,SBC,1540,NOT AVAILABLE,Y,N
22595,10445935,SAINT JOHN CATHOLIC CHURCH,MEMPHIS,TN,38114,4316,SHELBY,47157,2009-06-30T00:00:00.000Z,ALT REF,2009-06-30T00:00:00.000Z,CHURCHES,24926535,-89.9716075,35.097373,CHRISTIAN,NOT AVAILABLE,NOT AVAILABLE,NOT AVAILABLE,N,Y
22618,10437928,BARTLETT UNITED METHODIST CHURCH,MEMPHIS,TN,38134,4578,SHELBY,47157,2007-09-24T00:00:00.000Z,ALT REF,2007-09-24T00:00:00.000Z,CHURCHES,24939617,-89.8747124,35.2052129,CHRISTIAN,UMC,NOT AVAILABLE,NOT AVAILABLE,Y,N
22641,10438298,SYCAMORE VIEW CHURCH OF CHRIST,MEMPHIS,TN,38134,6634,SHELBY,47157,2007-10-10T00:00:00.000Z,ALT REF,2007-10-15T00:00:00.000Z,CHURCHES,25006539,-89.8707917,35.1775599,CHRISTIAN,COC,1100,NOT AVAILABLE,Y,N
22643,10438390,IDLEWILD PRESBYTERIAN CHURCH,MEMPHIS,TN,38104,6144,SHELBY,47157,2007-10-10T00:00:00.000Z,ALT REF,2007-10-15T00:00:00.000Z,CHURCHES,24908864,-90.0029779,35.1357934,CHRISTIAN,PCUSA,1515,NOT AVAILABLE,Y,N
22644,10438682,THE CHURCH OF JESUS CHRIST OF LATTER DAY SAINTS - MEMPHIS 4TH (SPANISH) BRANCH,MEMPHIS,TN,38118,5151,SHELBY,47157,2007-10-16T00:00:00.000Z,ALT REF,2007-10-16T00:00:00.000Z,CHURCHES,24929154,-89.9131924,35.0517508,CHRISTIAN,LDS,NOT AVAILABLE,NOT AVAILABLE,Y,N
22652,10439832,THE CHURCH OF JESUS CHRIST OF LATTER DAY SAINTS - MEMPHIS 1ST WARD,MEMPHIS,TN,38127,4618,SHELBY,47157,2007-10-16T00:00:00.000Z,ALT REF,2007-10-16T00:00:00.000Z,CHURCHES,24937726,-89.9814883,35.2324042,CHRISTIAN,LDS,NOT AVAILABLE,NOT AVAILABLE,Y,N
22653,10439834,THE CHURCH OF JESUS CHRIST OF LATTER DAY SAINTS - MEMPHIS 2ND WARD,MEMPHIS,TN,38118,5151,SHELBY,47157,2007-10-16T00:00:00.000Z,ALT REF,2007-10-16T00:00:00.000Z,CHURCHES,24929154,-89.913189,35.0517509,CHRISTIAN,LDS,NOT AVAILABLE,NOT AVAILABLE,Y,N
22660,10440391,SAINT PAUL'S EPISCOPAL CHURCH,MEMPHIS,TN,38127,4312,SHELBY,47157,2007-11-07T00:00:00.000Z,ALT REF,2007-11-07T00:00:00.000Z,CHURCHES,24906028,-90.0090733,35.2314006,CHRISTIAN,EPIS,NOT AVAILABLE,NOT AVAILABLE,Y,N
22667,10441559,EMMANUEL EPISCOPAL CENTER,MEMPHIS,TN,38126,2865,SHELBY,47157,2007-11-07T00:00:00.000Z,ALT REF,2007-11-07T00:00:00.000Z,CHURCHES,24909033,-90.0417909,35.1319489,CHRISTIAN,EPIS,NOT AVAILABLE,NOT AVAILABLE,Y,N
22669,10685340,PU-LIN BUDDHIST TEMPLE,MEMPHIS,TN,38115,2211,SHELBY,47157,2009-07-22T00:00:00.000Z,ALT REF,2009-07-22T00:00:00.000Z,"TEMPLES, RELIGIOUS",24928417,-89.8852245,35.0666714,BUDDHIST,PURE LAND BUDDHISM,NOT AVAILABLE,NOT AVAILABLE,N,N
22678,10443057,RESURRECTION CATHOLIC CHURCH,MEMPHIS,TN,38115,3651,SHELBY,47157,2007-09-05T00:00:00.000Z,ALT REF,2007-09-05T00:00:00.000Z,CHURCHES,24929074,-89.881359,35.0530578,CHRISTIAN,NOT AVAILABLE,NOT AVAILABLE,NOT AVAILABLE,N,Y
22683,10581269,FREE SPIRIT BAPTIST CHURCH,MEMPHIS,TN,38106,5212,SHELBY,47157,2009-08-04T00:00:00.000Z,ALT REF,2009-08-03T00:00:00.000Z,CHURCHES,24911685,-90.0552247,35.1033147,CHRISTIAN,BAPT,NOT AVAILABLE,NOT AVAILABLE,Y,N
22695,10445929,SAINT BRIGID CATHOLIC CHURCH,MEMPHIS,TN,38125,2825,SHELBY,47157,2007-09-05T00:00:00.000Z,ALT REF,2007-09-05T00:00:00.000Z,CHURCHES,24935645,-89.80322,35.03415,CHRISTIAN,NOT AVAILABLE,NOT AVAILABLE,NOT AVAILABLE,N,Y
22696,10445933,CHURCH OF THE HOLY SPIRIT,MEMPHIS,TN,38119,6805,SHELBY,47157,2007-09-05T00:00:00.000Z,ALT REF,2007-09-05T00:00:00.000Z,CHURCHES,24932750,-89.8331339,35.0860076,CHRISTIAN,NOT AVAILABLE,NOT AVAILABLE,NOT AVAILABLE,N,Y
22697,10445934,SAINT JAMES CATHOLIC CHURCH,MEMPHIS,TN,38108,3603,SHELBY,47157,2007-09-05T00:00:00.000Z,ALT REF,2007-09-05T00:00:00.000Z,CHURCHES,24940699,-89.9209191,35.1755404,CHRISTIAN,NOT AVAILABLE,NOT AVAILABLE,NOT AVAILABLE,N,Y
22698,10445938,CHURCH OF THE NATIVITY,MEMPHIS,TN,38135,1516,SHELBY,47157,2007-09-05T00:00:00.000Z,ALT REF,2007-09-05T00:00:00.000Z,CHURCHES,24919265,-89.8639477,35.2303937,CHRISTIAN,NOT AVAILABLE,NOT AVAILABLE,NOT AVAILABLE,N,Y
22713,10442979,SAINT ANNE CATHOLIC CHURCH,MEMPHIS,TN,38111,4247,SHELBY,47157,2009-07-01T00:00:00.000Z,ALT REF,2009-07-01T00:00:00.000Z,CHURCHES,24925268,-89.9453887,35.112791,CHRISTIAN,NOT AVAILABLE,NOT AVAILABLE,NOT AVAILABLE,N,Y
22718,10441554,BARTH HOUSE EPISCOPAL CENTER,MEMPHIS,TN,38111,5920,SHELBY,47157,2009-07-01T00:00:00.000Z,ALT REF,2009-07-01T00:00:00.000Z,CHURCHES,24924726,-89.9409904,35.1204413,CHRISTIAN,EPIS,NOT AVAILABLE,NOT AVAILABLE,Y,N
22719,10453116,MELROSE BAPTIST CHURCH,MEMPHIS,TN,38106,5102,SHELBY,47157,2009-06-30T00:00:00.000Z,ALT REF,2009-06-30T00:00:00.000Z,CHURCHES,24911372,-90.0066693,35.1070749,CHRISTIAN,NBC,NOT AVAILABLE,NOT AVAILABLE,Y,N
22726,10432632,CHRIST UNITED METHODIST CHURCH,MEMPHIS,TN,38117,3716,SHELBY,47157,2009-06-26T00:00:00.000Z,ALT REF,2009-06-26T00:00:00.000Z,CHURCHES,24924902,-89.9125375,35.1193588,CHRISTIAN,UMC,NOT AVAILABLE,NOT AVAILABLE,Y,N
22727,10581285,HARTLAND HEIGHTS BAPTIST CHURCH,MEMPHIS,TN,38128,6805,SHELBY,47157,2009-06-29T00:00:00.000Z,ALT REF,2009-06-29T00:00:00.000Z,CHURCHES,24940334,-89.9203902,35.1818377,CHRISTIAN,BAPT,NOT AVAILABLE,NOT AVAILABLE,Y,N
22728,10445939,SAINT PATRICK CATHOLIC CHURCH,MEMPHIS,TN,38126,1901,SHELBY,47157,2009-07-01T00:00:00.000Z,ALT REF,2009-07-01T00:00:00.000Z,CHURCHES,24908714,-90.0499106,35.1370497,CHRISTIAN,NOT AVAILABLE,NOT AVAILABLE,NOT AVAILABLE,N,Y
22736,10436329,AUDUBON PARK BAPTIST CHURCH,MEMPHIS,TN,38111,7434,SHELBY,47157,2009-06-26T00:00:00.000Z,ALT REF,2009-06-26T00:00:00.000Z,CHURCHES,24925762,-89.9270014,35.1080352,CHRISTIAN,SBC,872,NOT AVAILABLE,Y,N
22762,10454582,FIRST BAPTIST CHURCH - MOUNT OLIVE,MEMPHIS,TN,38108,1817,SHELBY,47157,2008-03-07T00:00:00.000Z,ALT REF,2008-03-07T00:00:00.000Z,CHURCHES,24940636,-89.959884,35.1750194,CHRISTIAN,NBC,NOT AVAILABLE,NOT AVAILABLE,Y,N
22864,10453279,ANTIOCH MISSIONARY BAPTIST CHURCH,MEMPHIS,TN,38128,1307,SHELBY,47157,2008-03-07T00:00:00.000Z,ALT REF,2008-03-07T00:00:00.000Z,CHURCHES,24904782,-89.9355741,35.2550495,CHRISTIAN,NBC,NOT AVAILABLE,NOT AVAILABLE,Y,N
22865,10455058,NEW HOPE BAPTIST CHURCH,MEMPHIS,TN,38106,7700,SHELBY,47157,2008-03-06T00:00:00.000Z,ALT REF,2008-03-06T00:00:00.000Z,CHURCHES,24912676,-90.0172209,35.0805708,CHRISTIAN,NBC,NOT AVAILABLE,NOT AVAILABLE,Y,N
22866,10454597,MIDDLE BAPTIST CHURCH,MEMPHIS,TN,38116,7739,SHELBY,47157,2008-03-07T00:00:00.000Z,ALT REF,2008-03-07T00:00:00.000Z,CHURCHES,112331591,-90.0369353,35.016363,CHRISTIAN,NBC,NOT AVAILABLE,NOT AVAILABLE,Y,N
22868,10453870,MOUNT SINAI BAPTIST CHURCH,MEMPHIS,TN,38106,5529,SHELBY,47157,2008-03-07T00:00:00.000Z,ALT REF,2008-03-07T00:00:00.000Z,CHURCHES,24911744,-90.0444425,35.1015381,CHRISTIAN,NBC,NOT AVAILABLE,NOT AVAILABLE,Y,N
22869,10454884,SAINT MATTHEW MISSIONARY BAPTIST CHURCH,MEMPHIS,TN,38114,5501,SHELBY,47157,2008-03-06T00:00:00.000Z,ALT REF,2008-03-21T00:00:00.000Z,CHURCHES,24926975,-89.9698205,35.0908562,CHRISTIAN,NBC,NOT AVAILABLE,NOT AVAILABLE,Y,N
22870,10455361,CHRIST BAPTIST CHURCH,MEMPHIS,TN,38116,5220,SHELBY,47157,2008-03-06T00:00:00.000Z,ALT REF,2008-03-06T00:00:00.000Z,CHURCHES,24913795,-90.0103441,35.0441595,CHRISTIAN,NBC,NOT AVAILABLE,NOT AVAILABLE,Y,N
22873,10454957,CASTALIA MISSIONARY BAPTIST CHURCH,MEMPHIS,TN,38114,3501,SHELBY,47157,2008-03-07T00:00:00.000Z,ALT REF,2008-03-07T00:00:00.000Z,CHURCHES,24945104,-89.994302,35.1035381,CHRISTIAN,NBC,NOT AVAILABLE,NOT AVAILABLE,Y,N
22874,10453335,CHRISTIAN UNITY MISSIONARY BAPTIST CHURCH,MEMPHIS,TN,38105,1916,SHELBY,47157,2008-03-06T00:00:00.000Z,ALT REF,2008-03-06T00:00:00.000Z,CHURCHES,24949691,-90.0405093,35.1579647,CHRISTIAN,NBC,NOT AVAILABLE,NOT AVAILABLE,Y,N
22875,10452875,EMMANUEL MISSIONARY BAPTIST CHURCH,MEMPHIS,TN,38105,4003,SHELBY,47157,2008-03-06T00:00:00.000Z,ALT REF,2008-03-06T00:00:00.000Z,CHURCHES,24944875,-90.0300947,35.1469552,CHRISTIAN,NBC,NOT AVAILABLE,NOT AVAILABLE,Y,N
22876,10452799,GREATER HOPE BAPTIST CHURCH,MEMPHIS,TN,38114,2647,SHELBY,47157,2008-03-06T00:00:00.000Z,ALT REF,2008-03-06T00:00:00.000Z,CHURCHES,24925077,-89.9732172,35.1145227,CHRISTIAN,NBC,NOT AVAILABLE,NOT AVAILABLE,Y,N
22877,10454148,GREATER KERR BAPTIST CHURCH,MEMPHIS,TN,38107,2501,SHELBY,47157,2008-03-06T00:00:00.000Z,ALT REF,2008-03-20T00:00:00.000Z,CHURCHES,24907401,-90.0354039,35.1631425,CHRISTIAN,NBC,NOT AVAILABLE,NOT AVAILABLE,Y,N
22880,10452970,CENTRAL BAPTIST CHURCH,MEMPHIS,TN,38134,5601,SHELBY,47157,2008-03-07T00:00:00.000Z,ALT REF,2008-03-07T00:00:00.000Z,CHURCHES,24940242,-89.8812952,35.185185,CHRISTIAN,NBC,NOT AVAILABLE,NOT AVAILABLE,Y,N
22881,10456598,PALESTINE AFRICAN METHODIST EPISCOPAL CHURCH,MEMPHIS,TN,38128,4008,SHELBY,47157,2008-03-07T00:00:00.000Z,ALT REF,2008-03-07T00:00:00.000Z,CHURCHES,24938624,-89.9641745,35.2167985,CHRISTIAN,AME,NOT AVAILABLE,NOT AVAILABLE,Y,N
22883,10459670,BETHEL AFRICAN METHODIST EPISCOPAL CHURCH,MEMPHIS,TN,38114,5902,SHELBY,47157,2008-03-07T00:00:00.000Z,ALT REF,2008-03-07T00:00:00.000Z,CHURCHES,24949879,-89.9956849,35.0780776,CHRISTIAN,AME,NOT AVAILABLE,NOT AVAILABLE,Y,N
22884,10452978,FIRST BAPTIST CHURCH,MEMPHIS,TN,38109,1802,SHELBY,47157,2008-03-07T00:00:00.000Z,ALT REF,2008-03-07T00:00:00.000Z,CHURCHES,24912156,-90.0683947,35.093576,CHRISTIAN,NBC,NOT AVAILABLE,NOT AVAILABLE,Y,N
22885,10459663,AVERY CHAPEL AFRICAN METHODIST EPISCOPAL CHURCH,MEMPHIS,TN,38106,4730,SHELBY,47157,2008-03-07T00:00:00.000Z,ALT REF,2008-03-07T00:00:00.000Z,CHURCHES,24910912,-90.0328688,35.1123092,CHRISTIAN,AME,NOT AVAILABLE,NOT AVAILABLE,Y,N
22886,10454475,SHADY GROVE BAPTIST CHURCH,MEMPHIS,TN,38109,1923,SHELBY,47157,2008-03-07T00:00:00.000Z,ALT REF,2008-03-07T00:00:00.000Z,CHURCHES,24911907,-90.0657439,35.0979285,CHRISTIAN,NBC,NOT AVAILABLE,NOT AVAILABLE,Y,N
22887,10459720,PROVIDENCE AFRICAN METHODIST EPISCOPAL CHURCH,MEMPHIS,TN,38105,3209,SHELBY,47157,2008-03-07T00:00:00.000Z,ALT REF,2008-03-07T00:00:00.000Z,CHURCHES,24908063,-90.0254149,35.1505367,CHRISTIAN,AME,NOT AVAILABLE,NOT AVAILABLE,Y,N
22888,10453001,MOUNT JOYNER MISSIONARY BAPTIST CHURCH,MEMPHIS,TN,38109,8922,SHELBY,47157,2008-03-06T00:00:00.000Z,ALT REF,2008-03-06T00:00:00.000Z,CHURCHES,24915566,-90.0611234,35.0087106,CHRISTIAN,NBC,NOT AVAILABLE,NOT AVAILABLE,Y,N
22889,10454161,MOUNT NEBO MISSIONARY BAPTIST CHURCH,MEMPHIS,TN,38126,2207,SHELBY,47157,2008-03-06T00:00:00.000Z,ALT REF,2008-03-06T00:00:00.000Z,CHURCHES,24908842,-90.0434906,35.1343137,CHRISTIAN,NBC,NOT AVAILABLE,NOT AVAILABLE,Y,N
22891,10460102,GRACE COMMUNITY CHURCH,MEMPHIS,TN,38134,6204,SHELBY,47157,2008-03-07T00:00:00.000Z,ALT REF,2008-03-07T00:00:00.000Z,CHURCHES,24940528,-89.8794774,35.1802329,CHRISTIAN,PCA,NOT AVAILABLE,NOT AVAILABLE,Y,N
22892,10453548,NEW MOUNT OLIVE MISSIONARY BAPTIST CHURCH,MEMPHIS,TN,38126,4809,SHELBY,47157,2008-03-06T00:00:00.000Z,ALT REF,2008-03-06T00:00:00.000Z,CHURCHES,24910157,-90.0369716,35.1235901,CHRISTIAN,NBC,NOT AVAILABLE,NOT AVAILABLE,Y,N
22893,10455655,OAKVILLE MISSIONARY BAPTIST CHURCH,MEMPHIS,TN,38118,4204,SHELBY,47157,2008-03-07T00:00:00.000Z,ALT REF,2008-03-07T00:00:00.000Z,CHURCHES,24928570,-89.910927,35.0621757,CHRISTIAN,NBC,NOT AVAILABLE,NOT AVAILABLE,Y,N
22895,10454798,MOUNT BETHEL BAPTIST CHURCH,MEMPHIS,TN,38114,3100,SHELBY,47157,2008-03-06T00:00:00.000Z,ALT REF,2008-03-06T00:00:00.000Z,CHURCHES,24925837,-89.9788076,35.1050692,CHRISTIAN,NBC,NOT AVAILABLE,NOT AVAILABLE,Y,N
22897,10461267,REDEEMER PRESBYTERIAN CHURCH,MEMPHIS,TN,38104,6646,SHELBY,47157,2008-03-06T00:00:00.000Z,ALT REF,2008-03-06T00:00:00.000Z,CHURCHES,24908655,-90.0265117,35.13669,CHRISTIAN,PCA,NOT AVAILABLE,NOT AVAILABLE,Y,N
22898,10452693,NEW FRIENDSHIP BAPTIST CHURCH,MEMPHIS,TN,38126,4106,SHELBY,47157,2008-03-06T00:00:00.000Z,ALT REF,2008-03-06T00:00:00.000Z,CHURCHES,24909175,-90.037544,35.129366,CHRISTIAN,NBC,NOT AVAILABLE,NOT AVAILABLE,Y,N
22900,10452694,PENTECOSTAL MISSIONARY BAPTIST CHURCH,MEMPHIS,TN,38106,8242,SHELBY,47157,2008-03-06T00:00:00.000Z,ALT REF,2008-03-06T00:00:00.000Z,CHURCHES,24912617,-90.0117035,35.083426,CHRISTIAN,NBC,NOT AVAILABLE,NOT AVAILABLE,Y,N
22901,10454644,NEW MOUNT ZION MISSIONARY BAPTIST CHURCH,MEMPHIS,TN,38126,5406,SHELBY,47157,2008-03-06T00:00:00.000Z,ALT REF,2008-03-20T00:00:00.000Z,CHURCHES,24910350,-90.0482403,35.1214002,CHRISTIAN,NBC,NOT AVAILABLE,NOT AVAILABLE,Y,N
22902,10454823,PRINCE OF PEACE BAPTIST CHURCH,MEMPHIS,TN,38128,1806,SHELBY,47157,2008-03-07T00:00:00.000Z,ALT REF,2008-03-07T00:00:00.000Z,CHURCHES,24937519,-89.9465961,35.2409751,CHRISTIAN,NBC,NOT AVAILABLE,NOT AVAILABLE,Y,N
22903,10452696,ROBINHOOD LANE BAPTIST CHURCH,MEMPHIS,TN,38111,5633,SHELBY,47157,2008-03-06T00:00:00.000Z,ALT REF,2008-03-06T00:00:00.000Z,CHURCHES,24925778,-89.9408593,35.107327,CHRISTIAN,NBC,NOT AVAILABLE,NOT AVAILABLE,Y,N
22904,10452690,ANNESDALE CHEROKEE MISSIONARY BAPTIST CHURCH,MEMPHIS,TN,38114,4061,SHELBY,47157,2008-03-06T00:00:00.000Z,ALT REF,2008-03-06T00:00:00.000Z,CHURCHES,24926632,-89.9639006,35.0954665,CHRISTIAN,NBC,NOT AVAILABLE,NOT AVAILABLE,Y,N
22905,10452788,NEW NONCONNAH BAPTIST CHURCH,MEMPHIS,TN,38109,8411,SHELBY,47157,2008-03-07T00:00:00.000Z,ALT REF,2008-03-07T00:00:00.000Z,CHURCHES,24915006,-90.0432753,35.0204994,CHRISTIAN,NBC,NOT AVAILABLE,NOT AVAILABLE,Y,N
22907,10452860,EARLY GROVE BAPTIST CHURCH,MEMPHIS,TN,38112,2911,SHELBY,47157,2008-03-06T00:00:00.000Z,ALT REF,2008-03-06T00:00:00.000Z,CHURCHES,24942535,-89.9655727,35.1477451,CHRISTIAN,NBC,NOT AVAILABLE,NOT AVAILABLE,Y,N
22908,10454680,GREATER MOUNT CALVARY MISSIONARY BAPTIST CHURCH,MEMPHIS,TN,38109,2721,SHELBY,47157,2008-03-06T00:00:00.000Z,ALT REF,2008-03-06T00:00:00.000Z,CHURCHES,24912931,-90.0715013,35.0652747,CHRISTIAN,NBC,NOT AVAILABLE,NOT AVAILABLE,Y,N
22909,10455570,SOLOMON TEMPLE MISSIONARY BAPTIST CHURCH,MEMPHIS,TN,38109,4301,SHELBY,47157,2008-03-06T00:00:00.000Z,ALT REF,2008-03-06T00:00:00.000Z,CHURCHES,24913759,-90.080644,35.0424592,CHRISTIAN,NBC,NOT AVAILABLE,NOT AVAILABLE,Y,N
22910,10453000,EASTERN STAR BAPTIST CHURCH,MEMPHIS,TN,38104,7135,SHELBY,47157,2008-03-07T00:00:00.000Z,ALT REF,2008-03-07T00:00:00.000Z,CHURCHES,24908315,-90.0158605,35.1452156,CHRISTIAN,NBC,NOT AVAILABLE,NOT AVAILABLE,Y,N
22911,10454061,GREATER MOUNT MORIAH BAPTIST CHURCH,MEMPHIS,TN,38126,6031,SHELBY,47157,2008-03-06T00:00:00.000Z,ALT REF,2008-03-06T00:00:00.000Z,CHURCHES,24910537,-90.0467203,35.1177912,CHRISTIAN,NBC,NOT AVAILABLE,NOT AVAILABLE,Y,N
22914,10456538,PAYNE CHAPEL AFRICAN METHODIST EPISCOPAL CHURCH,MEMPHIS,TN,38107,2223,SHELBY,47157,2008-03-07T00:00:00.000Z,ALT REF,2008-03-07T00:00:00.000Z,CHURCHES,24907189,-90.0105971,35.1683557,CHRISTIAN,AME,NOT AVAILABLE,NOT AVAILABLE,Y,N
22915,10454084,SAINT MARKS BAPTIST CHURCH,MEMPHIS,TN,38126,5621,SHELBY,47157,2008-03-07T00:00:00.000Z,ALT REF,2008-03-07T00:00:00.000Z,CHURCHES,24910275,-90.0438144,35.1214333,CHRISTIAN,NBC,NOT AVAILABLE,NOT AVAILABLE,Y,N
22916,10453710,SAINT STEPHEN BAPTIST CHURCH,MEMPHIS,TN,38105,1736,SHELBY,47157,2008-03-07T00:00:00.000Z,ALT REF,2008-03-07T00:00:00.000Z,CHURCHES,24949710,-90.044713,35.157794,CHRISTIAN,NBC,NOT AVAILABLE,NOT AVAILABLE,Y,N
22917,10455449,SUMMERFIELD MISSIONARY BAPTIST CHURCH,MEMPHIS,TN,38108,2336,SHELBY,47157,2008-03-07T00:00:00.000Z,ALT REF,2008-03-07T00:00:00.000Z,CHURCHES,24940750,-89.9819786,35.1739288,CHRISTIAN,NBC,NOT AVAILABLE,NOT AVAILABLE,Y,N
22918,10453008,SPRINGDALE BAPTIST CHURCH,MEMPHIS,TN,38108,2235,SHELBY,47157,2008-03-07T00:00:00.000Z,ALT REF,2008-03-07T00:00:00.000Z,CHURCHES,24940981,-89.9840932,35.1688729,CHRISTIAN,NBC,NOT AVAILABLE,NOT AVAILABLE,Y,N
22919,10453269,TABERNACLE BAPTIST CHURCH,MEMPHIS,TN,38106,3810,SHELBY,47157,2008-03-07T00:00:00.000Z,ALT REF,2008-03-07T00:00:00.000Z,CHURCHES,24911017,-90.0070739,35.1117916,CHRISTIAN,NBC,NOT AVAILABLE,NOT AVAILABLE,Y,N
22920,10454075,UNION GROVE,MEMPHIS,TN,38107,2606,SHELBY,47157,2008-03-07T00:00:00.000Z,ALT REF,2008-03-20T00:00:00.000Z,CHURCHES,24907321,-90.0275664,35.165166,CHRISTIAN,NBC,NOT AVAILABLE,NOT AVAILABLE,Y,N
22921,10452828,OLIVET FELLOWSHIP BAPTIST CHURCH,MEMPHIS,TN,38118,3126,SHELBY,47157,2008-03-06T00:00:00.000Z,ALT REF,2008-03-06T00:00:00.000Z,CHURCHES,24928486,-89.9153498,35.0632578,CHRISTIAN,NBC,NOT AVAILABLE,NOT AVAILABLE,Y,N
22944,10456351,CHRIST TABERNACLE AFRICAN METHODIST EPISCOPAL CHURCH,MEMPHIS,TN,38127,2022,SHELBY,47157,2008-03-06T00:00:00.000Z,ALT REF,2008-03-06T00:00:00.000Z,CHURCHES,24916647,-90.0446311,35.2711608,CHRISTIAN,AME,NOT AVAILABLE,NOT AVAILABLE,Y,N
22978,10437631,CHRIST THE KING LUTHERAN CHURCH,MEMPHIS,TN,38119,3506,SHELBY,47157,2007-09-24T00:00:00.000Z,ALT REF,2007-09-24T00:00:00.000Z,CHURCHES,24926152,-89.8858438,35.104756,CHRISTIAN,LCMS,NOT AVAILABLE,NOT AVAILABLE,Y,N
24042,10445927,CATHOLIC CHURCH OF THE ASCENSION,MEMPHIS,TN,38128,3245,SHELBY,47157,2009-06-26T00:00:00.000Z,ALT REF,2009-06-26T00:00:00.000Z,CHURCHES,24938390,-89.9249358,35.2261129,CHRISTIAN,NOT AVAILABLE,NOT AVAILABLE,NOT AVAILABLE,N,Y
24044,10761840,NORRIS ROAD CHURCH OF CHRIST,MEMPHIS,TN,38106,7901,SHELBY,47157,2009-06-30T00:00:00.000Z,ALT REF,2009-06-30T00:00:00.000Z,CHURCHES,24945129,-90.0281288,35.0827204,CHRISTIAN,COC,600,NOT AVAILABLE,Y,N
24045,10575956,COOPERS CHAPEL AFRICAN METHODIST EPISCOPAL ZION CHURCH,MEMPHIS,TN,38108,1723,SHELBY,47157,2009-06-26T00:00:00.000Z,ALT REF,2009-06-26T00:00:00.000Z,CHURCHES,24940626,-89.9612676,35.1753738,CHRISTIAN,AMEZ,NOT AVAILABLE,NOT AVAILABLE,Y,N
24046,10575957,FORD CHAPEL AFRICAN METHODIST EPISCOPAL ZION CHURCH,MEMPHIS,TN,38109,3728,SHELBY,47157,2009-06-29T00:00:00.000Z,ALT REF,2009-06-29T00:00:00.000Z,CHURCHES,24913232,-90.071036,35.0558808,CHRISTIAN,AMEZ,NOT AVAILABLE,NOT AVAILABLE,Y,N
24047,10575959,WARNER TEMPLE AFRICAN METHODIST EPISCOPAL ZION CHURCH,MEMPHIS,TN,38126,5703,SHELBY,47157,2009-06-29T00:00:00.000Z,ALT REF,2009-06-29T00:00:00.000Z,CHURCHES,24910285,-90.0406109,35.1218603,CHRISTIAN,AMEZ,NOT AVAILABLE,NOT AVAILABLE,Y,N
24048,10434022,MULLINS STATION BAPTIST CHURCH,MEMPHIS,TN,38134,7701,SHELBY,47157,2009-07-06T00:00:00.000Z,ALT REF,2009-06-30T00:00:00.000Z,CHURCHES,24923355,-89.8503271,35.1572233,CHRISTIAN,SBC,988,NOT AVAILABLE,Y,N
24050,10445931,HOLY NAMES OF JESUS AND MARY CHURCH,MEMPHIS,TN,38107,2509,SHELBY,47157,2009-06-29T00:00:00.000Z,ALT REF,2009-06-29T00:00:00.000Z,CHURCHES,24907464,-90.034345,35.1615026,CHRISTIAN,NOT AVAILABLE,NOT AVAILABLE,NOT AVAILABLE,N,Y
24051,10434070,RIDGEWAY BAPTIST CHURCH,MEMPHIS,TN,38119,7445,SHELBY,47157,2009-07-06T00:00:00.000Z,ALT REF,2009-07-06T00:00:00.000Z,CHURCHES,24933006,-89.8580929,35.0818827,CHRISTIAN,SBC,2475,NOT AVAILABLE,Y,N
24052,10441552,CHURCH OF THE HOLY COMMUNION,MEMPHIS,TN,38117,2537,SHELBY,47157,2009-06-26T00:00:00.000Z,ALT REF,2009-06-26T00:00:00.000Z,CHURCHES,24947579,-89.9071487,35.1300747,CHRISTIAN,EPIS,NOT AVAILABLE,NOT AVAILABLE,Y,N
24053,10437103,EUDORA BAPTIST CHURCH,MEMPHIS,TN,38117,4402,SHELBY,47157,2009-06-26T00:00:00.000Z,ALT REF,2009-06-26T00:00:00.000Z,CHURCHES,24925196,-89.9061748,35.1162571,CHRISTIAN,SBC,870,NOT AVAILABLE,Y,N
24059,10579407,MACON ROAD BAPTIST CHURCH,MEMPHIS,TN,38122,2133,SHELBY,47157,2009-07-07T00:00:00.000Z,ALT REF,2009-07-07T00:00:00.000Z,CHURCHES,24941618,-89.9109414,35.1610405,CHRISTIAN,BAPT,NOT AVAILABLE,NOT AVAILABLE,Y,N
24060,10578030,INTERNATIONAL BAPTIST CHURCH,MEMPHIS,TN,38103,3213,SHELBY,47157,2009-07-07T00:00:00.000Z,ALT REF,2009-07-07T00:00:00.000Z,CHURCHES,24908483,-90.0401833,35.1405237,CHRISTIAN,BAPT,NOT AVAILABLE,NOT AVAILABLE,Y,N
24061,10433674,OAKLAWN BAPTIST CHURCH,MEMPHIS,TN,38127,1604,SHELBY,47157,2009-07-01T00:00:00.000Z,ALT REF,2009-07-01T00:00:00.000Z,CHURCHES,24916579,-90.0381165,35.2820456,CHRISTIAN,SBC,1286,NOT AVAILABLE,Y,N
24062,10459714,NEW TYLER AFRICAN METHODIST EPISCOPAL CHURCH,MEMPHIS,TN,38122,5135,SHELBY,47157,2009-06-30T00:00:00.000Z,ALT REF,2009-06-30T00:00:00.000Z,CHURCHES,24942458,-89.95114,35.1497206,CHRISTIAN,AME,NOT AVAILABLE,NOT AVAILABLE,Y,N
24063,10432630,MOUNT PLEASANT MISSIONARY BAPTIST CHURCH,MEMPHIS,TN,38108,1807,SHELBY,47157,2009-07-07T00:00:00.000Z,ALT REF,2009-07-07T00:00:00.000Z,CHURCHES,24940757,-89.9590017,35.1735288,CHRISTIAN,NBC,NOT AVAILABLE,NOT AVAILABLE,Y,N
24064,10455634,JERUSALEM MISSIONARY BAPTIST CHURCH,MEMPHIS,TN,38109,4705,SHELBY,47157,2009-06-30T00:00:00.000Z,ALT REF,2009-06-30T00:00:00.000Z,CHURCHES,126472400,-90.1226015,35.0201715,CHRISTIAN,NBC,NOT AVAILABLE,NOT AVAILABLE,Y,N
24065,10454192,UNION GROVE BAPTIST CHURCH,MEMPHIS,TN,38127,5745,SHELBY,47157,2009-06-29T00:00:00.000Z,ALT REF,2009-06-29T00:00:00.000Z,CHURCHES,24938570,-89.9875496,35.216745,CHRISTIAN,NBC,NOT AVAILABLE,NOT AVAILABLE,Y,N
24066,10578436,OAKCREST BAPTIST CHURCH,MEMPHIS,TN,38127,4576,SHELBY,47157,2009-06-30T00:00:00.000Z,ALT REF,2009-06-30T00:00:00.000Z,CHURCHES,24938228,-89.9850343,35.2235103,CHRISTIAN,BAPT,NOT AVAILABLE,NOT AVAILABLE,Y,N
24067,10577622,GREATER FAITH BAPTIST CHURCH,MEMPHIS,TN,38114,3310,SHELBY,47157,2009-06-29T00:00:00.000Z,ALT REF,2009-06-29T00:00:00.000Z,CHURCHES,24925708,-89.9654381,35.1069576,CHRISTIAN,BAPT,NOT AVAILABLE,NOT AVAILABLE,Y,N
24068,10441561,CALVARY EPISCOPAL CHURCH,MEMPHIS,TN,38103,2203,SHELBY,47157,2009-06-26T00:00:00.000Z,ALT REF,2009-06-26T00:00:00.000Z,CHURCHES,24908180,-90.0500759,35.14759,CHRISTIAN,EPIS,NOT AVAILABLE,NOT AVAILABLE,Y,N
24069,10589498,PRESCOTT MEMORIAL BAPTIST CHURCH,MEMPHIS,TN,38111,7417,SHELBY,47157,2009-06-30T00:00:00.000Z,ALT REF,2009-06-30T00:00:00.000Z,CHURCHES,24926009,-89.931297,35.1049466,CHRISTIAN,ABC,NOT AVAILABLE,NOT AVAILABLE,Y,N
24070,10589491,BEULAH BAPTIST CHURCH,MEMPHIS,TN,38114,2437,SHELBY,47157,2009-06-26T00:00:00.000Z,ALT REF,2009-06-26T00:00:00.000Z,CHURCHES,24925338,-89.9819448,35.110248,CHRISTIAN,ABC,NOT AVAILABLE,NOT AVAILABLE,Y,N
24071,10589494,FIRST BAPTIST CHURCH LAUDERDALE,MEMPHIS,TN,38126,3907,SHELBY,47157,2009-06-29T00:00:00.000Z,ALT REF,2009-06-29T00:00:00.000Z,CHURCHES,24909194,-90.0441296,35.1285484,CHRISTIAN,ABC,NOT AVAILABLE,NOT AVAILABLE,Y,N
24072,10436265,WHITTEN MEMORIAL BAPTIST CHURCH,MEMPHIS,TN,38134,7541,SHELBY,47157,2009-06-29T00:00:00.000Z,ALT REF,2009-06-29T00:00:00.000Z,CHURCHES,24922824,-89.8373454,35.165929,CHRISTIAN,SBC,1016,NOT AVAILABLE,Y,N
24073,10441553,GRACE - SAINT LUKES EPISCOPAL CHURCH,MEMPHIS,TN,38104,6124,SHELBY,47157,2009-06-29T00:00:00.000Z,ALT REF,2009-06-29T00:00:00.000Z,CHURCHES,24909076,-90.0044215,35.1324704,CHRISTIAN,EPIS,NOT AVAILABLE,NOT AVAILABLE,Y,N
24074,10577248,WHITE STATION BAPTIST CHURCH,MEMPHIS,TN,38117,4510,SHELBY,47157,2009-06-30T00:00:00.000Z,ALT REF,2009-06-30T00:00:00.000Z,CHURCHES,24925304,-89.8888097,35.1140833,CHRISTIAN,BAPT,NOT AVAILABLE,NOT AVAILABLE,Y,N
24075,10454937,KOINONIA BAPTIST CHURCH,MEMPHIS,TN,38116,6752,SHELBY,47157,2009-07-06T00:00:00.000Z,ALT REF,2009-07-06T00:00:00.000Z,CHURCHES,24914534,-90.0068432,35.0300841,CHRISTIAN,NBC,NOT AVAILABLE,NOT AVAILABLE,Y,N
24076,10434087,FIRST BAPTIST CHURCH OF MEMPHIS,MEMPHIS,TN,38112,5414,SHELBY,47157,2009-06-29T00:00:00.000Z,ALT REF,2009-06-29T00:00:00.000Z,CHURCHES,24943032,-89.981968,35.1408288,CHRISTIAN,SBC,828,NOT AVAILABLE,Y,N
24077,10431251,MASJID AL-MU'MINUN,MEMPHIS,TN,38109,5218,SHELBY,47157,2009-06-30T00:00:00.000Z,ALT REF,2009-06-30T00:00:00.000Z,"MOSQUES, RELIGIOUS",24914576,-90.0800361,35.0276151,MUSLIM,NOT AVAILABLE,NOT AVAILABLE,NOT AVAILABLE,N,N
24078,10459684,GALILEE CHAPEL AFRICAN METHODIST EPISCOPAL CHURCH,MEMPHIS,TN,38114,2826,SHELBY,47157,2009-06-29T00:00:00.000Z,ALT REF,2009-06-29T00:00:00.000Z,CHURCHES,24911494,-90.0033788,35.1060527,CHRISTIAN,AME,NOT AVAILABLE,NOT AVAILABLE,Y,N
24079,10459757,SAINT JOHN AFRICAN METHODIST EPISCOPAL CHURCH,MEMPHIS,TN,38108,2321,SHELBY,47157,2009-06-29T00:00:00.000Z,ALT REF,2009-06-29T00:00:00.000Z,CHURCHES,24940965,-89.9797997,35.1694545,CHRISTIAN,AME,NOT AVAILABLE,NOT AVAILABLE,Y,N
24080,10581288,EMMANUEL BAPTIST CHURCH,MEMPHIS,TN,38128,4712,SHELBY,47157,2009-06-26T00:00:00.000Z,ALT REF,2009-06-26T00:00:00.000Z,CHURCHES,24939861,-89.907075,35.1991064,CHRISTIAN,BAPT,NOT AVAILABLE,NOT AVAILABLE,Y,N
24081,10581289,EAST SIDE BAPTIST CHURCH,MEMPHIS,TN,38128,5045,SHELBY,47157,2009-06-26T00:00:00.000Z,ALT REF,2009-06-26T00:00:00.000Z,CHURCHES,24938944,-89.8938273,35.2134665,CHRISTIAN,BAPT,NOT AVAILABLE,NOT AVAILABLE,Y,N
24082,10459691,GREER CHAPEL AFRICAN METHODIST EPISCOPAL CHURCH,MEMPHIS,TN,38108,NULL,SHELBY,47157,2009-06-29T00:00:00.000Z,ALT REF,2009-07-07T00:00:00.000Z,CHURCHES,24940794,-89.9535119,35.1729578,CHRISTIAN,AME,NOT AVAILABLE,NOT AVAILABLE,Y,N
24083,10445609,SACRED HEART CHURCH,MEMPHIS,TN,38104,2012,SHELBY,47157,2009-07-01T00:00:00.000Z,ALT REF,2009-07-01T00:00:00.000Z,CHURCHES,24908469,-90.0161737,35.1419192,CHRISTIAN,NOT AVAILABLE,NOT AVAILABLE,NOT AVAILABLE,N,Y
24084,10578673,CALVARY BAPTIST CHURCH,MEMPHIS,TN,38115,5228,SHELBY,47157,2009-06-26T00:00:00.000Z,ALT REF,2009-06-26T00:00:00.000Z,CHURCHES,24935132,-89.8423676,35.0438638,CHRISTIAN,BAPT,NOT AVAILABLE,NOT AVAILABLE,Y,N
24085,10445928,SAINT AUGUSTINE CATHOLIC CHURCH,MEMPHIS,TN,38106,5922,SHELBY,47157,2009-07-01T00:00:00.000Z,ALT REF,2009-07-01T00:00:00.000Z,CHURCHES,24911346,-90.0240749,35.1061316,CHRISTIAN,NOT AVAILABLE,NOT AVAILABLE,NOT AVAILABLE,N,Y
24086,10459727,WHITES CHAPEL AFRICAN METHODIST EPISCOPAL CHURCH,MEMPHIS,TN,38109,4012,SHELBY,47157,2009-06-30T00:00:00.000Z,ALT REF,2009-06-30T00:00:00.000Z,CHURCHES,24946365,-90.1213695,35.0499411,CHRISTIAN,AME,NOT AVAILABLE,NOT AVAILABLE,Y,N
24087,10589495,FRIENDSHIP BAPTIST CHURCH,MEMPHIS,TN,38107,2854,SHELBY,47157,2009-06-29T00:00:00.000Z,ALT REF,2009-06-29T00:00:00.000Z,CHURCHES,24907334,-90.0119268,35.1646038,CHRISTIAN,ABC,NOT AVAILABLE,NOT AVAILABLE,Y,N
24088,10578418,CROSSROADS BAPTIST CHURCH,MEMPHIS,TN,38127,4535,SHELBY,47157,2009-06-26T00:00:00.000Z,ALT REF,2009-06-26T00:00:00.000Z,CHURCHES,24938099,-89.9928574,35.2265201,CHRISTIAN,BAPT,NOT AVAILABLE,NOT AVAILABLE,Y,N
24089,10761842,SOUTH PARKWAY EAST CHURCH OF CHRIST,MEMPHIS,TN,38114,2020,SHELBY,47157,2009-07-01T00:00:00.000Z,ALT REF,2009-07-01T00:00:00.000Z,CHURCHES,24925426,-89.9941018,35.1089835,CHRISTIAN,COC,500,NOT AVAILABLE,Y,N
24090,10577884,INDEPENDENT MISSIONARY BAPTIST CHURCH,MEMPHIS,TN,38106,4819,SHELBY,47157,2009-07-01T00:00:00.000Z,ALT REF,2009-07-01T00:00:00.000Z,CHURCHES,126815420,-90.0283884,35.111541,CHRISTIAN,BAPT,NOT AVAILABLE,NOT AVAILABLE,Y,N
24091,10581287,FELLOWSHIP UNITED BAPTIST CHURCH,MEMPHIS,TN,38118,8020,SHELBY,47157,2009-06-26T00:00:00.000Z,ALT REF,2009-06-26T00:00:00.000Z,CHURCHES,24930489,-89.9619759,35.0067511,CHRISTIAN,BAPT,NOT AVAILABLE,NOT AVAILABLE,Y,N
24092,10433454,LEAWOOD BAPTIST CHURCH,MEMPHIS,TN,38122,2209,SHELBY,47157,2009-07-06T00:00:00.000Z,ALT REF,2009-07-06T00:00:00.000Z,CHURCHES,24941429,-89.9390562,35.1632838,CHRISTIAN,SBC,4007,NOT AVAILABLE,Y,N
24093,10761843,CHURCH OF CHRIST AT SOUTHWIND,MEMPHIS,TN,38125,3201,SHELBY,47157,2009-07-06T00:00:00.000Z,ALT REF,2009-07-06T00:00:00.000Z,CHURCHES,24936558,-89.7876529,35.0216539,CHRISTIAN,COC,400,NOT AVAILABLE,Y,N
24094,10435951,WHITEHAVEN BAPTIST CHURCH,MEMPHIS,TN,38116,7770,SHELBY,47157,2009-06-29T00:00:00.000Z,ALT REF,2009-06-29T00:00:00.000Z,CHURCHES,112335880,-90.0247061,35.0179849,CHRISTIAN,SBC,932,NOT AVAILABLE,Y,N
24095,10459740,SAINT ANDREW AFRICAN METHODIST EPISCOPAL CHURCH,MEMPHIS,TN,38106,5605,SHELBY,47157,2009-06-29T00:00:00.000Z,ALT REF,2009-06-29T00:00:00.000Z,CHURCHES,24911210,-90.0335193,35.108023,CHRISTIAN,AME,NOT AVAILABLE,NOT AVAILABLE,Y,N
24096,10577704,CANE CREEK BAPTIST CHURCH,MEMPHIS,TN,38106,6975,SHELBY,47157,2009-06-26T00:00:00.000Z,ALT REF,2009-06-26T00:00:00.000Z,CHURCHES,24912095,-90.0184994,35.0967987,CHRISTIAN,BAPT,NOT AVAILABLE,NOT AVAILABLE,Y,N
24097,10433758,COLONIAL BAPTIST CHURCH,MEMPHIS,TN,38117,6503,SHELBY,47157,2009-06-26T00:00:00.000Z,ALT REF,2009-06-26T00:00:00.000Z,CHURCHES,24927217,-89.9040959,35.0908118,CHRISTIAN,SBC,1226,NOT AVAILABLE,Y,N
24098,10454203,MOUNT CARMEL MISSIONARY BAPTIST CHURCH,MEMPHIS,TN,38107,1440,SHELBY,47157,2009-07-06T00:00:00.000Z,ALT REF,2009-07-06T00:00:00.000Z,CHURCHES,24906790,-90.0372156,35.1805041,CHRISTIAN,NBC,NOT AVAILABLE,NOT AVAILABLE,Y,N
24099,10575958,PRINCETON CHAPEL AFRICAN METHODIST EPISCOPAL ZION CHURCH,MEMPHIS,TN,38108,2307,SHELBY,47157,2009-06-30T00:00:00.000Z,ALT REF,2009-06-30T00:00:00.000Z,CHURCHES,24940916,-89.9819079,35.1706965,CHRISTIAN,AMEZ,NOT AVAILABLE,NOT AVAILABLE,Y,N
24100,10761838,BOULEVARD CHURCH OF CHRIST,MEMPHIS,TN,38116,6407,SHELBY,47157,2009-06-26T00:00:00.000Z,ALT REF,2009-06-26T00:00:00.000Z,CHURCHES,24914641,-90.0258138,35.0278858,CHRISTIAN,COC,400+,NOT AVAILABLE,Y,N
24101,10454861,BETHLEHEM MISSIONARY BAPTIST CHURCH,MEMPHIS,TN,38107,4135,SHELBY,47157,2009-06-26T00:00:00.000Z,ALT REF,2009-06-26T00:00:00.000Z,CHURCHES,24907550,-90.0273605,35.1608897,CHRISTIAN,NBC,NOT AVAILABLE,NOT AVAILABLE,Y,N
24102,10431245,MUHAMMAD MOSQUE 55,MEMPHIS,TN,38126,2910,SHELBY,47157,2009-06-30T00:00:00.000Z,ALT REF,2009-06-30T00:00:00.000Z,"MOSQUES, RELIGIOUS",24908942,-90.0324825,35.1332643,MUSLIM,NOT AVAILABLE,NOT AVAILABLE,NOT AVAILABLE,N,N
24103,10455052,KEEL AVENUE MISSIONARY BAPTIST CHURCH,MEMPHIS,TN,38107,7201,SHELBY,47157,2009-07-01T00:00:00.000Z,ALT REF,2009-07-01T00:00:00.000Z,CHURCHES,24907612,-90.0182387,35.1604444,CHRISTIAN,NBC,NOT AVAILABLE,NOT AVAILABLE,Y,N
24104,10454209,SAINT JUDE MISSIONARY BAPTIST CHURCH,MEMPHIS,TN,38106,4779,SHELBY,47157,2009-06-29T00:00:00.000Z,ALT REF,2009-06-29T00:00:00.000Z,CHURCHES,24910904,-90.034011,35.1114468,CHRISTIAN,NBC,NOT AVAILABLE,NOT AVAILABLE,Y,N
24105,10581286,GATEWAY BAPTIST CHURCH,MEMPHIS,TN,38122,2426,SHELBY,47157,2009-06-29T00:00:00.000Z,ALT REF,2009-07-06T00:00:00.000Z,CHURCHES,24941493,-89.9252588,35.1626752,CHRISTIAN,BAPT,NOT AVAILABLE,NOT AVAILABLE,Y,N
24106,10436229,FRAYSER BAPTIST CHURCH,MEMPHIS,TN,38127,5061,SHELBY,47157,2009-06-29T00:00:00.000Z,ALT REF,2009-06-29T00:00:00.000Z,CHURCHES,24950756,-90.0299121,35.2185801,CHRISTIAN,SBC,1129,NOT AVAILABLE,Y,N
24107,10432631,NEW SALEM MISSIONARY BAPTIST CHURCH,MEMPHIS,TN,38114,2218,SHELBY,47157,2009-06-30T00:00:00.000Z,ALT REF,2009-06-30T00:00:00.000Z,CHURCHES,24924988,-89.9876424,35.1139035,CHRISTIAN,MISSBAPT,NOT AVAILABLE,NOT AVAILABLE,Y,N
24108,10455360,SAINT PETER MISSIONARY BAPTIST CHURCH,MEMPHIS,TN,38106,5016,SHELBY,47157,2009-06-29T00:00:00.000Z,ALT REF,2009-06-29T00:00:00.000Z,CHURCHES,24911320,-90.0145911,35.1078094,CHRISTIAN,NBC,NOT AVAILABLE,NOT AVAILABLE,Y,N
24109,10684706,MEMPHIS SHAMBHALA MEDITATION GROUP,MEMPHIS,TN,38104,5342,SHELBY,47157,2009-07-22T00:00:00.000Z,ALT REF,2009-07-22T00:00:00.000Z,PLACES OF WORSHIP,24943731,-89.9900853,35.1316045,BUDDHIST,"TIBETAN, SHAMBHALA",NOT AVAILABLE,NOT AVAILABLE,N,N
24110,10434645,WELLS STATION BAPTIST CHURCH,MEMPHIS,TN,38108,3662,SHELBY,47157,2009-06-29T00:00:00.000Z,ALT REF,2009-06-29T00:00:00.000Z,CHURCHES,24940943,-89.9164533,35.1728952,CHRISTIAN,SBC,850,NOT AVAILABLE,Y,N
24111,10761611,EAST WIN CHRISTIAN CHURCH,MEMPHIS,TN,38125,3101,SHELBY,47157,2009-06-26T00:00:00.000Z,ALT REF,2009-06-26T00:00:00.000Z,CHURCHES,27835814,-89.7950326,35.0299198,CHRISTIAN,CHRISTIAN,NOT AVAILABLE,NOT AVAILABLE,Y,N
24112,10589496,METROPOLITAN BAPTIST CHURCH,MEMPHIS,TN,38126,6508,SHELBY,47157,2009-06-30T00:00:00.000Z,ALT REF,2009-06-30T00:00:00.000Z,CHURCHES,24910396,-90.0362042,35.1190127,CHRISTIAN,ABC,NOT AVAILABLE,NOT AVAILABLE,Y,N
24113,10459790,WARD CHAPEL AFRICAN METHODIST EPISCOPAL CHURCH,MEMPHIS,TN,38106,4762,SHELBY,47157,2009-06-29T00:00:00.000Z,ALT REF,2009-06-29T00:00:00.000Z,CHURCHES,24911120,-90.0249002,35.1092286,CHRISTIAN,AME,NOT AVAILABLE,NOT AVAILABLE,Y,N
24114,10459709,MOUNT ZION AFRICAN METHODIST EPISCOPAL CHURCH,MEMPHIS,TN,38109,1668,SHELBY,47157,2009-06-30T00:00:00.000Z,ALT REF,2009-06-30T00:00:00.000Z,CHURCHES,24911160,-90.0637415,35.1081999,CHRISTIAN,AME,NOT AVAILABLE,NOT AVAILABLE,Y,N
24115,10454058,CHRISTIAN UNITED BAPTIST CHURCH,MEMPHIS,TN,38127,5822,SHELBY,47157,2009-06-26T00:00:00.000Z,ALT REF,2009-06-26T00:00:00.000Z,CHURCHES,24938567,-89.9829116,35.2178061,CHRISTIAN,NBC,NOT AVAILABLE,NOT AVAILABLE,Y,N
24116,10456505,SAINT JAMES AFRICAN METHODIST EPISCOPAL CHURCH,MEMPHIS,TN,38107,3701,SHELBY,47157,2009-06-29T00:00:00.000Z,ALT REF,2009-06-29T00:00:00.000Z,CHURCHES,24946475,-90.0423993,35.1598351,CHRISTIAN,AME,NOT AVAILABLE,NOT AVAILABLE,Y,N
24117,10445710,OUR LADY OF SORROWS CATHOLIC CHURCH,MEMPHIS,TN,38127,5259,SHELBY,47157,2009-07-01T00:00:00.000Z,ALT REF,2009-07-01T00:00:00.000Z,CHURCHES,126835385,-90.0217584,35.2261792,CHRISTIAN,NOT AVAILABLE,NOT AVAILABLE,NOT AVAILABLE,N,Y
24118,10575955,BOYD STREET AFRICAN METHODIST EPISCOPAL ZION CHURCH,MEMPHIS,TN,38126,2303,SHELBY,47157,2009-06-26T00:00:00.000Z,ALT REF,2009-06-26T00:00:00.000Z,CHURCHES,24909043,-90.0369339,35.1333969,CHRISTIAN,AMEZ,NOT AVAILABLE,NOT AVAILABLE,Y,N
24119,10434588,KIRBY WOODS BAPTIST CHURCH,MEMPHIS,TN,38119,4714,SHELBY,47157,2009-07-01T00:00:00.000Z,ALT REF,2009-07-01T00:00:00.000Z,CHURCHES,24931744,-89.8532097,35.1001679,CHRISTIAN,SBC,2711,NOT AVAILABLE,Y,N
24120,10575954,ZION CHAPEL AFRICAN METHODIST EPISCOPAL ZION CHURCH,MEMPHIS,TN,38116,8608,SHELBY,47157,2009-07-21T00:00:00.000Z,ALT REF,2009-07-21T00:00:00.000Z,CHURCHES,24947063,-89.9958545,35.0091781,CHRISTIAN,AMEZ,NOT AVAILABLE,NOT AVAILABLE,Y,N
24121,10459800,WILSON CHAPEL AFRICAN METHODIST EPISCOPAL CHURCH,MEMPHIS,TN,38109,6602,SHELBY,47157,2009-06-29T00:00:00.000Z,ALT REF,2009-06-29T00:00:00.000Z,CHURCHES,24945587,-90.0614681,35.0212218,CHRISTIAN,AME,NOT AVAILABLE,NOT AVAILABLE,Y,N
24122,10445930,BLESSED SACRAMENT CATHOLIC CHURCH,MEMPHIS,TN,38112,3330,SHELBY,47157,2009-06-26T00:00:00.000Z,ALT REF,2009-06-26T00:00:00.000Z,CHURCHES,24942811,-89.974469,35.1437385,CHRISTIAN,NOT AVAILABLE,NOT AVAILABLE,NOT AVAILABLE,N,Y
24123,10445649,SAINT PETER CATHOLIC CHURCH,MEMPHIS,TN,38103,1922,SHELBY,47157,2009-06-30T00:00:00.000Z,ALT REF,2009-06-30T00:00:00.000Z,CHURCHES,24908193,-90.0487204,35.1477315,CHRISTIAN,NOT AVAILABLE,NOT AVAILABLE,NOT AVAILABLE,N,Y
24161,10459919,NEW BEGINNINGS COMMUNITY CHURCH,MEMPHIS,TN,38104,6280,SHELBY,47157,2008-03-07T00:00:00.000Z,ALT REF,2008-09-05T00:00:00.000Z,CHURCHES,24909042,-90.0295788,35.1314962,CHRISTIAN,PCA,NOT AVAILABLE,NOT AVAILABLE,Y,N
24164,10432633,MISSISSIPPI BOULEVARD CHRISTIAN CHURCH,MEMPHIS,TN,38104,2221,SHELBY,47157,2007-09-10T00:00:00.000Z,ALT REF,2008-09-05T00:00:00.000Z,CHURCHES,24908515,-90.0209411,35.1413182,CHRISTIAN,NOT AVAILABLE,NOT AVAILABLE,NOT AVAILABLE,Y,N
23008,10435763,ELLISTON MEMORIAL BAPTIST CHURCH,MEMPHIS,TN,38111,7903,SHELBY,47157,2007-09-20T00:00:00.000Z,ALT REF,2007-09-20T00:00:00.000Z,CHURCHES,24927439,-89.9223176,35.0844695,CHRISTIAN,SBC,2571,NOT AVAILABLE,Y,N
23052,10454819,GOSPEL TEMPLE BAPTIST CHURCH,MEMPHIS,TN,38107,1905,SHELBY,47157,2008-03-07T00:00:00.000Z,ALT REF,2008-03-07T00:00:00.000Z,CHURCHES,24907125,-90.0314915,35.1704616,CHRISTIAN,NBC,NOT AVAILABLE,NOT AVAILABLE,Y,N
23053,10455370,KING SOLOMON MISSIONARY BAPTIST CHURCH,MEMPHIS,TN,38106,4208,SHELBY,47157,2008-03-07T00:00:00.000Z,ALT REF,2008-03-07T00:00:00.000Z,CHURCHES,24910998,-90.0515482,35.1105574,CHRISTIAN,NBC,NOT AVAILABLE,NOT AVAILABLE,Y,N
23083,10441555,ALL SAINTS EPISCOPAL CHURCH,MEMPHIS,TN,38117,6826,SHELBY,47157,2009-06-26T00:00:00.000Z,ALT REF,2009-06-26T00:00:00.000Z,CHURCHES,24927173,-89.8903508,35.0902858,CHRISTIAN,EPIS,NOT AVAILABLE,NOT AVAILABLE,Y,N
23098,10445936,SAINT JOSEPH CHURCH,MEMPHIS,TN,38109,3821,SHELBY,47157,2009-06-30T00:00:00.000Z,ALT REF,2009-08-25T00:00:00.000Z,CHURCHES,24913791,-90.0565728,35.0436502,CHRISTIAN,NOT AVAILABLE,NOT AVAILABLE,NOT AVAILABLE,N,Y
23110,10683643,DELTA INSIGHT GROUP - DHARMA MEMPHIS,MEMPHIS,TN,38122,5122,SHELBY,47157,2009-07-29T00:00:00.000Z,ALT REF,2009-07-27T00:00:00.000Z,PLACES OF WORSHIP,24946066,-89.9428861,35.1487447,BUDDHIST,NOT AVAILABLE,NOT AVAILABLE,NOT AVAILABLE,N,N
23114,10432629,PENTECOSTAL TEMPLE CHURCH OF GOD IN CHRIST,MEMPHIS,TN,38126,1501,SHELBY,47157,2009-06-30T00:00:00.000Z,ALT REF,2009-06-30T00:00:00.000Z,CHURCHES,25011085,-90.0472274,35.1377176,CHRISTIAN,COGIC,NOT AVAILABLE,NOT AVAILABLE,Y,N
23115,10435342,SECOND BAPTIST CHURCH,MEMPHIS,TN,38117,2522,SHELBY,47157,2009-06-30T00:00:00.000Z,ALT REF,2009-06-30T00:00:00.000Z,CHURCHES,24943927,-89.9061192,35.1321078,CHRISTIAN,SBC,1240,NOT AVAILABLE,Y,N
23125,10574620,EUDORA AFRICAN METHODIST EPISCOPAL ZION CHURCH,MEMPHIS,TN,38127,3519,SHELBY,47157,2009-07-21T00:00:00.000Z,ALT REF,2009-07-21T00:00:00.000Z,CHURCHES,24937562,-89.9866015,35.2366585,CHRISTIAN,AMEZ,NOT AVAILABLE,NOT AVAILABLE,Y,N
23126,10434626,LABELLE HAVEN BAPTIST CHURCH,MEMPHIS,TN,38141,8505,SHELBY,47157,2009-07-01T00:00:00.000Z,ALT REF,2009-07-01T00:00:00.000Z,CHURCHES,24936891,-89.836196,35.0047137,CHRISTIAN,SBC,761,NOT AVAILABLE,Y,N
23152,10455048,HILL CHAPEL MISSIONARY BAPTIST CHURCH,MEMPHIS,TN,38128,5863,SHELBY,47157,2009-06-30T00:00:00.000Z,ALT REF,2009-06-30T00:00:00.000Z,CHURCHES,24939765,-89.9123528,35.199855,CHRISTIAN,NBC,NOT AVAILABLE,NOT AVAILABLE,Y,N
23155,10452877,TRUE LIFE MISSIONARY BAPTIST CHURCH,MEMPHIS,TN,38109,4529,SHELBY,47157,2009-07-06T00:00:00.000Z,ALT REF,2009-06-29T00:00:00.000Z,CHURCHES,24914163,-90.0612974,35.0349047,CHRISTIAN,NBC,NOT AVAILABLE,NOT AVAILABLE,Y,N
23169,10454131,PROGRESSIVE MISSIONARY BAPTIST CHURCH,MEMPHIS,TN,38126,2010,SHELBY,47157,2009-06-30T00:00:00.000Z,ALT REF,2009-06-30T00:00:00.000Z,CHURCHES,24908804,-90.0485493,35.1353712,CHRISTIAN,NBC,NOT AVAILABLE,NOT AVAILABLE,Y,N
23176,10461255,INDEPENDENT PRESBYTERIAN CHURCH,MEMPHIS,TN,38117,2524,SHELBY,47157,2009-07-06T00:00:00.000Z,ALT REF,2009-07-06T00:00:00.000Z,CHURCHES,24943932,-89.9040894,35.1320102,CHRISTIAN,PCA,NOT AVAILABLE,NOT AVAILABLE,Y,N
23178,10441551,HOLY TRINITY EPISCOPAL CHURCH,MEMPHIS,TN,38111,6420,SHELBY,47157,2009-06-29T00:00:00.000Z,ALT REF,2009-06-29T00:00:00.000Z,CHURCHES,24926851,-89.9368902,35.0927465,CHRISTIAN,EPIS,NOT AVAILABLE,NOT AVAILABLE,Y,N
23213,10453424,GRACE BAPTIST CHURCH,MEMPHIS,TN,38107,1521,SHELBY,47157,2009-06-29T00:00:00.000Z,ALT REF,2009-07-15T00:00:00.000Z,CHURCHES,24906990,-90.0318436,35.1745813,CHRISTIAN,NBC,NOT AVAILABLE,NOT AVAILABLE,Y,N
23216,10441558,SAINT PHILIP EPISCOPAL CHURCH,MEMPHIS,TN,38133,4250,SHELBY,47157,2009-06-29T00:00:00.000Z,ALT REF,2009-06-29T00:00:00.000Z,CHURCHES,24920068,-89.747131,35.2196686,CHRISTIAN,EPIS,NOT AVAILABLE,NOT AVAILABLE,Y,N
23217,10443212,SAINT MARYS CATHOLIC CHURCH,MEMPHIS,TN,38105,3513,SHELBY,47157,2009-06-30T00:00:00.000Z,ALT REF,2009-06-30T00:00:00.000Z,CHURCHES,24907976,-90.0480547,35.1514254,CHRISTIAN,NOT AVAILABLE,NOT AVAILABLE,NOT AVAILABLE,N,Y
23218,10445937,SAINT LOUIS CATHOLIC CHURCH,MEMPHIS,TN,38117,3438,SHELBY,47157,2009-07-01T00:00:00.000Z,ALT REF,2009-07-01T00:00:00.000Z,CHURCHES,24944250,-89.888102,35.1251415,CHRISTIAN,NOT AVAILABLE,NOT AVAILABLE,NOT AVAILABLE,N,Y
23221,10452922,NEW SARDIS BAPTIST CHURCH,MEMPHIS,TN,38125,3823,SHELBY,47157,2009-07-01T00:00:00.000Z,ALT REF,2009-07-01T00:00:00.000Z,CHURCHES,27836510,-89.8061859,35.0054719,CHRISTIAN,NBC,NOT AVAILABLE,NOT AVAILABLE,Y,N
23223,10445940,SAINT PAUL THE APOSTLE CATHOLIC CHURCH,MEMPHIS,TN,38116,7225,SHELBY,47157,2009-07-01T00:00:00.000Z,ALT REF,2009-07-01T00:00:00.000Z,CHURCHES,112335875,-90.0154675,35.0200496,CHRISTIAN,NOT AVAILABLE,NOT AVAILABLE,NOT AVAILABLE,N,Y
23227,10761839,MIDTOWN CHURCH OF CHRIST,MEMPHIS,TN,38104,4029,SHELBY,47157,2009-06-30T00:00:00.000Z,ALT REF,2009-06-30T00:00:00.000Z,CHURCHES,24943440,-89.9975567,35.135282,CHRISTIAN,COC,500,NOT AVAILABLE,Y,N
23265,10427990,TEMPLE ISRAEL,MEMPHIS,TN,38120,3228,SHELBY,47157,2007-07-23T00:00:00.000Z,PHONE,2007-07-23T00:00:00.000Z,SYNAGOGUES,24931188,-89.8462532,35.1110745,JUDAIC,REFORM,1650,NOT AVAILABLE,N,N
23280,10428359,CHABAD LUBAVITCH OF TENNESSEE,MEMPHIS,TN,38120,3325,SHELBY,47157,2007-08-08T00:00:00.000Z,ALT REF,2007-08-08T00:00:00.000Z,SYNAGOGUES,24930950,-89.8420012,35.1150017,JUDAIC,CHABAD,NOT AVAILABLE,CHABAD,N,N
23282,10427157,ANSHEI SPHARD-BETH EL EMETH,MEMPHIS,TN,38120,2017,SHELBY,47157,2007-07-23T00:00:00.000Z,PHONE,2007-07-23T00:00:00.000Z,SYNAGOGUES,24924054,-89.8709376,35.1342512,JUDAIC,NOT AVAILABLE,NOT AVAILABLE,SYNAGOGUE,N,N
23289,10429416,YOUNG ISRAEL OF MEMPHIS,MEMPHIS,TN,38120,2435,SHELBY,47157,2007-08-08T00:00:00.000Z,ALT REF,2007-08-08T00:00:00.000Z,SYNAGOGUES,24930846,-89.8776235,35.1166007,JUDAIC,YOUNG ISRAEL,NOT AVAILABLE,NOT AVAILABLE,N,N
23291,10428254,MEMPHIS JEWISH COMMUNITY CENTER,MEMPHIS,TN,38138,3656,SHELBY,47157,2007-07-26T00:00:00.000Z,PHONE,2007-07-26T00:00:00.000Z,SYNAGOGUES,24931838,-89.8440603,35.0993672,JUDAIC,NOT AVAILABLE,NOT AVAILABLE,NOT AVAILABLE,N,N
23292,10427162,BETH SHOLOM SYNAGOGUE,MEMPHIS,TN,38120,2359,SHELBY,47157,2007-07-23T00:00:00.000Z,PHONE,2007-07-23T00:00:00.000Z,SYNAGOGUES,24930791,-89.8402201,35.1190182,JUDAIC,NOT AVAILABLE,NOT AVAILABLE,SYNAGOGUE,N,N
23304,10427160,BARON HIRSCH CONGREGATION,MEMPHIS,TN,38120,2432,SHELBY,47157,2007-07-30T00:00:00.000Z,PHONE,2007-07-23T00:00:00.000Z,SYNAGOGUES,24948485,-89.873928,35.1205894,JUDAIC,NOT AVAILABLE,NOT AVAILABLE,SYNAGOGUE,N,N
23330,10427165,ERUV OF MEMPHIS INCORPORATED,MEMPHIS,TN,38120,2232,SHELBY,47157,2007-07-23T00:00:00.000Z,PHONE,2007-07-23T00:00:00.000Z,SYNAGOGUES,24944221,-89.8803091,35.1262222,JUDAIC,NOT AVAILABLE,NOT AVAILABLE,SYNAGOGUE,N,N
23667,10437075,SOUL WINNERS BAPTIST CHURCH,MEMPHIS,TN,38141,6936,SHELBY,47157,2009-07-21T00:00:00.000Z,ALT REF,2009-07-21T00:00:00.000Z,CHURCHES,24935691,-89.8603135,35.0333928,CHRISTIAN,NOT AVAILABLE,1012,NOT AVAILABLE,Y,N
23788,10581283,MARANATHA BAPTIST CHURCH,MEMPHIS,TN,38127,3733,SHELBY,47157,2009-07-27T00:00:00.000Z,ALT REF,2009-07-27T00:00:00.000Z,CHURCHES,24906086,-90.0372362,35.2259661,CHRISTIAN,BAPT,NOT AVAILABLE,NOT AVAILABLE,Y,N
23796,10581282,PILGRIMS HOPE BAPTIST CHURCH,MEMPHIS,TN,38127,6658,SHELBY,47157,2009-06-30T00:00:00.000Z,ALT REF,2009-07-06T00:00:00.000Z,CHURCHES,24938968,-89.9922022,35.2096576,CHRISTIAN,BAPT,NOT AVAILABLE,NOT AVAILABLE,Y,N
23839,10581281,RALEIGH SPRINGS BAPTIST CHURCH,MEMPHIS,TN,38135,8262,SHELBY,47157,2009-07-01T00:00:00.000Z,ALT REF,2009-07-01T00:00:00.000Z,CHURCHES,24938227,-89.8856762,35.2269616,CHRISTIAN,BAPT,NOT AVAILABLE,NOT AVAILABLE,Y,N
23895,10761844,CHURCH OF CHRIST AT WHITE STATION,MEMPHIS,TN,38117,5538,SHELBY,47157,2009-06-29T00:00:00.000Z,ALT REF,2009-06-29T00:00:00.000Z,CHURCHES,24926381,-89.9018197,35.1020429,CHRISTIAN,COC,700,NOT AVAILABLE,Y,N