OBJECTID,ID,NAME,CITY,STATE,ZIP,ZIPP4,COUNTY,FIPS,CONTDATE,CONTHOW,GEODATE,NAICSDESCR,GEOLINKID,X,Y,SUBTYPE,DENOM,MEMBERS,LOC_TYPE,PROT,CATH
22518,10432640,BELLEVUE COMMUNITY CHURCH,NASHVILLE,TN,37221,NULL,DAVIDSON,47037,2007-09-10T00:00:00.000Z,ALT REF,2007-09-10T00:00:00.000Z,CHURCHES,31399158,-86.9779258,36.077453,CHRISTIAN,NOT AVAILABLE,NOT AVAILABLE,NOT AVAILABLE,Y,N
22560,10434955,BELLEVUE BAPTIST CHURCH,NASHVILLE,TN,37221,NULL,DAVIDSON,47037,2007-09-20T00:00:00.000Z,ALT REF,2007-09-20T00:00:00.000Z,CHURCHES,31418087,-86.9357463,36.0750849,CHRISTIAN,SBC,790,NOT AVAILABLE,Y,N
22592,10683851,NASHVILLE MINDFULNESS CENTER,NASHVILLE,TN,37221,5405,DAVIDSON,47037,2008-11-18T00:00:00.000Z,ALT REF,2008-11-18T00:00:00.000Z,PLACES OF WORSHIP,27648157,-86.9842236,36.1051946,BUDDHIST,MAHAYANA,NOT AVAILABLE,NOT AVAILABLE,N,N
22754,10461247,WEST SIDE CUMBERLAND PRESBYTERIAN CHURCH,NASHVILLE,TN,37221,3500,DAVIDSON,47037,2008-03-07T00:00:00.000Z,ALT REF,2008-03-07T00:00:00.000Z,CHURCHES,31399492,-86.9324483,36.0626397,CHRISTIAN,PCA,NOT AVAILABLE,NOT AVAILABLE,Y,N
23046,10436087,HARPETH HEIGHTS BAPTIST CHURCH,NASHVILLE,TN,37221,NULL,DAVIDSON,47037,2007-09-20T00:00:00.000Z,ALT REF,2007-09-20T00:00:00.000Z,CHURCHES,124178225,-86.9530728,36.0447121,CHRISTIAN,SBC,1753,NOT AVAILABLE,Y,N
23963,10577792,COMMUNITY BAPTIST CHURCH,NASHVILLE,TN,37221,3444,DAVIDSON,47037,2009-07-07T00:00:00.000Z,ALT REF,2009-07-07T00:00:00.000Z,CHURCHES,31399495,-86.939001,36.06399,CHRISTIAN,BAPT,NOT AVAILABLE,NOT AVAILABLE,Y,N
23964,10677994,SRI GANESHA TEMPLE,NASHVILLE,TN,37209,5105,DAVIDSON,47037,2009-07-02T00:00:00.000Z,ALT REF,2009-07-02T00:00:00.000Z,"TEMPLES, RELIGIOUS",31418753,-86.9249197,36.1012998,HINDU,NOT AVAILABLE,NOT AVAILABLE,NOT AVAILABLE,N,N
29036,10431420,MASJID AL-ISLAM,NASHVILLE,TN,37218,2000,DAVIDSON,47037,2009-07-06T00:00:00.000Z,ALT REF,2009-07-06T00:00:00.000Z,"MOSQUES, RELIGIOUS",31392569,-86.8166872,36.2140309,MUSLIM,NOT AVAILABLE,NOT AVAILABLE,NOT AVAILABLE,N,N
29043,10428311,CHABAD OF NASHVILLE,NASHVILLE,TN,37205,2443,DAVIDSON,47037,2007-08-08T00:00:00.000Z,ALT REF,2007-08-08T00:00:00.000Z,SYNAGOGUES,31397544,-86.8294756,36.131984,JUDAIC,CHABAD,NOT AVAILABLE,CHABAD,N,N
29045,10446552,HOLY ROSARY CHURCH,NASHVILLE,TN,37214,2706,DAVIDSON,47037,2009-07-07T00:00:00.000Z,ALT REF,2009-07-07T00:00:00.000Z,CHURCHES,31412892,-86.6754352,36.1679931,CHRISTIAN,NOT AVAILABLE,NOT AVAILABLE,NOT AVAILABLE,N,Y
29060,10432639,BELMONT CHURCH,NASHVILLE,TN,37203,4325,DAVIDSON,47037,2007-09-10T00:00:00.000Z,ALT REF,2007-09-10T00:00:00.000Z,CHURCHES,31396433,-86.7921516,36.1472576,CHRISTIAN,NONDENOM,NOT AVAILABLE,NOT AVAILABLE,Y,N
29061,10432641,LAKE PROVIDENCE MISSIONARY BAPTIST CHURCH,NASHVILLE,TN,37211,6542,DAVIDSON,47037,2007-09-10T00:00:00.000Z,ALT REF,2007-09-10T00:00:00.000Z,CHURCHES,124165542,-86.7153193,36.0365833,CHRISTIAN,BAPT,NOT AVAILABLE,NOT AVAILABLE,Y,N
29062,10432642,THE FAMILY OF GOD AT WOODMONT HILLS,NASHVILLE,TN,37204,3506,DAVIDSON,47037,2007-09-10T00:00:00.000Z,ALT REF,2007-09-10T00:00:00.000Z,CHURCHES,31418880,-86.7709017,36.1066947,CHRISTIAN,COC,NOT AVAILABLE,NOT AVAILABLE,Y,N
29084,10437492,EASTLAND BAPTIST CHURCH,NASHVILLE,TN,37206,3203,DAVIDSON,47037,2007-09-20T00:00:00.000Z,ALT REF,2007-09-27T00:00:00.000Z,CHURCHES,31411942,-86.7442842,36.1915761,CHRISTIAN,SBC,778,NOT AVAILABLE,Y,N
29093,10438294,CRIEVE HALL CHURCH OF CHRIST,NASHVILLE,TN,37220,1304,DAVIDSON,47037,2007-10-10T00:00:00.000Z,ALT REF,2007-10-10T00:00:00.000Z,CHURCHES,27626243,-86.7583326,36.0766327,CHRISTIAN,COC,1200,NOT AVAILABLE,Y,N
29096,10438369,FIRST PRESBYTERIAN CHURCH,NASHVILLE,TN,37220,1121,DAVIDSON,47037,2007-10-10T00:00:00.000Z,ALT REF,2007-10-10T00:00:00.000Z,CHURCHES,31408437,-86.775486,36.0794589,CHRISTIAN,PCUSA,3908,NOT AVAILABLE,Y,N
29098,10438929,THE CHURCH OF JESUS CHRIST OF LATTER DAY SAINTS - SMITH SPRINGS WARD,NASHVILLE,TN,37211,5452,DAVIDSON,47037,2007-10-16T00:00:00.000Z,ALT REF,2007-10-16T00:00:00.000Z,CHURCHES,31402202,-86.7151113,36.0690173,CHRISTIAN,LDS,NOT AVAILABLE,NOT AVAILABLE,Y,N
29099,10439120,THE CHURCH OF JESUS CHRIST OF LATTER DAY SAINTS - OLD HICKORY WARD,NASHVILLE,TN,37215,3306,DAVIDSON,47037,2007-10-19T00:00:00.000Z,ALT REF,2007-10-16T00:00:00.000Z,CHURCHES,31407373,-86.8207525,36.0985708,CHRISTIAN,LDS,NOT AVAILABLE,NOT AVAILABLE,Y,N
29100,10439207,THE CHURCH OF JESUS CHRIST OF LATTER DAY SAINTS - CUMBERLAND BRANCH,NASHVILLE,TN,37216,3118,DAVIDSON,47037,2007-10-16T00:00:00.000Z,ALT REF,2007-10-16T00:00:00.000Z,CHURCHES,31411417,-86.7295286,36.2039275,CHRISTIAN,LDS,NOT AVAILABLE,NOT AVAILABLE,Y,N
29101,10439294,THE CHURCH OF JESUS CHRIST OF LATTER DAY SAINTS - GREEN HILLS WARD,NASHVILLE,TN,37215,3306,DAVIDSON,47037,2007-10-16T00:00:00.000Z,ALT REF,2007-10-16T00:00:00.000Z,CHURCHES,31407373,-86.8207542,36.0985724,CHRISTIAN,LDS,NOT AVAILABLE,NOT AVAILABLE,Y,N
29102,10439705,THE CHURCH OF JESUS CHRIST OF LATTER DAY SAINTS - PROVIDENCE (SPANISH) BRANCH,NASHVILLE,TN,37211,5452,DAVIDSON,47037,2007-10-16T00:00:00.000Z,ALT REF,2007-10-16T00:00:00.000Z,CHURCHES,31402202,-86.7151103,36.0690135,CHRISTIAN,LDS,NOT AVAILABLE,NOT AVAILABLE,Y,N
29104,10441406,SAINT BARTHOLOMEW'S CHURCH,NASHVILLE,TN,37215,4422,DAVIDSON,47037,2007-11-07T00:00:00.000Z,ALT REF,2007-11-07T00:00:00.000Z,CHURCHES,31408211,-86.8072914,36.0840579,CHRISTIAN,EPIS,NOT AVAILABLE,NOT AVAILABLE,Y,N
29105,10441412,SAINT AUGUSTINE'S CHAPEL,NASHVILLE,TN,37212,2006,DAVIDSON,47037,2007-11-07T00:00:00.000Z,ALT REF,2007-11-27T00:00:00.000Z,CHURCHES,31396508,-86.8052135,36.1467833,CHRISTIAN,EPIS,NOT AVAILABLE,NOT AVAILABLE,Y,N
29112,10454181,ZION BAPTIST CHURCH,NASHVILLE,TN,37207,5326,DAVIDSON,47037,2008-02-29T00:00:00.000Z,ALT REF,2008-02-29T00:00:00.000Z,CHURCHES,31392925,-86.7793257,36.1981607,CHRISTIAN,NBC,NOT AVAILABLE,NOT AVAILABLE,Y,N
29126,10459746,SAINT JAMES AFRICAN METHODIST EPISCOPAL CHURCH,NASHVILLE,TN,37206,2211,DAVIDSON,47037,2008-03-06T00:00:00.000Z,ALT REF,2008-03-06T00:00:00.000Z,CHURCHES,31411836,-86.7396925,36.1936117,CHRISTIAN,AME,NOT AVAILABLE,NOT AVAILABLE,Y,N
29127,10456248,SAINT MATTHEWS AFRICAN METHODIST EPISCOPAL CHURCH,NASHVILLE,TN,37208,1041,DAVIDSON,47037,2008-03-06T00:00:00.000Z,ALT REF,2008-03-06T00:00:00.000Z,CHURCHES,31393349,-86.8140859,36.1875042,CHRISTIAN,AME,NOT AVAILABLE,NOT AVAILABLE,Y,N
29128,10459782,SAINT PETER AFRICAN METHODIST EPISCOPAL CHURCH,NASHVILLE,TN,37207,4832,DAVIDSON,47037,2008-03-06T00:00:00.000Z,ALT REF,2008-03-06T00:00:00.000Z,CHURCHES,31392703,-86.793737,36.2081956,CHRISTIAN,AME,NOT AVAILABLE,NOT AVAILABLE,Y,N
29129,10455523,GALILEE MISSIONARY BAPTIST CHURCH,NASHVILLE,TN,37208,3436,DAVIDSON,47037,2008-03-07T00:00:00.000Z,ALT REF,2008-03-07T00:00:00.000Z,CHURCHES,31394894,-86.8073021,36.1624733,CHRISTIAN,NBC,NOT AVAILABLE,NOT AVAILABLE,Y,N
29132,10455409,FIFTEENTH AVENUE BAPTIST CHURCH,NASHVILLE,TN,37208,2525,DAVIDSON,47037,2008-03-06T00:00:00.000Z,ALT REF,2008-03-06T00:00:00.000Z,CHURCHES,31394148,-86.793224,36.1736111,CHRISTIAN,NBC,NOT AVAILABLE,NOT AVAILABLE,Y,N
29133,10461276,WEST END COMMUNITY CHURCH,NASHVILLE,TN,37209,3253,DAVIDSON,47037,2008-03-07T00:00:00.000Z,ALT REF,2008-03-07T00:00:00.000Z,CHURCHES,115722601,-86.8595684,36.1416768,CHRISTIAN,PCA,NOT AVAILABLE,NOT AVAILABLE,Y,N
29134,10459786,TRINITY AFRICAN METHODIST EPISCOPAL CHURCH,NASHVILLE,TN,37210,4104,DAVIDSON,47037,2008-03-06T00:00:00.000Z,ALT REF,2008-03-18T00:00:00.000Z,CHURCHES,31396818,-86.7638168,36.1429119,CHRISTIAN,AME,NOT AVAILABLE,NOT AVAILABLE,Y,N
29135,10459716,PAYNE CHAPEL AFRICAN METHODIST EPISCOPAL CHURCH,NASHVILLE,TN,37206,4012,DAVIDSON,47037,2008-03-06T00:00:00.000Z,ALT REF,2008-03-06T00:00:00.000Z,CHURCHES,31393961,-86.7594031,36.178526,CHRISTIAN,AME,NOT AVAILABLE,NOT AVAILABLE,Y,N
29136,10459728,SALEM AFRICAN METHODIST EPISCOPAL CHURCH,NASHVILLE,TN,37208,1620,DAVIDSON,47037,2008-03-06T00:00:00.000Z,ALT REF,2008-03-06T00:00:00.000Z,CHURCHES,31393503,-86.7922771,36.1848931,CHRISTIAN,AME,NOT AVAILABLE,NOT AVAILABLE,Y,N
29137,10453119,KAYNE AVENUE BAPTIST CHURCH,NASHVILLE,TN,37203,4707,DAVIDSON,47037,2008-03-07T00:00:00.000Z,ALT REF,2008-03-18T00:00:00.000Z,CHURCHES,31396649,-86.7870074,36.1448314,CHRISTIAN,NBC,NOT AVAILABLE,NOT AVAILABLE,Y,N
29138,10452444,ROGER HEIGHTS BAPTIST CHURCH,NASHVILLE,TN,37207,4832,DAVIDSON,47037,2008-03-06T00:00:00.000Z,ALT REF,2008-03-06T00:00:00.000Z,CHURCHES,31392703,-86.7923334,36.2072686,CHRISTIAN,NBC,NOT AVAILABLE,NOT AVAILABLE,Y,N
29139,10459833,CITY CHURCH NASHVILLE,NASHVILLE,TN,37206,2408,DAVIDSON,47037,2008-03-07T00:00:00.000Z,ALT REF,2008-03-07T00:00:00.000Z,CHURCHES,31419575,-86.7355311,36.183527,CHRISTIAN,PCA,NOT AVAILABLE,NOT AVAILABLE,Y,N
29153,10454967,SPRUCE STREET BAPTIST CHURCH,NASHVILLE,TN,37203,1936,DAVIDSON,47037,2008-03-07T00:00:00.000Z,ALT REF,2008-03-20T00:00:00.000Z,CHURCHES,31395365,-86.8039181,36.1578946,CHRISTIAN,NBC,NOT AVAILABLE,NOT AVAILABLE,Y,N
29166,10434945,GRANDVIEW BAPTIST CHURCH,NASHVILLE,TN,37211,2216,DAVIDSON,47037,2007-09-20T00:00:00.000Z,ALT REF,2007-09-20T00:00:00.000Z,CHURCHES,31400661,-86.7475705,36.1147526,CHRISTIAN,SBC,919,NOT AVAILABLE,Y,N
29170,10438279,BRENTWOOD HILLS CHURCH OF CHRIST,NASHVILLE,TN,37220,1814,DAVIDSON,47037,2007-10-10T00:00:00.000Z,ALT REF,2007-10-10T00:00:00.000Z,CHURCHES,31409098,-86.7739279,36.0627445,CHRISTIAN,COC,1800,NOT AVAILABLE,Y,N
29175,10432637,TWO RIVERS BAPTIST CHURCH,NASHVILLE,TN,37214,1402,DAVIDSON,47037,2007-09-10T00:00:00.000Z,ALT REF,2007-09-10T00:00:00.000Z,CHURCHES,31411175,-86.6889468,36.2152753,CHRISTIAN,SBC,NOT AVAILABLE,NOT AVAILABLE,Y,N
29187,10446548,CATHEDRAL OF THE INCARNATION,NASHVILLE,TN,37203,2304,DAVIDSON,47037,2007-09-05T00:00:00.000Z,ALT REF,2007-09-05T00:00:00.000Z,CHURCHES,31396056,-86.799459,36.1509732,CHRISTIAN,NOT AVAILABLE,NOT AVAILABLE,NOT AVAILABLE,N,Y
29197,10436711,TUSCULUM HILLS BAPTIST CHURCH,NASHVILLE,TN,37211,5412,DAVIDSON,47037,2007-09-20T00:00:00.000Z,ALT REF,2007-09-20T00:00:00.000Z,CHURCHES,31402436,-86.71622,36.0614558,CHRISTIAN,SBC,3532,NOT AVAILABLE,Y,N
29205,10434437,RADNOR BAPTIST CHURCH,NASHVILLE,TN,37211,2931,DAVIDSON,47037,2007-09-20T00:00:00.000Z,ALT REF,2007-09-20T00:00:00.000Z,CHURCHES,31401019,-86.7407812,36.1030034,CHRISTIAN,SBC,3001,NOT AVAILABLE,Y,N
29255,10430075,WEST END SYNAGOGUE,NASHVILLE,TN,37205,2407,DAVIDSON,47037,2007-07-27T00:00:00.000Z,PHONE,2007-07-27T00:00:00.000Z,SYNAGOGUES,31397508,-86.8317829,36.1325651,JUDAIC,NOT AVAILABLE,NOT AVAILABLE,NOT AVAILABLE,N,N
29257,10428255,GORDON JEWISH COMMUNITY CENTER OF NASHVILLE,NASHVILLE,TN,37205,4128,DAVIDSON,47037,2007-08-08T00:00:00.000Z,ALT REF,2007-08-08T00:00:00.000Z,SYNAGOGUES,31399128,-86.8907653,36.0840186,JUDAIC,NOT AVAILABLE,NOT AVAILABLE,NOT AVAILABLE,N,N
29260,10426243,THE TEMPLE CONGREGATION OHABAI SHOLOM,NASHVILLE,TN,37205,2801,DAVIDSON,47037,2007-07-23T00:00:00.000Z,PHONE,2007-07-23T00:00:00.000Z,SYNAGOGUES,31417966,-86.8644203,36.1079209,JUDAIC,NOT AVAILABLE,NOT AVAILABLE,SYNAGOGUE,N,N
29262,10427164,CONGREGATION SHERITH ISRAEL,NASHVILLE,TN,37205,2403,DAVIDSON,47037,2007-08-03T00:00:00.000Z,PHONE,2007-07-23T00:00:00.000Z,SYNAGOGUES,31397371,-86.8256745,36.1348407,JUDAIC,NOT AVAILABLE,NOT AVAILABLE,SYNAGOGUE,N,N
29267,10430320,MUSLIM COMMUNITY CENTER,NASHVILLE,TN,37208,3427,DAVIDSON,47037,2007-10-08T00:00:00.000Z,ALT REF,2007-10-08T00:00:00.000Z,"MOSQUES, RELIGIOUS",31395003,-86.8129022,36.1616727,MUSLIM,NOT AVAILABLE,NOT AVAILABLE,NOT AVAILABLE,N,N
29268,10431250,ISLAMIC CENTER OF NASHVILLE,NASHVILLE,TN,37204,2543,DAVIDSON,47037,2007-10-08T00:00:00.000Z,ALT REF,2007-10-08T00:00:00.000Z,"MOSQUES, RELIGIOUS",31405968,-86.7900116,36.1244014,MUSLIM,NOT AVAILABLE,NOT AVAILABLE,NOT AVAILABLE,N,N
29359,10446555,HOLY NAME CATHOLIC CHURCH,NASHVILLE,TN,37206,3602,DAVIDSON,47037,2009-07-30T00:00:00.000Z,ALT REF,2009-07-30T00:00:00.000Z,CHURCHES,31394196,-86.7642411,36.1729128,CHRISTIAN,NOT AVAILABLE,NOT AVAILABLE,NOT AVAILABLE,N,Y
29442,10431248,SALAHADIN CENTER OF NASHVILLE,NASHVILLE,TN,37211,3748,DAVIDSON,47037,2009-07-02T00:00:00.000Z,ALT REF,2009-07-02T00:00:00.000Z,"MOSQUES, RELIGIOUS",31401402,-86.7286948,36.0871498,MUSLIM,NOT AVAILABLE,NOT AVAILABLE,NOT AVAILABLE,N,N
29443,10685288,VIPASSANA MEDITATION GROUP,NASHVILLE,TN,37203,4144,DAVIDSON,47037,2009-06-30T00:00:00.000Z,ALT REF,2009-06-30T00:00:00.000Z,PLACES OF WORSHIP,31395599,-86.7825661,36.1552054,BUDDHIST,NOT AVAILABLE,NOT AVAILABLE,NOT AVAILABLE,N,N
29444,10436198,WOODMONT BAPTIST CHURCH,NASHVILLE,TN,37215,1415,DAVIDSON,47037,2009-07-02T00:00:00.000Z,ALT REF,2009-07-02T00:00:00.000Z,CHURCHES,31406582,-86.8116255,36.1148421,CHRISTIAN,SBC,1269,NOT AVAILABLE,Y,N
29445,10440380,NASHVILLE KOREAN EPISCOPAL CHURCH OF THE HOLY SPIRIT,NASHVILLE,TN,37211,6415,DAVIDSON,47037,2009-07-06T00:00:00.000Z,ALT REF,2009-07-06T00:00:00.000Z,CHURCHES,743357177,-86.7156384,36.0515898,CHRISTIAN,EPIS,NOT AVAILABLE,NOT AVAILABLE,Y,N
29446,10441410,SAINT GEORGES EPISCOPAL CHURCH,NASHVILLE,TN,37205,2809,DAVIDSON,47037,2009-07-06T00:00:00.000Z,ALT REF,2009-07-06T00:00:00.000Z,CHURCHES,31406216,-86.8531871,36.1197143,CHRISTIAN,EPIS,NOT AVAILABLE,NOT AVAILABLE,Y,N
29447,10432636,CHRIST CHURCH,NASHVILLE,TN,37211,6210,DAVIDSON,47037,2009-06-29T00:00:00.000Z,ALT REF,2009-06-29T00:00:00.000Z,CHURCHES,31403138,-86.727948,36.0416966,CHRISTIAN,NONDENOM,NOT AVAILABLE,NOT AVAILABLE,Y,N
29448,10436595,GRACE BAPTIST CHURCH - NASHVILLE,NASHVILLE,TN,37207,1020,DAVIDSON,47037,2009-06-30T00:00:00.000Z,ALT REF,2009-06-30T00:00:00.000Z,CHURCHES,31403633,-86.7826069,36.2804287,CHRISTIAN,SBC,2172,NOT AVAILABLE,Y,N
29449,10435075,SHELBY AVENUE BAPTIST CHURCH,NASHVILLE,TN,37206,3044,DAVIDSON,47037,2009-07-02T00:00:00.000Z,ALT REF,2009-07-02T00:00:00.000Z,CHURCHES,31394308,-86.7510765,36.1709052,CHRISTIAN,SBC,1019,NOT AVAILABLE,Y,N
29450,10434213,PRIEST LAKE COMMUNITY BAPTIST CHURCH,NASHVILLE,TN,37217,4002,DAVIDSON,47037,2009-07-02T00:00:00.000Z,ALT REF,2009-07-02T00:00:00.000Z,CHURCHES,98873804,-86.6304491,36.07514,CHRISTIAN,SBC,1265,NOT AVAILABLE,Y,N
29451,10442531,CHURCH OF THE ASSUMPTION OF THE BLESSED VIRGIN MARY CHURCH,NASHVILLE,TN,37208,2605,DAVIDSON,47037,2009-06-29T00:00:00.000Z,ALT REF,2009-06-29T00:00:00.000Z,CHURCHES,31394114,-86.7916024,36.1754042,CHRISTIAN,NOT AVAILABLE,NOT AVAILABLE,NOT AVAILABLE,N,Y
29452,10443223,SAINT PIUS X CATHOLIC CHURCH,NASHVILLE,TN,37218,2321,DAVIDSON,47037,2009-07-02T00:00:00.000Z,ALT REF,2009-07-02T00:00:00.000Z,CHURCHES,31392654,-86.822582,36.2096153,CHRISTIAN,NOT AVAILABLE,NOT AVAILABLE,NOT AVAILABLE,N,Y
29454,10436439,UNA BAPTIST CHURCH,NASHVILLE,TN,37217,3218,DAVIDSON,47037,2009-07-06T00:00:00.000Z,ALT REF,2009-07-06T00:00:00.000Z,CHURCHES,31401185,-86.6565633,36.0960663,CHRISTIAN,SBC,834,NOT AVAILABLE,Y,N
29456,10432638,CHRIST PRESBYTERIAN CHURCH,NASHVILLE,TN,37215,5311,DAVIDSON,47037,2009-06-29T00:00:00.000Z,ALT REF,2009-06-29T00:00:00.000Z,CHURCHES,31418487,-86.8790408,36.0492301,CHRISTIAN,PCA,NOT AVAILABLE,NOT AVAILABLE,Y,N
29457,10461260,MIDTOWN FELLOWSHIP,NASHVILLE,TN,37203,3907,DAVIDSON,47037,2009-07-02T00:00:00.000Z,ALT REF,2009-07-02T00:00:00.000Z,CHURCHES,31395614,-86.7775143,36.1556493,CHRISTIAN,PCA,NOT AVAILABLE,NOT AVAILABLE,Y,N
29458,10452944,THE TEMPLE CHURCH,NASHVILLE,TN,37218,1519,DAVIDSON,47037,2009-07-06T00:00:00.000Z,ALT REF,2009-07-06T00:00:00.000Z,CHURCHES,31392354,-86.8420582,36.2192959,CHRISTIAN,NBC,NOT AVAILABLE,NOT AVAILABLE,Y,N
29459,10459696,KAIROS COMMUNITY AFRICAN METHODIST EPISCOPAL CHURCH,NASHVILLE,TN,37211,5870,DAVIDSON,47037,2009-07-21T00:00:00.000Z,ALT REF,2009-07-21T00:00:00.000Z,CHURCHES,31403048,-86.7446371,36.0431257,CHRISTIAN,AME,NOT AVAILABLE,NOT AVAILABLE,Y,N
29461,10435264,LAKEWOOD BAPTIST CHURCH,NASHVILLE,TN,37214,3527,DAVIDSON,47037,2009-07-01T00:00:00.000Z,ALT REF,2009-07-01T00:00:00.000Z,CHURCHES,31413278,-86.6660869,36.1560769,CHRISTIAN,SBC,1024,NOT AVAILABLE,Y,N
29464,10436741,JUDSON BAPTIST CHURCH,NASHVILLE,TN,37220,1518,DAVIDSON,47037,2009-07-01T00:00:00.000Z,ALT REF,2009-07-01T00:00:00.000Z,CHURCHES,31408699,-86.7718926,36.0769145,CHRISTIAN,SBC,1448,NOT AVAILABLE,Y,N
29465,10440388,SAINT DAVIDS EPISCOPAL CHURCH,NASHVILLE,TN,37205,3005,DAVIDSON,47037,2009-07-06T00:00:00.000Z,ALT REF,2009-07-06T00:00:00.000Z,CHURCHES,31398791,-86.9004885,36.1148558,CHRISTIAN,EPIS,NOT AVAILABLE,NOT AVAILABLE,Y,N
29466,10459754,SAINT JOHN AFRICAN METHODIST EPISCOPAL CHURCH,NASHVILLE,TN,37208,2431,DAVIDSON,47037,2009-07-06T00:00:00.000Z,ALT REF,2009-07-06T00:00:00.000Z,CHURCHES,31394109,-86.810304,36.1743368,CHRISTIAN,AME,NOT AVAILABLE,NOT AVAILABLE,Y,N
29467,10437162,FOREST HILLS BAPTIST CHURCH,NASHVILLE,TN,37215,5307,DAVIDSON,47037,2009-06-30T00:00:00.000Z,ALT REF,2009-06-30T00:00:00.000Z,CHURCHES,31409318,-86.8643264,36.0468257,CHRISTIAN,SBC,1711,NOT AVAILABLE,Y,N
29469,10441411,SAINT ANDREWS CHURCH,NASHVILLE,TN,37215,1800,DAVIDSON,47037,2009-07-02T00:00:00.000Z,ALT REF,2009-07-02T00:00:00.000Z,CHURCHES,31406478,-86.8313529,36.1168776,CHRISTIAN,EPIS,NOT AVAILABLE,NOT AVAILABLE,Y,N
29471,10446554,SAINT MARY CATHOLIC CHURCH,NASHVILLE,TN,37219,1604,DAVIDSON,47037,2009-07-02T00:00:00.000Z,ALT REF,2009-07-02T00:00:00.000Z,CHURCHES,31394684,-86.7815255,36.1658125,CHRISTIAN,NOT AVAILABLE,NOT AVAILABLE,NOT AVAILABLE,N,Y
29473,10434675,FIRST BAPTIST CHURCH DONELSON,NASHVILLE,TN,37214,2415,DAVIDSON,47037,2009-06-30T00:00:00.000Z,ALT REF,2009-06-30T00:00:00.000Z,CHURCHES,31412776,-86.677202,36.1704463,CHRISTIAN,SBC,2267,NOT AVAILABLE,Y,N
29474,10459697,LEE CHAPEL AFRICAN METHODIST EPISCOPAL CHURCH,NASHVILLE,TN,37208,2938,DAVIDSON,47037,2009-07-01T00:00:00.000Z,ALT REF,2009-07-01T00:00:00.000Z,CHURCHES,31400270,-86.8069378,36.1706952,CHRISTIAN,AME,NOT AVAILABLE,NOT AVAILABLE,Y,N
29475,10442987,SAINT HENRY CATHOLIC CHURCH,NASHVILLE,TN,37205,4011,DAVIDSON,47037,2009-07-02T00:00:00.000Z,ALT REF,2009-07-29T00:00:00.000Z,CHURCHES,31399008,-86.8868269,36.0905476,CHRISTIAN,NOT AVAILABLE,NOT AVAILABLE,NOT AVAILABLE,N,Y
29476,10436485,CRIEVEWOOD BAPTIST CHURCH,NASHVILLE,TN,37220,2014,DAVIDSON,47037,2009-06-30T00:00:00.000Z,ALT REF,2009-06-30T00:00:00.000Z,CHURCHES,31409025,-86.7544164,36.0658523,CHRISTIAN,SBC,1505,NOT AVAILABLE,Y,N
29477,10461235,COVENANT PRESBYTERIAN CHURCH,NASHVILLE,TN,37215,6103,DAVIDSON,47037,2009-06-30T00:00:00.000Z,ALT REF,2009-06-30T00:00:00.000Z,CHURCHES,31407728,-86.8254958,36.093675,CHRISTIAN,PCA,NOT AVAILABLE,NOT AVAILABLE,Y,N
29479,10459685,BETHEL AFRICAN METHODIST EPISCOPAL CHURCH,NASHVILLE,TN,37212,2427,DAVIDSON,47037,2009-06-30T00:00:00.000Z,ALT REF,2009-06-30T00:00:00.000Z,CHURCHES,31396363,-86.786495,36.1478836,CHRISTIAN,AME,NOT AVAILABLE,NOT AVAILABLE,Y,N
29480,10441407,CHURCH OF THE ADVENT EPISCOPAL,NASHVILLE,TN,37220,2115,DAVIDSON,47037,2009-06-29T00:00:00.000Z,ALT REF,2009-06-29T00:00:00.000Z,CHURCHES,31409526,-86.7823004,36.0449164,CHRISTIAN,EPIS,NOT AVAILABLE,NOT AVAILABLE,Y,N
29486,10434008,LOCKELAND BAPTIST CHURCH,NASHVILLE,TN,37206,1918,DAVIDSON,47037,2009-07-01T00:00:00.000Z,ALT REF,2009-07-01T00:00:00.000Z,CHURCHES,31412558,-86.741755,36.1758094,CHRISTIAN,SBC,1205,NOT AVAILABLE,Y,N
29487,10446550,THE CHURCH OF CHRIST THE KING,NASHVILLE,TN,37212,6001,DAVIDSON,47037,2009-06-29T00:00:00.000Z,ALT REF,2009-06-29T00:00:00.000Z,CHURCHES,31406377,-86.7970078,36.1188327,CHRISTIAN,NOT AVAILABLE,NOT AVAILABLE,NOT AVAILABLE,N,Y
29488,10434027,DICKERSON ROAD BAPTIST CHURCH,NASHVILLE,TN,37207,1707,DAVIDSON,47037,2009-06-30T00:00:00.000Z,ALT REF,2009-06-30T00:00:00.000Z,CHURCHES,31403796,-86.7573841,36.2568107,CHRISTIAN,SBC,885,NOT AVAILABLE,Y,N
29489,10441409,SAINT PHILIPS EPISCOPAL CHURCH,NASHVILLE,TN,37214,2148,DAVIDSON,47037,2009-07-06T00:00:00.000Z,ALT REF,2009-07-06T00:00:00.000Z,CHURCHES,31412612,-86.6812346,36.1741915,CHRISTIAN,EPIS,NOT AVAILABLE,NOT AVAILABLE,Y,N
29490,10452465,WESTWOOD BAPTIST CHURCH - UNIVERSITY CENTER,NASHVILLE,TN,37208,3210,DAVIDSON,47037,2009-07-06T00:00:00.000Z,ALT REF,2009-07-06T00:00:00.000Z,CHURCHES,31394668,-86.8155294,36.1655498,CHRISTIAN,NBC,NOT AVAILABLE,NOT AVAILABLE,Y,N
29491,10436436,FIRST BAPTIST NASHVILLE,NASHVILLE,TN,37203,3910,DAVIDSON,47037,2009-07-02T00:00:00.000Z,ALT REF,2009-07-02T00:00:00.000Z,CHURCHES,31395285,-86.7804373,36.1592142,CHRISTIAN,SBC,2182,NOT AVAILABLE,Y,N
29492,10436860,DALEWOOD BAPTIST CHURCH,NASHVILLE,TN,37216,3440,DAVIDSON,47037,2009-06-30T00:00:00.000Z,ALT REF,2009-06-30T00:00:00.000Z,CHURCHES,31411290,-86.714424,36.2086066,CHRISTIAN,SBC,1200,NOT AVAILABLE,Y,N
29493,10581257,NORTHWOOD BAPTIST CHURCH,NASHVILLE,TN,37207,1421,DAVIDSON,47037,2009-07-02T00:00:00.000Z,ALT REF,2009-07-02T00:00:00.000Z,CHURCHES,124157777,-86.7666329,36.2747804,CHRISTIAN,BAPT,NOT AVAILABLE,NOT AVAILABLE,Y,N
29494,10456414,SAINT PHILLIPS AFRICAN METHODIST EPISCOPAL CHURCH,NASHVILLE,TN,37209,2605,DAVIDSON,47037,2009-07-06T00:00:00.000Z,ALT REF,2009-07-06T00:00:00.000Z,CHURCHES,31395099,-86.8251891,36.1607861,CHRISTIAN,AME,NOT AVAILABLE,NOT AVAILABLE,Y,N
29495,10446556,SAINT PATRICK CATHOLIC CHURCH,NASHVILLE,TN,37210,4109,DAVIDSON,47037,2009-07-02T00:00:00.000Z,ALT REF,2009-07-02T00:00:00.000Z,CHURCHES,31396832,-86.764238,36.1444544,CHRISTIAN,NOT AVAILABLE,NOT AVAILABLE,NOT AVAILABLE,N,Y
29496,10446549,SAINT ANN CATHOLIC COMMUNITY,NASHVILLE,TN,37209,3319,DAVIDSON,47037,2009-07-02T00:00:00.000Z,ALT REF,2009-07-02T00:00:00.000Z,CHURCHES,31395859,-86.8491652,36.151566,CHRISTIAN,NOT AVAILABLE,NOT AVAILABLE,NOT AVAILABLE,N,Y
29497,10434850,INGLEWOOD BAPTIST CHURCH,NASHVILLE,TN,37216,2405,DAVIDSON,47037,2009-07-01T00:00:00.000Z,ALT REF,2009-07-01T00:00:00.000Z,CHURCHES,31411099,-86.7296251,36.2165302,CHRISTIAN,SBC,1657,NOT AVAILABLE,Y,N
29498,10446557,SAINT VINCENT DE PAUL CHURCH,NASHVILLE,TN,37208,2406,DAVIDSON,47037,2009-07-02T00:00:00.000Z,ALT REF,2009-07-02T00:00:00.000Z,CHURCHES,31394271,-86.8051288,36.172267,CHRISTIAN,NOT AVAILABLE,NOT AVAILABLE,NOT AVAILABLE,N,Y
29499,10684859,PADMASAMBHAVA BUDDHIST CENTER OF TENNESSEE - DHARMA CENTER,NASHVILLE,TN,37204,3107,DAVIDSON,47037,2009-07-06T00:00:00.000Z,ALT REF,2009-07-06T00:00:00.000Z,PLACES OF WORSHIP,31406671,-86.7628874,36.1138567,BUDDHIST,"TIBETAN, NYINGMA",NOT AVAILABLE,NOT AVAILABLE,N,N
29500,10581254,WHITWORTH MEMORIAL BAPTIST CHURCH,NASHVILLE,TN,37214,4202,DAVIDSON,47037,2009-07-02T00:00:00.000Z,ALT REF,2009-07-02T00:00:00.000Z,CHURCHES,31405714,-86.6480277,36.1431094,CHRISTIAN,BAPT,NOT AVAILABLE,NOT AVAILABLE,Y,N
29501,10452464,SECOND MISSIONARY BAPTIST CHURCH,NASHVILLE,TN,37204,2528,DAVIDSON,47037,2009-07-02T00:00:00.000Z,ALT REF,2009-07-02T00:00:00.000Z,CHURCHES,31406077,-86.7867568,36.1226431,CHRISTIAN,NBC,NOT AVAILABLE,NOT AVAILABLE,Y,N
29502,10459774,SAINT PAUL AFRICAN METHODIST EPISCOPAL CHURCH,NASHVILLE,TN,37218,2208,DAVIDSON,47037,2009-07-06T00:00:00.000Z,ALT REF,2009-07-06T00:00:00.000Z,CHURCHES,115715684,-86.8333406,36.2093695,CHRISTIAN,AME,NOT AVAILABLE,NOT AVAILABLE,Y,N
29503,10581259,LITTLE ZION PRIMITIVE BAPTIST CHURCH,NASHVILLE,TN,37208,3335,DAVIDSON,47037,2009-06-30T00:00:00.000Z,ALT REF,2009-06-30T00:00:00.000Z,CHURCHES,31394708,-86.806167,36.1648482,CHRISTIAN,BAPT,NOT AVAILABLE,NOT AVAILABLE,Y,N
29504,10762666,WEST END UNITED METHODIST CHURCH,NASHVILLE,TN,37203,5204,DAVIDSON,47037,2009-07-06T00:00:00.000Z,ALT REF,2009-07-06T00:00:00.000Z,CHURCHES,31396225,-86.8042467,36.1495042,CHRISTIAN,UMC,NOT AVAILABLE,NOT AVAILABLE,Y,N
29505,10441413,CHRIST CHURCH CATHEDRAL,NASHVILLE,TN,37203,3807,DAVIDSON,47037,2009-06-29T00:00:00.000Z,ALT REF,2009-06-29T00:00:00.000Z,CHURCHES,31395280,-86.7831551,36.1587644,CHRISTIAN,EPIS,NOT AVAILABLE,NOT AVAILABLE,Y,N
29506,10441408,HOLY TRINITY EPISCOPAL CHURCH,NASHVILLE,TN,37203,4613,DAVIDSON,47037,2009-07-01T00:00:00.000Z,ALT REF,2009-07-01T00:00:00.000Z,CHURCHES,31395998,-86.7755553,36.1528436,CHRISTIAN,EPIS,NOT AVAILABLE,NOT AVAILABLE,Y,N
29507,10431247,MASJID AL-FAROOQ,NASHVILLE,TN,37206,2702,DAVIDSON,47037,2009-07-06T00:00:00.000Z,ALT REF,2009-07-06T00:00:00.000Z,"MOSQUES, RELIGIOUS",31412443,-86.7494992,36.1787499,MUSLIM,NOT AVAILABLE,NOT AVAILABLE,NOT AVAILABLE,N,N
29508,10685453,CIRCLE OF FRIENDS INTERSPIRITUAL MINDFULNESS MEDITATION AND STUDY GROUP,NASHVILLE,TN,37204,3605,DAVIDSON,47037,2009-07-06T00:00:00.000Z,ALT REF,2009-07-06T00:00:00.000Z,PLACES OF WORSHIP,31406700,-86.7679124,36.1128254,BUDDHIST,"NON-SECTARIAN, THICH NHAT HANH",NOT AVAILABLE,NOT AVAILABLE,N,N
29509,10454275,FRIENDSHIP MISSIONARY BAPTIST CHURCH,NASHVILLE,TN,37209,2645,DAVIDSON,47037,2009-06-30T00:00:00.000Z,ALT REF,2009-06-30T00:00:00.000Z,CHURCHES,31394678,-86.8256548,36.1655244,CHRISTIAN,NBC,NOT AVAILABLE,NOT AVAILABLE,Y,N
29510,10576824,FAITH CHURCH,NASHVILLE,TN,37211,6214,DAVIDSON,47037,2009-06-30T00:00:00.000Z,ALT REF,2009-06-30T00:00:00.000Z,CHURCHES,31403117,-86.7383272,36.0402767,CHRISTIAN,CRC,NOT AVAILABLE,NOT AVAILABLE,Y,N
29511,10433332,PARK AVENUE BAPTIST CHURCH,NASHVILLE,TN,37209,3675,DAVIDSON,47037,2009-07-02T00:00:00.000Z,ALT REF,2009-07-02T00:00:00.000Z,CHURCHES,31395950,-86.8390025,36.1519477,CHRISTIAN,SBC,4833,NOT AVAILABLE,Y,N
29512,10440223,SAINT ANSELMS EPISCOPAL CHURCH,NASHVILLE,TN,37208,2916,DAVIDSON,47037,2009-07-06T00:00:00.000Z,ALT REF,2009-07-06T00:00:00.000Z,CHURCHES,31419602,-86.8082423,36.1682619,CHRISTIAN,EPIS,NOT AVAILABLE,NOT AVAILABLE,Y,N
29513,10437157,GLENWOOD BAPTIST CHURCH,NASHVILLE,TN,37211,2616,DAVIDSON,47037,2009-06-30T00:00:00.000Z,ALT REF,2009-06-30T00:00:00.000Z,CHURCHES,31414097,-86.7125624,36.1251034,CHRISTIAN,SBC,777,NOT AVAILABLE,Y,N
29514,10762303,WESTMINSTER PRESBYTERIAN CHURCH,NASHVILLE,TN,37205,1801,DAVIDSON,47037,2009-07-06T00:00:00.000Z,ALT REF,2009-07-06T00:00:00.000Z,CHURCHES,31397520,-86.8343438,36.1320894,CHRISTIAN,PCUSA,1877,NOT AVAILABLE,Y,N
29516,10761849,EASTSIDE CHURCH OF CHRIST,NASHVILLE,TN,37206,3216,DAVIDSON,47037,2009-07-31T00:00:00.000Z,ALT REF,2009-07-31T00:00:00.000Z,CHURCHES,31411720,-86.7420065,36.1959761,CHRISTIAN,COC,400,NOT AVAILABLE,Y,N
29517,10761853,THE CHURCH OF CHRIST AT WOODSON CHAPEL,NASHVILLE,TN,37211,6219,DAVIDSON,47037,2009-07-02T00:00:00.000Z,ALT REF,2009-07-02T00:00:00.000Z,CHURCHES,124161744,-86.7429398,36.0368891,CHRISTIAN,COC,600,NOT AVAILABLE,Y,N
29518,10581260,CORNERSTONE BAPTIST CHURCH,NASHVILLE,TN,37207,4502,DAVIDSON,47037,2009-06-30T00:00:00.000Z,ALT REF,2009-06-30T00:00:00.000Z,CHURCHES,31392705,-86.7658913,36.2071044,CHRISTIAN,BAPT,NOT AVAILABLE,NOT AVAILABLE,Y,N
29520,10761852,UNA CHURCH OF CHRIST,NASHVILLE,TN,37217,3022,DAVIDSON,47037,2009-07-06T00:00:00.000Z,ALT REF,2009-07-06T00:00:00.000Z,CHURCHES,31401164,-86.6567614,36.0978102,CHRISTIAN,COC,400,NOT AVAILABLE,Y,N
29521,10761850,GRANNY WHITE CHURCH OF CHRIST,NASHVILLE,TN,37204,3901,DAVIDSON,47037,2009-07-23T00:00:00.000Z,ALT REF,2009-07-23T00:00:00.000Z,CHURCHES,31407004,-86.7950867,36.1073778,CHRISTIAN,COC,500,NOT AVAILABLE,Y,N
29522,10459759,SAINT LUKE AFRICAN METHODIST EPISCOPAL CHURCH,NASHVILLE,TN,37209,2431,DAVIDSON,47037,2009-07-06T00:00:00.000Z,ALT REF,2009-07-06T00:00:00.000Z,CHURCHES,124160830,-86.835268,36.1593895,CHRISTIAN,AME,NOT AVAILABLE,NOT AVAILABLE,Y,N
29523,10581258,NOLENSVILLE ROAD BAPTIST CHURCH,NASHVILLE,TN,37211,6054,DAVIDSON,47037,2009-07-02T00:00:00.000Z,ALT REF,2009-07-02T00:00:00.000Z,CHURCHES,31417938,-86.7153618,36.0583523,CHRISTIAN,BAPT,NOT AVAILABLE,NOT AVAILABLE,Y,N
29524,10581256,PORTER HEIGHTS BAPTIST CHURCH,NASHVILLE,TN,37206,1345,DAVIDSON,47037,2009-07-02T00:00:00.000Z,ALT REF,2009-07-02T00:00:00.000Z,CHURCHES,31412044,-86.7182445,36.1887985,CHRISTIAN,BAPT,NOT AVAILABLE,NOT AVAILABLE,Y,N
29525,10683721,THE BUDDHIST TEMPLE,NASHVILLE,TN,37210,4749,DAVIDSON,47037,2009-07-06T00:00:00.000Z,ALT REF,2009-07-06T00:00:00.000Z,"TEMPLES, RELIGIOUS",31414036,-86.7364852,36.1271922,BUDDHIST,THERAVADA,NOT AVAILABLE,NOT AVAILABLE,N,N
29527,10446551,SAINT EDWARD CHURCH,NASHVILLE,TN,37211,2451,DAVIDSON,47037,2009-07-02T00:00:00.000Z,ALT REF,2009-07-02T00:00:00.000Z,CHURCHES,31400789,-86.7397705,36.1109826,CHRISTIAN,NOT AVAILABLE,NOT AVAILABLE,NOT AVAILABLE,N,Y
29528,10589497,NEW VISIONS BAPTIST CHURCH,NASHVILLE,TN,37214,1402,DAVIDSON,47037,2009-07-02T00:00:00.000Z,ALT REF,2009-07-02T00:00:00.000Z,CHURCHES,124160404,-86.6864973,36.2093527,CHRISTIAN,ABC,NOT AVAILABLE,NOT AVAILABLE,Y,N
29530,10581261,BEACON BAPTIST CHURCH,NASHVILLE,TN,37207,1223,DAVIDSON,47037,2009-06-29T00:00:00.000Z,ALT REF,2009-06-29T00:00:00.000Z,CHURCHES,31403681,-86.7614933,36.2752195,CHRISTIAN,BAPT,NOT AVAILABLE,NOT AVAILABLE,Y,N
29531,10441404,SAINT ANNS EPISCOPAL CHURCH,NASHVILLE,TN,37206,4207,DAVIDSON,47037,2009-07-02T00:00:00.000Z,ALT REF,2009-07-02T00:00:00.000Z,CHURCHES,31394293,-86.7655863,36.1720238,CHRISTIAN,EPIS,NOT AVAILABLE,NOT AVAILABLE,Y,N
29532,10436835,HAYWOOD HILLS BAPTIST CHURCH,NASHVILLE,TN,37211,5541,DAVIDSON,47037,2009-06-30T00:00:00.000Z,ALT REF,2009-06-30T00:00:00.000Z,CHURCHES,31402176,-86.7017294,36.0698134,CHRISTIAN,SBC,1024,NOT AVAILABLE,Y,N
29533,10454789,JACKSON STREET BAPTIST CHURCH,NASHVILLE,TN,37208,3008,DAVIDSON,47037,2009-07-01T00:00:00.000Z,ALT REF,2009-07-01T00:00:00.000Z,CHURCHES,31394447,-86.7982302,36.1684588,CHRISTIAN,NBC,NOT AVAILABLE,NOT AVAILABLE,Y,N
29534,10684635,LAO BUDDHAPATHIP TEMPLE,NASHVILLE,TN,37210,5415,DAVIDSON,47037,2009-07-01T00:00:00.000Z,ALT REF,2009-07-01T00:00:00.000Z,"TEMPLES, RELIGIOUS",31400705,-86.7218449,36.1145399,BUDDHIST,THERAVADA,NOT AVAILABLE,NOT AVAILABLE,N,N
29535,10685521,NASHVILLE ZEN CENTER,NASHVILLE,TN,37204,2416,DAVIDSON,47037,2009-07-02T00:00:00.000Z,ALT REF,2009-07-02T00:00:00.000Z,PLACES OF WORSHIP,31397864,-86.7893103,36.1275152,BUDDHIST,"MAHAYANA, ZEN",NOT AVAILABLE,NOT AVAILABLE,N,N
29536,10589493,FIRST BAPTIST CHURCH - CAPITOL HILL,NASHVILLE,TN,37203,NULL,DAVIDSON,47037,2009-06-30T00:00:00.000Z,ALT REF,2009-06-30T00:00:00.000Z,CHURCHES,31404043,-86.7877499,36.1654223,CHRISTIAN,ABC,NOT AVAILABLE,NOT AVAILABLE,Y,N
29537,10581255,WHITLEY MEMORIAL BAPTIST CHURCH,NASHVILLE,TN,37210,5053,DAVIDSON,47037,2009-07-06T00:00:00.000Z,ALT REF,2009-07-06T00:00:00.000Z,CHURCHES,31400498,-86.73887,36.1201313,CHRISTIAN,BAPT,NOT AVAILABLE,NOT AVAILABLE,Y,N