OBJECTID,ID,NAME,CITY,STATE,ZIP,ZIPP4,COUNTY,FIPS,CONTDATE,CONTHOW,GEODATE,NAICSDESCR,GEOLINKID,X,Y,SUBTYPE,DENOM,MEMBERS,LOC_TYPE,PROT,CATH
9320,10575737,LIGHTHOUSE CHURCH OF JESUS CHRIST,OKLAHOMA CITY,OK,73111,2606,OKLAHOMA,40109,2009-07-29T00:00:00.000Z,ALT REF,2009-07-29T00:00:00.000Z,CHURCHES,30461170,-97.4941592,35.4942145,CHRISTIAN,NOT AVAILABLE,NOT AVAILABLE,NOT AVAILABLE,Y,N
9321,10446032,LITTLE FLOWER CHURCH (OUR LADY OF MOUNT CARAMEL AND SAINT THERESE),OKLAHOMA CITY,OK,73109,1341,OKLAHOMA,40109,2007-10-03T00:00:00.000Z,ALT REF,2007-10-03T00:00:00.000Z,CHURCHES,30435302,-97.5215246,35.4545567,CHRISTIAN,NOT AVAILABLE,NOT AVAILABLE,NOT AVAILABLE,N,Y
9329,10762783,FIRST CHURCH,OKLAHOMA CITY,OK,73102,6211,OKLAHOMA,40109,2009-07-28T00:00:00.000Z,ALT REF,2009-07-28T00:00:00.000Z,CHURCHES,30432600,-97.5159323,35.4722191,CHRISTIAN,UMC,NOT AVAILABLE,NOT AVAILABLE,Y,N
9332,10684725,MINDESSENCE ZEN CENTER,OKLAHOMA CITY,OK,73121,6000,OKLAHOMA,40109,2009-07-31T00:00:00.000Z,ALT REF,2009-08-03T00:00:00.000Z,PLACES OF WORSHIP,NULL,-97.4288527,35.5277385,BUDDHIST,TRUC LAM BAMBOO FOREST ZEN,NOT AVAILABLE,NOT AVAILABLE,N,N
9337,10684029,BUDDHA MIND MONASTERY,OKLAHOMA CITY,OK,73150,4018,OKLAHOMA,40109,2009-07-24T00:00:00.000Z,ALT REF,2009-08-03T00:00:00.000Z,MONASTERIES (EXCEPT SCHOOLS),30442719,-97.3173833,35.4068874,BUDDHIST,"MAHAYANA, CHINESE ZEN, LIN-CHI LINEAGE",NOT AVAILABLE,NOT AVAILABLE,N,N
9338,10437323,SOUTH LINDSAY BAPTIST CHURCH,OKLAHOMA CITY,OK,73129,4952,OKLAHOMA,40109,2009-07-28T00:00:00.000Z,ALT REF,2009-07-28T00:00:00.000Z,CHURCHES,30439109,-97.4987472,35.4313541,CHRISTIAN,SBC,3866,NOT AVAILABLE,Y,N
9339,10677844,HINDU TEMPLE OF OKLAHOMA,OKLAHOMA CITY,OK,73121,NULL,OKLAHOMA,40109,2009-07-28T00:00:00.000Z,ALT REF,2009-08-03T00:00:00.000Z,"TEMPLES, RELIGIOUS",30418940,-97.4405116,35.5445465,HINDU,NOT AVAILABLE,NOT AVAILABLE,NOT AVAILABLE,N,N
9340,10436617,TRINITY INTERNATIONAL BAPTIST CHURCH,OKLAHOMA CITY,OK,73106,3617,OKLAHOMA,40109,2009-07-30T00:00:00.000Z,ALT REF,2009-08-03T00:00:00.000Z,CHURCHES,30427595,-97.5342528,35.4935577,CHRISTIAN,SBC,2970,NOT AVAILABLE,Y,N
9341,10762544,WAT SANGHARATANARAM,OKLAHOMA CITY,OK,73129,9265,OKLAHOMA,40109,2009-07-31T00:00:00.000Z,ALT REF,2009-07-31T00:00:00.000Z,PLACES OF WORSHIP,30442337,-97.4739502,35.4106365,BUDDHIST,NOT AVAILABLE,NOT AVAILABLE,NOT AVAILABLE,N,N
9343,10581862,MACEDONIA INDEPENDENT BAPTIST,OKLAHOMA CITY,OK,73105,7924,OKLAHOMA,40109,2009-08-03T00:00:00.000Z,ALT REF,2009-08-03T00:00:00.000Z,CHURCHES,30426037,-97.496462,35.4997373,CHRISTIAN,BAPT,NOT AVAILABLE,NOT AVAILABLE,Y,N
9344,10436665,OLIVET BAPTIST CHURCH,OKLAHOMA CITY,OK,73106,1200,OKLAHOMA,40109,2009-07-30T00:00:00.000Z,ALT REF,2009-07-30T00:00:00.000Z,CHURCHES,30431389,-97.5325123,35.4794531,CHRISTIAN,SBC,887,NOT AVAILABLE,Y,N
9349,10433211,CROSSINGS COMMUNITY CHURCH,OKLAHOMA CITY,OK,73134,4019,OKLAHOMA,40109,2007-09-12T00:00:00.000Z,ALT REF,2007-09-12T00:00:00.000Z,CHURCHES,30412451,-97.5821801,35.6195198,CHRISTIAN,NONDENOM,NOT AVAILABLE,NOT AVAILABLE,Y,N
9350,10433212,WESTMOORE COMMUNITY CHURCH,OKLAHOMA CITY,OK,73170,6903,CLEVELAND,40027,2007-09-12T00:00:00.000Z,ALT REF,2007-09-12T00:00:00.000Z,CHURCHES,30467364,-97.5308801,35.3438018,CHRISTIAN,EC,NOT AVAILABLE,NOT AVAILABLE,Y,N
9351,10433213,CATHEDRAL OF PRAISE,OKLAHOMA CITY,OK,73132,4147,OKLAHOMA,40109,2007-09-12T00:00:00.000Z,ALT REF,2007-09-12T00:00:00.000Z,CHURCHES,30461126,-97.65203,35.5499683,CHRISTIAN,NOT AVAILABLE,NOT AVAILABLE,NOT AVAILABLE,Y,N
9356,10433392,FIRST BAPTIST CHURCH,OKLAHOMA CITY,OK,73103,4819,OKLAHOMA,40109,2007-09-20T00:00:00.000Z,ALT REF,2007-09-20T00:00:00.000Z,CHURCHES,30431050,-97.5165973,35.4803956,CHRISTIAN,SBC,6127,NOT AVAILABLE,Y,N
9362,10434454,SHIELDS BOULEVARD BAPTIST CHURCH,OKLAHOMA CITY,OK,73129,2852,OKLAHOMA,40109,2007-09-20T00:00:00.000Z,ALT REF,2007-09-20T00:00:00.000Z,CHURCHES,30439939,-97.5075737,35.4279062,CHRISTIAN,SBC,1444,NOT AVAILABLE,Y,N
9367,10434853,EXCHANGE AVENUE BAPTIST CHURCH,OKLAHOMA CITY,OK,73108,2815,OKLAHOMA,40109,2007-09-20T00:00:00.000Z,ALT REF,2007-09-20T00:00:00.000Z,CHURCHES,30435696,-97.5475191,35.4522801,CHRISTIAN,SBC,2957,NOT AVAILABLE,Y,N
9368,10435234,PUTNAM CITY BAPTIST CHURCH,OKLAHOMA CITY,OK,73162,2730,OKLAHOMA,40109,2007-09-20T00:00:00.000Z,ALT REF,2007-09-20T00:00:00.000Z,CHURCHES,30414874,-97.6407426,35.5850495,CHRISTIAN,SBC,5631,NOT AVAILABLE,Y,N
9371,10435630,CROWN HEIGHTS BAPTIST CHURCH,OKLAHOMA CITY,OK,73118,5215,OKLAHOMA,40109,2007-09-20T00:00:00.000Z,ALT REF,2007-09-20T00:00:00.000Z,CHURCHES,30422029,-97.529465,35.5197645,CHRISTIAN,SBC,885,NOT AVAILABLE,Y,N
9372,10581866,BODINE BAPTIST CHURCH,OKLAHOMA CITY,OK,73135,1501,OKLAHOMA,40109,2009-07-24T00:00:00.000Z,ALT REF,2009-07-24T00:00:00.000Z,CHURCHES,30442846,-97.4522551,35.4066513,CHRISTIAN,BAPT,NOT AVAILABLE,NOT AVAILABLE,Y,N
9378,10436858,BROOKWOOD BAPTIST CHURCH,OKLAHOMA CITY,OK,73139,9437,OKLAHOMA,40109,2009-07-24T00:00:00.000Z,ALT REF,2009-07-24T00:00:00.000Z,CHURCHES,30445914,-97.5216951,35.3774887,CHRISTIAN,SBC,1687,NOT AVAILABLE,Y,N
9379,10436923,EAGLE HEIGHTS CHURCH,OKLAHOMA CITY,OK,73170,NULL,CLEVELAND,40027,2007-09-20T00:00:00.000Z,ALT REF,2007-09-27T00:00:00.000Z,CHURCHES,30448045,-97.5843569,35.3456602,CHRISTIAN,SBC,1204,NOT AVAILABLE,Y,N
9381,10437442,QUAIL SPRINGS BAPTIST CHURCH,OKLAHOMA CITY,OK,73134,5006,OKLAHOMA,40109,2007-09-20T00:00:00.000Z,ALT REF,2007-09-20T00:00:00.000Z,CHURCHES,30412703,-97.5687141,35.6191076,CHRISTIAN,SBC,3185,NOT AVAILABLE,Y,N
9383,10437910,CHAPEL HILL UNITED METHODIST CHURCH,OKLAHOMA CITY,OK,73120,6423,OKLAHOMA,40109,2007-09-24T00:00:00.000Z,ALT REF,2007-09-24T00:00:00.000Z,CHURCHES,30415127,-97.5645112,35.5806091,CHRISTIAN,UMC,NOT AVAILABLE,NOT AVAILABLE,Y,N
9385,10437913,SAINT LUKE'S UNITED METHODIST CHURCH,OKLAHOMA CITY,OK,73103,3507,OKLAHOMA,40109,2007-09-24T00:00:00.000Z,ALT REF,2007-09-24T00:00:00.000Z,CHURCHES,30429829,-97.5162514,35.4844303,CHRISTIAN,UMC,NOT AVAILABLE,NOT AVAILABLE,Y,N
9387,10436328,PORTLAND AVENUE BAPTIST CHURCH,OKLAHOMA CITY,OK,73107,1519,OKLAHOMA,40109,2009-07-28T00:00:00.000Z,ALT REF,2009-07-28T00:00:00.000Z,CHURCHES,30430500,-97.5839033,35.4828503,CHRISTIAN,SBC,2188,NOT AVAILABLE,Y,N
9390,10438295,QUAIL SPRINGS CHURCH OF CHRIST,OKLAHOMA CITY,OK,73134,5002,OKLAHOMA,40109,2007-10-10T00:00:00.000Z,ALT REF,2007-10-10T00:00:00.000Z,CHURCHES,30412703,-97.5697979,35.6172754,CHRISTIAN,COC,"1,200",NOT AVAILABLE,Y,N
9391,10438302,OAKCREST CHURCH OF CHRIST,OKLAHOMA CITY,OK,73139,9103,OKLAHOMA,40109,2007-10-10T00:00:00.000Z,ALT REF,2007-10-10T00:00:00.000Z,CHURCHES,30445928,-97.5358574,35.3783063,CHRISTIAN,COC,1000,NOT AVAILABLE,Y,N
9392,10438331,MAYFAIR CHURCH OF CHRIST,OKLAHOMA CITY,OK,73112,8010,OKLAHOMA,40109,2007-10-10T00:00:00.000Z,ALT REF,2007-10-10T00:00:00.000Z,CHURCHES,30421527,-97.553389,35.5218255,CHRISTIAN,COC,750,NOT AVAILABLE,Y,N
9398,10437346,HOWARD MEMORIAL BAPTIST CHURCH,OKLAHOMA CITY,OK,73117,7805,OKLAHOMA,40109,2009-07-30T00:00:00.000Z,ALT REF,2009-07-30T00:00:00.000Z,CHURCHES,30433866,-97.4408651,35.4636462,CHRISTIAN,SBC,930,NOT AVAILABLE,Y,N
9406,10441126,CHURCH OF THE RESURRECTION,OKLAHOMA CITY,OK,73142,2717,OKLAHOMA,40109,2007-11-08T00:00:00.000Z,ALT REF,2007-11-08T00:00:00.000Z,CHURCHES,30413594,-97.6377263,35.6035194,CHRISTIAN,EPIS,NOT AVAILABLE,NOT AVAILABLE,Y,N
9407,10441128,CHURCH OF THE REDEEMER,OKLAHOMA CITY,OK,73111,2402,OKLAHOMA,40109,2007-11-08T00:00:00.000Z,ALT REF,2007-11-08T00:00:00.000Z,CHURCHES,30428535,-97.4762645,35.4900225,CHRISTIAN,EPIS,NOT AVAILABLE,NOT AVAILABLE,Y,N
9408,10441130,SAINT JAMES EPISCOPAL CHURCH,OKLAHOMA CITY,OK,73159,5205,OKLAHOMA,40109,2007-11-07T00:00:00.000Z,ALT REF,2007-11-28T00:00:00.000Z,CHURCHES,30445520,-97.5470715,35.3822599,CHRISTIAN,EPIS,NOT AVAILABLE,NOT AVAILABLE,Y,N
9409,10441132,SAINT JOHN'S EPISCOPAL CHURCH,OKLAHOMA CITY,OK,73112,3514,OKLAHOMA,40109,2007-11-07T00:00:00.000Z,ALT REF,2007-11-07T00:00:00.000Z,CHURCHES,30470685,-97.5688461,35.5246695,CHRISTIAN,EPIS,NOT AVAILABLE,NOT AVAILABLE,Y,N
9410,10685465,DHARMA SEEDS,OKLAHOMA CITY,OK,73106,4213,OKLAHOMA,40109,2009-07-30T00:00:00.000Z,ALT REF,2009-07-30T00:00:00.000Z,PLACES OF WORSHIP,30428992,-97.5360022,35.4882827,BUDDHIST,MAHAYANA,NOT AVAILABLE,NOT AVAILABLE,N,N
9416,10436762,EMMAUS BAPTIST CHURCH,OKLAHOMA CITY,OK,73170,9316,CLEVELAND,40027,2009-07-22T00:00:00.000Z,ALT REF,2009-07-22T00:00:00.000Z,CHURCHES,126827635,-97.5310712,35.3092597,CHRISTIAN,SBC,1095,NOT AVAILABLE,Y,N
9419,10442301,KOREAN MARTYRS CATHOLIC CHURCH,OKLAHOMA CITY,OK,73159,3868,OKLAHOMA,40109,2007-10-03T00:00:00.000Z,ALT REF,2007-10-03T00:00:00.000Z,CHURCHES,30463655,-97.5583943,35.3913106,CHRISTIAN,NOT AVAILABLE,NOT AVAILABLE,NOT AVAILABLE,N,Y
9421,10442526,CORPUS CHRISTI ROMAN CATHOLIC CHURCH,OKLAHOMA CITY,OK,73117,1007,OKLAHOMA,40109,2007-10-03T00:00:00.000Z,ALT REF,2007-10-09T00:00:00.000Z,CHURCHES,30429778,-97.4940791,35.4854201,CHRISTIAN,NOT AVAILABLE,NOT AVAILABLE,NOT AVAILABLE,N,Y
9427,10446027,SAINT FRANCIS OF ASSISI CATHOLIC CHURCH,OKLAHOMA CITY,OK,73106,1818,OKLAHOMA,40109,2007-10-03T00:00:00.000Z,ALT REF,2007-10-03T00:00:00.000Z,CHURCHES,30428939,-97.5439519,35.4883772,CHRISTIAN,NOT AVAILABLE,NOT AVAILABLE,NOT AVAILABLE,N,Y
9428,10446030,SAINT JAMES THE GREATER CATHOLIC CHURCH,OKLAHOMA CITY,OK,73109,3120,OKLAHOMA,40109,2007-10-03T00:00:00.000Z,ALT REF,2007-10-03T00:00:00.000Z,CHURCHES,30440793,-97.5372371,35.4228285,CHRISTIAN,NOT AVAILABLE,NOT AVAILABLE,NOT AVAILABLE,N,Y
9429,10446031,SAINT JOSEPH OLD CATHEDRAL,OKLAHOMA CITY,OK,73102,3007,OKLAHOMA,40109,2007-10-03T00:00:00.000Z,ALT REF,2007-10-03T00:00:00.000Z,CHURCHES,30432593,-97.5180143,35.4722577,CHRISTIAN,NOT AVAILABLE,NOT AVAILABLE,NOT AVAILABLE,N,Y
9430,10446033,SAINT PATRICK CATHOLIC CHURCH,OKLAHOMA CITY,OK,73107,1535,OKLAHOMA,40109,2007-10-03T00:00:00.000Z,ALT REF,2007-10-03T00:00:00.000Z,CHURCHES,30428756,-97.5847253,35.489521,CHRISTIAN,NOT AVAILABLE,NOT AVAILABLE,NOT AVAILABLE,N,Y
9441,10448320,CHRIST THE KING CATHOLIC CHURCH,OKLAHOMA CITY,OK,73120,4713,OKLAHOMA,40109,2007-10-03T00:00:00.000Z,ALT REF,2007-10-03T00:00:00.000Z,CHURCHES,30417583,-97.5570784,35.5525217,CHRISTIAN,NOT AVAILABLE,NOT AVAILABLE,NOT AVAILABLE,N,Y
9444,10762545,WAT CHAIRATANARAM,OKLAHOMA CITY,OK,73129,5524,OKLAHOMA,40109,2009-07-31T00:00:00.000Z,ALT REF,2009-07-31T00:00:00.000Z,PLACES OF WORSHIP,30441909,-97.4987643,35.4146007,BUDDHIST,NOT AVAILABLE,NOT AVAILABLE,NOT AVAILABLE,N,N
9449,10454094,GREATER NEW ZION BAPTIST CHURCH,OKLAHOMA CITY,OK,73111,2807,OKLAHOMA,40109,2008-03-05T00:00:00.000Z,ALT REF,2008-03-05T00:00:00.000Z,CHURCHES,30426218,-97.493687,35.4992037,CHRISTIAN,NBC,NOT AVAILABLE,NOT AVAILABLE,Y,N
9451,10455273,GREATER BETHEL CHURCH,OKLAHOMA CITY,OK,73111,3214,OKLAHOMA,40109,2008-03-05T00:00:00.000Z,ALT REF,2008-03-05T00:00:00.000Z,CHURCHES,30427089,-97.4830575,35.4953274,CHRISTIAN,NBC,NOT AVAILABLE,NOT AVAILABLE,Y,N
9452,10454060,TABITHA BAPTIST CHURCH,OKLAHOMA CITY,OK,73117,5205,OKLAHOMA,40109,2008-03-06T00:00:00.000Z,ALT REF,2008-03-06T00:00:00.000Z,CHURCHES,30430751,-97.4662034,35.4816971,CHRISTIAN,NBC,NOT AVAILABLE,NOT AVAILABLE,Y,N
9453,10453623,WILDEWOOD BAPTIST CHURCH,OKLAHOMA CITY,OK,73105,1422,OKLAHOMA,40109,2008-03-06T00:00:00.000Z,ALT REF,2008-03-06T00:00:00.000Z,CHURCHES,30470814,-97.5100335,35.5362873,CHRISTIAN,NBC,NOT AVAILABLE,NOT AVAILABLE,Y,N
9454,10459451,AVERY CHAPEL AFRICAN METHODIST EPISCOPAL CHURCH,OKLAHOMA CITY,OK,73117,3635,OKLAHOMA,40109,2008-03-05T00:00:00.000Z,ALT REF,2008-03-05T00:00:00.000Z,CHURCHES,30430191,-97.48205,35.4835973,CHRISTIAN,AME,NOT AVAILABLE,NOT AVAILABLE,Y,N
9456,10588898,SAINT JOHN MISSIONARY BAPTIST CHURCH,OKLAHOMA CITY,OK,73111,6741,OKLAHOMA,40109,2009-07-30T00:00:00.000Z,ALT REF,2009-07-30T00:00:00.000Z,CHURCHES,30464979,-97.4929886,35.5304655,CHRISTIAN,ABC,NOT AVAILABLE,NOT AVAILABLE,Y,N
9464,10437561,CAPITOL HILL BAPTIST CHURCH,OKLAHOMA CITY,OK,73170,1400,CLEVELAND,40027,2009-07-22T00:00:00.000Z,ALT REF,2009-07-22T00:00:00.000Z,CHURCHES,30467419,-97.5196253,35.3333555,CHRISTIAN,SBC,2010,NOT AVAILABLE,Y,N
9469,10432694,CHURCH OF THE SERVANT,OKLAHOMA CITY,OK,73142,9725,OKLAHOMA,40109,2007-09-24T00:00:00.000Z,ALT REF,2007-09-24T00:00:00.000Z,CHURCHES,126825399,-97.6219726,35.6159024,CHRISTIAN,UMC,NOT AVAILABLE,NOT AVAILABLE,Y,N
9481,10446023,SAINT ANDREW DUNG-LAC CATHOLIC CHURCH,OKLAHOMA CITY,OK,73119,5420,OKLAHOMA,40109,2007-10-04T00:00:00.000Z,ALT REF,2007-10-04T00:00:00.000Z,CHURCHES,30442535,-97.5677053,35.4095099,CHRISTIAN,NOT AVAILABLE,NOT AVAILABLE,NOT AVAILABLE,N,Y
9482,10446028,HOLY ANGELS CHURCH,OKLAHOMA CITY,OK,73106,5213,OKLAHOMA,40109,2007-10-03T00:00:00.000Z,ALT REF,2007-10-03T00:00:00.000Z,CHURCHES,30432993,-97.5392948,35.4704326,CHRISTIAN,NOT AVAILABLE,NOT AVAILABLE,NOT AVAILABLE,N,Y
9496,10454468,GREATER NEW ZION BAPTIST CHURCH,OKLAHOMA CITY,OK,73111,3707,OKLAHOMA,40109,2008-03-14T00:00:00.000Z,ALT REF,2008-03-14T00:00:00.000Z,CHURCHES,30426991,-97.4602661,35.4954001,CHRISTIAN,NBC,NOT AVAILABLE,NOT AVAILABLE,Y,N
9503,10442381,BYZANTINE FELLOWSHIP OF THE MOTHER OF GOD CHURCH,OKLAHOMA CITY,OK,73118,6001,OKLAHOMA,40109,2007-10-09T00:00:00.000Z,ALT REF,2007-10-09T00:00:00.000Z,CHURCHES,30421505,-97.5270758,35.5226259,CHRISTIAN,NOT AVAILABLE,NOT AVAILABLE,NOT AVAILABLE,N,Y
9505,10446026,SAINT EUGENE CATHOLIC CHURCH,OKLAHOMA CITY,OK,73120,7223,OKLAHOMA,40109,2007-10-03T00:00:00.000Z,ALT REF,2007-10-03T00:00:00.000Z,CHURCHES,30415132,-97.5570907,35.57989,CHRISTIAN,NOT AVAILABLE,NOT AVAILABLE,NOT AVAILABLE,N,Y
9507,10446029,IMMACULATE CONCEPTION CHURCH,OKLAHOMA CITY,OK,73119,1202,OKLAHOMA,40109,2007-10-03T00:00:00.000Z,ALT REF,2007-10-03T00:00:00.000Z,CHURCHES,30438467,-97.5881838,35.4355092,CHRISTIAN,NOT AVAILABLE,NOT AVAILABLE,NOT AVAILABLE,N,Y
9513,10433340,CROSS OF CALVARY BAPTIST CHURCH,OKLAHOMA CITY,OK,73119,2015,OKLAHOMA,40109,2007-09-20T00:00:00.000Z,ALT REF,2007-09-20T00:00:00.000Z,CHURCHES,30439107,-97.5551167,35.4319254,CHRISTIAN,SBC,1393,NOT AVAILABLE,Y,N
9520,10441131,SAINT DAVID'S EPISCOPAL CHURCH,OKLAHOMA CITY,OK,73112,3126,OKLAHOMA,40109,2007-11-08T00:00:00.000Z,ALT REF,2007-11-08T00:00:00.000Z,CHURCHES,30425212,-97.6014991,35.5047545,CHRISTIAN,EPIS,NOT AVAILABLE,NOT AVAILABLE,Y,N
9521,10441129,ALL SOULS' EPISCOPAL CHURCH,OKLAHOMA CITY,OK,73116,5626,OKLAHOMA,40109,2007-11-07T00:00:00.000Z,ALT REF,2007-11-07T00:00:00.000Z,CHURCHES,30419060,-97.5471843,35.5380158,CHRISTIAN,EPIS,NOT AVAILABLE,NOT AVAILABLE,Y,N
9523,10440315,SAINT AUGUSTINE OF CANTERBURY,OKLAHOMA CITY,OK,73134,5009,OKLAHOMA,40109,2007-11-08T00:00:00.000Z,ALT REF,2007-11-08T00:00:00.000Z,CHURCHES,30412703,-97.5668119,35.6202771,CHRISTIAN,EPIS,NOT AVAILABLE,NOT AVAILABLE,Y,N
9524,10441133,THE EPISCOPAL CHURCH OF THE HOLY APOSTLES,OKLAHOMA CITY,OK,73170,NULL,CLEVELAND,40027,2007-11-07T00:00:00.000Z,ALT REF,2007-11-07T00:00:00.000Z,CHURCHES,705851993,-97.5391029,35.3292094,CHRISTIAN,EPIS,NOT AVAILABLE,NOT AVAILABLE,Y,N
9541,10581867,BETH HAVEN BAPTIST CHURCH,OKLAHOMA CITY,OK,73170,5918,CLEVELAND,40027,2009-07-07T00:00:00.000Z,ALT REF,2009-07-07T00:00:00.000Z,CHURCHES,30467364,-97.52933,35.3438819,CHRISTIAN,BAPT,NOT AVAILABLE,NOT AVAILABLE,Y,N
9569,10459502,FIRST AFRICAN METHODIST EPISCOPAL CHURCH,OKLAHOMA CITY,OK,73111,3905,OKLAHOMA,40109,2009-07-31T00:00:00.000Z,ALT REF,2009-07-31T00:00:00.000Z,CHURCHES,30425177,-97.4954428,35.5043205,CHRISTIAN,AME,NOT AVAILABLE,NOT AVAILABLE,Y,N
9570,10685314,WAT BUDDHARAM,OKLAHOMA CITY,OK,73111,8415,OKLAHOMA,40109,2009-07-31T00:00:00.000Z,ALT REF,2009-07-31T00:00:00.000Z,PLACES OF WORSHIP,30417979,-97.4937345,35.5487326,BUDDHIST,"THERAVADA, LAOTIAN",NOT AVAILABLE,NOT AVAILABLE,N,N
9583,10429476,EMANUEL SYNAGOGUE,OKLAHOMA CITY,OK,73118,6410,OKLAHOMA,40109,2007-08-08T00:00:00.000Z,ALT REF,2007-08-08T00:00:00.000Z,SYNAGOGUES,30422060,-97.5279685,35.5191199,JUDAIC,NOT AVAILABLE,NOT AVAILABLE,NOT AVAILABLE,N,N
9584,10428372,CHABAD OF OKLAHOMA CITY,OKLAHOMA CITY,OK,73120,1819,OKLAHOMA,40109,2007-07-25T00:00:00.000Z,PHONE,2007-07-25T00:00:00.000Z,SYNAGOGUES,30464073,-97.5699646,35.6057642,JUDAIC,CHABAD,NOT AVAILABLE,CHABAD,N,N
9585,10427933,TEMPLE B'NAI ISRAEL,OKLAHOMA CITY,OK,73112,8859,OKLAHOMA,40109,2007-08-08T00:00:00.000Z,ALT REF,2007-08-08T00:00:00.000Z,SYNAGOGUES,30421958,-97.5479631,35.5201827,JUDAIC,REFORM,344,NOT AVAILABLE,N,N
9589,10430460,ISLAMIC CENTER OF OKLAHOMA CITY,OKLAHOMA CITY,OK,73112,5920,OKLAHOMA,40109,2007-07-17T00:00:00.000Z,PHONE,2007-07-17T00:00:00.000Z,"MOSQUES, RELIGIOUS",30421936,-97.5728151,35.5208136,MUSLIM,NOT AVAILABLE,NOT AVAILABLE,NOT AVAILABLE,N,N
9594,10434306,SOUTHERN HILLS BAPTIST CHURCH,OKLAHOMA CITY,OK,73159,5207,OKLAHOMA,40109,2009-07-30T00:00:00.000Z,ALT REF,2009-07-30T00:00:00.000Z,CHURCHES,30445675,-97.5483446,35.3803296,CHRISTIAN,SBC,4198,NOT AVAILABLE,Y,N
9596,10581861,SHERWOOD BAPTIST CHURCH,OKLAHOMA CITY,OK,73119,3311,OKLAHOMA,40109,2009-07-29T00:00:00.000Z,ALT REF,2009-07-29T00:00:00.000Z,CHURCHES,30440240,-97.5651385,35.4257869,CHRISTIAN,BAPT,NOT AVAILABLE,NOT AVAILABLE,Y,N
9704,10761577,FOREST HILL CHRISTIAN CHURCH,OKLAHOMA CITY,OK,73127,2203,OKLAHOMA,40109,2009-07-28T00:00:00.000Z,ALT REF,2009-07-28T00:00:00.000Z,CHURCHES,30469694,-97.6199102,35.4911674,CHRISTIAN,CHRISTIAN,NOT AVAILABLE,NOT AVAILABLE,Y,N
9789,10761789,SOUTHWEST CHURCH OF CHRIST,OKLAHOMA CITY,OK,73159,7036,CLEVELAND,40027,2009-07-28T00:00:00.000Z,ALT REF,2009-07-28T00:00:00.000Z,CHURCHES,126833447,-97.5688729,35.3642126,CHRISTIAN,COC,450,NOT AVAILABLE,Y,N
9793,10581863,KINGSPARK BIBLE BAPTIST CHURCH,OKLAHOMA CITY,OK,73159,6910,CLEVELAND,40027,2009-08-03T00:00:00.000Z,ALT REF,2009-08-03T00:00:00.000Z,CHURCHES,30470910,-97.5458721,35.3714167,CHRISTIAN,BAPT,NOT AVAILABLE,NOT AVAILABLE,Y,N
9817,10434807,KENTUCKY AVENUE BAPTIST CHURCH,OKLAHOMA CITY,OK,73108,8030,OKLAHOMA,40109,2009-07-29T00:00:00.000Z,ALT REF,2009-08-03T00:00:00.000Z,CHURCHES,30438007,-97.5432761,35.4379499,CHRISTIAN,SBC,806,NOT AVAILABLE,Y,N
9820,10581860,SOUTH YOUNG SOVEREIGN GRACE BAPTIST CHURCH,OKLAHOMA CITY,OK,73119,3551,OKLAHOMA,40109,2009-07-29T00:00:00.000Z,ALT REF,2009-07-29T00:00:00.000Z,CHURCHES,30440717,-97.5520642,35.4230667,CHRISTIAN,BAPT,NOT AVAILABLE,NOT AVAILABLE,Y,N
9822,10434226,RANCHO VILLAGE BAPTIST CHURCH,OKLAHOMA CITY,OK,73119,3802,OKLAHOMA,40109,2009-07-30T00:00:00.000Z,ALT REF,2009-07-30T00:00:00.000Z,CHURCHES,30440125,-97.5420099,35.4266549,CHRISTIAN,SBC,1165,NOT AVAILABLE,Y,N
9823,10432695,SOUTHWEST BAPTIST CHURCH,OKLAHOMA CITY,OK,73119,6210,OKLAHOMA,40109,2009-07-29T00:00:00.000Z,ALT REF,2009-07-29T00:00:00.000Z,CHURCHES,30442356,-97.5395917,35.4105607,CHRISTIAN,BBF,NOT AVAILABLE,NOT AVAILABLE,Y,N
9824,10580210,JORDAN BAPTIST CHURCH,OKLAHOMA CITY,OK,73108,4835,OKLAHOMA,40109,2009-07-29T00:00:00.000Z,ALT REF,2009-07-29T00:00:00.000Z,CHURCHES,30437896,-97.5828899,35.4383734,CHRISTIAN,BAPT,NOT AVAILABLE,NOT AVAILABLE,Y,N
9831,10762433,WESTMINSTER PRESBYTERIAN CHURCH,OKLAHOMA CITY,OK,73118,6442,OKLAHOMA,40109,2009-07-28T00:00:00.000Z,ALT REF,2009-07-28T00:00:00.000Z,CHURCHES,30422781,-97.5246169,35.5159659,CHRISTIAN,PCUSA,2431,NOT AVAILABLE,Y,N
9833,10436755,BETHEL BAPTIST CHURCH,OKLAHOMA CITY,OK,73119,3437,OKLAHOMA,40109,2009-07-27T00:00:00.000Z,ALT REF,2009-07-27T00:00:00.000Z,CHURCHES,30440388,-97.5542408,35.425365,CHRISTIAN,SBC,1102,NOT AVAILABLE,Y,N
9834,10684254,DHARMA CENTER OF OKLAHOMA,OKLAHOMA CITY,OK,73112,3706,OKLAHOMA,40109,2009-07-30T00:00:00.000Z,ALT REF,2009-07-30T00:00:00.000Z,PLACES OF WORSHIP,30423276,-97.563236,35.5129876,BUDDHIST,RISSHO KOSEI-KAI,NOT AVAILABLE,NOT AVAILABLE,N,N
9835,10431477,MASJID MU'MIN,OKLAHOMA CITY,OK,73111,3085,OKLAHOMA,40109,2009-07-28T00:00:00.000Z,ALT REF,2009-08-05T00:00:00.000Z,"MOSQUES, RELIGIOUS",30427563,-97.4882113,35.4929182,MUSLIM,NOT AVAILABLE,NOT AVAILABLE,NOT AVAILABLE,N,N
9836,10435101,SPRINGDALE BAPTIST CHURCH,OKLAHOMA CITY,OK,73112,2259,OKLAHOMA,40109,2009-07-29T00:00:00.000Z,ALT REF,2009-07-29T00:00:00.000Z,CHURCHES,30421575,-97.5883176,35.5219483,CHRISTIAN,SBC,853,NOT AVAILABLE,Y,N
9837,10459445,ALLEN CHAPEL AFRICAN METHODIST EPISCOPAL CHURCH,OKLAHOMA CITY,OK,73117,2017,OKLAHOMA,40109,2009-07-27T00:00:00.000Z,ALT REF,2009-07-27T00:00:00.000Z,CHURCHES,30430219,-97.4875113,35.4828599,CHRISTIAN,AME,NOT AVAILABLE,NOT AVAILABLE,Y,N
9838,10761223,MAYFLOWER CONGREGATIONAL CHURCH,OKLAHOMA CITY,OK,73116,1909,OKLAHOMA,40109,2009-07-28T00:00:00.000Z,ALT REF,2009-07-28T00:00:00.000Z,CHURCHES,30419082,-97.5862201,35.5372573,CHRISTIAN,UCC,688,NOT AVAILABLE,Y,N
9841,10761578,CHEROKEE HILLS CHRISTIAN CHURCH,OKLAHOMA CITY,OK,73132,6507,OKLAHOMA,40109,2009-07-24T00:00:00.000Z,ALT REF,2009-07-24T00:00:00.000Z,CHURCHES,30418805,-97.619553,35.5393983,CHRISTIAN,CHRISTIAN,NOT AVAILABLE,NOT AVAILABLE,Y,N
9842,10581865,DUMAS AVENUE BAPTIST CHURCH,OKLAHOMA CITY,OK,73119,1602,OKLAHOMA,40109,2009-08-03T00:00:00.000Z,ALT REF,2009-08-03T00:00:00.000Z,CHURCHES,30471302,-97.5787869,35.4342925,CHRISTIAN,BAPT,NOT AVAILABLE,NOT AVAILABLE,Y,N
9844,10434703,CLASSEN BOULEVARD BAPTIST CHURCH,OKLAHOMA CITY,OK,73114,2626,OKLAHOMA,40109,2009-07-27T00:00:00.000Z,ALT REF,2009-07-27T00:00:00.000Z,CHURCHES,30416522,-97.5281264,35.5641477,CHRISTIAN,SBC,757,NOT AVAILABLE,Y,N
9845,10434403,VILLAGE BAPTIST CHURCH,OKLAHOMA CITY,OK,73120,2604,OKLAHOMA,40109,2009-07-29T00:00:00.000Z,ALT REF,2009-07-29T00:00:00.000Z,CHURCHES,30415329,-97.5665552,35.5774035,CHRISTIAN,SBC,3243,NOT AVAILABLE,Y,N
9846,10434903,DICKSON BAPTIST CHURCH,OKLAHOMA CITY,OK,73141,1814,OKLAHOMA,40109,2009-07-27T00:00:00.000Z,ALT REF,2009-07-27T00:00:00.000Z,CHURCHES,30428653,-97.3792774,35.4898489,CHRISTIAN,SBC,923,NOT AVAILABLE,Y,N
9847,10685484,GANDEN LING KADAMPA BUDDHIST CENTER,OKLAHOMA CITY,OK,73122,5025,OKLAHOMA,40109,2009-07-29T00:00:00.000Z,ALT REF,2009-08-05T00:00:00.000Z,PLACES OF WORSHIP,30422000,-97.6192741,35.5205658,BUDDHIST,"MAHAYANA, VAJRAYANA, NEW KADAMPA TRADITION (NKT-IKBU)",NOT AVAILABLE,NOT AVAILABLE,N,N
9848,10436757,MAYRIDGE BAPTIST CHURCH,OKLAHOMA CITY,OK,73119,4603,OKLAHOMA,40109,2009-07-29T00:00:00.000Z,ALT REF,2009-07-29T00:00:00.000Z,CHURCHES,30441411,-97.5659313,35.4190599,CHRISTIAN,SBC,1243,NOT AVAILABLE,Y,N
9849,10581859,TRUE VINE INDEPENDENT BAPTIST,OKLAHOMA CITY,OK,73117,4805,OKLAHOMA,40109,2009-07-29T00:00:00.000Z,ALT REF,2009-07-29T00:00:00.000Z,CHURCHES,30429907,-97.4702581,35.4848821,CHRISTIAN,BAPT,NOT AVAILABLE,NOT AVAILABLE,Y,N
9850,10578901,WINDSOR HILLS BAPTIST CHURCH,OKLAHOMA CITY,OK,73127,2324,OKLAHOMA,40109,2009-07-30T00:00:00.000Z,ALT REF,2009-07-30T00:00:00.000Z,CHURCHES,30465085,-97.6144016,35.4936024,CHRISTIAN,BAPT,NOT AVAILABLE,NOT AVAILABLE,Y,N
9851,10446035,SACRED HEART CHURCH,OKLAHOMA CITY,OK,73109,2234,OKLAHOMA,40109,2009-07-30T00:00:00.000Z,ALT REF,2009-07-30T00:00:00.000Z,CHURCHES,30437990,-97.525564,35.4380726,CHRISTIAN,NOT AVAILABLE,NOT AVAILABLE,NOT AVAILABLE,N,Y
9854,10581864,INDEPENDENCE AVENUE BAPTIST CHURCH,OKLAHOMA CITY,OK,73119,3032,OKLAHOMA,40109,2009-08-03T00:00:00.000Z,ALT REF,2009-07-29T00:00:00.000Z,CHURCHES,30440094,-97.5747158,35.4267511,CHRISTIAN,BAPT,NOT AVAILABLE,NOT AVAILABLE,Y,N
9857,10436358,SOUTHWOOD BAPTIST CHURCH,OKLAHOMA CITY,OK,73109,4901,OKLAHOMA,40109,2009-07-31T00:00:00.000Z,ALT REF,2009-07-31T00:00:00.000Z,CHURCHES,30442910,-97.5307213,35.4065759,CHRISTIAN,SBC,949,NOT AVAILABLE,Y,N
9858,10434229,HERITAGE BAPTIST CHURCH,OKLAHOMA CITY,OK,73142,9113,OKLAHOMA,40109,2009-07-29T00:00:00.000Z,ALT REF,2009-07-29T00:00:00.000Z,CHURCHES,112386929,-97.6570505,35.6157893,CHRISTIAN,SBC,1347,NOT AVAILABLE,Y,N
9861,10685004,SANG NGAK LING OKLAHOMA,OKLAHOMA CITY,OK,73162,5820,OKLAHOMA,40109,2009-07-31T00:00:00.000Z,ALT REF,2009-07-31T00:00:00.000Z,PLACES OF WORSHIP,30415065,-97.6153219,35.5809229,BUDDHIST,"VAJRAYANA, TIBETAN, NYINGMA",NOT AVAILABLE,NOT AVAILABLE,N,N
9862,10684946,RED EARTH ZEN CENTER,OKLAHOMA CITY,OK,73112,NULL,OKLAHOMA,40109,2009-07-31T00:00:00.000Z,ALT REF,2009-08-03T00:00:00.000Z,PLACES OF WORSHIP,30423261,-97.5503133,35.5133835,BUDDHIST,KOREAN ZEN,NOT AVAILABLE,NOT AVAILABLE,N,N
9867,10454342,TABERNACLE BAPTIST CHURCH,OKLAHOMA CITY,OK,73111,5232,OKLAHOMA,40109,2009-07-29T00:00:00.000Z,ALT REF,2009-07-29T00:00:00.000Z,CHURCHES,734806002,-97.4785216,35.5081895,CHRISTIAN,NBC,NOT AVAILABLE,NOT AVAILABLE,Y,N
9868,10453881,GREATER MOUNT OLIVE BAPTIST CHURCH,OKLAHOMA CITY,OK,73111,5600,OKLAHOMA,40109,2009-07-27T00:00:00.000Z,ALT REF,2009-08-03T00:00:00.000Z,CHURCHES,30422825,-97.4926748,35.5135993,CHRISTIAN,NBC,NOT AVAILABLE,NOT AVAILABLE,Y,N
9869,10433916,WILMONT PLACE BAPTIST CHURCH,OKLAHOMA CITY,OK,73139,7124,OKLAHOMA,40109,2009-07-29T00:00:00.000Z,ALT REF,2009-07-29T00:00:00.000Z,CHURCHES,30443453,-97.5119738,35.4011843,CHRISTIAN,SBC,2109,NOT AVAILABLE,Y,N
9870,10433214,VICTORY CHRISTIAN CENTER,OKLAHOMA CITY,OK,73122,5005,OKLAHOMA,40109,2009-07-29T00:00:00.000Z,ALT REF,2009-08-05T00:00:00.000Z,CHURCHES,30460344,-97.6174573,35.5163854,CHRISTIAN,NONDENOM,NOT AVAILABLE,NOT AVAILABLE,Y,N
9871,10454081,FAIRVIEW MISSIONARY BAPTIST CHURCH,OKLAHOMA CITY,OK,73117,NULL,OKLAHOMA,40109,2009-07-27T00:00:00.000Z,ALT REF,2009-07-27T00:00:00.000Z,CHURCHES,30459906,-97.4808965,35.4745069,CHRISTIAN,NBC,NOT AVAILABLE,NOT AVAILABLE,Y,N
9872,10448342,OUR LADY OF GUADALUPE CHURCH,OKLAHOMA CITY,OK,73108,2615,OKLAHOMA,40109,2009-07-29T00:00:00.000Z,ALT REF,2009-07-29T00:00:00.000Z,CHURCHES,30435392,-97.5527613,35.454129,CHRISTIAN,NOT AVAILABLE,NOT AVAILABLE,NOT AVAILABLE,N,Y
9874,10433210,CROSSROADS CHURCH,OKLAHOMA CITY,OK,73149,3056,OKLAHOMA,40109,2009-07-24T00:00:00.000Z,ALT REF,2009-07-24T00:00:00.000Z,CHURCHES,30472296,-97.5051903,35.3781284,CHRISTIAN,AG,NOT AVAILABLE,NOT AVAILABLE,Y,N
9875,10434341,NORTHWEST BAPTIST CHURCH - CENTRAL CAMPUS,OKLAHOMA CITY,OK,73107,2006,OKLAHOMA,40109,2009-07-28T00:00:00.000Z,ALT REF,2009-07-28T00:00:00.000Z,CHURCHES,30427677,-97.5692324,35.4921418,CHRISTIAN,SBC,2187,NOT AVAILABLE,Y,N
9876,10434242,THE BAPTIST TEMPLE,OKLAHOMA CITY,OK,73112,7803,OKLAHOMA,40109,2009-07-30T00:00:00.000Z,ALT REF,2009-07-30T00:00:00.000Z,CHURCHES,30425863,-97.5561992,35.5007311,CHRISTIAN,SBC,1804,NOT AVAILABLE,Y,N
9877,10436230,CHEROKEE HILLS BAPTIST CHURCH,OKLAHOMA CITY,OK,73132,7733,OKLAHOMA,40109,2009-07-24T00:00:00.000Z,ALT REF,2009-07-24T00:00:00.000Z,CHURCHES,30419135,-97.6161659,35.5361619,CHRISTIAN,SBC,1175,NOT AVAILABLE,Y,N
9878,10440364,SANTA MARIA VIRGEN,OKLAHOMA CITY,OK,73108,6612,OKLAHOMA,40109,2009-07-28T00:00:00.000Z,ALT REF,2009-07-28T00:00:00.000Z,CHURCHES,30437635,-97.5500221,35.439659,CHRISTIAN,EPIS,NOT AVAILABLE,NOT AVAILABLE,Y,N
9879,10446025,CHURCH OF THE EPIPHANY OF THE LORD CATHOLIC CHURCH,OKLAHOMA CITY,OK,73132,1505,OKLAHOMA,40109,2009-07-27T00:00:00.000Z,ALT REF,2009-07-27T00:00:00.000Z,CHURCHES,30466507,-97.6437849,35.5648863,CHRISTIAN,NOT AVAILABLE,NOT AVAILABLE,NOT AVAILABLE,N,Y
9880,10433558,KNOB HILL BAPTIST CHURCH,OKLAHOMA CITY,OK,73119,6406,OKLAHOMA,40109,2009-07-30T00:00:00.000Z,ALT REF,2009-07-30T00:00:00.000Z,CHURCHES,30457631,-97.5622101,35.4053605,CHRISTIAN,SBC,1270,NOT AVAILABLE,Y,N
9882,10459491,COLLINS COMMUNITY AFRICAN METHODIST EPISCOPAL CHURCH,OKLAHOMA CITY,OK,73117,6807,OKLAHOMA,40109,2009-07-29T00:00:00.000Z,ALT REF,2009-07-29T00:00:00.000Z,CHURCHES,30429306,-97.4428487,35.4881499,CHRISTIAN,AME,NOT AVAILABLE,NOT AVAILABLE,Y,N
9883,10446022,THE CATHEDRAL OF OUR LADY OF PERPETUAL HELP,OKLAHOMA CITY,OK,73118,5645,OKLAHOMA,40109,2009-07-27T00:00:00.000Z,ALT REF,2009-08-05T00:00:00.000Z,CHURCHES,30425549,-97.5306193,35.5026863,CHRISTIAN,NOT AVAILABLE,NOT AVAILABLE,NOT AVAILABLE,N,Y
9891,10441127,SAINT PAULS CATHEDRAL,OKLAHOMA CITY,OK,73102,6004,OKLAHOMA,40109,2009-07-29T00:00:00.000Z,ALT REF,2009-07-29T00:00:00.000Z,CHURCHES,30432045,-97.5149557,35.4752994,CHRISTIAN,EPIS,NOT AVAILABLE,NOT AVAILABLE,Y,N
9895,11549144,PRAIRIE WIND SANGHA,OKLAHOMA CITY,OK,73112,7931,OKLAHOMA,40109,2009-08-03T00:00:00.000Z,ALT REF,2009-08-03T00:00:00.000Z,PLACES OF WORSHIP,30425715,-97.5480164,35.5016079,BUDDHIST,NOT AVAILABLE,NOT AVAILABLE,NOT AVAILABLE,N,N
9896,10433865,HIGHLAND HILLS BAPTIST CHURCH,OKLAHOMA CITY,OK,73162,6229,OKLAHOMA,40109,2009-07-29T00:00:00.000Z,ALT REF,2009-07-29T00:00:00.000Z,CHURCHES,30466574,-97.6547402,35.5680497,CHRISTIAN,SBC,859,NOT AVAILABLE,Y,N
9900,11549145,CHURCH OF THE OPEN ARMS,OKLAHOMA CITY,OK,73112,7931,OKLAHOMA,40109,2009-08-03T00:00:00.000Z,ALT REF,2009-08-03T00:00:00.000Z,CHURCHES,30425715,-97.5480146,35.5016074,CHRISTIAN,NOT AVAILABLE,NOT AVAILABLE,NOT AVAILABLE,Y,N