OBJECTID,ID,NAME,CITY,STATE,ZIP,ZIPP4,COUNTY,FIPS,CONTDATE,CONTHOW,GEODATE,NAICSDESCR,GEOLINKID,X,Y,SUBTYPE,DENOM,MEMBERS,LOC_TYPE,PROT,CATH
7003,10446598,IMMACULATE HEART CHURCH,PORTLAND,OR,97227,1628,MULTNOMAH,41051,2009-03-12T00:00:00.000Z,ALT REF,2009-03-12T00:00:00.000Z,CHURCHES,21304156,-122.6662309,45.5440048,CHRISTIAN,NOT AVAILABLE,NOT AVAILABLE,NOT AVAILABLE,N,Y
7010,10446590,SAINT CLARE CHURCH,PORTLAND,OR,97219,4116,MULTNOMAH,41051,2009-03-13T00:00:00.000Z,ALT REF,2009-03-13T00:00:00.000Z,CHURCHES,21353180,-122.6969692,45.4631493,CHRISTIAN,NOT AVAILABLE,NOT AVAILABLE,NOT AVAILABLE,N,Y
7012,10446597,SAINT IGNATIUS CHURCH,PORTLAND,OR,97206,3107,MULTNOMAH,41051,2009-03-13T00:00:00.000Z,ALT REF,2009-03-13T00:00:00.000Z,CHURCHES,21316181,-122.6179315,45.4979898,CHRISTIAN,NOT AVAILABLE,NOT AVAILABLE,NOT AVAILABLE,N,Y
7013,10446599,SAINT JOHN FISHER CHURCH,PORTLAND,OR,97219,1510,MULTNOMAH,41051,2009-03-17T00:00:00.000Z,ALT REF,2009-03-17T00:00:00.000Z,CHURCHES,21379006,-122.7248825,45.474513,CHRISTIAN,NOT AVAILABLE,NOT AVAILABLE,NOT AVAILABLE,N,Y
7015,11521654,SAINT JUAN DIEGO CHURCH,PORTLAND,OR,97229,7353,WASHINGTON,41067,2009-03-17T00:00:00.000Z,ALT REF,2009-03-17T00:00:00.000Z,CHURCHES,21347331,-122.8545307,45.5549746,CHRISTIAN,NOT AVAILABLE,NOT AVAILABLE,NOT AVAILABLE,N,Y
7016,10448714,SAINT JUAN DIEGO CHURCH,PORTLAND,OR,97229,2190,WASHINGTON,41067,2009-03-17T00:00:00.000Z,ALT REF,2009-03-19T00:00:00.000Z,CHURCHES,21330772,-122.8576032,45.5554825,CHRISTIAN,NOT AVAILABLE,NOT AVAILABLE,NOT AVAILABLE,N,Y
7021,10441165,SAINT STEPHENS EPISCOPAL CHURCH,PORTLAND,OR,97201,3390,MULTNOMAH,41051,2009-03-12T00:00:00.000Z,ALT REF,2009-03-12T00:00:00.000Z,CHURCHES,21307778,-122.6876109,45.5156385,CHRISTIAN,EPIS,NOT AVAILABLE,NOT AVAILABLE,Y,N
7022,10446608,SAINT THERESE CHURCH,PORTLAND,OR,97230,3254,MULTNOMAH,41051,2009-03-10T00:00:00.000Z,ALT REF,2009-03-10T00:00:00.000Z,CHURCHES,21292405,-122.5251487,45.5312856,CHRISTIAN,NOT AVAILABLE,NOT AVAILABLE,NOT AVAILABLE,N,Y
7024,10441168,THE EPISCOPAL PARISH OF SAINT JOHN THE BAPTIST,PORTLAND,OR,97223,7566,WASHINGTON,41067,2009-03-17T00:00:00.000Z,ALT REF,2009-03-17T00:00:00.000Z,CHURCHES,31332161,-122.7554669,45.4744965,CHRISTIAN,EPIS,NOT AVAILABLE,NOT AVAILABLE,Y,N
7040,10439037,THE CHURCH OF JESUS CHRIST OF LATTER DAY SAINTS - MARKET STREET BRANCH,PORTLAND,OR,97201,3229,MULTNOMAH,41051,2007-10-16T00:00:00.000Z,ALT REF,2008-09-05T00:00:00.000Z,CHURCHES,21308031,-122.6860134,45.5138781,CHRISTIAN,LDS,NOT AVAILABLE,NOT AVAILABLE,Y,N
7052,10427097,CONGREGATION HAVURAH SHALOM,PORTLAND,OR,97209,2333,MULTNOMAH,41051,2007-08-08T00:00:00.000Z,ALT REF,2008-09-05T00:00:00.000Z,SYNAGOGUES,21305662,-122.6898924,45.5288833,JUDAIC,RECONSTRUCTIONIST,NOT AVAILABLE,SYNAGOGUE,N,N
6011,10438152,CROSSROADS CHURCH,PORTLAND,OR,97220,2802,MULTNOMAH,41051,2007-10-10T00:00:00.000Z,ALT REF,2007-10-10T00:00:00.000Z,CHURCHES,124511064,-122.5585553,45.5404323,CHRISTIAN,CHRISTIAN,NOT AVAILABLE,NOT AVAILABLE,Y,N
6032,10438670,THE CHURCH OF JESUS CHRIST OF LATTER DAY SAINTS - OAK HILLS WARD,PORTLAND,OR,97229,2292,WASHINGTON,41067,2007-10-16T00:00:00.000Z,ALT REF,2007-10-16T00:00:00.000Z,CHURCHES,31345072,-122.830224,45.5431367,CHRISTIAN,LDS,NOT AVAILABLE,NOT AVAILABLE,Y,N
6043,10438792,THE CHURCH OF JESUS CHRIST OF LATTER DAY SAINTS - RALEIGH HILLS WARD,PORTLAND,OR,97223,9427,WASHINGTON,41067,2007-10-16T00:00:00.000Z,ALT REF,2007-10-16T00:00:00.000Z,CHURCHES,112455441,-122.7443405,45.466621,CHRISTIAN,LDS,NOT AVAILABLE,NOT AVAILABLE,Y,N
6045,10438875,THE CHURCH OF JESUS CHRIST OF LATTER DAY SAINTS - PORTLAND HEIGHTS (DEAF) BRANCH,PORTLAND,OR,97214,5651,MULTNOMAH,41051,2007-10-16T00:00:00.000Z,ALT REF,2007-10-16T00:00:00.000Z,CHURCHES,21308992,-122.6354881,45.5087486,CHRISTIAN,LDS,NOT AVAILABLE,NOT AVAILABLE,Y,N
6061,10439063,THE CHURCH OF JESUS CHRIST OF LATTER DAY SAINTS - MOUNT SCOTT WARD,PORTLAND,OR,97216,2629,MULTNOMAH,41051,2007-10-16T00:00:00.000Z,ALT REF,2007-10-16T00:00:00.000Z,CHURCHES,21295441,-122.5612993,45.5055639,CHRISTIAN,LDS,NOT AVAILABLE,NOT AVAILABLE,Y,N
6065,10439179,THE CHURCH OF JESUS CHRIST OF LATTER DAY SAINTS - BEAVERTON 3RD WARD,PORTLAND,OR,97223,9427,WASHINGTON,41067,2007-10-16T00:00:00.000Z,ALT REF,2007-10-16T00:00:00.000Z,CHURCHES,112455441,-122.74434,45.4666195,CHRISTIAN,LDS,NOT AVAILABLE,NOT AVAILABLE,Y,N
6074,10439276,THE CHURCH OF JESUS CHRIST OF LATTER DAY SAINTS - PENINSULA PARK WARD,PORTLAND,OR,97211,8155,MULTNOMAH,41051,2007-10-16T00:00:00.000Z,ALT REF,2007-10-16T00:00:00.000Z,CHURCHES,21289477,-122.6249717,45.5564026,CHRISTIAN,LDS,NOT AVAILABLE,NOT AVAILABLE,Y,N
6076,10439300,THE CHURCH OF JESUS CHRIST OF LATTER DAY SAINTS - HAPPY VALLEY WARD,PORTLAND,OR,97086,6162,CLACKAMAS,41005,2007-10-16T00:00:00.000Z,ALT REF,2007-10-16T00:00:00.000Z,CHURCHES,21320755,-122.5268604,45.4482768,CHRISTIAN,LDS,NOT AVAILABLE,NOT AVAILABLE,Y,N
6081,10439354,THE CHURCH OF JESUS CHRIST OF LATTER DAY SAINTS - MORELAND WARD,PORTLAND,OR,97202,6119,MULTNOMAH,41051,2007-10-16T00:00:00.000Z,ALT REF,2007-10-16T00:00:00.000Z,CHURCHES,21352755,-122.6475152,45.4673659,CHRISTIAN,LDS,NOT AVAILABLE,NOT AVAILABLE,Y,N
6082,10439355,THE CHURCH OF JESUS CHRIST OF LATTER DAY SAINTS - RIVERSIDE WARD,PORTLAND,OR,97202,6119,MULTNOMAH,41051,2007-10-16T00:00:00.000Z,ALT REF,2007-10-16T00:00:00.000Z,CHURCHES,21352755,-122.6475169,45.4673671,CHRISTIAN,LDS,NOT AVAILABLE,NOT AVAILABLE,Y,N
6083,10439356,THE CHURCH OF JESUS CHRIST OF LATTER DAY SAINTS - ROSE CITY (TONGAN) WARD,PORTLAND,OR,97220,3705,MULTNOMAH,41051,2007-10-16T00:00:00.000Z,ALT REF,2007-10-16T00:00:00.000Z,CHURCHES,21291498,-122.5539926,45.5383468,CHRISTIAN,LDS,NOT AVAILABLE,NOT AVAILABLE,Y,N
6098,10439447,THE CHURCH OF JESUS CHRIST OF LATTER DAY SAINTS - GATEWAY WARD,PORTLAND,OR,97220,3705,MULTNOMAH,41051,2007-10-16T00:00:00.000Z,ALT REF,2007-10-16T00:00:00.000Z,CHURCHES,21291498,-122.5539926,45.5383468,CHRISTIAN,LDS,NOT AVAILABLE,NOT AVAILABLE,Y,N
6102,10439477,THE CHURCH OF JESUS CHRIST OF LATTER DAY SAINTS - CHERRY PARK WARD,PORTLAND,OR,97216,2629,MULTNOMAH,41051,2007-10-16T00:00:00.000Z,ALT REF,2007-10-16T00:00:00.000Z,CHURCHES,21295441,-122.5612991,45.5055627,CHRISTIAN,LDS,NOT AVAILABLE,NOT AVAILABLE,Y,N
6104,10439500,THE CHURCH OF JESUS CHRIST OF LATTER DAY SAINTS - GABRIEL PARK WARD,PORTLAND,OR,97223,9427,WASHINGTON,41067,2007-10-16T00:00:00.000Z,ALT REF,2007-10-16T00:00:00.000Z,CHURCHES,112455441,-122.7443447,45.4666219,CHRISTIAN,LDS,NOT AVAILABLE,NOT AVAILABLE,Y,N
6105,10439513,THE CHURCH OF JESUS CHRIST OF LATTER DAY SAINTS - SUNSET HILLS WARD,PORTLAND,OR,97229,2292,WASHINGTON,41067,2007-10-16T00:00:00.000Z,ALT REF,2007-10-16T00:00:00.000Z,CHURCHES,31345072,-122.8302235,45.5431387,CHRISTIAN,LDS,NOT AVAILABLE,NOT AVAILABLE,Y,N
6114,10439553,THE CHURCH OF JESUS CHRIST OF LATTER DAY SAINTS - MOUNT TABOR WARD,PORTLAND,OR,97214,5651,MULTNOMAH,41051,2007-10-16T00:00:00.000Z,ALT REF,2007-10-16T00:00:00.000Z,CHURCHES,21308992,-122.6354893,45.5087493,CHRISTIAN,LDS,NOT AVAILABLE,NOT AVAILABLE,Y,N
6117,10439561,THE CHURCH OF JESUS CHRIST OF LATTER DAY SAINTS - IRVINGTON WARD,PORTLAND,OR,97211,8155,MULTNOMAH,41051,2007-10-16T00:00:00.000Z,ALT REF,2007-10-16T00:00:00.000Z,CHURCHES,21289477,-122.6249705,45.5564014,CHRISTIAN,LDS,NOT AVAILABLE,NOT AVAILABLE,Y,N
6118,10439562,THE CHURCH OF JESUS CHRIST OF LATTER DAY SAINTS - COLONIAL HEIGHTS WARD,PORTLAND,OR,97214,5651,MULTNOMAH,41051,2007-10-16T00:00:00.000Z,ALT REF,2007-10-16T00:00:00.000Z,CHURCHES,21308992,-122.6354893,45.5087501,CHRISTIAN,LDS,NOT AVAILABLE,NOT AVAILABLE,Y,N
6121,10439636,THE CHURCH OF JESUS CHRIST OF LATTER DAY SAINTS - EVERGREEN (SPANISH) BRANCH,PORTLAND,OR,97206,1870,MULTNOMAH,41051,2007-10-16T00:00:00.000Z,ALT REF,2007-10-16T00:00:00.000Z,CHURCHES,21295880,-122.588897,45.5003523,CHRISTIAN,LDS,NOT AVAILABLE,NOT AVAILABLE,Y,N
6124,10439691,THE CHURCH OF JESUS CHRIST OF LATTER DAY SAINTS - SKYLINE WARD,PORTLAND,OR,97229,2292,WASHINGTON,41067,2007-10-16T00:00:00.000Z,ALT REF,2007-10-16T00:00:00.000Z,CHURCHES,31345072,-122.830226,45.5431387,CHRISTIAN,LDS,NOT AVAILABLE,NOT AVAILABLE,Y,N
6134,10439988,THE CHURCH OF JESUS CHRIST OF LATTER DAY SAINTS - SUNNYSIDE WARD,PORTLAND,OR,97086,6162,CLACKAMAS,41005,2007-10-16T00:00:00.000Z,ALT REF,2007-10-16T00:00:00.000Z,CHURCHES,21320755,-122.5268588,45.4482803,CHRISTIAN,LDS,NOT AVAILABLE,NOT AVAILABLE,Y,N
6158,10441167,SAINT ANDREW EPISCOPAL CHURCH,PORTLAND,OR,97203,3432,MULTNOMAH,41051,2007-11-06T00:00:00.000Z,ALT REF,2007-11-06T00:00:00.000Z,CHURCHES,21300084,-122.7218071,45.582477,CHRISTIAN,EPIS,NOT AVAILABLE,NOT AVAILABLE,Y,N
6176,10443063,SAINT BIRGITTA'S CATHOLIC CHURCH,PORTLAND,OR,97231,2319,MULTNOMAH,41051,2007-10-03T00:00:00.000Z,ALT REF,2007-10-03T00:00:00.000Z,CHURCHES,112400451,-122.7918823,45.6074584,CHRISTIAN,NOT AVAILABLE,NOT AVAILABLE,NOT AVAILABLE,N,Y
6180,10446583,SAINT MARY'S CATHEDRAL OF THE IMMACULATE CONCEPTION,PORTLAND,OR,97209,2120,MULTNOMAH,41051,2007-10-03T00:00:00.000Z,ALT REF,2007-10-03T00:00:00.000Z,CHURCHES,21306282,-122.6889863,45.5239566,CHRISTIAN,NOT AVAILABLE,NOT AVAILABLE,NOT AVAILABLE,N,Y
6181,10446585,SAINT ANDREW CATHOLIC CHURCH,PORTLAND,OR,97211,4530,MULTNOMAH,41051,2007-10-03T00:00:00.000Z,ALT REF,2007-10-03T00:00:00.000Z,CHURCHES,21302725,-122.6569492,45.5588791,CHRISTIAN,NOT AVAILABLE,NOT AVAILABLE,NOT AVAILABLE,N,Y
6182,10446587,ASCENSION CATHOLIC CHURCH,PORTLAND,OR,97215,2282,MULTNOMAH,41051,2007-10-03T00:00:00.000Z,ALT REF,2007-10-03T00:00:00.000Z,CHURCHES,21294162,-122.585594,45.5165085,CHRISTIAN,NOT AVAILABLE,NOT AVAILABLE,NOT AVAILABLE,N,Y
6183,10446589,CHURCH OF KOREAN MARTYRS,PORTLAND,OR,97266,1833,MULTNOMAH,41051,2007-10-03T00:00:00.000Z,ALT REF,2007-10-03T00:00:00.000Z,CHURCHES,124485294,-122.5512192,45.4958977,CHRISTIAN,NOT AVAILABLE,NOT AVAILABLE,NOT AVAILABLE,N,Y
6184,10446591,SAINT ELIZABETH OF HUNGARY CHURCH,PORTLAND,OR,97239,4145,MULTNOMAH,41051,2007-10-03T00:00:00.000Z,ALT REF,2007-10-03T00:00:00.000Z,CHURCHES,21377730,-122.6835333,45.4936754,CHRISTIAN,NOT AVAILABLE,NOT AVAILABLE,NOT AVAILABLE,N,Y
6185,10446596,HOLY ROSARY CHURCH AND DOMINICAN PRIORY,PORTLAND,OR,97232,1103,MULTNOMAH,41051,2007-10-03T00:00:00.000Z,ALT REF,2007-10-03T00:00:00.000Z,CHURCHES,21305289,-122.6623671,45.5330973,CHRISTIAN,NOT AVAILABLE,NOT AVAILABLE,NOT AVAILABLE,N,Y
6186,10446601,SAINT MICHAEL THE ARCHANGEL CHURCH,PORTLAND,OR,97201,5534,MULTNOMAH,41051,2007-10-03T00:00:00.000Z,ALT REF,2007-10-03T00:00:00.000Z,CHURCHES,21308467,-122.6805633,45.5118194,CHRISTIAN,NOT AVAILABLE,NOT AVAILABLE,NOT AVAILABLE,N,Y
6187,10446602,OUR LADY OF SORROWS CHURCH,PORTLAND,OR,97206,6822,MULTNOMAH,41051,2007-10-03T00:00:00.000Z,ALT REF,2007-10-03T00:00:00.000Z,CHURCHES,21318221,-122.6085299,45.4794447,CHRISTIAN,NOT AVAILABLE,NOT AVAILABLE,NOT AVAILABLE,N,Y
6188,10446604,SAINT PIUS CATHOLIC CHURCH,PORTLAND,OR,97229,5642,WASHINGTON,41067,2007-10-03T00:00:00.000Z,ALT REF,2007-10-03T00:00:00.000Z,CHURCHES,21332273,-122.8044556,45.5289326,CHRISTIAN,NOT AVAILABLE,NOT AVAILABLE,NOT AVAILABLE,N,Y
6189,10446605,SAINT ROSE OF LIMA CHURCH,PORTLAND,OR,97213,3400,MULTNOMAH,41051,2007-10-03T00:00:00.000Z,ALT REF,2007-10-03T00:00:00.000Z,CHURCHES,21291003,-122.6078279,45.5424921,CHRISTIAN,NOT AVAILABLE,NOT AVAILABLE,NOT AVAILABLE,N,Y
6190,10446606,SACRED HEART CATHOLIC CHURCH,PORTLAND,OR,97202,3728,MULTNOMAH,41051,2007-10-03T00:00:00.000Z,ALT REF,2007-10-03T00:00:00.000Z,CHURCHES,21350339,-122.653924,45.494165,CHRISTIAN,NOT AVAILABLE,NOT AVAILABLE,NOT AVAILABLE,N,Y
6191,10446609,SAINT THOMAS MORE CHURCH,PORTLAND,OR,97221,4124,MULTNOMAH,41051,2007-10-03T00:00:00.000Z,ALT REF,2007-10-03T00:00:00.000Z,CHURCHES,21309538,-122.713984,45.5020462,CHRISTIAN,NOT AVAILABLE,NOT AVAILABLE,NOT AVAILABLE,N,Y
6200,10448374,SAINT IRENE THE VIRGIN AND GREAT MARTYR CHURCH,PORTLAND,OR,97217,3626,MULTNOMAH,41051,2007-10-03T00:00:00.000Z,ALT REF,2007-10-03T00:00:00.000Z,CHURCHES,21302988,-122.6808156,45.5566636,CHRISTIAN,NOT AVAILABLE,NOT AVAILABLE,NOT AVAILABLE,N,Y
6208,10460170,HOPE PRESBYTERIAN CHURCH - PORTLAND,PORTLAND,OR,97214,1944,MULTNOMAH,41051,2008-03-04T00:00:00.000Z,ALT REF,2008-03-04T00:00:00.000Z,CHURCHES,21306853,-122.6317831,45.5218436,CHRISTIAN,PCA,NOT AVAILABLE,NOT AVAILABLE,Y,N
6209,10461044,INTOWN PRESBYTERIAN CHURCH,PORTLAND,OR,97201,3304,MULTNOMAH,41051,2008-03-04T00:00:00.000Z,ALT REF,2008-03-04T00:00:00.000Z,CHURCHES,21307865,-122.6856044,45.5151547,CHRISTIAN,PCA,NOT AVAILABLE,NOT AVAILABLE,Y,N
6237,10446607,SAINT STANISLAUS CATHOLIC CHURCH,PORTLAND,OR,97227,1069,MULTNOMAH,41051,2009-05-05T00:00:00.000Z,ALT REF,2009-03-10T00:00:00.000Z,CHURCHES,109805908,-122.6805659,45.5512096,CHRISTIAN,NOT AVAILABLE,NOT AVAILABLE,NOT AVAILABLE,N,Y
6263,10432717,NEW BEGINNINGS CHRISTIAN CENTER,PORTLAND,OR,97230,5382,MULTNOMAH,41051,2007-09-18T00:00:00.000Z,ALT REF,2007-09-10T00:00:00.000Z,CHURCHES,124476262,-122.4852502,45.5462397,CHRISTIAN,NONDENOM,NOT AVAILABLE,NOT AVAILABLE,Y,N
6266,10442393,OUR LADY OF LAVANG - SOUTHEAST ASIAN VICARIATE,PORTLAND,OR,97213,3418,MULTNOMAH,41051,2007-10-03T00:00:00.000Z,ALT REF,2007-10-03T00:00:00.000Z,CHURCHES,21291002,-122.6070362,45.5421061,CHRISTIAN,NOT AVAILABLE,NOT AVAILABLE,NOT AVAILABLE,N,Y
6282,10684909,PORTLAND YESHE NYINGPO,PORTLAND,OR,97229,3815,MULTNOMAH,41051,2009-03-17T00:00:00.000Z,ALT REF,2009-03-17T00:00:00.000Z,PLACES OF WORSHIP,124510090,-122.7614556,45.5460671,BUDDHIST,"VAJRAYANA, LINEAGE OF HIS HOLINES DUDJOM RINPOCHE",NOT AVAILABLE,NOT AVAILABLE,N,N
6294,10446584,ALL SAINTS CATHOLIC CHURCH,PORTLAND,OR,97232,3349,MULTNOMAH,41051,2007-10-03T00:00:00.000Z,ALT REF,2007-10-03T00:00:00.000Z,CHURCHES,21292764,-122.624245,45.5267296,CHRISTIAN,NOT AVAILABLE,NOT AVAILABLE,NOT AVAILABLE,N,Y
6297,10448814,SAINT JUAN DIEGO CHURCH,PORTLAND,OR,97229,1744,WASHINGTON,41067,2007-10-04T00:00:00.000Z,ALT REF,2007-10-04T00:00:00.000Z,CHURCHES,21330640,-122.8598137,45.5632996,CHRISTIAN,NOT AVAILABLE,NOT AVAILABLE,NOT AVAILABLE,N,Y
6355,10432715,SUNSET PRESBYTERIAN CHURCH,PORTLAND,OR,97229,5460,WASHINGTON,41067,2009-03-17T00:00:00.000Z,ALT REF,2009-03-17T00:00:00.000Z,CHURCHES,124479675,-122.8327885,45.5302006,CHRISTIAN,PCUSA,NOT AVAILABLE,NOT AVAILABLE,Y,N
6360,10588922,FRIENDSHIP CHRISTIAN FELLOWSHIP,PORTLAND,OR,97229,5759,WASHINGTON,41067,2009-03-17T00:00:00.000Z,ALT REF,2009-03-17T00:00:00.000Z,CHURCHES,21332674,-122.8166106,45.5209502,CHRISTIAN,ABC,NOT AVAILABLE,NOT AVAILABLE,Y,N
6371,10588905,CEDAR HILLS BAPTIST CHURCH,PORTLAND,OR,97225,4440,WASHINGTON,41067,2009-03-17T00:00:00.000Z,ALT REF,2009-03-17T00:00:00.000Z,CHURCHES,21333898,-122.7893513,45.5019556,CHRISTIAN,ABC,NOT AVAILABLE,NOT AVAILABLE,Y,N
6411,10427259,CONGREGATION KESSER ISRAEL,PORTLAND,OR,97219,2457,MULTNOMAH,41051,2007-07-30T00:00:00.000Z,PHONE,2007-07-24T00:00:00.000Z,SYNAGOGUES,21352466,-122.7099666,45.4680784,JUDAIC,ORTHODOX,NOT AVAILABLE,SYNAGOGUE,N,N
6412,10427260,CONGREGATION SHAARIE TORAH,PORTLAND,OR,97210,2830,MULTNOMAH,41051,2007-07-20T00:00:00.000Z,PHONE,2007-07-30T00:00:00.000Z,SYNAGOGUES,21305568,-122.7019904,45.5293421,JUDAIC,ORTHODOX,NOT AVAILABLE,SYNAGOGUE,N,N
6441,10428732,CHABAD LUBAVITCH OF OREGON,PORTLAND,OR,97239,1944,MULTNOMAH,41051,2007-07-30T00:00:00.000Z,PHONE,2007-07-30T00:00:00.000Z,SYNAGOGUES,21351719,-122.7015647,45.4763509,JUDAIC,CHABAD,NOT AVAILABLE,CHABAD,N,N
6444,10428931,CONGREGATION BAIS MENACHEM - CHABAD,PORTLAND,OR,97219,1958,MULTNOMAH,41051,2007-08-08T00:00:00.000Z,ALT REF,2007-08-08T00:00:00.000Z,SYNAGOGUES,124510512,-122.7056528,45.4757849,JUDAIC,CHABAD,NOT AVAILABLE,CHABAD,N,N
6454,10430020,CONGREGATION NEVEH SHALOM,PORTLAND,OR,97239,1162,MULTNOMAH,41051,2007-07-25T00:00:00.000Z,PHONE,2007-07-25T00:00:00.000Z,SYNAGOGUES,21351136,-122.7068125,45.4832511,JUDAIC,NOT AVAILABLE,NOT AVAILABLE,NOT AVAILABLE,N,N
6466,10427675,CONGREGATION BETH ISRAEL,PORTLAND,OR,97209,2054,MULTNOMAH,41051,2007-08-08T00:00:00.000Z,ALT REF,2007-08-10T00:00:00.000Z,SYNAGOGUES,21306076,-122.6909839,45.5260491,JUDAIC,REFORM,738,NOT AVAILABLE,N,N
6467,10427096,CONGREGATION AHAVATH ACHIM,PORTLAND,OR,97239,4615,MULTNOMAH,41051,2007-07-30T00:00:00.000Z,PHONE,2007-07-24T00:00:00.000Z,SYNAGOGUES,112400659,-122.6807593,45.4998682,JUDAIC,ORTHODOX,NOT AVAILABLE,SYNAGOGUE,N,N
6624,10684962,RIGPA PORTLAND CENTER,PORTLAND,OR,97229,5532,WASHINGTON,41067,2009-03-20T00:00:00.000Z,ALT REF,2009-03-20T00:00:00.000Z,PLACES OF WORSHIP,21332376,-122.8105236,45.5256675,BUDDHIST,"TIBETAN, NYINGMAPA (RIGPA)",NOT AVAILABLE,NOT AVAILABLE,N,N
6627,10441166,SAINT GABRIEL'S EPISCOPAL CHURCH,PORTLAND,OR,97229,2190,WASHINGTON,41067,2009-03-17T00:00:00.000Z,ALT REF,2009-03-17T00:00:00.000Z,CHURCHES,21330772,-122.8576027,45.5554823,CHRISTIAN,EPIS,NOT AVAILABLE,NOT AVAILABLE,Y,N
6864,10446600,SAINT MARY MAGDALENE CHURCH,PORTLAND,OR,97212,2441,MULTNOMAH,41051,2009-03-11T00:00:00.000Z,ALT REF,2009-03-11T00:00:00.000Z,CHURCHES,21304102,-122.6415575,45.5453771,CHRISTIAN,NOT AVAILABLE,NOT AVAILABLE,NOT AVAILABLE,N,Y
6866,10588921,FIRST BAPTIST CHURCH,PORTLAND,OR,97205,2002,MULTNOMAH,41051,2009-03-11T00:00:00.000Z,ALT REF,2009-03-11T00:00:00.000Z,CHURCHES,21307348,-122.684422,45.518859,CHRISTIAN,ABC,NOT AVAILABLE,NOT AVAILABLE,Y,N
6875,10759940,SAINT LUKE LUTHERAN CHURCH,PORTLAND,OR,97219,1508,MULTNOMAH,41051,2009-03-12T00:00:00.000Z,ALT REF,2009-03-12T00:00:00.000Z,CHURCHES,21379006,-122.7248769,45.4751945,CHRISTIAN,ELCA,NOT AVAILABLE,NOT AVAILABLE,Y,N
6876,10446603,SAINT PETER CHURCH,PORTLAND,OR,97266,4721,MULTNOMAH,41051,2009-03-11T00:00:00.000Z,ALT REF,2009-03-11T00:00:00.000Z,CHURCHES,21318285,-122.5737329,45.4800177,CHRISTIAN,NOT AVAILABLE,NOT AVAILABLE,NOT AVAILABLE,N,Y
6877,10684277,DHARMA RAIN ZEN CENTER,PORTLAND,OR,97214,3933,MULTNOMAH,41051,2009-03-17T00:00:00.000Z,ALT REF,2009-03-17T00:00:00.000Z,PLACES OF WORSHIP,21308330,-122.6393852,45.5131054,BUDDHIST,SOTO ZEN,NOT AVAILABLE,NOT AVAILABLE,N,N
6878,10441172,ALL SAINTS EPISCOPAL CHURCH,PORTLAND,OR,97202,7661,MULTNOMAH,41051,2009-03-18T00:00:00.000Z,ALT REF,2009-03-18T00:00:00.000Z,CHURCHES,21318182,-122.6209591,45.4795568,CHRISTIAN,EPIS,NOT AVAILABLE,NOT AVAILABLE,Y,N
6879,10588939,WOODLAND PARK BAPTIST CHURCH,PORTLAND,OR,97220,2027,MULTNOMAH,41051,2009-03-11T00:00:00.000Z,ALT REF,2009-03-11T00:00:00.000Z,CHURCHES,21292163,-122.5448812,45.5337805,CHRISTIAN,ABC,NOT AVAILABLE,NOT AVAILABLE,Y,N
6880,10685587,ZEN CENTER OF PORTLAND,PORTLAND,OR,97210,2550,MULTNOMAH,41051,2009-03-13T00:00:00.000Z,ALT REF,2009-03-13T00:00:00.000Z,PLACES OF WORSHIP,21304795,-122.7034052,45.5359257,BUDDHIST,"MAHAYANA, DHARMA HEIR OF JOKO BECK",NOT AVAILABLE,NOT AVAILABLE,N,N
6881,10588929,MORNING STAR MISSIONARY BAPTIST CHURCH,PORTLAND,OR,97212,2038,MULTNOMAH,41051,2009-03-16T00:00:00.000Z,ALT REF,2009-04-14T00:00:00.000Z,CHURCHES,21303956,-122.6638712,45.5472968,CHRISTIAN,ABC,NOT AVAILABLE,NOT AVAILABLE,Y,N
6882,10581801,GREATER PORTLAND BAPTIST CHURCH,PORTLAND,OR,97233,5031,MULTNOMAH,41051,2009-03-12T00:00:00.000Z,ALT REF,2009-03-12T00:00:00.000Z,CHURCHES,21313915,-122.4801033,45.5128879,CHRISTIAN,BAPT,NOT AVAILABLE,NOT AVAILABLE,Y,N
6883,10448179,SAINT SHARBEL CHURCH,PORTLAND,OR,97214,4724,MULTNOMAH,41051,2009-03-11T00:00:00.000Z,ALT REF,2009-03-11T00:00:00.000Z,CHURCHES,21308875,-122.6490255,45.5097709,CHRISTIAN,NOT AVAILABLE,NOT AVAILABLE,NOT AVAILABLE,N,Y
6884,10442573,SAINT PATRICK CATHOLIC CHURCH,PORTLAND,OR,97209,1723,MULTNOMAH,41051,2009-03-19T00:00:00.000Z,ALT REF,2009-03-19T00:00:00.000Z,CHURCHES,21305074,-122.6910133,45.5347594,CHRISTIAN,NOT AVAILABLE,NOT AVAILABLE,NOT AVAILABLE,N,Y
6885,10684558,KAGYU CHANGCHUB CHULING,PORTLAND,OR,97212,3042,MULTNOMAH,41051,2009-03-17T00:00:00.000Z,ALT REF,2009-03-17T00:00:00.000Z,PLACES OF WORSHIP,21304056,-122.6646997,45.5455456,BUDDHIST,KARMA KAGYU & SHANGPA KAGYU,NOT AVAILABLE,NOT AVAILABLE,N,N
6886,10439444,THE CHURCH OF JESUS CHRIST OF LATTER DAY SAINTS - SAINT JOHNS WARD,PORTLAND,OR,97203,4208,MULTNOMAH,41051,2009-03-12T00:00:00.000Z,ALT REF,2009-03-12T00:00:00.000Z,CHURCHES,21300030,-122.7269581,45.5823364,CHRISTIAN,LDS,NOT AVAILABLE,NOT AVAILABLE,Y,N
6887,10457716,BETHEL AFRICAN METHODIST EPISCOPAL CHURCH,PORTLAND,OR,97211,3704,MULTNOMAH,41051,2009-03-12T00:00:00.000Z,ALT REF,2009-03-12T00:00:00.000Z,CHURCHES,21302045,-122.6575677,45.5652984,CHRISTIAN,AME,NOT AVAILABLE,NOT AVAILABLE,Y,N
6888,10683816,MAITRIPA COLLEGE,PORTLAND,OR,97214,NULL,MULTNOMAH,41051,2009-03-16T00:00:00.000Z,ALT REF,2009-03-16T00:00:00.000Z,PLACES OF WORSHIP,21308596,-122.6543684,45.5109529,BUDDHIST,TIBETAN,NOT AVAILABLE,NOT AVAILABLE,N,N
6889,10446595,HOLY REDEEMER CATHOLIC CHURCH,PORTLAND,OR,97217,2028,MULTNOMAH,41051,2009-03-13T00:00:00.000Z,ALT REF,2009-03-13T00:00:00.000Z,CHURCHES,21301462,-122.6671591,45.5703534,CHRISTIAN,NOT AVAILABLE,NOT AVAILABLE,NOT AVAILABLE,N,Y
6890,10431711,MASJID ABUBAKR,PORTLAND,OR,97213,4986,MULTNOMAH,41051,2009-04-14T00:00:00.000Z,ALT REF,2009-04-14T00:00:00.000Z,"MOSQUES, RELIGIOUS",21297306,-122.5955075,45.5354986,MUSLIM,NOT AVAILABLE,NOT AVAILABLE,NOT AVAILABLE,N,N
6891,10588923,GRACE BAPTIST CHURCH,PORTLAND,OR,97215,1466,MULTNOMAH,41051,2009-03-12T00:00:00.000Z,ALT REF,2009-03-12T00:00:00.000Z,CHURCHES,21293612,-122.58437,45.5208203,CHRISTIAN,ABC,NOT AVAILABLE,NOT AVAILABLE,Y,N
6892,10684908,NICHIREN BUDDHIST TEMPLE OF PORTLAND,PORTLAND,OR,97214,2842,MULTNOMAH,41051,2009-03-17T00:00:00.000Z,ALT REF,2009-03-17T00:00:00.000Z,"TEMPLES, RELIGIOUS",21307863,-122.6449976,45.516238,BUDDHIST,NICHIREN SHU,NOT AVAILABLE,NOT AVAILABLE,N,N
6894,10760034,RESURRECTION LUTHERAN CHURCH,PORTLAND,OR,97230,3104,MULTNOMAH,41051,2009-03-18T00:00:00.000Z,ALT REF,2009-03-18T00:00:00.000Z,CHURCHES,21291977,-122.5263173,45.5351452,CHRISTIAN,ELCA,NOT AVAILABLE,NOT AVAILABLE,Y,N
6896,10684067,BUDDHIST GROUP PORTLAND,PORTLAND,OR,97212,1557,MULTNOMAH,41051,2009-03-17T00:00:00.000Z,ALT REF,2009-03-17T00:00:00.000Z,PLACES OF WORSHIP,21303533,-122.6406776,45.5525391,BUDDHIST,"TIBETAN, KARMA KAGYU",NOT AVAILABLE,NOT AVAILABLE,N,N
6897,10684711,MIAO FA CHAN TEMPLE,PORTLAND,OR,97214,3729,MULTNOMAH,41051,2009-03-17T00:00:00.000Z,ALT REF,2009-03-17T00:00:00.000Z,"TEMPLES, RELIGIOUS",21308306,-122.6480648,45.5126754,BUDDHIST,"CHINESE, PURELAND",NOT AVAILABLE,NOT AVAILABLE,N,N
6898,10685190,THIEN QUANG BUDDHIST TEMPLE,PORTLAND,OR,97266,5607,MULTNOMAH,41051,2009-03-18T00:00:00.000Z,ALT REF,2009-03-18T00:00:00.000Z,"TEMPLES, RELIGIOUS",21318596,-122.579443,45.4772269,BUDDHIST,"VIETNAMESE, MAHAYANA",NOT AVAILABLE,NOT AVAILABLE,N,N
6899,10588934,NEW JERUSALEM BAPTIST CHURCH,PORTLAND,OR,97211,4929,MULTNOMAH,41051,2009-03-18T00:00:00.000Z,ALT REF,2009-03-18T00:00:00.000Z,CHURCHES,21302300,-122.6483408,45.5628944,CHRISTIAN,ABC,NOT AVAILABLE,NOT AVAILABLE,Y,N
6900,10588931,MOUNT GILLARD MISSIONARY BAPTIST CHURCH,PORTLAND,OR,97212,3026,MULTNOMAH,41051,2009-03-18T00:00:00.000Z,ALT REF,2009-03-18T00:00:00.000Z,CHURCHES,21304158,-122.6639304,45.5440075,CHRISTIAN,ABC,NOT AVAILABLE,NOT AVAILABLE,Y,N
6901,10588940,WORD OF LIFE COMMUNITY CHURCH,PORTLAND,OR,97218,2529,MULTNOMAH,41051,2009-03-11T00:00:00.000Z,ALT REF,2009-03-11T00:00:00.000Z,CHURCHES,21289419,-122.6076571,45.5586289,CHRISTIAN,ABC,NOT AVAILABLE,NOT AVAILABLE,Y,N
6902,10677822,HARE KRISHNA ISKCON OREGON TEMPLE,PORTLAND,OR,97202,1548,MULTNOMAH,41051,2009-03-17T00:00:00.000Z,ALT REF,2009-03-17T00:00:00.000Z,"TEMPLES, RELIGIOUS",21295357,-122.6244312,45.50459,HINDU,NOT AVAILABLE,NOT AVAILABLE,NOT AVAILABLE,N,N
6903,10684858,PADMASAMBHAVA BUDDHIST CENTER,PORTLAND,OR,97209,1648,MULTNOMAH,41051,2009-03-16T00:00:00.000Z,ALT REF,2009-03-16T00:00:00.000Z,PLACES OF WORSHIP,21305322,-122.6935879,45.5318138,BUDDHIST,"TIBETAN, NYINGMA LINEAGE",NOT AVAILABLE,NOT AVAILABLE,N,N
6904,10684116,NORTHWEST TIBETAN CULTURAL ASSOCIATION,PORTLAND,OR,97213,4629,MULTNOMAH,41051,2009-03-18T00:00:00.000Z,ALT REF,2009-03-18T00:00:00.000Z,PLACES OF WORSHIP,21290871,-122.5987391,45.5438381,BUDDHIST,NON-SECTARIAN TIBETAN BUDDHISM,NOT AVAILABLE,NOT AVAILABLE,N,N
6905,10684906,PORTLAND INSIGHT MEDITATION COMMUNITY,PORTLAND,OR,97206,6665,MULTNOMAH,41051,2009-03-17T00:00:00.000Z,ALT REF,2009-03-17T00:00:00.000Z,PLACES OF WORSHIP,21318642,-122.5954307,45.4755669,BUDDHIST,THERAVADA,NOT AVAILABLE,NOT AVAILABLE,N,N
6906,10440455,SAINT MATTHEWS CHURCH,PORTLAND,OR,97220,2457,MULTNOMAH,41051,2009-03-13T00:00:00.000Z,ALT REF,2009-03-13T00:00:00.000Z,CHURCHES,124504674,-122.5463531,45.5558138,CHRISTIAN,EPIS,NOT AVAILABLE,NOT AVAILABLE,Y,N
6907,10442885,SAINT STEPHENS CHURCH,PORTLAND,OR,97214,4409,MULTNOMAH,41051,2009-03-19T00:00:00.000Z,ALT REF,2009-03-19T00:00:00.000Z,CHURCHES,21294324,-122.6196628,45.5144803,CHRISTIAN,NOT AVAILABLE,NOT AVAILABLE,NOT AVAILABLE,N,Y
6908,10443147,SAINT RITAS CATHOLIC COMMUNITY,PORTLAND,OR,97220,3554,MULTNOMAH,41051,2009-03-11T00:00:00.000Z,ALT REF,2009-03-11T00:00:00.000Z,CHURCHES,21289703,-122.5594685,45.5558465,CHRISTIAN,NOT AVAILABLE,NOT AVAILABLE,NOT AVAILABLE,N,Y
6909,10446592,SAINT FRANCIS OF ASSISI CATHOLIC CHURCH,PORTLAND,OR,97214,1344,MULTNOMAH,41051,2009-03-10T00:00:00.000Z,ALT REF,2009-03-10T00:00:00.000Z,CHURCHES,21307146,-122.6540998,45.5205289,CHRISTIAN,NOT AVAILABLE,NOT AVAILABLE,NOT AVAILABLE,N,Y
6910,10581802,GREATER FAITH BAPTIST CHURCH,PORTLAND,OR,97217,3151,MULTNOMAH,41051,2009-03-10T00:00:00.000Z,ALT REF,2009-03-10T00:00:00.000Z,CHURCHES,21303220,-122.676151,45.5548007,CHRISTIAN,BAPT,NOT AVAILABLE,NOT AVAILABLE,Y,N
6914,10581799,BETHANY BAPTIST CHURCH,PORTLAND,OR,97229,2363,WASHINGTON,41067,2009-04-14T00:00:00.000Z,ALT REF,2009-04-14T00:00:00.000Z,CHURCHES,21412262,-122.8320717,45.5526677,CHRISTIAN,BAPT,NOT AVAILABLE,NOT AVAILABLE,Y,N
6915,10588908,FELLOWSHIP MISSIONARY BAPTIST,PORTLAND,OR,97227,1176,MULTNOMAH,41051,2009-03-11T00:00:00.000Z,ALT REF,2009-03-11T00:00:00.000Z,CHURCHES,21303475,-122.6780281,45.5523726,CHRISTIAN,ABC,NOT AVAILABLE,NOT AVAILABLE,Y,N
6916,10575739,FIRST AFRICAN METHODIST EPISCOPAL ZION CHURCH,PORTLAND,OR,97217,2940,MULTNOMAH,41051,2009-03-10T00:00:00.000Z,ALT REF,2009-03-10T00:00:00.000Z,CHURCHES,21347358,-122.6677086,45.5547401,CHRISTIAN,AMEZ,NOT AVAILABLE,NOT AVAILABLE,Y,N
6917,10441163,SAINT DAVID OF WALES EPISCOPAL CHURCH,PORTLAND,OR,97214,5650,MULTNOMAH,41051,2009-03-19T00:00:00.000Z,ALT REF,2009-03-19T00:00:00.000Z,CHURCHES,21308981,-122.6372964,45.5082016,CHRISTIAN,EPIS,NOT AVAILABLE,NOT AVAILABLE,Y,N
6918,10441173,TRINITY EPISCOPAL CATHEDRAL,PORTLAND,OR,97209,1901,MULTNOMAH,41051,2009-03-10T00:00:00.000Z,ALT REF,2009-03-10T00:00:00.000Z,CHURCHES,21306399,-122.6907076,45.5242352,CHRISTIAN,EPIS,NOT AVAILABLE,NOT AVAILABLE,Y,N
6919,10685444,BUDDHIST DAIHONZAN HENJYOJI TEMPLE,PORTLAND,OR,97202,1011,MULTNOMAH,41051,2009-03-16T00:00:00.000Z,ALT REF,2009-03-16T00:00:00.000Z,"TEMPLES, RELIGIOUS",21309456,-122.6533924,45.5036361,BUDDHIST,"MAHAYANA, VAJRAYANA",NOT AVAILABLE,NOT AVAILABLE,N,N
6920,10588901,ANTIOCH MISSIONARY BAPTIST CHURCH,PORTLAND,OR,97217,4639,MULTNOMAH,41051,2009-03-11T00:00:00.000Z,ALT REF,2009-03-11T00:00:00.000Z,CHURCHES,21301918,-122.6794407,45.5661808,CHRISTIAN,ABC,NOT AVAILABLE,NOT AVAILABLE,Y,N
6921,10446588,SAINT CHARLES BORROMEO CATHOLIC CHURCH,PORTLAND,OR,97218,1510,MULTNOMAH,41051,2009-03-12T00:00:00.000Z,ALT REF,2009-03-12T00:00:00.000Z,CHURCHES,21289160,-122.6198612,45.5617656,CHRISTIAN,NOT AVAILABLE,NOT AVAILABLE,NOT AVAILABLE,N,Y
6922,10441169,GRACE MEMORIAL EPISCOPAL CHURCH,PORTLAND,OR,97232,1417,MULTNOMAH,41051,2009-03-17T00:00:00.000Z,ALT REF,2009-03-17T00:00:00.000Z,CHURCHES,21305222,-122.6488174,45.5341456,CHRISTIAN,EPIS,NOT AVAILABLE,NOT AVAILABLE,Y,N
6923,10446610,DOWNTOWN CHAPEL SAINT VINCENT DE PAUL PARISH,PORTLAND,OR,97209,3614,MULTNOMAH,41051,2009-03-10T00:00:00.000Z,ALT REF,2009-03-10T00:00:00.000Z,CHURCHES,21306536,-122.6767542,45.5232455,CHRISTIAN,NOT AVAILABLE,NOT AVAILABLE,NOT AVAILABLE,N,Y
6924,10685035,PORTLAND SHAMBHALA MEDITATION CENTER,PORTLAND,OR,97214,2400,MULTNOMAH,41051,2009-03-17T00:00:00.000Z,ALT REF,2009-03-17T00:00:00.000Z,PLACES OF WORSHIP,21307504,-122.6543236,45.5176554,BUDDHIST,VAJRAYANA,NOT AVAILABLE,NOT AVAILABLE,N,N
6925,10441164,SAINT PHILIP THE DEACON EPISCOPAL CHURCH,PORTLAND,OR,97212,3010,MULTNOMAH,41051,2009-03-18T00:00:00.000Z,ALT REF,2009-03-18T00:00:00.000Z,CHURCHES,21304319,-122.6637869,45.5416887,CHRISTIAN,EPIS,NOT AVAILABLE,NOT AVAILABLE,Y,N
6926,10440235,SAINT BARNABAS EPISCOPAL CHURCH,PORTLAND,OR,97219,1935,MULTNOMAH,41051,2009-03-18T00:00:00.000Z,ALT REF,2009-03-18T00:00:00.000Z,CHURCHES,124484147,-122.6999315,45.4763021,CHRISTIAN,EPIS,NOT AVAILABLE,NOT AVAILABLE,Y,N
6927,10581803,BIBLE MISSIONARY BAPTIST CHURCH,PORTLAND,OR,97216,2740,MULTNOMAH,41051,2009-03-10T00:00:00.000Z,ALT REF,2009-03-10T00:00:00.000Z,CHURCHES,31343220,-122.552799,45.5223145,CHRISTIAN,BAPT,NOT AVAILABLE,NOT AVAILABLE,Y,N
6929,10440098,THE CHURCH OF JESUS CHRIST OF LATTER DAY SAINTS - COLUMBIA RIVER WARD,PORTLAND,OR,97230,5574,MULTNOMAH,41051,2009-03-18T00:00:00.000Z,ALT REF,2009-03-18T00:00:00.000Z,CHURCHES,124485762,-122.4967491,45.5464105,CHRISTIAN,LDS,NOT AVAILABLE,NOT AVAILABLE,Y,N
6930,10441171,SAINT MICHAEL AND ALL ANGELS EPISCOPAL CHURCH,PORTLAND,OR,97213,1402,MULTNOMAH,41051,2009-03-18T00:00:00.000Z,ALT REF,2009-03-18T00:00:00.000Z,CHURCHES,21291763,-122.6185165,45.5354355,CHRISTIAN,EPIS,NOT AVAILABLE,NOT AVAILABLE,Y,N
6931,10684905,PORTLAND COMMUNITY OF MINDFUL LIVING,PORTLAND,OR,97203,5077,MULTNOMAH,41051,2009-03-20T00:00:00.000Z,ALT REF,2009-03-20T00:00:00.000Z,PLACES OF WORSHIP,21299895,-122.7445282,45.5840159,BUDDHIST,ZEN BUDDHIST MASTER THICH NHAT HAHN,NOT AVAILABLE,NOT AVAILABLE,N,N
6932,10588924,GRANT PARK CHURCH,PORTLAND,OR,97212,2701,MULTNOMAH,41051,2009-03-13T00:00:00.000Z,ALT REF,2009-03-13T00:00:00.000Z,CHURCHES,21304356,-122.6293105,45.5424012,CHRISTIAN,ABC,NOT AVAILABLE,NOT AVAILABLE,Y,N
6933,10683847,AWAKEN PORTLAND,PORTLAND,OR,97213,2125,MULTNOMAH,41051,2009-03-17T00:00:00.000Z,ALT REF,2009-03-17T00:00:00.000Z,PLACES OF WORSHIP,21291933,-122.6161502,45.533942,BUDDHIST,NON-SECTARIAN,NOT AVAILABLE,NOT AVAILABLE,N,N
6934,10684202,COMPASSIONATE HEART SANGHA,PORTLAND,OR,97232,3259,MULTNOMAH,41051,2009-03-17T00:00:00.000Z,ALT REF,2009-03-17T00:00:00.000Z,PLACES OF WORSHIP,21306217,-122.6353038,45.5255682,BUDDHIST,VIPASSANA MEDITATION,NOT AVAILABLE,NOT AVAILABLE,N,N
6936,10443224,SAINT AGATHA CATHOLIC CHURCH,PORTLAND,OR,97202,6652,MULTNOMAH,41051,2009-03-11T00:00:00.000Z,ALT REF,2009-03-11T00:00:00.000Z,CHURCHES,21352916,-122.6514313,45.4659271,CHRISTIAN,NOT AVAILABLE,NOT AVAILABLE,NOT AVAILABLE,N,Y
6937,10684849,OREGON BUDDHIST TEMPLE,PORTLAND,OR,97202,3037,MULTNOMAH,41051,2009-03-17T00:00:00.000Z,ALT REF,2009-03-17T00:00:00.000Z,"TEMPLES, RELIGIOUS",21350309,-122.6287997,45.4957641,BUDDHIST,JODO SHINSHU BUDDHISM,NOT AVAILABLE,NOT AVAILABLE,N,N
6938,10581800,TRUE VINE BAPTIST CHURCH,PORTLAND,OR,97206,2350,MULTNOMAH,41051,2009-03-12T00:00:00.000Z,ALT REF,2009-03-12T00:00:00.000Z,CHURCHES,21316272,-122.5824087,45.4977125,CHRISTIAN,BAPT,NOT AVAILABLE,NOT AVAILABLE,Y,N
6941,10684904,PORTLAND BUDDHIST PRIORY,PORTLAND,OR,97202,3859,MULTNOMAH,41051,2009-03-17T00:00:00.000Z,ALT REF,2009-03-17T00:00:00.000Z,PLACES OF WORSHIP,21350135,-122.6532441,45.4962022,BUDDHIST,SOTO ZEN,NOT AVAILABLE,NOT AVAILABLE,N,N
6943,10588937,RIVERGATE COMMUNITY CHURCH,PORTLAND,OR,97203,4533,MULTNOMAH,41051,2009-03-11T00:00:00.000Z,ALT REF,2009-03-11T00:00:00.000Z,CHURCHES,21300318,-122.7158751,45.5797738,CHRISTIAN,ABC,NOT AVAILABLE,NOT AVAILABLE,Y,N
6944,10588930,MOUNT OLIVET BAPTIST CHURCH,PORTLAND,OR,97217,7275,MULTNOMAH,41051,2009-03-18T00:00:00.000Z,ALT REF,2009-03-18T00:00:00.000Z,CHURCHES,21299908,-122.708591,45.5847635,CHRISTIAN,ABC,NOT AVAILABLE,NOT AVAILABLE,Y,N
6946,10446593,HOLY CROSS CATHOLIC CHURCH,PORTLAND,OR,97203,4303,MULTNOMAH,41051,2009-03-12T00:00:00.000Z,ALT REF,2009-03-12T00:00:00.000Z,CHURCHES,21300180,-122.7222224,45.581074,CHRISTIAN,NOT AVAILABLE,NOT AVAILABLE,NOT AVAILABLE,N,Y
6947,10684686,MAHASIDDHA KADAMPA BUDDHIST CENTER,PORTLAND,OR,97202,1055,MULTNOMAH,41051,2009-03-13T00:00:00.000Z,ALT REF,2009-03-13T00:00:00.000Z,PLACES OF WORSHIP,21309338,-122.6528981,45.5051017,BUDDHIST,"VAJRAYANA, NEW KADAMPA TRADITION",NOT AVAILABLE,NOT AVAILABLE,N,N
6953,10442988,SAINT JOSEPH THE WORKER,PORTLAND,OR,97233,2735,MULTNOMAH,41051,2009-03-16T00:00:00.000Z,ALT REF,2009-03-16T00:00:00.000Z,CHURCHES,21295644,-122.5101056,45.5046589,CHRISTIAN,NOT AVAILABLE,NOT AVAILABLE,NOT AVAILABLE,N,Y
6954,10446586,SAINT ANTHONY CATHOLIC CHURCH,PORTLAND,OR,97206,2320,MULTNOMAH,41051,2009-03-13T00:00:00.000Z,ALT REF,2009-03-13T00:00:00.000Z,CHURCHES,21316503,-122.5817878,45.4954154,CHRISTIAN,NOT AVAILABLE,NOT AVAILABLE,NOT AVAILABLE,N,Y
6955,10442929,SAINT PHILIP NERI PARISH - THE PAULIST CENTER,PORTLAND,OR,97214,5334,MULTNOMAH,41051,2009-03-16T00:00:00.000Z,ALT REF,2009-03-16T00:00:00.000Z,CHURCHES,21309344,-122.6478303,45.5050631,CHRISTIAN,NOT AVAILABLE,NOT AVAILABLE,NOT AVAILABLE,N,Y
6957,10432714,CITY BIBLE CHURCH - ROCKY BUTTE CAMPUS,PORTLAND,OR,97220,3610,MULTNOMAH,41051,2009-03-18T00:00:00.000Z,ALT REF,2009-03-18T00:00:00.000Z,CHURCHES,21290273,-122.5665102,45.5506096,CHRISTIAN,NONDENOM,NOT AVAILABLE,NOT AVAILABLE,Y,N
6964,10431768,MASJID AS-SABER,PORTLAND,OR,97219,6987,MULTNOMAH,41051,2009-03-17T00:00:00.000Z,ALT REF,2009-03-17T00:00:00.000Z,"MOSQUES, RELIGIOUS",21354331,-122.7219038,45.4507931,MUSLIM,NOT AVAILABLE,NOT AVAILABLE,NOT AVAILABLE,N,N
6965,10684039,BUDDHIST CENTER PORTLAND,PORTLAND,OR,97210,2766,MULTNOMAH,41051,2009-03-17T00:00:00.000Z,ALT REF,2009-03-17T00:00:00.000Z,PLACES OF WORSHIP,21305085,-122.6981582,45.5339053,BUDDHIST,"VAJRAYANA, TIBETAN, KARMA KAGYU",NOT AVAILABLE,NOT AVAILABLE,N,N
6966,10576803,PARKLANE CHRISTIAN REFORMED CHURCH,PORTLAND,OR,97233,3204,MULTNOMAH,41051,2009-03-11T00:00:00.000Z,ALT REF,2009-03-11T00:00:00.000Z,CHURCHES,21313873,-122.4985124,45.5140792,CHRISTIAN,CRC,NOT AVAILABLE,NOT AVAILABLE,Y,N
6985,10427100,HAVURAH SHALOM,PORTLAND,OR,97219,1490,MULTNOMAH,41051,2007-08-08T00:00:00.000Z,ALT REF,2007-08-09T00:00:00.000Z,SYNAGOGUES,21379019,-122.7275184,45.4731731,JUDAIC,RECONSTRUCTIONIST,NOT AVAILABLE,SYNAGOGUE,N,N
6995,10441174,ASCENSION EPISCOPAL CHURCH,PORTLAND,OR,97201,2345,MULTNOMAH,41051,2009-03-18T00:00:00.000Z,ALT REF,2009-03-18T00:00:00.000Z,CHURCHES,21308762,-122.6978676,45.5091266,CHRISTIAN,EPIS,NOT AVAILABLE,NOT AVAILABLE,Y,N
7000,10446594,HOLY FAMILY CHURCH,PORTLAND,OR,97202,7806,MULTNOMAH,41051,2009-03-12T00:00:00.000Z,ALT REF,2009-03-12T00:00:00.000Z,CHURCHES,21319214,-122.6228738,45.468796,CHRISTIAN,NOT AVAILABLE,NOT AVAILABLE,NOT AVAILABLE,N,Y
5925,10446619,SAINT ANNES CATHOLIC CHURCH,PORTLAND,OR,97233,5001,MULTNOMAH,41051,2009-03-19T00:00:00.000Z,ALT REF,2009-03-19T00:00:00.000Z,CHURCHES,715287961,-122.4768198,45.515153,CHRISTIAN,NOT AVAILABLE,NOT AVAILABLE,NOT AVAILABLE,N,Y
5931,10441170,SAINT PETER AND PAUL EPISCOPAL CHURCH,PORTLAND,OR,97215,1554,MULTNOMAH,41051,2009-03-18T00:00:00.000Z,ALT REF,2009-03-18T00:00:00.000Z,CHURCHES,21293602,-122.5794939,45.5207119,CHRISTIAN,EPIS,NOT AVAILABLE,NOT AVAILABLE,Y,N
5942,10684907,PORTLAND INSIGHT MEDITATION COMMUNITY - HEART SONG SANGHA,PORTLAND,OR,97214,1655,MULTNOMAH,41051,2009-03-17T00:00:00.000Z,ALT REF,2009-03-17T00:00:00.000Z,PLACES OF WORSHIP,21306674,-122.6420163,45.5230434,BUDDHIST,THERAVADA,NOT AVAILABLE,NOT AVAILABLE,N,N
5966,10432713,CEDAR MILL BIBLE CHURCH,PORTLAND,OR,97229,5612,WASHINGTON,41067,2009-03-13T00:00:00.000Z,ALT REF,2009-03-13T00:00:00.000Z,CHURCHES,711769183,-122.8024641,45.5257573,CHRISTIAN,NONDENOM,NOT AVAILABLE,NOT AVAILABLE,Y,N
5980,10432716,NEW HOPE COMMUNITY CHURCH,PORTLAND,OR,97086,7536,CLACKAMAS,41005,2007-09-10T00:00:00.000Z,ALT REF,2007-09-10T00:00:00.000Z,CHURCHES,21321157,-122.5657073,45.4374838,CHRISTIAN,NONDENOM,NOT AVAILABLE,NOT AVAILABLE,Y,N