OBJECTID,ID,NAME,CITY,STATE,ZIP,ZIPP4,COUNTY,FIPS,CONTDATE,CONTHOW,GEODATE,NAICSDESCR,GEOLINKID,X,Y,SUBTYPE,DENOM,MEMBERS,LOC_TYPE,PROT,CATH
18429,10582819,THE WAY OF THE CROSS BAPTIST CHURCH,PHILADELPHIA,MS,39350,NULL,NESHOBA,28099,2009-07-31T00:00:00.000Z,ALT REF,2009-07-31T00:00:00.000Z,CHURCHES,99211532,-89.1854956,32.9116106,CHRISTIAN,BAPT,NOT AVAILABLE,NOT AVAILABLE,Y,N
18453,10434249,FIRST BAPTIST CHURCH PHILADELPHIA,PHILADELPHIA,MS,39350,2934,NESHOBA,28099,2009-07-02T00:00:00.000Z,ALT REF,2009-07-02T00:00:00.000Z,CHURCHES,99214014,-89.1086717,32.7728193,CHRISTIAN,SBC,921,NOT AVAILABLE,Y,N
18509,10460806,FIRST PRESBYTERIAN CHURCH,PHILADELPHIA,MS,39350,2428,NESHOBA,28099,2008-02-28T00:00:00.000Z,ALT REF,2008-09-05T00:00:00.000Z,CHURCHES,99317662,-89.1079701,32.7706934,CHRISTIAN,PCA,NOT AVAILABLE,NOT AVAILABLE,Y,N
17337,10460783,CAROLINA PRESBYTERIAN CHURCH,PHILADELPHIA,MS,39350,NULL,NESHOBA,28099,2008-03-03T00:00:00.000Z,ALT REF,2008-03-03T00:00:00.000Z,CHURCHES,99319529,-89.3050169,32.698233,CHRISTIAN,PCA,NOT AVAILABLE,NOT AVAILABLE,Y,N
16584,10454649,MOUNT NEBO MISSIONARY BAPTIST CHURCH,PHILADELPHIA,MS,39350,3451,NESHOBA,28099,2008-03-04T00:00:00.000Z,ALT REF,2008-03-04T00:00:00.000Z,CHURCHES,99317273,-89.1173632,32.7812464,CHRISTIAN,NBC,NOT AVAILABLE,NOT AVAILABLE,Y,N
23970,10578298,PHILADELPHIA BAPTIST CHURCH,PHILADELPHIA,MO,63463,NULL,MARION,29127,2009-05-20T00:00:00.000Z,ALT REF,2009-05-20T00:00:00.000Z,CHURCHES,124802823,-91.7429864,39.8428841,CHRISTIAN,BAPT,NOT AVAILABLE,NOT AVAILABLE,Y,N
37217,10428245,JACOB AND ESTHER STIFFEL SENIOR CENTER,PHILADELPHIA,PA,19148,3851,PHILADELPHIA,42101,2007-07-27T00:00:00.000Z,PHONE,2007-07-27T00:00:00.000Z,SYNAGOGUES,18725711,-75.1581942,39.9175474,JUDAIC,NOT AVAILABLE,NOT AVAILABLE,NOT AVAILABLE,N,N
37221,10445393,SAINT JOACHIM ROMAN CATHOLIC CHURCH,PHILADELPHIA,PA,19124,3923,PHILADELPHIA,42101,2007-09-06T00:00:00.000Z,ALT REF,2007-09-06T00:00:00.000Z,CHURCHES,125413630,-75.0899104,40.0120172,CHRISTIAN,NOT AVAILABLE,NOT AVAILABLE,NOT AVAILABLE,N,Y
37222,10445402,SAINT MADELEINE SOPHIE CHURCH,PHILADELPHIA,PA,19119,3233,PHILADELPHIA,42101,2007-09-06T00:00:00.000Z,ALT REF,2007-09-06T00:00:00.000Z,CHURCHES,18697441,-75.1892649,40.041739,CHRISTIAN,NOT AVAILABLE,NOT AVAILABLE,NOT AVAILABLE,N,Y
37223,10442562,HOLY NAME OF JESUS CHURCH,PHILADELPHIA,PA,19125,2816,PHILADELPHIA,42101,2007-09-06T00:00:00.000Z,ALT REF,2007-09-07T00:00:00.000Z,CHURCHES,18712996,-75.1277286,39.975762,CHRISTIAN,NOT AVAILABLE,NOT AVAILABLE,NOT AVAILABLE,N,Y
37230,10443240,SAINT MARON MARONITE CHURCH,PHILADELPHIA,PA,19147,4622,PHILADELPHIA,42101,2007-09-06T00:00:00.000Z,ALT REF,2007-09-06T00:00:00.000Z,CHURCHES,18722146,-75.160456,39.9358082,CHRISTIAN,NOT AVAILABLE,NOT AVAILABLE,NOT AVAILABLE,N,Y
37232,10427128,TEMPLE BETH AMI,PHILADELPHIA,PA,19115,4615,PHILADELPHIA,42101,2007-08-01T00:00:00.000Z,PHONE,2007-08-01T00:00:00.000Z,SYNAGOGUES,18687020,-75.039171,40.0804618,JUDAIC,NOT AVAILABLE,NOT AVAILABLE,SYNAGOGUE,N,N
37238,10454107,PLEASANT GROVE BAPTIST CHURCH,PHILADELPHIA,PA,19121,1811,PHILADELPHIA,42101,2008-02-21T00:00:00.000Z,ALT REF,2008-02-21T00:00:00.000Z,CHURCHES,18711405,-75.1842049,39.9849987,CHRISTIAN,NBC,NOT AVAILABLE,NOT AVAILABLE,Y,N
37241,10431198,MASJIDULLAH INCORPORATED,PHILADELPHIA,PA,19150,1819,PHILADELPHIA,42101,2009-05-22T00:00:00.000Z,ALT REF,2009-05-22T00:00:00.000Z,"MOSQUES, RELIGIOUS",18689191,-75.1578161,40.0708559,MUSLIM,NOT AVAILABLE,NOT AVAILABLE,NOT AVAILABLE,N,N
37244,10467863,LIBERTI CHURCH - ROXBOROUGH,PHILADELPHIA,PA,19128,1401,PHILADELPHIA,42101,2008-03-04T00:00:00.000Z,ALT REF,2008-03-04T00:00:00.000Z,CHURCHES,18695295,-75.2248732,40.05089,CHRISTIAN,NOT AVAILABLE,NOT AVAILABLE,NOT AVAILABLE,Y,N
37246,10467861,FIRST PRESBYTERIAN CHURCH IN KENSINGTON,PHILADELPHIA,PA,19125,3306,PHILADELPHIA,42101,2008-03-04T00:00:00.000Z,ALT REF,2008-03-04T00:00:00.000Z,CHURCHES,18714289,-75.1296893,39.970087,CHRISTIAN,NOT AVAILABLE,NOT AVAILABLE,NOT AVAILABLE,Y,N
37249,10441194,EMMANUEL EPISCOPAL CHURCH - HOLMESBURG,PHILADELPHIA,PA,19136,2735,PHILADELPHIA,42101,2009-05-18T00:00:00.000Z,ALT REF,2009-05-18T00:00:00.000Z,CHURCHES,710866832,-75.0232118,40.042839,CHRISTIAN,EPIS,NOT AVAILABLE,NOT AVAILABLE,Y,N
37250,10453069,REDEEMER TABERNACLE BAPTIST CHURCH,PHILADELPHIA,PA,19139,1502,PHILADELPHIA,42101,2009-05-15T00:00:00.000Z,ALT REF,2009-05-15T00:00:00.000Z,CHURCHES,723521032,-75.2240656,39.9636847,CHRISTIAN,NBC,NOT AVAILABLE,NOT AVAILABLE,Y,N
37252,10442424,PHILADELPHIA HOLY REDEEMER CHINESE CATHOLIC CHURCH,PHILADELPHIA,PA,19107,NULL,PHILADELPHIA,42101,2009-07-22T00:00:00.000Z,ALT REF,2009-07-22T00:00:00.000Z,CHURCHES,727649380,-75.1548117,39.9574535,CHRISTIAN,NOT AVAILABLE,NOT AVAILABLE,NOT AVAILABLE,N,Y
37253,10445396,SAINT JOHN THE EVANGELIST CATHOLIC CHURCH,PHILADELPHIA,PA,19107,3316,PHILADELPHIA,42101,2009-05-13T00:00:00.000Z,ALT REF,2009-05-13T00:00:00.000Z,CHURCHES,18718736,-75.1613273,39.9512127,CHRISTIAN,NOT AVAILABLE,NOT AVAILABLE,NOT AVAILABLE,N,Y
37254,10445364,SAINT BRIDGET CHURCH,PHILADELPHIA,PA,19129,1712,PHILADELPHIA,42101,2009-05-13T00:00:00.000Z,ALT REF,2009-05-13T00:00:00.000Z,CHURCHES,125370603,-75.1935758,40.0107654,CHRISTIAN,NOT AVAILABLE,NOT AVAILABLE,NOT AVAILABLE,N,Y
37255,10453580,SECOND TIMOTHY BAPTIST CHURCH,PHILADELPHIA,PA,19139,1711,PHILADELPHIA,42101,2009-05-01T00:00:00.000Z,ALT REF,2009-05-14T00:00:00.000Z,CHURCHES,18715773,-75.2201605,39.9665099,CHRISTIAN,NBC,NOT AVAILABLE,NOT AVAILABLE,Y,N
37256,10445355,SAINT ANSELM CHURCH,PHILADELPHIA,PA,19154,1424,PHILADELPHIA,42101,2009-05-13T00:00:00.000Z,ALT REF,2009-05-13T00:00:00.000Z,CHURCHES,18683226,-74.9720059,40.1026001,CHRISTIAN,NOT AVAILABLE,NOT AVAILABLE,NOT AVAILABLE,N,Y
37257,10441198,SAINT JAMES CHURCH OF KINGSESSING,PHILADELPHIA,PA,19142,1822,PHILADELPHIA,42101,2009-05-06T00:00:00.000Z,ALT REF,2009-05-06T00:00:00.000Z,CHURCHES,18725275,-75.23894,39.9216491,CHRISTIAN,EPIS,NOT AVAILABLE,NOT AVAILABLE,Y,N
37258,10454286,SECOND NAZARETH MISSIONARY BAPTIST CHURCH,PHILADELPHIA,PA,19145,1417,PHILADELPHIA,42101,2009-05-01T00:00:00.000Z,ALT REF,2009-05-01T00:00:00.000Z,CHURCHES,18723191,-75.1750571,39.9311345,CHRISTIAN,NBC,NOT AVAILABLE,NOT AVAILABLE,Y,N
37259,10441182,CHURCH OF THE CRUCIFIXION,PHILADELPHIA,PA,19147,2038,PHILADELPHIA,42101,2009-06-01T00:00:00.000Z,ALT REF,2009-06-23T00:00:00.000Z,CHURCHES,18720754,-75.1560303,39.9418022,CHRISTIAN,EPIS,NOT AVAILABLE,NOT AVAILABLE,Y,N
37261,10445361,SAINT BARTHOLOMEW ROMAN CATHOLIC CHURCH,PHILADELPHIA,PA,19124,1536,PHILADELPHIA,42101,2007-09-06T00:00:00.000Z,ALT REF,2007-09-06T00:00:00.000Z,CHURCHES,18704162,-75.0663622,40.0177301,CHRISTIAN,NOT AVAILABLE,NOT AVAILABLE,NOT AVAILABLE,N,Y
37268,10432740,DELIVERANCE EVANGELISTIC CHURCH,PHILADELPHIA,PA,19132,2652,PHILADELPHIA,42101,2007-09-12T00:00:00.000Z,ALT REF,2007-09-10T00:00:00.000Z,CHURCHES,18709535,-75.1646413,39.9959855,CHRISTIAN,UNK,NOT AVAILABLE,NOT AVAILABLE,Y,N
37276,10434431,EZEKIEL BAPTIST CHURCH,PHILADELPHIA,PA,19143,6107,PHILADELPHIA,42101,2007-09-20T00:00:00.000Z,ALT REF,2007-09-20T00:00:00.000Z,CHURCHES,18723619,-75.2216029,39.9309757,CHRISTIAN,SBC,856,NOT AVAILABLE,Y,N
37277,10434571,MOUNT AIRY BAPTIST CHURCH,PHILADELPHIA,PA,19138,NULL,PHILADELPHIA,42101,2007-09-20T00:00:00.000Z,ALT REF,2007-09-20T00:00:00.000Z,CHURCHES,18692142,-75.1515584,40.0589268,CHRISTIAN,SBC,800,NOT AVAILABLE,Y,N
37278,10445418,OUR LADY OF MOUNT CARMEL CHURCH,PHILADELPHIA,PA,19148,4019,PHILADELPHIA,42101,2007-09-06T00:00:00.000Z,ALT REF,2007-09-06T00:00:00.000Z,CHURCHES,18725472,-75.1518613,39.9191292,CHRISTIAN,NOT AVAILABLE,NOT AVAILABLE,NOT AVAILABLE,N,Y
37280,10577597,FAITH INDEPENDENT BAPTIST CHURCH,PHILADELPHIA,PA,19145,5619,PHILADELPHIA,42101,2009-07-13T00:00:00.000Z,ALT REF,2009-06-25T00:00:00.000Z,CHURCHES,18726571,-75.1855973,39.9116274,CHRISTIAN,BAPT,NOT AVAILABLE,NOT AVAILABLE,Y,N
37282,10448134,SACRED HEART OF JESUS CHURCH,PHILADELPHIA,PA,19147,6031,PHILADELPHIA,42101,2008-03-27T00:00:00.000Z,ALT REF,2008-03-27T00:00:00.000Z,CHURCHES,18723239,-75.1502299,39.9307835,CHRISTIAN,NOT AVAILABLE,NOT AVAILABLE,NOT AVAILABLE,N,Y
37295,10438819,THE CHURCH OF JESUS CHRIST OF LATTER DAY SAINTS - PHILADELPHIA 1ST WARD,PHILADELPHIA,PA,19104,3110,PHILADELPHIA,42101,2007-10-16T00:00:00.000Z,ALT REF,2007-10-16T00:00:00.000Z,CHURCHES,18718093,-75.2004973,39.9557381,CHRISTIAN,LDS,NOT AVAILABLE,NOT AVAILABLE,Y,N
37296,10439130,THE CHURCH OF JESUS CHRIST OF LATTER DAY SAINTS - PHILADELPHIA 3RD (YOUNG SINGLE ADULT) WARD,PHILADELPHIA,PA,19104,3110,PHILADELPHIA,42101,2007-10-16T00:00:00.000Z,ALT REF,2007-10-16T00:00:00.000Z,CHURCHES,18718093,-75.2004993,39.9557397,CHRISTIAN,LDS,NOT AVAILABLE,NOT AVAILABLE,Y,N
37297,10439236,THE CHURCH OF JESUS CHRIST OF LATTER DAY SAINTS - SOUTH PHILADELPHIA BRANCH,PHILADELPHIA,PA,19145,4625,PHILADELPHIA,42101,2007-10-16T00:00:00.000Z,ALT REF,2007-10-16T00:00:00.000Z,CHURCHES,18725892,-75.171534,39.9175105,CHRISTIAN,LDS,NOT AVAILABLE,NOT AVAILABLE,Y,N
37298,10439958,THE CHURCH OF JESUS CHRIST OF LATTER DAY SAINTS - PHILADELPHIA 4TH WARD,PHILADELPHIA,PA,19104,3110,PHILADELPHIA,42101,2007-10-16T00:00:00.000Z,ALT REF,2007-10-16T00:00:00.000Z,CHURCHES,18718093,-75.2004969,39.9557367,CHRISTIAN,LDS,NOT AVAILABLE,NOT AVAILABLE,Y,N
37300,10589242,SECOND BAPTIST CHURCH OF NICETOWN,PHILADELPHIA,PA,19140,3621,PHILADELPHIA,42101,2009-05-14T00:00:00.000Z,ALT REF,2009-05-14T00:00:00.000Z,CHURCHES,18706086,-75.1515461,40.0119482,CHRISTIAN,ABC,NOT AVAILABLE,NOT AVAILABLE,Y,N
37303,10441179,SAINT BARTHOLOMEW'S CHURCH,PHILADELPHIA,PA,19135,4015,PHILADELPHIA,42101,2007-11-07T00:00:00.000Z,ALT REF,2007-11-07T00:00:00.000Z,CHURCHES,18703610,-75.0600525,40.0190604,CHRISTIAN,EPIS,NOT AVAILABLE,NOT AVAILABLE,Y,N
37304,10441181,CHURCH OF SAINT MARTIN-IN-THE-FIELDS,PHILADELPHIA,PA,19118,4101,PHILADELPHIA,42101,2007-11-07T00:00:00.000Z,ALT REF,2007-11-07T00:00:00.000Z,CHURCHES,18690863,-75.2067136,40.0653855,CHRISTIAN,EPIS,NOT AVAILABLE,NOT AVAILABLE,Y,N
37305,10441190,SAINT MARTIN'S EPISCOPAL KOREAN CONGREGATION,PHILADELPHIA,PA,19104,7701,PHILADELPHIA,42101,2007-11-07T00:00:00.000Z,ALT REF,2007-11-07T00:00:00.000Z,CHURCHES,125383818,-75.1978783,39.9556458,CHRISTIAN,EPIS,NOT AVAILABLE,NOT AVAILABLE,Y,N
37306,10441191,SAINT MARY'S CHURCH,PHILADELPHIA,PA,19146,1429,PHILADELPHIA,42101,2007-11-06T00:00:00.000Z,ALT REF,2007-11-06T00:00:00.000Z,CHURCHES,18720352,-75.1730889,39.9438985,CHRISTIAN,EPIS,NOT AVAILABLE,NOT AVAILABLE,Y,N
37307,10441196,SAINT DAVID'S EPISCOPAL CHURCH,PHILADELPHIA,PA,19127,1249,PHILADELPHIA,42101,2007-11-07T00:00:00.000Z,ALT REF,2007-11-07T00:00:00.000Z,CHURCHES,18701724,-75.2271489,40.0291389,CHRISTIAN,EPIS,NOT AVAILABLE,NOT AVAILABLE,Y,N
37308,10441200,PHILADELPHIA CATHEDRAL,PHILADELPHIA,PA,19104,7701,PHILADELPHIA,42101,2007-11-07T00:00:00.000Z,ALT REF,2007-11-07T00:00:00.000Z,CHURCHES,125383818,-75.1978783,39.9556476,CHRISTIAN,EPIS,NOT AVAILABLE,NOT AVAILABLE,Y,N
37309,10441202,CHURCH OF THE ADVOCATE,PHILADELPHIA,PA,19121,NULL,PHILADELPHIA,42101,2007-11-08T00:00:00.000Z,ALT REF,2007-11-14T00:00:00.000Z,CHURCHES,125375056,-75.1632044,39.9859708,CHRISTIAN,EPIS,NOT AVAILABLE,NOT AVAILABLE,Y,N
37310,10441205,CHRIST CHURCH,PHILADELPHIA,PA,19106,4509,PHILADELPHIA,42101,2007-11-08T00:00:00.000Z,ALT REF,2007-11-08T00:00:00.000Z,CHURCHES,18718741,-75.1438152,39.9507127,CHRISTIAN,EPIS,NOT AVAILABLE,NOT AVAILABLE,Y,N
37311,10441211,SAINT DISMAS MISSION CONGREGATION,PHILADELPHIA,PA,19146,1429,PHILADELPHIA,42101,2007-11-06T00:00:00.000Z,ALT REF,2007-11-06T00:00:00.000Z,CHURCHES,18720352,-75.1730925,39.9439004,CHRISTIAN,EPIS,NOT AVAILABLE,NOT AVAILABLE,Y,N
37312,10441212,SAINT JOHN'S EPISCOPAL CHURCH,PHILADELPHIA,PA,19134,3144,PHILADELPHIA,42101,2007-11-08T00:00:00.000Z,ALT REF,2007-11-14T00:00:00.000Z,CHURCHES,18644344,-75.1148637,39.9926283,CHRISTIAN,EPIS,NOT AVAILABLE,NOT AVAILABLE,Y,N
37313,10441215,CHRIST CHURCH AND SAINT AMBROSE,PHILADELPHIA,PA,19140,4506,PHILADELPHIA,42101,2007-11-09T00:00:00.000Z,ALT REF,2007-11-14T00:00:00.000Z,CHURCHES,18707589,-75.1395257,40.0059438,CHRISTIAN,EPIS,NOT AVAILABLE,NOT AVAILABLE,Y,N
37314,10441216,GRACE CHURCH AND THE INCARNATION,PHILADELPHIA,PA,19134,5529,PHILADELPHIA,42101,2007-11-08T00:00:00.000Z,ALT REF,2007-11-14T00:00:00.000Z,CHURCHES,18644667,-75.0930537,39.9894355,CHRISTIAN,EPIS,NOT AVAILABLE,NOT AVAILABLE,Y,N
37315,10441219,CHURCH OF THE RESURRECTION - MAYFAIR,PHILADELPHIA,PA,19149,1615,PHILADELPHIA,42101,2007-11-07T00:00:00.000Z,ALT REF,2007-11-07T00:00:00.000Z,CHURCHES,18697652,-75.0461825,40.0385834,CHRISTIAN,EPIS,NOT AVAILABLE,NOT AVAILABLE,Y,N
37316,10441221,CHURCH OF THE HOLY APOSTLES AND THE MEDIATOR,PHILADELPHIA,PA,19139,NULL,PHILADELPHIA,42101,2007-11-07T00:00:00.000Z,ALT REF,2007-11-07T00:00:00.000Z,CHURCHES,18718381,-75.2244143,39.9546159,CHRISTIAN,EPIS,NOT AVAILABLE,NOT AVAILABLE,Y,N
37320,10588946,ANDORRA BAPTIST CHURCH,PHILADELPHIA,PA,19128,2023,PHILADELPHIA,42101,2009-05-04T00:00:00.000Z,ALT REF,2009-05-04T00:00:00.000Z,CHURCHES,18691093,-75.2394837,40.0664307,CHRISTIAN,ABC,NOT AVAILABLE,NOT AVAILABLE,Y,N
37325,10448232,CHRIST THE KING UKRAINIAN CATHOLIC CHURCH,PHILADELPHIA,PA,19140,1825,PHILADELPHIA,42101,2009-05-06T00:00:00.000Z,ALT REF,2009-05-06T00:00:00.000Z,CHURCHES,18703699,-75.153007,40.0208008,CHRISTIAN,NOT AVAILABLE,NOT AVAILABLE,NOT AVAILABLE,N,Y
37330,10445353,CHURCH OF SAINT ANNE,PHILADELPHIA,PA,19125,2340,PHILADELPHIA,42101,2007-09-06T00:00:00.000Z,ALT REF,2007-09-06T00:00:00.000Z,CHURCHES,18645668,-75.1187848,39.982365,CHRISTIAN,NOT AVAILABLE,NOT AVAILABLE,NOT AVAILABLE,N,Y
37331,10445354,ANNUNCIATION BLESSED VIRGIN MARY CHURCH,PHILADELPHIA,PA,19147,6309,PHILADELPHIA,42101,2007-09-07T00:00:00.000Z,ALT REF,2007-09-06T00:00:00.000Z,CHURCHES,18723312,-75.1608866,39.9305638,CHRISTIAN,NOT AVAILABLE,NOT AVAILABLE,NOT AVAILABLE,N,Y
37332,10445356,ASCENSION OF OUR LORD CHURCH,PHILADELPHIA,PA,19134,1815,PHILADELPHIA,42101,2007-09-06T00:00:00.000Z,ALT REF,2007-09-06T00:00:00.000Z,CHURCHES,18643502,-75.1166956,39.998832,CHRISTIAN,NOT AVAILABLE,NOT AVAILABLE,NOT AVAILABLE,N,Y
37333,10445357,SAINT ATHANASIUS CATHOLIC CHURCH,PHILADELPHIA,PA,19138,1315,PHILADELPHIA,42101,2007-09-06T00:00:00.000Z,ALT REF,2007-09-06T00:00:00.000Z,CHURCHES,18691288,-75.1547497,40.0622601,CHRISTIAN,NOT AVAILABLE,NOT AVAILABLE,NOT AVAILABLE,N,Y
37334,10445358,SAINT AUGUSTINE CATHOLIC CHURCH,PHILADELPHIA,PA,19106,NULL,PHILADELPHIA,42101,2007-09-06T00:00:00.000Z,ALT REF,2007-09-06T00:00:00.000Z,CHURCHES,18717814,-75.1464539,39.9555526,CHRISTIAN,NOT AVAILABLE,NOT AVAILABLE,NOT AVAILABLE,N,Y
37335,10445359,SAINT BARBARA'S CHURCH,PHILADELPHIA,PA,19131,2334,PHILADELPHIA,42101,2007-09-06T00:00:00.000Z,ALT REF,2007-09-06T00:00:00.000Z,CHURCHES,18711174,-75.2313545,39.9879201,CHRISTIAN,NOT AVAILABLE,NOT AVAILABLE,NOT AVAILABLE,N,Y
37336,10445362,SAINT BENEDICT'S CATHOLIC CHURCH,PHILADELPHIA,PA,19138,3012,PHILADELPHIA,42101,2007-09-06T00:00:00.000Z,ALT REF,2007-09-06T00:00:00.000Z,CHURCHES,18694140,-75.1514332,40.0512658,CHRISTIAN,NOT AVAILABLE,NOT AVAILABLE,NOT AVAILABLE,N,Y
37337,10445363,SAINT BERNARD'S CHURCH,PHILADELPHIA,PA,19136,NULL,PHILADELPHIA,42101,2007-09-06T00:00:00.000Z,ALT REF,2007-09-06T00:00:00.000Z,CHURCHES,18698582,-75.0351587,40.0340295,CHRISTIAN,NOT AVAILABLE,NOT AVAILABLE,NOT AVAILABLE,N,Y
37338,10445365,SAINT CALLISTUS CHURCH,PHILADELPHIA,PA,19151,3625,PHILADELPHIA,42101,2007-09-06T00:00:00.000Z,ALT REF,2007-09-06T00:00:00.000Z,CHURCHES,18756912,-75.2540606,39.9740244,CHRISTIAN,NOT AVAILABLE,NOT AVAILABLE,NOT AVAILABLE,N,Y
37339,10445366,SAINT CASIMIR'S LITHUANIAN CHURCH,PHILADELPHIA,PA,19147,5225,PHILADELPHIA,42101,2007-09-06T00:00:00.000Z,ALT REF,2007-09-06T00:00:00.000Z,CHURCHES,18722969,-75.1507813,39.931688,CHRISTIAN,NOT AVAILABLE,NOT AVAILABLE,NOT AVAILABLE,N,Y
37340,10445368,SAINT CHARLES BORROMEO ROMAN CATHOLIC CHURCH,PHILADELPHIA,PA,19146,2609,PHILADELPHIA,42101,2007-09-06T00:00:00.000Z,ALT REF,2007-09-06T00:00:00.000Z,CHURCHES,18721067,-75.1762585,39.9410618,CHRISTIAN,NOT AVAILABLE,NOT AVAILABLE,NOT AVAILABLE,N,Y
37341,10445369,CHRIST THE KING CHURCH,PHILADELPHIA,PA,19114,1524,PHILADELPHIA,42101,2007-09-06T00:00:00.000Z,ALT REF,2007-09-06T00:00:00.000Z,CHURCHES,18687645,-74.9953905,40.0756697,CHRISTIAN,NOT AVAILABLE,NOT AVAILABLE,NOT AVAILABLE,N,Y
37342,10445372,SAINT DONATO CHURCH,PHILADELPHIA,PA,19151,4004,PHILADELPHIA,42101,2007-09-06T00:00:00.000Z,ALT REF,2007-09-06T00:00:00.000Z,CHURCHES,18715154,-75.2492275,39.9694296,CHRISTIAN,NOT AVAILABLE,NOT AVAILABLE,NOT AVAILABLE,N,Y
37343,10445373,CHURCH OF THE EPIPHANY,PHILADELPHIA,PA,19148,3050,PHILADELPHIA,42101,2007-09-06T00:00:00.000Z,ALT REF,2007-09-06T00:00:00.000Z,CHURCHES,18724903,-75.1650728,39.9227434,CHRISTIAN,NOT AVAILABLE,NOT AVAILABLE,NOT AVAILABLE,N,Y
37344,10445374,SAINT FRANCIS OF ASSISI CHURCH,PHILADELPHIA,PA,19144,6067,PHILADELPHIA,42101,2007-09-06T00:00:00.000Z,ALT REF,2007-09-06T00:00:00.000Z,CHURCHES,18702001,-75.1633098,40.0267936,CHRISTIAN,NOT AVAILABLE,NOT AVAILABLE,NOT AVAILABLE,N,Y
37345,10445375,SAINT FRANCIS DE SALES CHURCH,PHILADELPHIA,PA,19143,3668,PHILADELPHIA,42101,2007-09-07T00:00:00.000Z,ALT REF,2007-09-06T00:00:00.000Z,CHURCHES,18719795,-75.2152871,39.9474719,CHRISTIAN,NOT AVAILABLE,NOT AVAILABLE,NOT AVAILABLE,N,Y
37346,10445376,SAINT FRANCIS XAVIER - THE ORATORY,PHILADELPHIA,PA,19130,3120,PHILADELPHIA,42101,2007-09-06T00:00:00.000Z,ALT REF,2007-09-06T00:00:00.000Z,CHURCHES,18715704,-75.1768725,39.9662024,CHRISTIAN,NOT AVAILABLE,NOT AVAILABLE,NOT AVAILABLE,N,Y
37347,10445377,SAINT GABRIEL ROMAN CATHOLIC CHURCH,PHILADELPHIA,PA,19146,3511,PHILADELPHIA,42101,2007-09-06T00:00:00.000Z,ALT REF,2007-09-06T00:00:00.000Z,CHURCHES,18722459,-75.1930677,39.9352218,CHRISTIAN,NOT AVAILABLE,NOT AVAILABLE,NOT AVAILABLE,N,Y
37348,10445378,SAINT GEORGE'S CHURCH,PHILADELPHIA,PA,19134,6124,PHILADELPHIA,42101,2007-09-06T00:00:00.000Z,ALT REF,2007-09-06T00:00:00.000Z,CHURCHES,18644886,-75.0931899,39.9886341,CHRISTIAN,NOT AVAILABLE,NOT AVAILABLE,NOT AVAILABLE,N,Y
37349,10445379,SAINT HELENA'S CHURCH,PHILADELPHIA,PA,19120,1422,PHILADELPHIA,42101,2007-09-06T00:00:00.000Z,ALT REF,2007-09-06T00:00:00.000Z,CHURCHES,18696116,-75.1280471,40.0450756,CHRISTIAN,NOT AVAILABLE,NOT AVAILABLE,NOT AVAILABLE,N,Y
37350,10445380,HOLY ANGELS CHURCH (KOREAN),PHILADELPHIA,PA,19126,2111,PHILADELPHIA,42101,2007-09-06T00:00:00.000Z,ALT REF,2007-09-06T00:00:00.000Z,CHURCHES,18691923,-75.1391324,40.059911,CHRISTIAN,NOT AVAILABLE,NOT AVAILABLE,NOT AVAILABLE,N,Y
37351,10445382,HOLY INNOCENTS CHURCH,PHILADELPHIA,PA,19124,4938,PHILADELPHIA,42101,2007-09-06T00:00:00.000Z,ALT REF,2007-09-06T00:00:00.000Z,CHURCHES,18705862,-75.1016273,40.0112007,CHRISTIAN,NOT AVAILABLE,NOT AVAILABLE,NOT AVAILABLE,N,Y
37352,10445386,SAINT HUGH OF CLUNY CHURCH,PHILADELPHIA,PA,19140,NULL,PHILADELPHIA,42101,2007-09-06T00:00:00.000Z,ALT REF,2007-09-06T00:00:00.000Z,CHURCHES,18707846,-75.129414,40.0037944,CHRISTIAN,NOT AVAILABLE,NOT AVAILABLE,NOT AVAILABLE,N,Y
37353,10445387,SAINT IGNATIUS CATHOLIC CHURCH,PHILADELPHIA,PA,19104,NULL,PHILADELPHIA,42101,2007-09-06T00:00:00.000Z,ALT REF,2007-09-06T00:00:00.000Z,CHURCHES,18716443,-75.2096303,39.9639587,CHRISTIAN,NOT AVAILABLE,NOT AVAILABLE,NOT AVAILABLE,N,Y
37354,10445388,IMMACULATE CONCEPTION,PHILADELPHIA,PA,19123,1717,PHILADELPHIA,42101,2007-09-05T00:00:00.000Z,ALT REF,2007-09-05T00:00:00.000Z,CHURCHES,18715493,-75.13739,39.9660681,CHRISTIAN,NOT AVAILABLE,NOT AVAILABLE,NOT AVAILABLE,N,Y
37355,10445389,IMMACULATE CONCEPTION CATHOLIC CHURCH,PHILADELPHIA,PA,19138,1807,PHILADELPHIA,42101,2007-09-05T00:00:00.000Z,ALT REF,2007-09-05T00:00:00.000Z,CHURCHES,18694846,-75.1616366,40.0497361,CHRISTIAN,NOT AVAILABLE,NOT AVAILABLE,NOT AVAILABLE,N,Y
37356,10445390,INCARNATION OF OUR LORD CHURCH,PHILADELPHIA,PA,19120,3320,PHILADELPHIA,42101,2007-09-05T00:00:00.000Z,ALT REF,2007-09-05T00:00:00.000Z,CHURCHES,18700929,-75.1316429,40.028951,CHRISTIAN,NOT AVAILABLE,NOT AVAILABLE,NOT AVAILABLE,N,Y
37357,10445397,SAINT JOSAPHAT CHURCH (POLISH),PHILADELPHIA,PA,19127,NULL,PHILADELPHIA,42101,2007-09-06T00:00:00.000Z,ALT REF,2007-09-06T00:00:00.000Z,CHURCHES,18702697,-75.2214016,40.026276,CHRISTIAN,NOT AVAILABLE,NOT AVAILABLE,NOT AVAILABLE,N,Y
37358,10445399,SAINT KATHERINE OF SIENNA CHURCH,PHILADELPHIA,PA,19114,2815,PHILADELPHIA,42101,2007-09-06T00:00:00.000Z,ALT REF,2007-09-06T00:00:00.000Z,CHURCHES,18691046,-74.99219,40.0602036,CHRISTIAN,NOT AVAILABLE,NOT AVAILABLE,NOT AVAILABLE,N,Y
37359,10445400,SAINT LAURENTIUS CHURCH (POLISH),PHILADELPHIA,PA,19125,2804,PHILADELPHIA,42101,2007-09-06T00:00:00.000Z,ALT REF,2007-09-06T00:00:00.000Z,CHURCHES,18712745,-75.1293991,39.9766435,CHRISTIAN,NOT AVAILABLE,NOT AVAILABLE,NOT AVAILABLE,N,Y
37360,10445401,SAINT LUCY CHURCH (ITALIAN),PHILADELPHIA,PA,19127,1232,PHILADELPHIA,42101,2007-09-06T00:00:00.000Z,ALT REF,2007-09-06T00:00:00.000Z,CHURCHES,18702005,-75.2259783,40.0280309,CHRISTIAN,NOT AVAILABLE,NOT AVAILABLE,NOT AVAILABLE,N,Y
37361,10445403,SAINT MALACHY'S CHURCH,PHILADELPHIA,PA,19122,3410,PHILADELPHIA,42101,2007-09-06T00:00:00.000Z,ALT REF,2007-09-06T00:00:00.000Z,CHURCHES,18713566,-75.1529911,39.9744176,CHRISTIAN,NOT AVAILABLE,NOT AVAILABLE,NOT AVAILABLE,N,Y
37362,10445404,SAINT MARTHA ROMAN CATHOLIC CHURCH,PHILADELPHIA,PA,19154,3304,PHILADELPHIA,42101,2007-09-06T00:00:00.000Z,ALT REF,2007-09-06T00:00:00.000Z,CHURCHES,18686122,-74.9852429,40.0878125,CHRISTIAN,NOT AVAILABLE,NOT AVAILABLE,NOT AVAILABLE,N,Y
37363,10445405,SAINT MARTIN DE PORRES CATHOLIC CHURCH,PHILADELPHIA,PA,19132,3234,PHILADELPHIA,42101,2007-09-06T00:00:00.000Z,ALT REF,2007-09-06T00:00:00.000Z,CHURCHES,18709387,-75.1702511,39.9956771,CHRISTIAN,NOT AVAILABLE,NOT AVAILABLE,NOT AVAILABLE,N,Y
37364,10445406,SAINT MARTIN OF TOURS CHURCH,PHILADELPHIA,PA,19124,1045,PHILADELPHIA,42101,2007-09-06T00:00:00.000Z,ALT REF,2007-09-06T00:00:00.000Z,CHURCHES,18699780,-75.0860519,40.0322977,CHRISTIAN,NOT AVAILABLE,NOT AVAILABLE,NOT AVAILABLE,N,Y
37365,10445409,MATER DOLOROSA CHURCH (ITALIAN),PHILADELPHIA,PA,19124,4641,PHILADELPHIA,42101,2007-09-06T00:00:00.000Z,ALT REF,2007-09-06T00:00:00.000Z,CHURCHES,18706107,-75.087324,40.0093033,CHRISTIAN,NOT AVAILABLE,NOT AVAILABLE,NOT AVAILABLE,N,Y
37366,10445410,SAINT MONICA PARISH,PHILADELPHIA,PA,19145,4001,PHILADELPHIA,42101,2007-09-05T00:00:00.000Z,ALT REF,2007-09-05T00:00:00.000Z,CHURCHES,18725180,-75.1756769,39.9210287,CHRISTIAN,NOT AVAILABLE,NOT AVAILABLE,NOT AVAILABLE,N,Y
37367,10445411,MOST BLESSED SACRAMENT (AFRICAN/AMERICAN),PHILADELPHIA,PA,19143,NULL,PHILADELPHIA,42101,2007-09-05T00:00:00.000Z,ALT REF,2007-09-05T00:00:00.000Z,CHURCHES,18722064,-75.2257262,39.9373967,CHRISTIAN,NOT AVAILABLE,NOT AVAILABLE,NOT AVAILABLE,N,Y
37368,10445412,MOTHER OF DIVINE GRACE CHURCH (ITALIAN),PHILADELPHIA,PA,19134,NULL,PHILADELPHIA,42101,2007-09-05T00:00:00.000Z,ALT REF,2007-09-05T00:00:00.000Z,CHURCHES,18645780,-75.1104142,39.9811489,CHRISTIAN,NOT AVAILABLE,NOT AVAILABLE,NOT AVAILABLE,N,Y
37369,10445413,NATIVITY OF THE BLESSED VIRGIN MARY CHURCH,PHILADELPHIA,PA,19134,5110,PHILADELPHIA,42101,2007-09-05T00:00:00.000Z,ALT REF,2007-09-05T00:00:00.000Z,CHURCHES,18645028,-75.104284,39.9867292,CHRISTIAN,NOT AVAILABLE,NOT AVAILABLE,NOT AVAILABLE,N,Y
37370,10445416,OUR LADY HELP OF CHRISTIANS - GERMAN,PHILADELPHIA,PA,19134,4447,PHILADELPHIA,42101,2007-09-05T00:00:00.000Z,ALT REF,2007-09-05T00:00:00.000Z,CHURCHES,18645045,-75.1055144,39.9870347,CHRISTIAN,NOT AVAILABLE,NOT AVAILABLE,NOT AVAILABLE,N,Y
37372,10445421,OUR LADY OF VICTORY CHURCH,PHILADELPHIA,PA,19139,2040,PHILADELPHIA,42101,2007-09-06T00:00:00.000Z,ALT REF,2007-09-06T00:00:00.000Z,CHURCHES,18716152,-75.2282712,39.9647832,CHRISTIAN,NOT AVAILABLE,NOT AVAILABLE,NOT AVAILABLE,N,Y
37373,10445423,OUR MOTHER OF SORROWS CHURCH,PHILADELPHIA,PA,19131,5136,PHILADELPHIA,42101,2007-09-06T00:00:00.000Z,ALT REF,2007-09-06T00:00:00.000Z,CHURCHES,18714729,-75.2177711,39.9712573,CHRISTIAN,NOT AVAILABLE,NOT AVAILABLE,NOT AVAILABLE,N,Y
37374,10445424,SAINT PATRICK PARISH,PHILADELPHIA,PA,19103,5602,PHILADELPHIA,42101,2007-09-05T00:00:00.000Z,ALT REF,2007-09-05T00:00:00.000Z,CHURCHES,18719212,-75.1746554,39.9490112,CHRISTIAN,NOT AVAILABLE,NOT AVAILABLE,NOT AVAILABLE,N,Y
37375,10445425,SAINT PAUL PARISH,PHILADELPHIA,PA,19147,2720,PHILADELPHIA,42101,2007-09-05T00:00:00.000Z,ALT REF,2007-09-05T00:00:00.000Z,CHURCHES,18721338,-75.1587841,39.939425,CHRISTIAN,NOT AVAILABLE,NOT AVAILABLE,NOT AVAILABLE,N,Y
37376,10445426,SAINT PETER THE APOSTLE PARISH,PHILADELPHIA,PA,19123,NULL,PHILADELPHIA,42101,2007-09-05T00:00:00.000Z,ALT REF,2007-09-05T00:00:00.000Z,CHURCHES,18714625,-75.1446055,39.9698991,CHRISTIAN,NOT AVAILABLE,NOT AVAILABLE,NOT AVAILABLE,N,Y
37377,10445427,SAINT RAYMOND OF PENAFORT PARISH,PHILADELPHIA,PA,19150,2123,PHILADELPHIA,42101,2007-09-05T00:00:00.000Z,ALT REF,2007-09-05T00:00:00.000Z,CHURCHES,18688943,-75.1674853,40.0721225,CHRISTIAN,NOT AVAILABLE,NOT AVAILABLE,NOT AVAILABLE,N,Y
37378,10445428,RESURRECTION OF OUR LORD PARISH,PHILADELPHIA,PA,19152,4209,PHILADELPHIA,42101,2007-09-05T00:00:00.000Z,ALT REF,2007-09-05T00:00:00.000Z,CHURCHES,18693202,-75.0630378,40.0537017,CHRISTIAN,NOT AVAILABLE,NOT AVAILABLE,NOT AVAILABLE,N,Y
37379,10445429,SAINT RITA OF CASCIA SHRINE,PHILADELPHIA,PA,19146,3142,PHILADELPHIA,42101,2007-09-05T00:00:00.000Z,ALT REF,2007-09-05T00:00:00.000Z,"SHRINES, RELIGIOUS",18722164,-75.1674843,39.9363058,CHRISTIAN,NOT AVAILABLE,NOT AVAILABLE,NOT AVAILABLE,N,Y
37380,10445430,SAINT STANISLAUS PARISH - POLISH,PHILADELPHIA,PA,19147,3305,PHILADELPHIA,42101,2007-09-05T00:00:00.000Z,ALT REF,2007-09-05T00:00:00.000Z,CHURCHES,18721372,-75.1475493,39.9386084,CHRISTIAN,NOT AVAILABLE,NOT AVAILABLE,NOT AVAILABLE,N,Y
37381,10445431,STELLA MARIS PARISH,PHILADELPHIA,PA,19148,5010,PHILADELPHIA,42101,2007-09-05T00:00:00.000Z,ALT REF,2007-09-05T00:00:00.000Z,CHURCHES,18726530,-75.1646477,39.9131023,CHRISTIAN,NOT AVAILABLE,NOT AVAILABLE,NOT AVAILABLE,N,Y
37382,10445432,SAINT THERESE OF THE CHILD JESUS,PHILADELPHIA,PA,19119,3824,PHILADELPHIA,42101,2007-09-05T00:00:00.000Z,ALT REF,2007-09-05T00:00:00.000Z,CHURCHES,18692586,-75.1748062,40.0594109,CHRISTIAN,NOT AVAILABLE,NOT AVAILABLE,NOT AVAILABLE,N,Y
37383,10445434,SAINT TIMOTHY PARISH,PHILADELPHIA,PA,19149,3135,PHILADELPHIA,42101,2007-09-05T00:00:00.000Z,ALT REF,2007-09-05T00:00:00.000Z,CHURCHES,18699998,-75.0609155,40.0307059,CHRISTIAN,NOT AVAILABLE,NOT AVAILABLE,NOT AVAILABLE,N,Y
37384,10445435,SAINT VERONICA PARISH,PHILADELPHIA,PA,19140,4544,PHILADELPHIA,42101,2007-09-05T00:00:00.000Z,ALT REF,2007-09-05T00:00:00.000Z,CHURCHES,18707617,-75.1391072,40.0047039,CHRISTIAN,NOT AVAILABLE,NOT AVAILABLE,NOT AVAILABLE,N,Y
37385,10445436,SAINT VINCENT DE PAUL CHURCH,PHILADELPHIA,PA,19144,2145,PHILADELPHIA,42101,2007-09-06T00:00:00.000Z,ALT REF,2007-09-05T00:00:00.000Z,CHURCHES,18698428,-75.1745722,40.0379887,CHRISTIAN,NOT AVAILABLE,NOT AVAILABLE,NOT AVAILABLE,N,Y
37386,10445437,VISITATION BLESSED VIRGIN MARY PARISH,PHILADELPHIA,PA,19125,1024,PHILADELPHIA,42101,2007-09-05T00:00:00.000Z,ALT REF,2007-09-05T00:00:00.000Z,CHURCHES,18710438,-75.1268191,39.9899714,CHRISTIAN,NOT AVAILABLE,NOT AVAILABLE,NOT AVAILABLE,N,Y
37387,10445438,SAINT WILLIAM PARISH,PHILADELPHIA,PA,19111,5621,PHILADELPHIA,42101,2007-09-05T00:00:00.000Z,ALT REF,2007-09-05T00:00:00.000Z,CHURCHES,18695061,-75.0979854,40.047702,CHRISTIAN,NOT AVAILABLE,NOT AVAILABLE,NOT AVAILABLE,N,Y
37401,10448465,SAINT MICHAEL CHURCH,PHILADELPHIA,PA,19122,3801,PHILADELPHIA,42101,2007-09-06T00:00:00.000Z,ALT REF,2007-09-06T00:00:00.000Z,CHURCHES,18713815,-75.1384724,39.9733232,CHRISTIAN,NOT AVAILABLE,NOT AVAILABLE,NOT AVAILABLE,N,Y
37402,10448725,DIVINE MERCY CHURCH,PHILADELPHIA,PA,19142,1304,PHILADELPHIA,42101,2007-09-06T00:00:00.000Z,ALT REF,2007-09-06T00:00:00.000Z,CHURCHES,18724338,-75.2404315,39.9278201,CHRISTIAN,NOT AVAILABLE,NOT AVAILABLE,NOT AVAILABLE,N,Y
37403,10589212,WE ARE MORE THAN CONQUERORS DELIVERANCE MINISTRIES,PHILADELPHIA,PA,19139,2918,PHILADELPHIA,42101,2009-06-25T00:00:00.000Z,ALT REF,2009-06-25T00:00:00.000Z,CHURCHES,723492165,-75.2463445,39.9620526,CHRISTIAN,NOT AVAILABLE,NOT AVAILABLE,NOT AVAILABLE,Y,N
37405,10454112,VINE MEMORIAL BAPTIST CHURCH,PHILADELPHIA,PA,19131,4841,PHILADELPHIA,42101,2008-02-21T00:00:00.000Z,ALT REF,2008-02-25T00:00:00.000Z,CHURCHES,18714761,-75.232783,39.9704493,CHRISTIAN,NBC,NOT AVAILABLE,NOT AVAILABLE,Y,N
37422,10456905,SAINT JOHN AFRICAN METHODIST EPISCOPAL CHURCH,PHILADELPHIA,PA,19142,1141,PHILADELPHIA,42101,2008-02-21T00:00:00.000Z,ALT REF,2008-02-21T00:00:00.000Z,CHURCHES,18725652,-75.2440902,39.9200582,CHRISTIAN,AME,NOT AVAILABLE,NOT AVAILABLE,Y,N
37423,10452673,SAINT PHILLIP BAPTIST CHURCH,PHILADELPHIA,PA,19122,4306,PHILADELPHIA,42101,2008-02-21T00:00:00.000Z,ALT REF,2008-02-21T00:00:00.000Z,CHURCHES,18714344,-75.1466377,39.971208,CHRISTIAN,NBC,NOT AVAILABLE,NOT AVAILABLE,Y,N
37424,10589209,PENNEPACK BAPTIST CHURCH,PHILADELPHIA,PA,19115,4803,PHILADELPHIA,42101,2009-05-15T00:00:00.000Z,ALT REF,2009-05-15T00:00:00.000Z,CHURCHES,18686993,-75.0512105,40.08128,CHRISTIAN,ABC,NOT AVAILABLE,NOT AVAILABLE,Y,N
37438,10456902,RUFFIN NICHOLS MEMORIAL AFRICAN METHODIST EPISCOPAL CHURCH,PHILADELPHIA,PA,19123,2504,PHILADELPHIA,42101,2008-02-21T00:00:00.000Z,ALT REF,2008-02-21T00:00:00.000Z,CHURCHES,18716049,-75.1559694,39.9637739,CHRISTIAN,AME,NOT AVAILABLE,NOT AVAILABLE,Y,N
37439,10454811,COMMUNITY BAPTIST CHURCH,PHILADELPHIA,PA,19104,4616,PHILADELPHIA,42101,2008-02-20T00:00:00.000Z,ALT REF,2008-02-20T00:00:00.000Z,CHURCHES,18717032,-75.2026156,39.9614432,CHRISTIAN,NBC,NOT AVAILABLE,NOT AVAILABLE,Y,N
37440,10455055,WAYLAND TEMPLE BAPTIST CHURCH,PHILADELPHIA,PA,19121,2815,PHILADELPHIA,42101,2008-02-21T00:00:00.000Z,ALT REF,2008-02-21T00:00:00.000Z,CHURCHES,18712169,-75.1760099,39.9807321,CHRISTIAN,NBC,NOT AVAILABLE,NOT AVAILABLE,Y,N
37441,10452318,CHRIST COMMUNITY BAPTIST CHURCH,PHILADELPHIA,PA,19104,1041,PHILADELPHIA,42101,2008-02-20T00:00:00.000Z,ALT REF,2008-02-25T00:00:00.000Z,CHURCHES,18713645,-75.2069243,39.9747147,CHRISTIAN,NBC,NOT AVAILABLE,NOT AVAILABLE,Y,N
37442,10455187,FIRST UNITED BAPTIST CHURCH,PHILADELPHIA,PA,19104,1822,PHILADELPHIA,42101,2008-02-21T00:00:00.000Z,ALT REF,2008-02-21T00:00:00.000Z,CHURCHES,18716381,-75.1970765,39.9632336,CHRISTIAN,NBC,NOT AVAILABLE,NOT AVAILABLE,Y,N
37443,10455326,FIRM HOPE BAPTIST CHURCH,PHILADELPHIA,PA,19134,4205,PHILADELPHIA,42101,2008-02-21T00:00:00.000Z,ALT REF,2008-02-21T00:00:00.000Z,CHURCHES,18730518,-75.1151268,39.98514,CHRISTIAN,NBC,NOT AVAILABLE,NOT AVAILABLE,Y,N
37444,10453860,ABYSSINIAN BAPTIST CHURCH,PHILADELPHIA,PA,19140,2924,PHILADELPHIA,42101,2008-02-20T00:00:00.000Z,ALT REF,2008-02-20T00:00:00.000Z,CHURCHES,18858897,-75.1556273,40.0183728,CHRISTIAN,NBC,NOT AVAILABLE,NOT AVAILABLE,Y,N
37445,10454540,NEW BETHLEHEM BAPTIST CHURCH,PHILADELPHIA,PA,19104,1740,PHILADELPHIA,42101,2008-02-21T00:00:00.000Z,ALT REF,2008-02-21T00:00:00.000Z,CHURCHES,18715736,-75.2041676,39.965926,CHRISTIAN,NBC,NOT AVAILABLE,NOT AVAILABLE,Y,N
37446,10455196,NEW GETHSEMANE BAPTIST CHURCH,PHILADELPHIA,PA,19138,1713,PHILADELPHIA,42101,2008-02-21T00:00:00.000Z,ALT REF,2008-02-21T00:00:00.000Z,CHURCHES,18695500,-75.163166,40.0475354,CHRISTIAN,NBC,NOT AVAILABLE,NOT AVAILABLE,Y,N
37447,10452409,CHRISTIAN HOPE BAPTIST CHURCH,PHILADELPHIA,PA,19130,1301,PHILADELPHIA,42101,2008-02-20T00:00:00.000Z,ALT REF,2008-02-20T00:00:00.000Z,CHURCHES,18713943,-75.1787315,39.9733001,CHRISTIAN,NBC,NOT AVAILABLE,NOT AVAILABLE,Y,N
37448,10454606,NEW POND BAPTIST CHURCH,PHILADELPHIA,PA,19132,3337,PHILADELPHIA,42101,2008-02-21T00:00:00.000Z,ALT REF,2008-02-21T00:00:00.000Z,CHURCHES,18709958,-75.1853281,39.9930795,CHRISTIAN,NBC,NOT AVAILABLE,NOT AVAILABLE,Y,N
37449,10452991,LOVE MISSIONARY BAPTIST FELLOWSHIP,PHILADELPHIA,PA,19141,1228,PHILADELPHIA,42101,2008-02-21T00:00:00.000Z,ALT REF,2008-02-21T00:00:00.000Z,CHURCHES,18696963,-75.1496191,40.0423786,CHRISTIAN,NBC,NOT AVAILABLE,NOT AVAILABLE,Y,N
37450,10452770,ROME EMMANUEL BAPTIST CHURCH,PHILADELPHIA,PA,19133,1112,PHILADELPHIA,42101,2008-02-20T00:00:00.000Z,ALT REF,2008-02-25T00:00:00.000Z,CHURCHES,18709822,-75.1495171,39.9930647,CHRISTIAN,NBC,NOT AVAILABLE,NOT AVAILABLE,Y,N
37451,10452664,FAITH CANAAN BAPTIST CHURCH,PHILADELPHIA,PA,19138,2311,PHILADELPHIA,42101,2008-02-20T00:00:00.000Z,ALT REF,2008-02-20T00:00:00.000Z,CHURCHES,18696111,-75.1591564,40.0441985,CHRISTIAN,NBC,NOT AVAILABLE,NOT AVAILABLE,Y,N
37452,10456850,MOTHER BETHEL AFRICAN METHODIST EPISCOPAL CHURCH,PHILADELPHIA,PA,19147,1431,PHILADELPHIA,42101,2008-02-21T00:00:00.000Z,ALT REF,2008-02-21T00:00:00.000Z,CHURCHES,18720368,-75.151793,39.9432963,CHRISTIAN,AME,NOT AVAILABLE,NOT AVAILABLE,Y,N
37453,10452669,MOUNT ZION BAPTIST CHURCH,PHILADELPHIA,PA,19136,2705,PHILADELPHIA,42101,2008-02-20T00:00:00.000Z,ALT REF,2008-02-20T00:00:00.000Z,CHURCHES,18696317,-75.0244033,40.041052,CHRISTIAN,NBC,NOT AVAILABLE,NOT AVAILABLE,Y,N
37454,10456964,TYREE AFRICAN METHODIST EPISCOPAL CHURCH,PHILADELPHIA,PA,19104,2316,PHILADELPHIA,42101,2008-02-21T00:00:00.000Z,ALT REF,2008-02-21T00:00:00.000Z,CHURCHES,18716863,-75.197213,39.9613162,CHRISTIAN,AME,NOT AVAILABLE,NOT AVAILABLE,Y,N
37456,10461117,RENEWAL PRESBYTERIAN CHURCH,PHILADELPHIA,PA,19139,4428,PHILADELPHIA,42101,2008-02-20T00:00:00.000Z,ALT REF,2008-02-20T00:00:00.000Z,CHURCHES,18718527,-75.2174083,39.9539241,CHRISTIAN,PCA,NOT AVAILABLE,NOT AVAILABLE,Y,N
37457,10460075,PHILADELPHIA CHURCH MISSION,PHILADELPHIA,PA,19115,3201,PHILADELPHIA,42101,2008-02-28T00:00:00.000Z,ALT REF,2008-02-28T00:00:00.000Z,CHURCHES,18685695,-75.0333914,40.0886534,CHRISTIAN,PCA,NOT AVAILABLE,NOT AVAILABLE,Y,N
37458,10452667,KING DAVID BAPTIST CHURCH,PHILADELPHIA,PA,19146,2951,PHILADELPHIA,42101,2008-02-20T00:00:00.000Z,ALT REF,2008-02-20T00:00:00.000Z,CHURCHES,18721720,-75.1764096,39.9379047,CHRISTIAN,NBC,NOT AVAILABLE,NOT AVAILABLE,Y,N
37459,10452663,NEW HOPE BAPTIST CHURCH,PHILADELPHIA,PA,19146,3013,PHILADELPHIA,42101,2008-02-20T00:00:00.000Z,ALT REF,2008-02-20T00:00:00.000Z,CHURCHES,18722042,-75.1708047,39.9363813,CHRISTIAN,NBC,NOT AVAILABLE,NOT AVAILABLE,Y,N
37460,10456970,WARD AFRICAN METHODIST EPISCOPAL CHURCH,PHILADELPHIA,PA,19104,1418,PHILADELPHIA,42101,2008-02-21T00:00:00.000Z,ALT REF,2008-02-21T00:00:00.000Z,CHURCHES,18715857,-75.209814,39.9658709,CHRISTIAN,AME,NOT AVAILABLE,NOT AVAILABLE,Y,N
37461,10453479,ZION BAPTIST CHURCH,PHILADELPHIA,PA,19140,4108,PHILADELPHIA,42101,2008-02-29T00:00:00.000Z,ALT REF,2008-02-29T00:00:00.000Z,CHURCHES,18706932,-75.1519927,40.0079937,CHRISTIAN,NBC,NOT AVAILABLE,NOT AVAILABLE,Y,N
37462,10452982,MOUNT EPHRAIM BAPTIST CHURCH,PHILADELPHIA,PA,19140,3806,PHILADELPHIA,42101,2008-02-29T00:00:00.000Z,ALT REF,2008-02-29T00:00:00.000Z,CHURCHES,18706972,-75.165013,40.0081374,CHRISTIAN,NBC,NOT AVAILABLE,NOT AVAILABLE,Y,N
37463,10456962,TRINITY AFRICAN METHODIST EPISCOPAL CHURCH,PHILADELPHIA,PA,19132,3522,PHILADELPHIA,42101,2008-02-21T00:00:00.000Z,ALT REF,2008-02-21T00:00:00.000Z,CHURCHES,18709861,-75.1764478,39.993815,CHRISTIAN,AME,NOT AVAILABLE,NOT AVAILABLE,Y,N
37464,10453967,GREATER EXODUS BAPTIST CHURCH,PHILADELPHIA,PA,19130,2904,PHILADELPHIA,42101,2008-02-21T00:00:00.000Z,ALT REF,2008-02-21T00:00:00.000Z,CHURCHES,18715247,-75.1606341,39.9674777,CHRISTIAN,NBC,NOT AVAILABLE,NOT AVAILABLE,Y,N
37465,10453357,UNITED BAPTIST CHURCH,PHILADELPHIA,PA,19121,4823,PHILADELPHIA,42101,2008-02-29T00:00:00.000Z,ALT REF,2008-02-29T00:00:00.000Z,CHURCHES,18713558,-75.1770765,39.9753578,CHRISTIAN,NBC,NOT AVAILABLE,NOT AVAILABLE,Y,N
37466,10456722,JONES TABERNACLE AFRICAN METHODIST EPISCOPAL CHURCH,PHILADELPHIA,PA,19121,1426,PHILADELPHIA,42101,2008-02-21T00:00:00.000Z,ALT REF,2008-02-21T00:00:00.000Z,CHURCHES,18711157,-75.1670236,39.9863519,CHRISTIAN,AME,NOT AVAILABLE,NOT AVAILABLE,Y,N
37467,10452967,OLIVET BAPTIST CHURCH,PHILADELPHIA,PA,19141,3902,PHILADELPHIA,42101,2008-02-29T00:00:00.000Z,ALT REF,2008-02-29T00:00:00.000Z,CHURCHES,18701714,-75.1403492,40.028106,CHRISTIAN,NBC,NOT AVAILABLE,NOT AVAILABLE,Y,N
37468,10455314,SHALOM BAPTIST CHURCH,PHILADELPHIA,PA,19141,3901,PHILADELPHIA,42101,2008-02-20T00:00:00.000Z,ALT REF,2008-02-20T00:00:00.000Z,CHURCHES,18701714,-75.1400887,40.0269239,CHRISTIAN,NBC,NOT AVAILABLE,NOT AVAILABLE,Y,N
37469,10454926,PINEY GROVE BAPTIST CHURCH,PHILADELPHIA,PA,19141,1503,PHILADELPHIA,42101,2008-02-29T00:00:00.000Z,ALT REF,2008-02-29T00:00:00.000Z,CHURCHES,18700730,-75.1513649,40.0303944,CHRISTIAN,NBC,NOT AVAILABLE,NOT AVAILABLE,Y,N
37470,10454288,FRIENDLY BAPTIST CHURCH,PHILADELPHIA,PA,19141,3525,PHILADELPHIA,42101,2008-02-21T00:00:00.000Z,ALT REF,2008-02-21T00:00:00.000Z,CHURCHES,18701054,-75.1442717,40.0290243,CHRISTIAN,NBC,NOT AVAILABLE,NOT AVAILABLE,Y,N
37471,10456864,MOUNT PISGAH AFRICAN METHODIST EPISCOPAL CHURCH,PHILADELPHIA,PA,19104,2236,PHILADELPHIA,42101,2008-02-21T00:00:00.000Z,ALT REF,2008-02-21T00:00:00.000Z,CHURCHES,18717092,-75.2057955,39.9610973,CHRISTIAN,AME,NOT AVAILABLE,NOT AVAILABLE,Y,N
37472,10455312,SECOND MACEDONIA BAPTIST CHURCH,PHILADELPHIA,PA,19141,2708,PHILADELPHIA,42101,2008-02-29T00:00:00.000Z,ALT REF,2008-02-29T00:00:00.000Z,CHURCHES,18701014,-75.1449066,40.0290352,CHRISTIAN,NBC,NOT AVAILABLE,NOT AVAILABLE,Y,N
37473,10461118,BETHESDA PRESBYTERIAN CHURCH,PHILADELPHIA,PA,19115,1404,PHILADELPHIA,42101,2008-02-29T00:00:00.000Z,ALT REF,2008-02-29T00:00:00.000Z,CHURCHES,125413677,-75.0321848,40.1038355,CHRISTIAN,PCA,NOT AVAILABLE,NOT AVAILABLE,Y,N
37474,10456977,ZION AFRICAN METHODIST EPISCOPAL CHURCH,PHILADELPHIA,PA,19145,1336,PHILADELPHIA,42101,2008-02-21T00:00:00.000Z,ALT REF,2008-02-25T00:00:00.000Z,CHURCHES,18723166,-75.1800619,39.9318624,CHRISTIAN,AME,NOT AVAILABLE,NOT AVAILABLE,Y,N
37475,10456939,SAINT MATTHEWS AFRICAN METHODIST EPISCOPAL CHURCH,PHILADELPHIA,PA,19139,1212,PHILADELPHIA,42101,2008-02-21T00:00:00.000Z,ALT REF,2008-02-21T00:00:00.000Z,CHURCHES,18716350,-75.2338006,39.964811,CHRISTIAN,AME,NOT AVAILABLE,NOT AVAILABLE,Y,N
37476,10454445,SHARON BAPTIST CHURCH,PHILADELPHIA,PA,19131,5426,PHILADELPHIA,42101,2008-02-21T00:00:00.000Z,ALT REF,2008-02-21T00:00:00.000Z,CHURCHES,18708559,-75.2104001,40.0034567,CHRISTIAN,NBC,NOT AVAILABLE,NOT AVAILABLE,Y,N
37477,10453482,BIBLE WAY BAPTIST CHURCH,PHILADELPHIA,PA,19131,4412,PHILADELPHIA,42101,2008-02-20T00:00:00.000Z,ALT REF,2008-02-25T00:00:00.000Z,CHURCHES,18713978,-75.2259154,39.9738359,CHRISTIAN,NBC,NOT AVAILABLE,NOT AVAILABLE,Y,N
37478,10459859,PILGRIM ORTHODOX PRESBYTERIAN CHURCH,PHILADELPHIA,PA,19128,5213,PHILADELPHIA,42101,2008-02-29T00:00:00.000Z,ALT REF,2008-02-29T00:00:00.000Z,CHURCHES,18704413,-75.2117582,40.0197459,CHRISTIAN,PCA,NOT AVAILABLE,NOT AVAILABLE,Y,N
37479,10453690,NEW TEMPLE BAPTIST CHURCH,PHILADELPHIA,PA,19146,NULL,PHILADELPHIA,42101,2008-02-29T00:00:00.000Z,ALT REF,2008-02-29T00:00:00.000Z,CHURCHES,18859716,-75.1811227,39.9422095,CHRISTIAN,NBC,NOT AVAILABLE,NOT AVAILABLE,Y,N
37480,10455625,HOLY TRINITY BAPTIST CHURCH,PHILADELPHIA,PA,19146,1807,PHILADELPHIA,42101,2008-02-21T00:00:00.000Z,ALT REF,2008-02-21T00:00:00.000Z,CHURCHES,18720352,-75.172865,39.9435289,CHRISTIAN,NBC,NOT AVAILABLE,NOT AVAILABLE,Y,N
37481,10456542,MOUNT TABOR AFRICAN METHODIST EPISCOPAL CHURCH,PHILADELPHIA,PA,19123,1301,PHILADELPHIA,42101,2008-02-21T00:00:00.000Z,ALT REF,2008-02-21T00:00:00.000Z,CHURCHES,18715052,-75.1481379,39.9690687,CHRISTIAN,AME,NOT AVAILABLE,NOT AVAILABLE,Y,N
37482,10452674,SHILOH BAPTIST CHURCH,PHILADELPHIA,PA,19146,2619,PHILADELPHIA,42101,2008-02-21T00:00:00.000Z,ALT REF,2008-02-21T00:00:00.000Z,CHURCHES,18720951,-75.1770818,39.9411811,CHRISTIAN,NBC,NOT AVAILABLE,NOT AVAILABLE,Y,N
37483,10461122,TENTH PRESBYTERIAN CHURCH,PHILADELPHIA,PA,19103,6714,PHILADELPHIA,42101,2008-02-29T00:00:00.000Z,ALT REF,2008-02-29T00:00:00.000Z,CHURCHES,18719649,-75.1699402,39.9472991,CHRISTIAN,PCA,NOT AVAILABLE,NOT AVAILABLE,Y,N
37484,10455155,ENON BAPTIST CHURCH,PHILADELPHIA,PA,19130,3903,PHILADELPHIA,42101,2008-02-20T00:00:00.000Z,ALT REF,2008-02-21T00:00:00.000Z,CHURCHES,18715908,-75.168746,39.9649815,CHRISTIAN,NBC,NOT AVAILABLE,NOT AVAILABLE,Y,N
37485,10453472,GREATER HARVEST BAPTIST CHURCH,PHILADELPHIA,PA,19121,4339,PHILADELPHIA,42101,2008-02-21T00:00:00.000Z,ALT REF,2008-02-21T00:00:00.000Z,CHURCHES,18713429,-75.1594844,39.9747504,CHRISTIAN,NBC,NOT AVAILABLE,NOT AVAILABLE,Y,N
37486,10453896,CANAAN BAPTIST CHURCH,PHILADELPHIA,PA,19144,3926,PHILADELPHIA,42101,2008-02-20T00:00:00.000Z,ALT REF,2008-02-20T00:00:00.000Z,CHURCHES,18701413,-75.1776968,40.028408,CHRISTIAN,NBC,NOT AVAILABLE,NOT AVAILABLE,Y,N
37487,10455389,HOLY CROSS BAPTIST CHURCH,PHILADELPHIA,PA,19151,2502,PHILADELPHIA,42101,2008-02-29T00:00:00.000Z,ALT REF,2008-02-29T00:00:00.000Z,CHURCHES,18711954,-75.247621,39.9836807,CHRISTIAN,NBC,NOT AVAILABLE,NOT AVAILABLE,Y,N
37488,10454311,NEW HOPE TEMPLE BAPTIST CHURCH,PHILADELPHIA,PA,19147,1803,PHILADELPHIA,42101,2008-02-21T00:00:00.000Z,ALT REF,2008-02-21T00:00:00.000Z,CHURCHES,18720679,-75.1617912,39.9419172,CHRISTIAN,NBC,NOT AVAILABLE,NOT AVAILABLE,Y,N
37489,10456972,WATERS MEMORIAL AFRICAN METHODIST EPISCOPAL CHURCH,PHILADELPHIA,PA,19147,1920,PHILADELPHIA,42101,2008-02-21T00:00:00.000Z,ALT REF,2008-02-21T00:00:00.000Z,CHURCHES,18720519,-75.1597318,39.9426567,CHRISTIAN,AME,NOT AVAILABLE,NOT AVAILABLE,Y,N
37490,10461091,LIBERTI CHURCH - FAIRMOUNT,PHILADELPHIA,PA,19130,1954,PHILADELPHIA,42101,2008-02-29T00:00:00.000Z,ALT REF,2008-02-29T00:00:00.000Z,CHURCHES,18714326,-75.1764098,39.9716669,CHRISTIAN,PCA,NOT AVAILABLE,NOT AVAILABLE,Y,N
37491,10461059,CITY CHURCH,PHILADELPHIA,PA,19104,4505,PHILADELPHIA,42101,2008-02-29T00:00:00.000Z,ALT REF,2008-02-29T00:00:00.000Z,CHURCHES,18719181,-75.2068344,39.9500095,CHRISTIAN,PCA,NOT AVAILABLE,NOT AVAILABLE,Y,N
37492,10454077,MONUMENTAL BAPTIST CHURCH,PHILADELPHIA,PA,19139,4207,PHILADELPHIA,42101,2008-02-29T00:00:00.000Z,ALT REF,2008-02-29T00:00:00.000Z,CHURCHES,18718213,-75.2215547,39.9549718,CHRISTIAN,NBC,NOT AVAILABLE,NOT AVAILABLE,Y,N
37493,10455496,MOUNT ZION BAPTIST CHURCH,PHILADELPHIA,PA,19143,5105,PHILADELPHIA,42101,2008-02-21T00:00:00.000Z,ALT REF,2008-02-21T00:00:00.000Z,CHURCHES,18721532,-75.2133772,39.9398743,CHRISTIAN,NBC,NOT AVAILABLE,NOT AVAILABLE,Y,N
37494,10453493,NEW MACEDONIA MISSIONARY BAPTIST CHURCH,PHILADELPHIA,PA,19145,1444,PHILADELPHIA,42101,2008-02-29T00:00:00.000Z,ALT REF,2008-02-29T00:00:00.000Z,CHURCHES,18723384,-75.1780747,39.9305514,CHRISTIAN,NBC,NOT AVAILABLE,NOT AVAILABLE,Y,N
37495,10454149,TRIUMPH BAPTIST CHURCH,PHILADELPHIA,PA,19140,1107,PHILADELPHIA,42101,2008-02-21T00:00:00.000Z,ALT REF,2008-02-25T00:00:00.000Z,CHURCHES,18703307,-75.1515875,40.0216502,CHRISTIAN,NBC,NOT AVAILABLE,NOT AVAILABLE,Y,N
37496,10455140,MOORES MEMORIAL BAPTIST,PHILADELPHIA,PA,19132,4508,PHILADELPHIA,42101,2008-02-21T00:00:00.000Z,ALT REF,2008-02-21T00:00:00.000Z,CHURCHES,18710778,-75.1572323,39.9882152,CHRISTIAN,NBC,NOT AVAILABLE,NOT AVAILABLE,Y,N
37497,10453092,BEREAN BAPTIST CHURCH,PHILADELPHIA,PA,19132,1304,PHILADELPHIA,42101,2008-03-04T00:00:00.000Z,ALT REF,2008-03-04T00:00:00.000Z,CHURCHES,18708635,-75.1709518,40.0009931,CHRISTIAN,NBC,NOT AVAILABLE,NOT AVAILABLE,Y,N
37498,10460033,GRACEPOINT CHURCH,PHILADELPHIA,PA,19126,2116,PHILADELPHIA,42101,2008-02-29T00:00:00.000Z,ALT REF,2008-02-29T00:00:00.000Z,CHURCHES,18691546,-75.1356913,40.0607731,CHRISTIAN,PCA,NOT AVAILABLE,NOT AVAILABLE,Y,N
37503,10456890,NEW BETHEL AFRICAN METHODIST EPISCOPAL CHURCH,PHILADELPHIA,PA,19144,2047,PHILADELPHIA,42101,2008-03-04T00:00:00.000Z,ALT REF,2008-03-04T00:00:00.000Z,CHURCHES,18697312,-75.1795179,40.0421234,CHRISTIAN,AME,NOT AVAILABLE,NOT AVAILABLE,Y,N
37504,10589113,NEW HOPE FREEWILL BAPTIST CHURCH,PHILADELPHIA,PA,19130,1531,PHILADELPHIA,42101,2009-06-26T00:00:00.000Z,ALT REF,2009-06-26T00:00:00.000Z,CHURCHES,18859456,-75.1660427,39.9714211,CHRISTIAN,NOT AVAILABLE,NOT AVAILABLE,NOT AVAILABLE,Y,N
37512,10589128,WYOMING AVENUE BAPTIST CHURCH,PHILADELPHIA,PA,19120,4429,PHILADELPHIA,42101,2009-06-26T00:00:00.000Z,ALT REF,2009-06-26T00:00:00.000Z,CHURCHES,18703286,-75.1232522,40.0217259,CHRISTIAN,NOT AVAILABLE,NOT AVAILABLE,NOT AVAILABLE,Y,N
37520,10589201,OLNEY BAPTIST CHURCH,PHILADELPHIA,PA,19120,2354,PHILADELPHIA,42101,2009-05-05T00:00:00.000Z,ALT REF,2009-05-05T00:00:00.000Z,CHURCHES,18698188,-75.1265536,40.0377381,CHRISTIAN,ABC,NOT AVAILABLE,NOT AVAILABLE,Y,N
37522,10456739,UNION AFRICAN METHODIST EPISCOPAL CHURCH,PHILADELPHIA,PA,19121,4218,PHILADELPHIA,42101,2009-05-04T00:00:00.000Z,ALT REF,2009-05-04T00:00:00.000Z,CHURCHES,18712993,-75.1620119,39.9761728,CHRISTIAN,AME,NOT AVAILABLE,NOT AVAILABLE,Y,N
37523,10455294,46TH STREET BAPTIST CHURCH,PHILADELPHIA,PA,19143,3801,PHILADELPHIA,42101,2009-05-04T00:00:00.000Z,ALT REF,2009-05-04T00:00:00.000Z,CHURCHES,18720339,-75.2097625,39.9447479,CHRISTIAN,NBC,NOT AVAILABLE,NOT AVAILABLE,Y,N
37526,10453952,SOLID ROCK BAPTIST CHURCH,PHILADELPHIA,PA,19146,2915,PHILADELPHIA,42101,2009-05-14T00:00:00.000Z,ALT REF,2009-05-14T00:00:00.000Z,CHURCHES,18721918,-75.1747913,39.9367612,CHRISTIAN,NBC,NOT AVAILABLE,NOT AVAILABLE,Y,N
37536,10589147,THE CALVARY BAPTIST CHURCH OF PHILADELPHIA,PHILADELPHIA,PA,19130,2938,PHILADELPHIA,42101,2009-06-26T00:00:00.000Z,ALT REF,2009-06-26T00:00:00.000Z,CHURCHES,18715405,-75.1635686,39.9666965,CHRISTIAN,NOT AVAILABLE,NOT AVAILABLE,NOT AVAILABLE,Y,N
37545,10588957,BRIGHT HOPE BAPTIST CHURCH,PHILADELPHIA,PA,19122,NULL,PHILADELPHIA,42101,2009-04-30T00:00:00.000Z,ALT REF,2009-04-30T00:00:00.000Z,CHURCHES,18712850,-75.1538323,39.9774775,CHRISTIAN,ABC,NOT AVAILABLE,NOT AVAILABLE,Y,N
37552,11531324,CHINESE CHRISTIAN CHURCH AND CENTER - VINE STREET CAMPUS,PHILADELPHIA,PA,19107,1212,PHILADELPHIA,42101,2009-07-22T00:00:00.000Z,ALT REF,2009-07-22T00:00:00.000Z,CHURCHES,24749256,-75.1571944,39.9576858,CHRISTIAN,NOT AVAILABLE,NOT AVAILABLE,NOT AVAILABLE,Y,N
37556,10453743,CELESTIAL ZION BAPTIST CHURCH,PHILADELPHIA,PA,19140,4035,PHILADELPHIA,42101,2009-05-05T00:00:00.000Z,ALT REF,2009-05-06T00:00:00.000Z,CHURCHES,18707000,-75.1568228,40.0080247,CHRISTIAN,NBC,NOT AVAILABLE,NOT AVAILABLE,Y,N
37558,10441213,CHURCH OF SAINT JOHN THE EVANGELIST,PHILADELPHIA,PA,19147,6031,PHILADELPHIA,42101,2007-11-09T00:00:00.000Z,ALT REF,2007-11-09T00:00:00.000Z,CHURCHES,18723239,-75.1502275,39.9307829,CHRISTIAN,EPIS,NOT AVAILABLE,NOT AVAILABLE,Y,N
37563,10589256,TABERNACLE HAITIAN BAPTIST CHURCH,PHILADELPHIA,PA,19144,1827,PHILADELPHIA,42101,2009-05-12T00:00:00.000Z,ALT REF,2009-05-12T00:00:00.000Z,CHURCHES,18700053,-75.1623745,40.0319117,CHRISTIAN,ABC,NOT AVAILABLE,NOT AVAILABLE,Y,N
37568,10448231,SAINT NICHOLAS CHURCH,PHILADELPHIA,PA,19130,1953,PHILADELPHIA,42101,2007-09-06T00:00:00.000Z,ALT REF,2007-09-06T00:00:00.000Z,CHURCHES,18714326,-75.1762834,39.9720175,CHRISTIAN,NOT AVAILABLE,NOT AVAILABLE,NOT AVAILABLE,N,Y
37573,10440236,CHURCH OF EMMANUEL AND THE GOOD SHEPHERD,PHILADELPHIA,PA,19125,1718,PHILADELPHIA,42101,2007-11-06T00:00:00.000Z,ALT REF,2007-11-06T00:00:00.000Z,CHURCHES,18711673,-75.1251468,39.9828582,CHRISTIAN,EPIS,NOT AVAILABLE,NOT AVAILABLE,Y,N
37574,10454797,UNITED MISSIONARY BAPTIST CHURCH,PHILADELPHIA,PA,19139,3026,PHILADELPHIA,42101,2008-02-29T00:00:00.000Z,ALT REF,2008-02-29T00:00:00.000Z,CHURCHES,18716879,-75.2422855,39.9624618,CHRISTIAN,NBC,NOT AVAILABLE,NOT AVAILABLE,Y,N
37578,10453936,MOUNT OLIVE BAPTIST CHURCH,PHILADELPHIA,PA,19104,1949,PHILADELPHIA,42101,2008-02-21T00:00:00.000Z,ALT REF,2008-02-25T00:00:00.000Z,CHURCHES,18716046,-75.196419,39.9648303,CHRISTIAN,NBC,NOT AVAILABLE,NOT AVAILABLE,Y,N
37583,10443016,SAINT LEO THE GREAT CHURCH,PHILADELPHIA,PA,19135,NULL,PHILADELPHIA,42101,2007-09-06T00:00:00.000Z,ALT REF,2007-09-06T00:00:00.000Z,CHURCHES,18702957,-75.0448087,40.0216996,CHRISTIAN,NOT AVAILABLE,NOT AVAILABLE,NOT AVAILABLE,N,Y
37585,10445350,ALL SAINTS CATHOLIC CHURCH,PHILADELPHIA,PA,19137,NULL,PHILADELPHIA,42101,2007-09-06T00:00:00.000Z,ALT REF,2007-09-06T00:00:00.000Z,CHURCHES,18707957,-75.0700903,40.0015619,CHRISTIAN,NOT AVAILABLE,NOT AVAILABLE,NOT AVAILABLE,N,Y
37590,10442667,IMMACULATE HEART OF MARY CHURCH,PHILADELPHIA,PA,19128,2117,PHILADELPHIA,42101,2007-09-06T00:00:00.000Z,ALT REF,2007-09-06T00:00:00.000Z,CHURCHES,18691132,-75.2355988,40.0646128,CHRISTIAN,NOT AVAILABLE,NOT AVAILABLE,NOT AVAILABLE,N,Y
37595,10455512,NEW UMBRIA BAPTIST CHURCH,PHILADELPHIA,PA,19127,2115,PHILADELPHIA,42101,2008-02-21T00:00:00.000Z,ALT REF,2008-02-21T00:00:00.000Z,CHURCHES,18703486,-75.2192836,40.0234,CHRISTIAN,NBC,NOT AVAILABLE,NOT AVAILABLE,Y,N
37599,10454068,HOLY ROCK MISSIONARY BAPTIST CHURCH,PHILADELPHIA,PA,19141,1358,PHILADELPHIA,42101,2008-02-21T00:00:00.000Z,ALT REF,2008-02-21T00:00:00.000Z,CHURCHES,18695562,-75.1533301,40.046303,CHRISTIAN,NBC,NOT AVAILABLE,NOT AVAILABLE,Y,N
37603,10445419,OUR LADY OF RANSOM CHURCH,PHILADELPHIA,PA,19149,2427,PHILADELPHIA,42101,2007-09-06T00:00:00.000Z,ALT REF,2007-09-06T00:00:00.000Z,CHURCHES,18697730,-75.0630382,40.0379544,CHRISTIAN,NOT AVAILABLE,NOT AVAILABLE,NOT AVAILABLE,N,Y
37609,10442277,SAINT EDMOND CHURCH,PHILADELPHIA,PA,19145,NULL,PHILADELPHIA,42101,2007-09-06T00:00:00.000Z,ALT REF,2007-09-06T00:00:00.000Z,CHURCHES,18724305,-75.181445,39.9255856,CHRISTIAN,NOT AVAILABLE,NOT AVAILABLE,NOT AVAILABLE,N,Y
37618,10445433,SAINT THOMAS AQUINAS PARISH,PHILADELPHIA,PA,19145,1410,PHILADELPHIA,42101,2007-09-05T00:00:00.000Z,ALT REF,2007-09-05T00:00:00.000Z,CHURCHES,18723483,-75.174179,39.9302472,CHRISTIAN,NOT AVAILABLE,NOT AVAILABLE,NOT AVAILABLE,N,Y
37619,10445395,SAINT JOHN CANTIUS ROMAN CATHOLIC CHURCH (POLISH),PHILADELPHIA,PA,19137,1610,PHILADELPHIA,42101,2007-09-06T00:00:00.000Z,ALT REF,2007-09-06T00:00:00.000Z,CHURCHES,18708336,-75.0747309,40.0003344,CHRISTIAN,NOT AVAILABLE,NOT AVAILABLE,NOT AVAILABLE,N,Y
37621,10445349,SAINT AGNES - SAINT JOHN NEPOMUCENE CHURCH (SLOVAK),PHILADELPHIA,PA,19123,NULL,PHILADELPHIA,42101,2007-09-06T00:00:00.000Z,ALT REF,2007-09-06T00:00:00.000Z,CHURCHES,18716020,-75.1440854,39.9638901,CHRISTIAN,NOT AVAILABLE,NOT AVAILABLE,NOT AVAILABLE,N,Y
37624,10443208,SAINT ANDREW'S ROMAN CATHOLIC CHURCH,PHILADELPHIA,PA,19130,3219,PHILADELPHIA,42101,2007-09-06T00:00:00.000Z,ALT REF,2007-09-06T00:00:00.000Z,CHURCHES,18715536,-75.1691251,39.9664925,CHRISTIAN,NOT AVAILABLE,NOT AVAILABLE,NOT AVAILABLE,N,Y
37645,10441197,THE CHURCH OF SAINT LUKE AND THE EPIPHANY,PHILADELPHIA,PA,19107,5916,PHILADELPHIA,42101,2009-05-06T00:00:00.000Z,ALT REF,2009-05-06T00:00:00.000Z,CHURCHES,18719862,-75.163145,39.9459293,CHRISTIAN,EPIS,NOT AVAILABLE,NOT AVAILABLE,Y,N
37646,10581657,INDEPENDENT BAPTIST CHURCH,PHILADELPHIA,PA,19143,3106,PHILADELPHIA,42101,2009-05-22T00:00:00.000Z,ALT REF,2009-05-22T00:00:00.000Z,CHURCHES,18719857,-75.2341306,39.9469298,CHRISTIAN,BAPT,NOT AVAILABLE,NOT AVAILABLE,Y,N
37647,10581658,GRACE BAPTIST CHURCH,PHILADELPHIA,PA,19137,1716,PHILADELPHIA,42101,2009-06-25T00:00:00.000Z,ALT REF,2009-07-01T00:00:00.000Z,CHURCHES,18708000,-75.071776,40.0024528,CHRISTIAN,BAPT,NOT AVAILABLE,NOT AVAILABLE,Y,N
37650,10441209,SAINT MARKS CHURCH,PHILADELPHIA,PA,19103,6304,PHILADELPHIA,42101,2009-05-12T00:00:00.000Z,ALT REF,2009-05-12T00:00:00.000Z,CHURCHES,18719258,-75.1683638,39.948923,CHRISTIAN,EPIS,NOT AVAILABLE,NOT AVAILABLE,Y,N
37654,10432736,CALVARY CHAPEL OF PHILADELPHIA,PHILADELPHIA,PA,19116,1118,PHILADELPHIA,42101,2009-05-07T00:00:00.000Z,ALT REF,2009-05-07T00:00:00.000Z,CHURCHES,18747788,-75.0172267,40.1295785,CHRISTIAN,CAL,NOT AVAILABLE,NOT AVAILABLE,Y,N
37655,10581659,FAITH INDEPENDENT BAPTIST CHURCH,PHILADELPHIA,PA,19128,3522,PHILADELPHIA,42101,2009-05-08T00:00:00.000Z,ALT REF,2009-05-08T00:00:00.000Z,CHURCHES,18702014,-75.2141944,40.027531,CHRISTIAN,BAPT,NOT AVAILABLE,NOT AVAILABLE,Y,N
37658,10454536,FOSTER MEMORIAL BAPTIST CHURCH,PHILADELPHIA,PA,19132,4302,PHILADELPHIA,42101,2009-05-08T00:00:00.000Z,ALT REF,2009-05-08T00:00:00.000Z,CHURCHES,18710415,-75.1616371,39.9903156,CHRISTIAN,NBC,NOT AVAILABLE,NOT AVAILABLE,Y,N
37660,10581660,NEW BETHANY BAPTIST CHURCH,PHILADELPHIA,PA,19146,4245,PHILADELPHIA,42101,2009-06-26T00:00:00.000Z,ALT REF,2009-06-26T00:00:00.000Z,CHURCHES,18722625,-75.1824521,39.9343026,CHRISTIAN,NOT AVAILABLE,NOT AVAILABLE,NOT AVAILABLE,Y,N
37667,10589136,HOLMESBURG BAPTIST CHURCH,PHILADELPHIA,PA,19136,3124,PHILADELPHIA,42101,2009-05-08T00:00:00.000Z,ALT REF,2009-05-08T00:00:00.000Z,CHURCHES,18696486,-75.0288194,40.0408862,CHRISTIAN,ABC,NOT AVAILABLE,NOT AVAILABLE,Y,N
37671,10436448,SECOND PILGRIM BAPTIST CHURCH,PHILADELPHIA,PA,19130,2219,PHILADELPHIA,42101,2009-05-01T00:00:00.000Z,ALT REF,2009-05-01T00:00:00.000Z,CHURCHES,18714556,-75.1617175,39.9700326,CHRISTIAN,SBC,1000,NOT AVAILABLE,Y,N
37672,10589202,OXFORD CIRCLE BAPTIST CHURCH,PHILADELPHIA,PA,19111,5535,PHILADELPHIA,42101,2009-04-30T00:00:00.000Z,ALT REF,2009-04-30T00:00:00.000Z,CHURCHES,18697057,-75.0785024,40.0403449,CHRISTIAN,ABC,NOT AVAILABLE,NOT AVAILABLE,Y,N
37673,10442300,HOLY GHOST BYZANTINE CATHOLIC CHURCH,PHILADELPHIA,PA,19145,3207,PHILADELPHIA,42101,2009-05-08T00:00:00.000Z,ALT REF,2009-05-08T00:00:00.000Z,CHURCHES,18724764,-75.1873476,39.9238723,CHRISTIAN,NOT AVAILABLE,NOT AVAILABLE,NOT AVAILABLE,N,Y
37674,10441206,GLORIA DEI OLD SWEDES EPISCOPAL CHURCH,PHILADELPHIA,PA,19147,4332,PHILADELPHIA,42101,2009-05-01T00:00:00.000Z,ALT REF,2009-05-01T00:00:00.000Z,CHURCHES,18855422,-75.1434801,39.9344646,CHRISTIAN,EPIS,NOT AVAILABLE,NOT AVAILABLE,Y,N
37675,10452419,EBENEZER BAPTIST CHURCH,PHILADELPHIA,PA,19133,1511,PHILADELPHIA,42101,2009-05-07T00:00:00.000Z,ALT REF,2009-05-07T00:00:00.000Z,CHURCHES,18711008,-75.1487923,39.9868014,CHRISTIAN,NBC,NOT AVAILABLE,NOT AVAILABLE,Y,N
37677,10454817,MOUNT PLEASANT BAPTIST CHURCH,PHILADELPHIA,PA,19139,2043,PHILADELPHIA,42101,2009-05-01T00:00:00.000Z,ALT REF,2009-05-01T00:00:00.000Z,CHURCHES,18855452,-75.2313481,39.9657869,CHRISTIAN,NBC,NOT AVAILABLE,NOT AVAILABLE,Y,N
37680,10441226,CHURCH OF SAINT JAMES THE LESS,PHILADELPHIA,PA,19132,1822,PHILADELPHIA,42101,2009-05-06T00:00:00.000Z,ALT REF,2009-05-06T00:00:00.000Z,CHURCHES,18708035,-75.1826211,40.0042508,CHRISTIAN,EPIS,NOT AVAILABLE,NOT AVAILABLE,Y,N
37682,10455381,MORRIS CHAPEL BAPTIST CHURCH,PHILADELPHIA,PA,19133,1202,PHILADELPHIA,42101,2009-05-01T00:00:00.000Z,ALT REF,2009-05-01T00:00:00.000Z,CHURCHES,18709797,-75.1504359,39.9937333,CHRISTIAN,NBC,NOT AVAILABLE,NOT AVAILABLE,Y,N
37692,10589243,SECOND SPANISH BAPTIST CHURCH,PHILADELPHIA,PA,19124,2617,PHILADELPHIA,42101,2009-05-14T00:00:00.000Z,ALT REF,2009-05-14T00:00:00.000Z,CHURCHES,18703629,-75.0808349,40.0194575,CHRISTIAN,ABC,NOT AVAILABLE,NOT AVAILABLE,Y,N
37693,10589246,SOCIETY FOR HELPING CHURCH,PHILADELPHIA,PA,19122,1111,PHILADELPHIA,42101,2009-05-14T00:00:00.000Z,ALT REF,2009-05-14T00:00:00.000Z,CHURCHES,18711087,-75.15525,39.9863453,CHRISTIAN,ABC,NOT AVAILABLE,NOT AVAILABLE,Y,N
37697,10589249,SAINT JOHNS BAPTIST CHURCH,PHILADELPHIA,PA,19148,1031,PHILADELPHIA,42101,2009-05-13T00:00:00.000Z,ALT REF,2009-05-13T00:00:00.000Z,CHURCHES,18723410,-75.166046,39.9299895,CHRISTIAN,ABC,NOT AVAILABLE,NOT AVAILABLE,Y,N
37703,10441186,SAINT PETERS CHURCH,PHILADELPHIA,PA,19106,4212,PHILADELPHIA,42101,2009-05-12T00:00:00.000Z,ALT REF,2009-05-12T00:00:00.000Z,CHURCHES,18720294,-75.1476068,39.9431233,CHRISTIAN,EPIS,NOT AVAILABLE,NOT AVAILABLE,Y,N
37707,10452722,SMITH CHAPEL BAPTIST CHURCH,PHILADELPHIA,PA,19130,1523,PHILADELPHIA,42101,2009-05-14T00:00:00.000Z,ALT REF,2009-05-14T00:00:00.000Z,CHURCHES,18714032,-75.1666314,39.9722031,CHRISTIAN,NBC,NOT AVAILABLE,NOT AVAILABLE,Y,N
37708,10588973,CHINESE CHRISTIAN CHURCH AND CENTER - SPRING STREET CAMPUS,PHILADELPHIA,PA,19107,1820,PHILADELPHIA,42101,2009-05-05T00:00:00.000Z,ALT REF,2009-05-05T00:00:00.000Z,CHURCHES,18717748,-75.1555191,39.9560825,CHRISTIAN,ABC,NOT AVAILABLE,NOT AVAILABLE,Y,N
37709,10442522,SAINT MATTHEW CHURCH,PHILADELPHIA,PA,19149,1405,PHILADELPHIA,42101,2009-05-13T00:00:00.000Z,ALT REF,2009-05-13T00:00:00.000Z,CHURCHES,18696410,-75.0504528,40.0416359,CHRISTIAN,NOT AVAILABLE,NOT AVAILABLE,NOT AVAILABLE,N,Y
37710,10456747,BETHANY AFRICAN METHODIST EPISCOPAL CHURCH,PHILADELPHIA,PA,19136,1004,PHILADELPHIA,42101,2009-05-05T00:00:00.000Z,ALT REF,2009-05-08T00:00:00.000Z,CHURCHES,18691613,-75.0269004,40.0584886,CHRISTIAN,AME,NOT AVAILABLE,NOT AVAILABLE,Y,N
37711,10575745,SAINT JAMES AFRICAN METHODIST EPISCOPAL ZION CHURCH,PHILADELPHIA,PA,19146,4302,PHILADELPHIA,42101,2009-05-12T00:00:00.000Z,ALT REF,2009-05-12T00:00:00.000Z,CHURCHES,18722558,-75.1775004,39.9342852,CHRISTIAN,AMEZ,NOT AVAILABLE,NOT AVAILABLE,Y,N
37712,10589226,RHAWNHURST BAPTIST CHURCH,PHILADELPHIA,PA,19152,3308,PHILADELPHIA,42101,2009-05-15T00:00:00.000Z,ALT REF,2009-05-15T00:00:00.000Z,CHURCHES,18691616,-75.0514484,40.0596065,CHRISTIAN,ABC,NOT AVAILABLE,NOT AVAILABLE,Y,N
37714,10453853,SECOND BAPTIST OF FRANKFORD,PHILADELPHIA,PA,19124,3303,PHILADELPHIA,42101,2009-05-14T00:00:00.000Z,ALT REF,2009-05-14T00:00:00.000Z,CHURCHES,18705132,-75.0799487,40.0136201,CHRISTIAN,NBC,NOT AVAILABLE,NOT AVAILABLE,Y,N
37715,10452947,BETHANY BAPTIST CHURCH,PHILADELPHIA,PA,19143,5213,PHILADELPHIA,42101,2009-05-05T00:00:00.000Z,ALT REF,2009-05-05T00:00:00.000Z,CHURCHES,18721950,-75.2312514,39.9382351,CHRISTIAN,NBC,NOT AVAILABLE,NOT AVAILABLE,Y,N
37716,10441178,CHRIST CHURCH AND SAINT MICHAEL'S,PHILADELPHIA,PA,19144,2607,PHILADELPHIA,42101,2009-05-06T00:00:00.000Z,ALT REF,2009-05-06T00:00:00.000Z,CHURCHES,18697754,-75.181958,40.0406839,CHRISTIAN,EPIS,NOT AVAILABLE,NOT AVAILABLE,Y,N
37718,10683857,BUDDHA COMING TEMPLE,PHILADELPHIA,PA,19140,1636,PHILADELPHIA,42101,2009-05-29T00:00:00.000Z,ALT REF,2009-05-29T00:00:00.000Z,"TEMPLES, RELIGIOUS",18703169,-75.1263042,40.0220007,BUDDHIST,"TIBETAN, NYINGMAPA",NOT AVAILABLE,NOT AVAILABLE,N,N
37719,10441217,SAINT ANDREW AND SAINT MONICA EPISCOPAL CHURCH,PHILADELPHIA,PA,19104,2333,PHILADELPHIA,42101,2009-05-06T00:00:00.000Z,ALT REF,2009-05-06T00:00:00.000Z,CHURCHES,18716906,-75.1941934,39.9607739,CHRISTIAN,EPIS,NOT AVAILABLE,NOT AVAILABLE,Y,N
37720,10456741,ARNETT AFRICAN METHODIST EPISCOPAL CHURCH,PHILADELPHIA,PA,19143,3206,PHILADELPHIA,42101,2009-05-04T00:00:00.000Z,ALT REF,2009-05-04T00:00:00.000Z,CHURCHES,125371533,-75.2285049,39.9468073,CHRISTIAN,AME,NOT AVAILABLE,NOT AVAILABLE,Y,N
37721,10581661,FAITH BAPTIST CHURCH,PHILADELPHIA,PA,19116,3613,PHILADELPHIA,42101,2009-05-28T00:00:00.000Z,ALT REF,2009-05-28T00:00:00.000Z,CHURCHES,18682781,-75.0316216,40.10539,CHRISTIAN,BAPT,NOT AVAILABLE,NOT AVAILABLE,Y,N
37722,10455652,REDEEM BAPTIST CHURCH,PHILADELPHIA,PA,19132,3345,PHILADELPHIA,42101,2009-05-22T00:00:00.000Z,ALT REF,2009-05-22T00:00:00.000Z,CHURCHES,18710147,-75.1826629,39.9924317,CHRISTIAN,NBC,NOT AVAILABLE,NOT AVAILABLE,Y,N
37725,10454128,TRUE VINE BAPTIST CHURCH,PHILADELPHIA,PA,19133,2639,PHILADELPHIA,42101,2009-05-26T00:00:00.000Z,ALT REF,2009-05-28T00:00:00.000Z,CHURCHES,18709982,-75.1412036,39.9924797,CHRISTIAN,NBC,NOT AVAILABLE,NOT AVAILABLE,Y,N
37726,10589175,MOUNT HEBRON BAPTIST CHURCH,PHILADELPHIA,PA,19146,3138,PHILADELPHIA,42101,2009-05-27T00:00:00.000Z,ALT REF,2009-05-27T00:00:00.000Z,CHURCHES,18722480,-75.1685867,39.9344603,CHRISTIAN,ABC,NOT AVAILABLE,NOT AVAILABLE,Y,N
37727,10589267,TRUTH MEMORIAL BAPTIST CHURCH,PHILADELPHIA,PA,19131,3802,PHILADELPHIA,42101,2009-05-28T00:00:00.000Z,ALT REF,2009-05-28T00:00:00.000Z,CHURCHES,18713669,-75.233842,39.9761714,CHRISTIAN,ABC,NOT AVAILABLE,NOT AVAILABLE,Y,N
37728,10453763,GREATER EBENEZER BAPTIST CHURCH,PHILADELPHIA,PA,19140,5008,PHILADELPHIA,42101,2009-05-08T00:00:00.000Z,ALT REF,2009-05-08T00:00:00.000Z,CHURCHES,727351536,-75.1532388,40.0019571,CHRISTIAN,NBC,NOT AVAILABLE,NOT AVAILABLE,Y,N
37729,10456693,EMMANUEL AFRICAN METHODIST EPISCOPAL CHURCH,PHILADELPHIA,PA,19139,3136,PHILADELPHIA,42101,2009-05-07T00:00:00.000Z,ALT REF,2009-05-07T00:00:00.000Z,CHURCHES,18717206,-75.2395737,39.9605226,CHRISTIAN,AME,NOT AVAILABLE,NOT AVAILABLE,Y,N
37734,10589107,THE FIRST BAPTIST CHURCH OF MANAYUNK,PHILADELPHIA,PA,19127,1223,PHILADELPHIA,42101,2009-05-08T00:00:00.000Z,ALT REF,2009-05-08T00:00:00.000Z,CHURCHES,18701777,-75.2239714,40.0288815,CHRISTIAN,ABC,NOT AVAILABLE,NOT AVAILABLE,Y,N
37736,10440259,ALL SAINTS EPISCOPAL CHURCH,PHILADELPHIA,PA,19120,1616,PHILADELPHIA,42101,2009-05-18T00:00:00.000Z,ALT REF,2009-05-18T00:00:00.000Z,CHURCHES,711161023,-75.112427,40.0454563,CHRISTIAN,EPIS,NOT AVAILABLE,NOT AVAILABLE,Y,N
37737,10456849,MORRIS BROWN AFRICAN METHODIST EPISCOPAL CHURCH,PHILADELPHIA,PA,19121,2904,PHILADELPHIA,42101,2009-05-27T00:00:00.000Z,ALT REF,2009-05-27T00:00:00.000Z,CHURCHES,18712024,-75.1756883,39.9823746,CHRISTIAN,AME,NOT AVAILABLE,NOT AVAILABLE,Y,N
37739,10441192,SAINT GABRIELS EPISCOPAL CHURCH,PHILADELPHIA,PA,19120,4243,PHILADELPHIA,42101,2009-05-26T00:00:00.000Z,ALT REF,2009-05-26T00:00:00.000Z,CHURCHES,724524762,-75.1227812,40.0262742,CHRISTIAN,EPIS,NOT AVAILABLE,NOT AVAILABLE,Y,N
37740,10435725,NEW FELLOWSHIP BAPTIST CHURCH,PHILADELPHIA,PA,19142,1126,PHILADELPHIA,42101,2009-05-27T00:00:00.000Z,ALT REF,2009-05-27T00:00:00.000Z,CHURCHES,18725721,-75.2418968,39.9207498,CHRISTIAN,SBC,2000,NOT AVAILABLE,Y,N
37741,10589123,GRACE BAPTIST CHURCH OF GERMANTOWN,PHILADELPHIA,PA,19144,1909,PHILADELPHIA,42101,2009-05-08T00:00:00.000Z,ALT REF,2009-05-08T00:00:00.000Z,CHURCHES,18696243,-75.1829881,40.0456351,CHRISTIAN,ABC,NOT AVAILABLE,NOT AVAILABLE,Y,N
37743,10441203,AFRICAN EPISCOPAL CHURCH OF SAINT THOMAS,PHILADELPHIA,PA,19151,2622,PHILADELPHIA,42101,2009-05-04T00:00:00.000Z,ALT REF,2009-05-04T00:00:00.000Z,CHURCHES,18755584,-75.2509429,39.9873051,CHRISTIAN,EPIS,NOT AVAILABLE,NOT AVAILABLE,Y,N
37744,10585270,SAINT MARK OUTREACH BAPTIST CHURCH,PHILADELPHIA,PA,19133,1720,PHILADELPHIA,42101,2009-05-26T00:00:00.000Z,ALT REF,2009-05-26T00:00:00.000Z,CHURCHES,18709282,-75.1467301,39.9958486,CHRISTIAN,ABC,NOT AVAILABLE,NOT AVAILABLE,Y,N
37745,10432738,WHITE ROCK BAPTIST CHURCH,PHILADELPHIA,PA,19139,3414,PHILADELPHIA,42101,2009-05-04T00:00:00.000Z,ALT REF,2009-05-04T00:00:00.000Z,CHURCHES,722531450,-75.2268155,39.9583189,CHRISTIAN,BAPT,NOT AVAILABLE,NOT AVAILABLE,Y,N
37746,10445407,OLD SAINT MARYS CHURCH,PHILADELPHIA,PA,19106,3722,PHILADELPHIA,42101,2009-04-30T00:00:00.000Z,ALT REF,2009-04-30T00:00:00.000Z,CHURCHES,18719864,-75.1485926,39.9456843,CHRISTIAN,NOT AVAILABLE,NOT AVAILABLE,NOT AVAILABLE,N,Y
37747,10438676,THE CHURCH OF JESUS CHRIST OF LATTER DAY SAINTS - PENNYPACK WARD,PHILADELPHIA,PA,19115,1603,PHILADELPHIA,42101,2009-05-26T00:00:00.000Z,ALT REF,2009-05-26T00:00:00.000Z,CHURCHES,18683977,-75.0203276,40.0982394,CHRISTIAN,LDS,NOT AVAILABLE,NOT AVAILABLE,Y,N
37750,10456730,ALLEN AFRICAN METHODIST EPISCOPAL CHURCH,PHILADELPHIA,PA,19143,1115,PHILADELPHIA,42101,2009-05-18T00:00:00.000Z,ALT REF,2009-05-18T00:00:00.000Z,CHURCHES,18718568,-75.2406657,39.9539124,CHRISTIAN,AME,NOT AVAILABLE,NOT AVAILABLE,Y,N
37751,10441210,MEMORIAL CHURCH OF THE GOOD SHEPHERD,PHILADELPHIA,PA,19129,1030,PHILADELPHIA,42101,2009-05-27T00:00:00.000Z,ALT REF,2009-05-27T00:00:00.000Z,CHURCHES,18703528,-75.1831187,40.0223282,CHRISTIAN,EPIS,NOT AVAILABLE,NOT AVAILABLE,Y,N
37752,10685407,ZEN MEDITATION PRACTICE,PHILADELPHIA,PA,19107,6153,PHILADELPHIA,42101,2009-05-26T00:00:00.000Z,ALT REF,2009-05-26T00:00:00.000Z,PLACES OF WORSHIP,18720089,-75.1567617,39.9447675,BUDDHIST,ZEN TRADITION OF VEN. THICH NHAT HAN,NOT AVAILABLE,NOT AVAILABLE,N,N
37754,10440428,SAINT ALBAN EPISCOPAL CHURCH,PHILADELPHIA,PA,19120,NULL,PHILADELPHIA,42101,2009-05-26T00:00:00.000Z,ALT REF,2009-05-26T00:00:00.000Z,CHURCHES,18699448,-75.126345,40.0329445,CHRISTIAN,EPIS,NOT AVAILABLE,NOT AVAILABLE,Y,N
37755,10684596,BRA BUDDHA RANSI TEMPLE AND KHMER BUDDHIST HUMANITARIAN ASSOCIATION,PHILADELPHIA,PA,19148,3831,PHILADELPHIA,42101,2009-06-30T00:00:00.000Z,ALT REF,2009-06-30T00:00:00.000Z,"TEMPLES, RELIGIOUS",18725710,-75.1577498,39.9187112,BUDDHIST,THERAVADA,NOT AVAILABLE,NOT AVAILABLE,N,N
37757,10575749,POPLAR STREET AFRICAN METHODIST EPISCOPAL ZION CHURCH,PHILADELPHIA,PA,19144,1231,PHILADELPHIA,42101,2009-05-28T00:00:00.000Z,ALT REF,2009-05-26T00:00:00.000Z,CHURCHES,123403773,-75.1689601,40.0440669,CHRISTIAN,AMEZ,NOT AVAILABLE,NOT AVAILABLE,Y,N
37759,10454523,GREATER FAITH BAPTIST CHURCH,PHILADELPHIA,PA,19104,2205,PHILADELPHIA,42101,2009-05-08T00:00:00.000Z,ALT REF,2009-05-08T00:00:00.000Z,CHURCHES,18717072,-75.2039666,39.9604867,CHRISTIAN,NBC,NOT AVAILABLE,NOT AVAILABLE,Y,N
37760,10455526,FIRST AFRICAN BAPTIST CHURCH,PHILADELPHIA,PA,19146,2010,PHILADELPHIA,42101,2009-05-08T00:00:00.000Z,ALT REF,2009-05-08T00:00:00.000Z,CHURCHES,18721084,-75.1697944,39.9402367,CHRISTIAN,NBC,NOT AVAILABLE,NOT AVAILABLE,Y,N
37761,10455216,FIRST CORINTHIAN BAPTIST CHURCH,PHILADELPHIA,PA,19143,1507,PHILADELPHIA,42101,2009-05-08T00:00:00.000Z,ALT REF,2009-05-08T00:00:00.000Z,CHURCHES,18718591,-75.2244716,39.9535832,CHRISTIAN,NBC,NOT AVAILABLE,NOT AVAILABLE,Y,N
37763,10455291,NEW GALILEE MISSIONARY BAPTIST CHURCH,PHILADELPHIA,PA,19126,3851,PHILADELPHIA,42101,2009-05-26T00:00:00.000Z,ALT REF,2009-05-26T00:00:00.000Z,CHURCHES,18695418,-75.1322943,40.0469731,CHRISTIAN,NBC,NOT AVAILABLE,NOT AVAILABLE,Y,N
37764,10456715,HICKMAN TEMPLE AFRICAN METHODIST EPISCOPAL CHURCH,PHILADELPHIA,PA,19143,1626,PHILADELPHIA,42101,2009-05-22T00:00:00.000Z,ALT REF,2009-05-22T00:00:00.000Z,CHURCHES,18719695,-75.2235606,39.9482537,CHRISTIAN,AME,NOT AVAILABLE,NOT AVAILABLE,Y,N
37766,10589167,MILLCREEK BAPTIST CHURCH,PHILADELPHIA,PA,19104,1713,PHILADELPHIA,42101,2009-05-27T00:00:00.000Z,ALT REF,2009-05-27T00:00:00.000Z,CHURCHES,18716305,-75.20333,39.9640656,CHRISTIAN,ABC,NOT AVAILABLE,NOT AVAILABLE,Y,N
37767,10453355,NINETEENTH STREET BAPTIST CHURCH,PHILADELPHIA,PA,19146,2941,PHILADELPHIA,42101,2009-05-26T00:00:00.000Z,ALT REF,2009-05-27T00:00:00.000Z,CHURCHES,18722308,-75.1752019,39.9354752,CHRISTIAN,NBC,NOT AVAILABLE,NOT AVAILABLE,Y,N
37771,10589121,GOSPEL TEMPLE BAPTIST CHURCH,PHILADELPHIA,PA,19146,4602,PHILADELPHIA,42101,2009-05-08T00:00:00.000Z,ALT REF,2009-05-08T00:00:00.000Z,CHURCHES,18722502,-75.1754504,39.9344308,CHRISTIAN,ABC,NOT AVAILABLE,NOT AVAILABLE,Y,N
37772,10443238,SAINT JOSAPHATS UKRAINIAN CHURCH,PHILADELPHIA,PA,19137,1115,PHILADELPHIA,42101,2009-05-13T00:00:00.000Z,ALT REF,2009-05-13T00:00:00.000Z,CHURCHES,18706578,-75.0785318,40.007633,CHRISTIAN,NOT AVAILABLE,NOT AVAILABLE,NOT AVAILABLE,N,Y
37773,10589215,PLEASANTVIEW BAPTIST CHURCH,PHILADELPHIA,PA,19144,3640,PHILADELPHIA,42101,2009-05-22T00:00:00.000Z,ALT REF,2009-05-22T00:00:00.000Z,CHURCHES,18701944,-75.1657066,40.0268142,CHRISTIAN,ABC,NOT AVAILABLE,NOT AVAILABLE,Y,N
37774,10452666,GREATER WHITE ROCK BAPTIST CHURCH,PHILADELPHIA,PA,19139,2505,PHILADELPHIA,42101,2009-05-22T00:00:00.000Z,ALT REF,2009-05-22T00:00:00.000Z,CHURCHES,18717040,-75.2325077,39.9613949,CHRISTIAN,NBC,NOT AVAILABLE,NOT AVAILABLE,Y,N
37775,10432739,MOUNT SHARON BAPTIST CHURCH,PHILADELPHIA,PA,19130,1614,PHILADELPHIA,42101,2009-05-27T00:00:00.000Z,ALT REF,2009-05-27T00:00:00.000Z,CHURCHES,18714051,-75.1628159,39.9720883,CHRISTIAN,BAPT,NOT AVAILABLE,NOT AVAILABLE,Y,N
37776,10441223,THE MEMORIAL CHURCH OF SAINT LUKE THE BELOVED PHYSICIAN,PHILADELPHIA,PA,19115,4654,PHILADELPHIA,42101,2009-05-27T00:00:00.000Z,ALT REF,2009-05-27T00:00:00.000Z,CHURCHES,18686944,-75.0374153,40.0803671,CHRISTIAN,EPIS,NOT AVAILABLE,NOT AVAILABLE,Y,N
37777,10456846,METROPOLITAN AFRICAN METHODIST EPISCOPAL CHURCH,PHILADELPHIA,PA,19146,1845,PHILADELPHIA,42101,2009-05-27T00:00:00.000Z,ALT REF,2009-05-27T00:00:00.000Z,CHURCHES,18720488,-75.1752016,39.9431551,CHRISTIAN,AME,NOT AVAILABLE,NOT AVAILABLE,Y,N
37778,10455548,OAK GROVE BAPTIST CHURCH,PHILADELPHIA,PA,19132,2624,PHILADELPHIA,42101,2009-05-22T00:00:00.000Z,ALT REF,2009-05-22T00:00:00.000Z,CHURCHES,18709176,-75.1649838,39.9982567,CHRISTIAN,NBC,NOT AVAILABLE,NOT AVAILABLE,Y,N
37779,10453695,UNITY BAPTIST CHURCH,PHILADELPHIA,PA,19146,4249,PHILADELPHIA,42101,2009-05-26T00:00:00.000Z,ALT REF,2009-05-27T00:00:00.000Z,CHURCHES,18722939,-75.1814216,39.9327462,CHRISTIAN,NBC,NOT AVAILABLE,NOT AVAILABLE,Y,N
37780,10445408,SAINT MARY OF THE ASSUMPTION CHURCH,PHILADELPHIA,PA,19127,1327,PHILADELPHIA,42101,2009-05-13T00:00:00.000Z,ALT REF,2009-05-13T00:00:00.000Z,CHURCHES,18897687,-75.2237143,40.0280169,CHRISTIAN,NOT AVAILABLE,NOT AVAILABLE,NOT AVAILABLE,N,Y
37781,10684654,LILAC BREEZE SANGHA,PHILADELPHIA,PA,19102,4209,PHILADELPHIA,42101,2009-05-28T00:00:00.000Z,ALT REF,2009-05-28T00:00:00.000Z,PLACES OF WORSHIP,18719315,-75.1659117,39.947986,BUDDHIST,ZEN BUDDHIST MASTER THICH NHAT HAHN,NOT AVAILABLE,NOT AVAILABLE,N,N
37782,10456710,GREATER MOUNT OLIVE AFRICAN METHODIST EPISCOPAL CHURCH,PHILADELPHIA,PA,19146,1840,PHILADELPHIA,42101,2009-05-21T00:00:00.000Z,ALT REF,2009-05-21T00:00:00.000Z,CHURCHES,18720529,-75.1735972,39.9429541,CHRISTIAN,AME,NOT AVAILABLE,NOT AVAILABLE,Y,N
37784,10589250,SAINT PAULS BAPTIST CHURCH,PHILADELPHIA,PA,19123,2503,PHILADELPHIA,42101,2009-05-13T00:00:00.000Z,ALT REF,2009-05-13T00:00:00.000Z,CHURCHES,18715994,-75.1543053,39.9638935,CHRISTIAN,ABC,NOT AVAILABLE,NOT AVAILABLE,Y,N
37785,10445414,SAINT NICHOLAS OF TOLENTINE CHURCH,PHILADELPHIA,PA,19148,1662,PHILADELPHIA,42101,2009-05-13T00:00:00.000Z,ALT REF,2009-05-13T00:00:00.000Z,CHURCHES,18723944,-75.1605186,39.9277472,CHRISTIAN,NOT AVAILABLE,NOT AVAILABLE,NOT AVAILABLE,N,Y
37786,10589118,GALILEE BAPTIST CHURCH,PHILADELPHIA,PA,19128,3536,PHILADELPHIA,42101,2009-05-08T00:00:00.000Z,ALT REF,2009-05-08T00:00:00.000Z,CHURCHES,18701646,-75.2132667,40.0288434,CHRISTIAN,ABC,NOT AVAILABLE,NOT AVAILABLE,Y,N
37787,10431196,PHILADELPHIA MASJID,PHILADELPHIA,PA,19131,5231,PHILADELPHIA,42101,2009-05-26T00:00:00.000Z,ALT REF,2009-05-26T00:00:00.000Z,"MOSQUES, RELIGIOUS",18714695,-75.2161548,39.9703773,MUSLIM,NOT AVAILABLE,NOT AVAILABLE,NOT AVAILABLE,N,N
37788,10684707,MENLHA BUDDHIST CENTER,PHILADELPHIA,PA,19106,2241,PHILADELPHIA,42101,2009-05-27T00:00:00.000Z,ALT REF,2009-05-27T00:00:00.000Z,PLACES OF WORSHIP,18718885,-75.143511,39.95032,BUDDHIST,"TIBETAN, KADAMPA",NOT AVAILABLE,NOT AVAILABLE,N,N
37789,10431190,MUHAMMADS MOSQUE OF ISLAM NUMBER 12,PHILADELPHIA,PA,19132,4013,PHILADELPHIA,42101,2009-05-27T00:00:00.000Z,ALT REF,2009-05-27T00:00:00.000Z,"MOSQUES, RELIGIOUS",18710273,-75.1555746,39.9912734,MUSLIM,NOT AVAILABLE,NOT AVAILABLE,NOT AVAILABLE,N,N
37790,10431921,UNITED MUSLIM MASJID,PHILADELPHIA,PA,19146,2105,PHILADELPHIA,42101,2009-05-26T00:00:00.000Z,ALT REF,2009-05-26T00:00:00.000Z,"MOSQUES, RELIGIOUS",18721042,-75.1680165,39.9407196,MUSLIM,NOT AVAILABLE,NOT AVAILABLE,NOT AVAILABLE,N,N
37797,10456723,JOSIE D HEARD AFRICAN METHODIST EPISCOPAL CHURCH,PHILADELPHIA,PA,19127,1499,PHILADELPHIA,42101,2009-05-20T00:00:00.000Z,ALT REF,2009-05-20T00:00:00.000Z,CHURCHES,18702408,-75.2206344,40.0271856,CHRISTIAN,AME,NOT AVAILABLE,NOT AVAILABLE,Y,N
37799,10445832,CHURCH OF THE HOLY FAMILY,PHILADELPHIA,PA,19127,1014,PHILADELPHIA,42101,2009-05-20T00:00:00.000Z,ALT REF,2009-05-20T00:00:00.000Z,CHURCHES,18700512,-75.2287319,40.0328551,CHRISTIAN,NOT AVAILABLE,NOT AVAILABLE,NOT AVAILABLE,N,Y
37803,10589011,FIFTY NINTH STREET BAPTIST CHURCH,PHILADELPHIA,PA,19143,1224,PHILADELPHIA,42101,2009-05-08T00:00:00.000Z,ALT REF,2009-05-08T00:00:00.000Z,CHURCHES,18718288,-75.2397489,39.9555588,CHRISTIAN,ABC,NOT AVAILABLE,NOT AVAILABLE,Y,N
37815,10427132,YOUNG ISRAEL OF OXFORD CIRCLE,PHILADELPHIA,PA,19149,2747,PHILADELPHIA,42101,2007-08-08T00:00:00.000Z,ALT REF,2007-08-08T00:00:00.000Z,SYNAGOGUES,18697426,-75.0745205,40.0389182,JUDAIC,NOT AVAILABLE,NOT AVAILABLE,SYNAGOGUE,N,N
37820,10427124,LUBAVITCH HOUSE AT PENNSYLVANIA,PHILADELPHIA,PA,19104,4117,PHILADELPHIA,42101,2007-07-23T00:00:00.000Z,PHONE,2007-07-23T00:00:00.000Z,SYNAGOGUES,18718759,-75.2044817,39.9516695,JUDAIC,NOT AVAILABLE,NOT AVAILABLE,CENTER,N,N
37831,10428438,JEWISH CENTER OF NORTHERN LIBERTIES,PHILADELPHIA,PA,19123,2311,PHILADELPHIA,42101,2007-08-02T00:00:00.000Z,PHONE,2007-08-02T00:00:00.000Z,SYNAGOGUES,18715967,-75.1402144,39.9642356,JUDAIC,CHABAD,NOT AVAILABLE,CHABAD,N,N
37833,10589210,PEOPLES BAPTIST CHURCH,PHILADELPHIA,PA,19143,1626,PHILADELPHIA,42101,2009-05-15T00:00:00.000Z,ALT REF,2009-05-15T00:00:00.000Z,CHURCHES,18719695,-75.224822,39.9479775,CHRISTIAN,ABC,NOT AVAILABLE,NOT AVAILABLE,Y,N
37836,10427751,CONGREGATION RODEPH SHALOM,PHILADELPHIA,PA,19123,2417,PHILADELPHIA,42101,2007-07-23T00:00:00.000Z,PHONE,2007-07-23T00:00:00.000Z,SYNAGOGUES,18716064,-75.160681,39.9637792,JUDAIC,REFORM,1135,NOT AVAILABLE,N,N
37849,10427508,CONGREGATION BETH AHAVAH,PHILADELPHIA,PA,19123,2417,PHILADELPHIA,42101,2007-07-23T00:00:00.000Z,PHONE,2007-07-23T00:00:00.000Z,SYNAGOGUES,18716064,-75.160681,39.9637829,JUDAIC,REFORM,62,NOT AVAILABLE,N,N
37867,10430047,GERMANTOWN JEWISH CENTRE,PHILADELPHIA,PA,19119,3015,PHILADELPHIA,42101,2007-07-27T00:00:00.000Z,PHONE,2007-07-27T00:00:00.000Z,SYNAGOGUES,18695089,-75.1950115,40.0501895,JUDAIC,NOT AVAILABLE,NOT AVAILABLE,NOT AVAILABLE,N,N
37869,10430045,TEMPLE BETH ZION - BETH ISRAEL,PHILADELPHIA,PA,19103,6604,PHILADELPHIA,42101,2007-07-26T00:00:00.000Z,PHONE,2007-07-26T00:00:00.000Z,SYNAGOGUES,18719531,-75.1714223,39.9475881,JUDAIC,NOT AVAILABLE,NOT AVAILABLE,NOT AVAILABLE,N,N
37887,10428543,LUBAVITCH OF NORTHWEST PHILADELPHIA,PHILADELPHIA,PA,19119,3053,PHILADELPHIA,42101,2007-08-08T00:00:00.000Z,ALT REF,2007-08-08T00:00:00.000Z,SYNAGOGUES,18695261,-75.1958131,40.0491263,JUDAIC,CHABAD,NOT AVAILABLE,CHABAD,N,N
37888,10428788,VA'ADAH L'DOVREI IVRIT CHABAD,PHILADELPHIA,PA,19107,4811,PHILADELPHIA,42101,2007-08-08T00:00:00.000Z,ALT REF,2007-08-08T00:00:00.000Z,SYNAGOGUES,18718864,-75.1607534,39.9501983,JUDAIC,CHABAD,NOT AVAILABLE,CHABAD,N,N
37889,10428622,LUBAVITCH CENTER FOR RUSSIAN JEWRY,PHILADELPHIA,PA,19116,1613,PHILADELPHIA,42101,2007-08-01T00:00:00.000Z,PHONE,2007-08-01T00:00:00.000Z,SYNAGOGUES,18748407,-75.0146844,40.1265116,JUDAIC,CHABAD,NOT AVAILABLE,CHABAD,N,N
37891,10428791,LUBAVITCH CENTER,PHILADELPHIA,PA,19152,4025,PHILADELPHIA,42101,2007-07-30T00:00:00.000Z,PHONE,2007-07-30T00:00:00.000Z,SYNAGOGUES,18692323,-75.0612546,40.0567021,JUDAIC,CHABAD,NOT AVAILABLE,CHABAD,N,N
37892,10429023,B'NAI JACOB-DERSHU TOV,PHILADELPHIA,PA,19111,5408,PHILADELPHIA,42101,2007-07-26T00:00:00.000Z,PHONE,2007-07-26T00:00:00.000Z,SYNAGOGUES,18695736,-75.0812484,40.0447275,JUDAIC,ORTHODOX,NOT AVAILABLE,NOT AVAILABLE,N,N
37896,10427116,B'NAI ISRAEL- OHEV ZEDEK,PHILADELPHIA,PA,19152,2718,PHILADELPHIA,42101,2007-07-24T00:00:00.000Z,PHONE,2007-07-24T00:00:00.000Z,SYNAGOGUES,19442687,-75.0532173,40.0643117,JUDAIC,NOT AVAILABLE,NOT AVAILABLE,SYNAGOGUE,N,N
37897,10427112,CONGREGATIONS OF SHARE SHAMAYIM,PHILADELPHIA,PA,19115,1921,PHILADELPHIA,42101,2007-07-23T00:00:00.000Z,PHONE,2007-07-23T00:00:00.000Z,SYNAGOGUES,18684091,-75.0448434,40.0997968,JUDAIC,NOT AVAILABLE,NOT AVAILABLE,SYNAGOGUE,N,N
37898,10427109,ADATH ZION CONGREGATION,PHILADELPHIA,PA,19111,4100,PHILADELPHIA,42101,2007-08-02T00:00:00.000Z,PHONE,2007-08-02T00:00:00.000Z,SYNAGOGUES,18693152,-75.0765646,40.05351,JUDAIC,NOT AVAILABLE,NOT AVAILABLE,SYNAGOGUE,N,N
37913,10427273,LEV HA-IR - HEART OF THE CITY,PHILADELPHIA,PA,19103,5735,PHILADELPHIA,42101,2007-07-24T00:00:00.000Z,PHONE,2007-07-24T00:00:00.000Z,SYNAGOGUES,18719244,-75.172996,39.9486097,JUDAIC,RECONSTRUCTIONIST,NOT AVAILABLE,SYNAGOGUE,N,N
37916,10428976,RAIM AHUVIM,PHILADELPHIA,PA,19131,1214,PHILADELPHIA,42101,2007-08-08T00:00:00.000Z,ALT REF,2007-08-08T00:00:00.000Z,SYNAGOGUES,18710896,-75.2418738,39.9894068,JUDAIC,NUSACH SEFARD,NOT AVAILABLE,NOT AVAILABLE,N,N
37925,10429389,BEIT HARAMBAM CONGREGATION,PHILADELPHIA,PA,19115,2009,PHILADELPHIA,42101,2007-07-30T00:00:00.000Z,PHONE,2007-07-30T00:00:00.000Z,SYNAGOGUES,18683128,-75.0350314,40.103805,JUDAIC,SEPHARDIC,NOT AVAILABLE,NOT AVAILABLE,N,N
37935,10427133,YOUNG PEOPLES CONGREGATION,PHILADELPHIA,PA,19148,3252,PHILADELPHIA,42101,2007-07-23T00:00:00.000Z,PHONE,2007-07-23T00:00:00.000Z,SYNAGOGUES,18725265,-75.1596218,39.9203877,JUDAIC,NOT AVAILABLE,NOT AVAILABLE,SYNAGOGUE,N,N
37951,10427118,CONGREGATION NER ZEDEK EZRATH,PHILADELPHIA,PA,19152,4108,PHILADELPHIA,42101,2007-07-23T00:00:00.000Z,PHONE,2007-07-23T00:00:00.000Z,SYNAGOGUES,18693760,-75.0571756,40.0514279,JUDAIC,NOT AVAILABLE,NOT AVAILABLE,SYNAGOGUE,N,N
37955,10429397,MISHKAN SHALOM,PHILADELPHIA,PA,19128,3509,PHILADELPHIA,42101,2007-08-01T00:00:00.000Z,PHONE,2007-08-01T00:00:00.000Z,SYNAGOGUES,18702598,-75.2121929,40.0264009,JUDAIC,RECONSTRUCTIONIST,NOT AVAILABLE,NOT AVAILABLE,N,N
37957,10429391,B'NAI ABRAHAM,PHILADELPHIA,PA,19147,1414,PHILADELPHIA,42101,2007-07-27T00:00:00.000Z,PHONE,2007-07-27T00:00:00.000Z,SYNAGOGUES,18720386,-75.151327,39.9431307,JUDAIC,NUSACH ASHKENAZ,NOT AVAILABLE,NOT AVAILABLE,N,N
37958,10429390,CONGREGATION BETH SOLOMON SYNAGOGUE AND COMMUNITY CENTER,PHILADELPHIA,PA,19116,3116,PHILADELPHIA,42101,2007-08-01T00:00:00.000Z,PHONE,2007-08-01T00:00:00.000Z,SYNAGOGUES,18904202,-75.0356419,40.1195224,JUDAIC,ORTHODOX,NOT AVAILABLE,NOT AVAILABLE,N,N
37959,10429388,AHAVAS TORAH,PHILADELPHIA,PA,19111,2803,PHILADELPHIA,42101,2007-08-01T00:00:00.000Z,PHONE,2007-07-30T00:00:00.000Z,SYNAGOGUES,18689640,-75.0648874,40.0681857,JUDAIC,NUSACH SEFARD,NOT AVAILABLE,NOT AVAILABLE,N,N
37962,10428243,JEWISH COMMUNITY CENTER - KLEIN BRANCH,PHILADELPHIA,PA,19116,3832,PHILADELPHIA,42101,2007-07-26T00:00:00.000Z,PHONE,2007-07-26T00:00:00.000Z,SYNAGOGUES,18683469,-75.0210127,40.101646,JUDAIC,NOT AVAILABLE,NOT AVAILABLE,NOT AVAILABLE,N,N
37963,10428241,CHARLES AND ELIZABETH GERSHMAN JEWISH COMMUNITY CENTER,PHILADELPHIA,PA,19147,1111,PHILADELPHIA,42101,2007-07-27T00:00:00.000Z,PHONE,2007-07-27T00:00:00.000Z,SYNAGOGUES,18720100,-75.1647201,39.9452116,JUDAIC,NOT AVAILABLE,NOT AVAILABLE,NOT AVAILABLE,N,N
37969,10427117,CONGREGATION MIKVEH ISRAEL,PHILADELPHIA,PA,19106,NULL,PHILADELPHIA,42101,2007-07-27T00:00:00.000Z,PHONE,2007-07-27T00:00:00.000Z,SYNAGOGUES,18718678,-75.1476115,39.951293,JUDAIC,NOT AVAILABLE,NOT AVAILABLE,SYNAGOGUE,N,N
37973,10431820,MAKKAH MASJID,PHILADELPHIA,PA,19122,1111,PHILADELPHIA,42101,2007-10-08T00:00:00.000Z,ALT REF,2007-10-08T00:00:00.000Z,"MOSQUES, RELIGIOUS",18711104,-75.1547109,39.9863218,MUSLIM,NOT AVAILABLE,NOT AVAILABLE,NOT AVAILABLE,N,N
37978,10431741,MASJID AL-ISLAM,PHILADELPHIA,PA,19128,4921,PHILADELPHIA,42101,2007-10-08T00:00:00.000Z,ALT REF,2007-10-08T00:00:00.000Z,"MOSQUES, RELIGIOUS",18702358,-75.2187472,40.0269026,MUSLIM,NOT AVAILABLE,NOT AVAILABLE,NOT AVAILABLE,N,N
37980,10585151,FIRST SPANISH BAPTIST CHURCH,PHILADELPHIA,PA,19133,3720,PHILADELPHIA,42101,2009-07-22T00:00:00.000Z,ALT REF,2009-07-22T00:00:00.000Z,CHURCHES,18711191,-75.1350261,39.9865235,CHRISTIAN,ABC,NOT AVAILABLE,NOT AVAILABLE,Y,N
37982,10442611,OUR LADY OF THE MIRACULOUS MEDAL CHAPEL,PHILADELPHIA,PA,19130,3806,PHILADELPHIA,42101,2009-08-05T00:00:00.000Z,ALT REF,2009-08-05T00:00:00.000Z,CHURCHES,18716250,-75.1696199,39.9637146,CHRISTIAN,NOT AVAILABLE,NOT AVAILABLE,NOT AVAILABLE,N,Y
37994,10429386,PENN HILLEL HOUSE - UNIVERSITY OF PENNSYLVANIA,PHILADELPHIA,PA,19104,3606,PHILADELPHIA,42101,2007-08-01T00:00:00.000Z,PHONE,2007-08-01T00:00:00.000Z,SYNAGOGUES,18718592,-75.2001014,39.9531591,JUDAIC,ORTHODOX,NOT AVAILABLE,NOT AVAILABLE,N,N
37997,10441204,HOLY INNOCENTS SAINT PAUL'S CHURCH - TACONY,PHILADELPHIA,PA,19135,1914,PHILADELPHIA,42101,2007-11-08T00:00:00.000Z,ALT REF,2007-11-14T00:00:00.000Z,CHURCHES,18700778,-75.0405576,40.0267537,CHRISTIAN,EPIS,NOT AVAILABLE,NOT AVAILABLE,Y,N
38003,10575759,ALLEYNE MEMORIAL AFRICAN METHODIST EPISCOPAL ZION CHURCH,PHILADELPHIA,PA,19131,4207,PHILADELPHIA,42101,2009-05-04T00:00:00.000Z,ALT REF,2009-05-04T00:00:00.000Z,CHURCHES,18714672,-75.2306592,39.9721751,CHRISTIAN,AMEZ,NOT AVAILABLE,NOT AVAILABLE,Y,N
38006,10454023,SOUTHERN BAPTIST CHURCH,PHILADELPHIA,PA,19140,4549,PHILADELPHIA,42101,2009-05-14T00:00:00.000Z,ALT REF,2009-05-14T00:00:00.000Z,CHURCHES,18707537,-75.1375049,40.0055777,CHRISTIAN,NBC,NOT AVAILABLE,NOT AVAILABLE,Y,N
38007,10589207,FIRST BAPTIST CHURCH OF PASCHALL,PHILADELPHIA,PA,19142,1023,PHILADELPHIA,42101,2009-04-30T00:00:00.000Z,ALT REF,2009-04-30T00:00:00.000Z,CHURCHES,18725826,-75.2426179,39.9187104,CHRISTIAN,ABC,NOT AVAILABLE,NOT AVAILABLE,Y,N
38009,10684884,PEACEFUL CITY SANGHA,PHILADELPHIA,PA,19102,3334,PHILADELPHIA,42101,2009-06-24T00:00:00.000Z,ALT REF,2009-06-24T00:00:00.000Z,PLACES OF WORSHIP,18719508,-75.168244,39.9477851,BUDDHIST,THICH NHAT HANH / VIETNAMESE ZEN / ORDER OF INTERBEING,NOT AVAILABLE,NOT AVAILABLE,N,N
38014,10432737,ENON TABERNACLE BAPTIST CHURCH - EAST,PHILADELPHIA,PA,19150,1200,PHILADELPHIA,42101,2009-05-07T00:00:00.000Z,ALT REF,2009-05-07T00:00:00.000Z,CHURCHES,711358034,-75.1653362,40.0771522,CHRISTIAN,BAPT,NOT AVAILABLE,NOT AVAILABLE,Y,N
38015,10581664,BETHEL BAPTIST CHURCH,PHILADELPHIA,PA,19125,2522,PHILADELPHIA,42101,2009-05-05T00:00:00.000Z,ALT REF,2009-05-05T00:00:00.000Z,CHURCHES,18712416,-75.1289538,39.9787655,CHRISTIAN,BAPT,NOT AVAILABLE,NOT AVAILABLE,Y,N
38016,10456823,CALVARY AFRICAN METHODIST EPISCOPAL CHURCH,PHILADELPHIA,PA,19147,6417,PHILADELPHIA,42101,2009-05-05T00:00:00.000Z,ALT REF,2009-05-05T00:00:00.000Z,CHURCHES,18723389,-75.1554987,39.9298586,CHRISTIAN,AME,NOT AVAILABLE,NOT AVAILABLE,Y,N
38017,10581663,CHRIST INDEPENDENT BAPTIST CHURCH,PHILADELPHIA,PA,19124,4617,PHILADELPHIA,42101,2009-05-05T00:00:00.000Z,ALT REF,2009-05-05T00:00:00.000Z,CHURCHES,18706356,-75.0894835,40.0083615,CHRISTIAN,BAPT,NOT AVAILABLE,NOT AVAILABLE,Y,N
38018,10581662,CRESCENTVILLE BAPTIST CHURCH,PHILADELPHIA,PA,19120,2123,PHILADELPHIA,42101,2009-05-08T00:00:00.000Z,ALT REF,2009-05-07T00:00:00.000Z,CHURCHES,18697091,-75.1055922,40.0410368,CHRISTIAN,BAPT,NOT AVAILABLE,NOT AVAILABLE,Y,N
38019,10452317,CALVARY BAPTIST CHURCH,PHILADELPHIA,PA,19151,4334,PHILADELPHIA,42101,2009-05-05T00:00:00.000Z,ALT REF,2009-05-05T00:00:00.000Z,CHURCHES,18714746,-75.2416909,39.9710001,CHRISTIAN,NBC,NOT AVAILABLE,NOT AVAILABLE,Y,N
38020,10453862,EAST BETHEL BAPTIST CHURCH,PHILADELPHIA,PA,19140,4253,PHILADELPHIA,42101,2009-05-07T00:00:00.000Z,ALT REF,2009-05-07T00:00:00.000Z,CHURCHES,18706555,-75.1501965,40.0094601,CHRISTIAN,NBC,NOT AVAILABLE,NOT AVAILABLE,Y,N
38021,10588967,CATHEDRAL OF PRAISE INTERNATIONAL CHURCH,PHILADELPHIA,PA,19151,4025,PHILADELPHIA,42101,2009-05-06T00:00:00.000Z,ALT REF,2009-05-06T00:00:00.000Z,CHURCHES,18714464,-75.2472477,39.9717273,CHRISTIAN,ABC,NOT AVAILABLE,NOT AVAILABLE,Y,N
38022,10588975,CHURCH OF CHRISTIAN COMPASSION,PHILADELPHIA,PA,19143,2212,PHILADELPHIA,42101,2009-05-05T00:00:00.000Z,ALT REF,2009-05-08T00:00:00.000Z,CHURCHES,18719020,-75.2475431,39.9522188,CHRISTIAN,ABC,NOT AVAILABLE,NOT AVAILABLE,Y,N
38023,10453718,NEW JERUSALEM BAPTIST CHURCH,PHILADELPHIA,PA,19121,1430,PHILADELPHIA,42101,2009-05-01T00:00:00.000Z,ALT REF,2009-05-01T00:00:00.000Z,CHURCHES,18711137,-75.1684499,39.9865212,CHRISTIAN,NBC,NOT AVAILABLE,NOT AVAILABLE,Y,N
38024,10575758,WESLEY AFRICAN METHODIST EPISCOPAL ZION CHURCH,PHILADELPHIA,PA,19146,1625,PHILADELPHIA,42101,2009-05-04T00:00:00.000Z,ALT REF,2009-05-04T00:00:00.000Z,CHURCHES,18720057,-75.1672133,39.9446687,CHRISTIAN,AMEZ,NOT AVAILABLE,NOT AVAILABLE,Y,N
38025,10437566,NAZARENE BAPTIST CHURCH,PHILADELPHIA,PA,19140,3423,PHILADELPHIA,42101,2009-04-30T00:00:00.000Z,ALT REF,2009-04-30T00:00:00.000Z,CHURCHES,18705504,-75.1526301,40.0143079,CHRISTIAN,SBC,905,NOT AVAILABLE,Y,N
38026,10445385,HOLY TRINITY CHURCH,PHILADELPHIA,PA,19106,4113,PHILADELPHIA,42101,2009-04-30T00:00:00.000Z,ALT REF,2009-04-30T00:00:00.000Z,CHURCHES,18719876,-75.1518789,39.9455314,CHRISTIAN,NOT AVAILABLE,NOT AVAILABLE,NOT AVAILABLE,N,Y
38027,10443096,OUR LADY OF HOPE CATHOLIC CHURCH,PHILADELPHIA,PA,19141,1628,PHILADELPHIA,42101,2009-04-30T00:00:00.000Z,ALT REF,2009-04-30T00:00:00.000Z,CHURCHES,18699856,-75.1466209,40.0326757,CHRISTIAN,NOT AVAILABLE,NOT AVAILABLE,NOT AVAILABLE,N,Y
38028,10441187,SAINT LUKE'S EPISCOPAL CHURCH,PHILADELPHIA,PA,19144,2223,PHILADELPHIA,42101,2009-05-01T00:00:00.000Z,ALT REF,2009-05-01T00:00:00.000Z,CHURCHES,18699743,-75.1709785,40.0337993,CHRISTIAN,EPIS,NOT AVAILABLE,NOT AVAILABLE,Y,N
38029,10445422,OUR MOTHER OF CONSOLATION CATHOLIC CHURCH,PHILADELPHIA,PA,19118,2712,PHILADELPHIA,42101,2009-04-30T00:00:00.000Z,ALT REF,2009-04-30T00:00:00.000Z,CHURCHES,18688067,-75.2103086,40.0788948,CHRISTIAN,NOT AVAILABLE,NOT AVAILABLE,NOT AVAILABLE,N,Y
38030,10455279,NATIONAL TEMPLE BAPTIST CHURCH,PHILADELPHIA,PA,19121,4243,PHILADELPHIA,42101,2009-04-30T00:00:00.000Z,ALT REF,2009-04-30T00:00:00.000Z,CHURCHES,18713316,-75.1630835,39.9748199,CHRISTIAN,NBC,NOT AVAILABLE,NOT AVAILABLE,Y,N
38031,10441220,SAINT TIMOTHY'S EPISCOPAL CHURCH,PHILADELPHIA,PA,19128,1734,PHILADELPHIA,42101,2009-05-01T00:00:00.000Z,ALT REF,2009-05-01T00:00:00.000Z,CHURCHES,18702174,-75.2103481,40.027616,CHRISTIAN,EPIS,NOT AVAILABLE,NOT AVAILABLE,Y,N
38032,10448229,UKRAINIAN CATHEDRAL OF THE IMMACULATE CONCEPTION,PHILADELPHIA,PA,19123,2005,PHILADELPHIA,42101,2009-05-05T00:00:00.000Z,ALT REF,2009-05-05T00:00:00.000Z,CHURCHES,18715666,-75.1504196,39.9663614,CHRISTIAN,NOT AVAILABLE,NOT AVAILABLE,NOT AVAILABLE,N,Y
38033,10440303,CALVARY EPISCOPAL CHURCH,PHILADELPHIA,PA,19104,4813,PHILADELPHIA,42101,2009-05-07T00:00:00.000Z,ALT REF,2009-05-07T00:00:00.000Z,CHURCHES,18715353,-75.2060087,39.9676844,CHRISTIAN,EPIS,NOT AVAILABLE,NOT AVAILABLE,Y,N
38034,10456834,DISNEY AFRICAN METHODIST EPISCOPAL CHURCH,PHILADELPHIA,PA,19134,3937,PHILADELPHIA,42101,2009-05-07T00:00:00.000Z,ALT REF,2009-05-07T00:00:00.000Z,CHURCHES,18645223,-75.1157841,39.9854419,CHRISTIAN,AME,NOT AVAILABLE,NOT AVAILABLE,Y,N
38035,10453177,ENON TABERNACLE BAPTIST CHURCH - WEST,PHILADELPHIA,PA,19144,3916,PHILADELPHIA,42101,2009-05-07T00:00:00.000Z,ALT REF,2009-05-07T00:00:00.000Z,CHURCHES,18701449,-75.1752651,40.0283658,CHRISTIAN,NBC,NOT AVAILABLE,NOT AVAILABLE,Y,N
38036,10461054,CHRIST LIBERATION FELLOWSHIP,PHILADELPHIA,PA,19151,3314,PHILADELPHIA,42101,2009-05-06T00:00:00.000Z,ALT REF,2009-05-06T00:00:00.000Z,CHURCHES,18713780,-75.2491276,39.9752936,CHRISTIAN,PCA,NOT AVAILABLE,NOT AVAILABLE,Y,N
38037,10455205,BIBLE TABERNACLE BAPTIST CHURCH,PHILADELPHIA,PA,19133,1636,PHILADELPHIA,42101,2009-05-07T00:00:00.000Z,ALT REF,2009-05-07T00:00:00.000Z,CHURCHES,18710183,-75.1481479,39.9911525,CHRISTIAN,NBC,NOT AVAILABLE,NOT AVAILABLE,Y,N
38038,10454172,SECOND MOUNT ZION BAPTIST CHURCH,PHILADELPHIA,PA,19104,1631,PHILADELPHIA,42101,2009-05-08T00:00:00.000Z,ALT REF,2009-04-30T00:00:00.000Z,CHURCHES,18715031,-75.1991903,39.9687487,CHRISTIAN,NBC,NOT AVAILABLE,NOT AVAILABLE,Y,N
38039,10441185,CALVARY EPISCOPAL CHURCH,PHILADELPHIA,PA,19144,4112,PHILADELPHIA,42101,2009-05-05T00:00:00.000Z,ALT REF,2009-05-05T00:00:00.000Z,CHURCHES,18702812,-75.1702942,40.024191,CHRISTIAN,EPIS,NOT AVAILABLE,NOT AVAILABLE,Y,N
38040,10454890,JONES MEMORIAL BAPTIST CHURCH,PHILADELPHIA,PA,19132,4838,PHILADELPHIA,42101,2009-04-30T00:00:00.000Z,ALT REF,2009-04-30T00:00:00.000Z,CHURCHES,18710621,-75.1655451,39.9894405,CHRISTIAN,NBC,NOT AVAILABLE,NOT AVAILABLE,Y,N
38041,10454080,FAITH EMANUEL BAPTIST CHURCH,PHILADELPHIA,PA,19132,3021,PHILADELPHIA,42101,2009-05-08T00:00:00.000Z,ALT REF,2009-05-08T00:00:00.000Z,CHURCHES,18710049,-75.1791192,39.9925484,CHRISTIAN,NBC,NOT AVAILABLE,NOT AVAILABLE,Y,N
38042,10453406,CORNERSTONE BAPTIST CHURCH,PHILADELPHIA,PA,19121,1106,PHILADELPHIA,42101,2009-05-07T00:00:00.000Z,ALT REF,2009-05-07T00:00:00.000Z,CHURCHES,18710785,-75.1865119,39.9894323,CHRISTIAN,NBC,NOT AVAILABLE,NOT AVAILABLE,Y,N
38043,10455124,DAVIS TEMPLE BAPTIST CHURCH,PHILADELPHIA,PA,19133,2108,PHILADELPHIA,42101,2009-05-07T00:00:00.000Z,ALT REF,2009-05-07T00:00:00.000Z,CHURCHES,18711263,-75.1456119,39.9864183,CHRISTIAN,NBC,NOT AVAILABLE,NOT AVAILABLE,Y,N
38044,10441188,SAINT PHILIPS MEMORIAL CHURCH,PHILADELPHIA,PA,19146,3835,PHILADELPHIA,42101,2009-05-01T00:00:00.000Z,ALT REF,2009-05-01T00:00:00.000Z,CHURCHES,18722013,-75.1887061,39.9370893,CHRISTIAN,EPIS,NOT AVAILABLE,NOT AVAILABLE,Y,N
38045,10432735,CHRISTIAN STRONGHOLD BAPTIST CHURCH,PHILADELPHIA,PA,19131,4620,PHILADELPHIA,42101,2009-05-01T00:00:00.000Z,ALT REF,2009-05-01T00:00:00.000Z,CHURCHES,18714593,-75.215381,39.9718639,CHRISTIAN,BAPT,NOT AVAILABLE,NOT AVAILABLE,Y,N
38046,10456825,CAMPBELL AFRICAN METHODIST EPISCOPAL CHURCH,PHILADELPHIA,PA,19124,3735,PHILADELPHIA,42101,2009-05-07T00:00:00.000Z,ALT REF,2009-05-07T00:00:00.000Z,CHURCHES,18705288,-75.0847917,40.0132447,CHRISTIAN,AME,NOT AVAILABLE,NOT AVAILABLE,Y,N
38048,10589106,LATVIAN BAPTIST CHURCH,PHILADELPHIA,PA,19151,2324,PHILADELPHIA,42101,2009-05-08T00:00:00.000Z,ALT REF,2009-05-08T00:00:00.000Z,CHURCHES,18755958,-75.260429,39.9825024,CHRISTIAN,ABC,NOT AVAILABLE,NOT AVAILABLE,Y,N
38049,10588984,CORINTHIAN BAPTIST CHURCH OF GERMANTOWN,PHILADELPHIA,PA,19138,2420,PHILADELPHIA,42101,2009-05-07T00:00:00.000Z,ALT REF,2009-05-07T00:00:00.000Z,CHURCHES,18695337,-75.1553856,40.04807,CHRISTIAN,ABC,NOT AVAILABLE,NOT AVAILABLE,Y,N
38050,10453111,MOUNT CARMEL BAPTIST CHURCH,PHILADELPHIA,PA,19139,2434,PHILADELPHIA,42101,2009-05-08T00:00:00.000Z,ALT REF,2009-05-11T00:00:00.000Z,CHURCHES,18716331,-75.2356168,39.9641887,CHRISTIAN,NBC,NOT AVAILABLE,NOT AVAILABLE,Y,N
38051,10685371,WON-GAK SA BUDDHIST TEMPLE,PHILADELPHIA,PA,19126,3825,PHILADELPHIA,42101,2009-05-11T00:00:00.000Z,ALT REF,2009-05-11T00:00:00.000Z,"TEMPLES, RELIGIOUS",18695122,-75.1312417,40.0483193,BUDDHIST,"CHOGYE ORDER, KOREAN (LIN-CHI/RINAI) ZEN",NOT AVAILABLE,NOT AVAILABLE,N,N
38053,10578969,LIGHTHOUSE INDEPENDENT BAPTIST CHURCH,PHILADELPHIA,PA,19145,4418,PHILADELPHIA,42101,2009-05-08T00:00:00.000Z,ALT REF,2009-05-08T00:00:00.000Z,CHURCHES,18725503,-75.1708344,39.9205382,CHRISTIAN,BAPT,NOT AVAILABLE,NOT AVAILABLE,Y,N
38054,10589187,NEW CONSOLATION CHRISTIAN CENTER,PHILADELPHIA,PA,19146,3942,PHILADELPHIA,42101,2009-05-08T00:00:00.000Z,ALT REF,2009-05-08T00:00:00.000Z,CHURCHES,18722062,-75.1864146,39.9356637,CHRISTIAN,ABC,NOT AVAILABLE,NOT AVAILABLE,Y,N
38055,10589192,NEW HORIZON BAPTIST CHURCH,PHILADELPHIA,PA,19120,3029,PHILADELPHIA,42101,2009-05-08T00:00:00.000Z,ALT REF,2009-05-08T00:00:00.000Z,CHURCHES,18699190,-75.1156729,40.0340282,CHRISTIAN,ABC,NOT AVAILABLE,NOT AVAILABLE,Y,N
38056,10589257,TACONY BAPTIST CHURCH,PHILADELPHIA,PA,19135,1918,PHILADELPHIA,42101,2009-05-11T00:00:00.000Z,ALT REF,2009-05-11T00:00:00.000Z,CHURCHES,18701361,-75.041404,40.0258305,CHRISTIAN,ABC,NOT AVAILABLE,NOT AVAILABLE,Y,N
38057,10589258,TASKER STREET MISSIONARY BAPTIST CHURCH,PHILADELPHIA,PA,19145,1432,PHILADELPHIA,42101,2009-05-11T00:00:00.000Z,ALT REF,2009-05-11T00:00:00.000Z,CHURCHES,18723109,-75.1783611,39.931649,CHRISTIAN,ABC,NOT AVAILABLE,NOT AVAILABLE,Y,N
38058,10455534,TENTH MEMORIAL BAPTIST CHURCH,PHILADELPHIA,PA,19121,4926,PHILADELPHIA,42101,2009-05-11T00:00:00.000Z,ALT REF,2009-05-11T00:00:00.000Z,CHURCHES,18713304,-75.1670279,39.9753281,CHRISTIAN,NBC,NOT AVAILABLE,NOT AVAILABLE,Y,N
38059,10441208,TRINITY CHURCH,PHILADELPHIA,PA,19111,3903,PHILADELPHIA,42101,2009-05-11T00:00:00.000Z,ALT REF,2009-05-11T00:00:00.000Z,CHURCHES,18692712,-75.0887032,40.0558671,CHRISTIAN,EPIS,NOT AVAILABLE,NOT AVAILABLE,Y,N
38060,10441189,TRINITY MEMORIAL CHURCH,PHILADELPHIA,PA,19103,6503,PHILADELPHIA,42101,2009-05-11T00:00:00.000Z,ALT REF,2009-05-11T00:00:00.000Z,CHURCHES,18719290,-75.1781134,39.9484446,CHRISTIAN,EPIS,NOT AVAILABLE,NOT AVAILABLE,Y,N
38061,10441227,CHURCH OF THE HOLY TRINITY,PHILADELPHIA,PA,19103,5733,PHILADELPHIA,42101,2009-05-11T00:00:00.000Z,ALT REF,2009-05-11T00:00:00.000Z,CHURCHES,18718916,-75.1730991,39.9502496,CHRISTIAN,EPIS,NOT AVAILABLE,NOT AVAILABLE,Y,N
38062,10589259,TAYLOR MEMORIAL BAPTIST CHURCH,PHILADELPHIA,PA,19140,3621,PHILADELPHIA,42101,2009-05-11T00:00:00.000Z,ALT REF,2009-05-11T00:00:00.000Z,CHURCHES,18706086,-75.1513719,40.0113739,CHRISTIAN,ABC,NOT AVAILABLE,NOT AVAILABLE,Y,N
38063,10452677,TOWNSEND NEW LIFELINE BAPTIST CHURCH,PHILADELPHIA,PA,19146,4209,PHILADELPHIA,42101,2009-05-11T00:00:00.000Z,ALT REF,2009-05-11T00:00:00.000Z,CHURCHES,18721810,-75.1803623,39.9377696,CHRISTIAN,NBC,NOT AVAILABLE,NOT AVAILABLE,Y,N
38064,10589263,THE CHURCH OF THE REDEEMER BAPTIST,PHILADELPHIA,PA,19146,4001,PHILADELPHIA,42101,2009-05-11T00:00:00.000Z,ALT REF,2009-05-11T00:00:00.000Z,CHURCHES,18722685,-75.1846027,39.9340362,CHRISTIAN,ABC,NOT AVAILABLE,NOT AVAILABLE,Y,N
38065,10454400,UPPER ROOM MISSIONARY BAPTIST CHURCH,PHILADELPHIA,PA,19138,1304,PHILADELPHIA,42101,2009-05-11T00:00:00.000Z,ALT REF,2009-05-11T00:00:00.000Z,CHURCHES,18690817,-75.1552047,40.064739,CHRISTIAN,NBC,NOT AVAILABLE,NOT AVAILABLE,Y,N
38066,10461124,THIRD REFORMED PRESBYTERIAN CHURCH,PHILADELPHIA,PA,19154,1812,PHILADELPHIA,42101,2009-05-11T00:00:00.000Z,ALT REF,2009-05-11T00:00:00.000Z,CHURCHES,18683346,-74.9804777,40.1006123,CHRISTIAN,PCA,NOT AVAILABLE,NOT AVAILABLE,Y,N
38071,10441195,SAINT SIMON THE CYRENIAN EPISCOPAL CHURCH,PHILADELPHIA,PA,19146,4530,PHILADELPHIA,42101,2009-05-12T00:00:00.000Z,ALT REF,2009-05-12T00:00:00.000Z,CHURCHES,18722570,-75.1805672,39.9343672,CHRISTIAN,EPIS,NOT AVAILABLE,NOT AVAILABLE,Y,N
38072,10441199,SAINT MARKS CHURCH - FRANKFORD,PHILADELPHIA,PA,19124,3659,PHILADELPHIA,42101,2009-05-12T00:00:00.000Z,ALT REF,2009-05-12T00:00:00.000Z,CHURCHES,18705294,-75.0871814,40.0134788,CHRISTIAN,EPIS,NOT AVAILABLE,NOT AVAILABLE,Y,N
38073,10455412,SAINT JOSEPH BAPTIST CHURCH,PHILADELPHIA,PA,19104,3035,PHILADELPHIA,42101,2009-05-12T00:00:00.000Z,ALT REF,2009-05-12T00:00:00.000Z,CHURCHES,18718335,-75.2021439,39.9547172,CHRISTIAN,NBC,NOT AVAILABLE,NOT AVAILABLE,Y,N
38089,10589251,SAINT PAUL CHAPEL BAPTIST CHURCH,PHILADELPHIA,PA,19146,4321,PHILADELPHIA,42101,2009-05-12T00:00:00.000Z,ALT REF,2009-05-12T00:00:00.000Z,CHURCHES,18721972,-75.1785431,39.9369821,CHRISTIAN,ABC,NOT AVAILABLE,NOT AVAILABLE,Y,N
38090,10441225,SAINT PETERS EPISCOPAL CHURCH OF GERMANTOWN,PHILADELPHIA,PA,19144,6102,PHILADELPHIA,42101,2009-05-12T00:00:00.000Z,ALT REF,2009-05-12T00:00:00.000Z,CHURCHES,18699576,-75.1837641,40.0340706,CHRISTIAN,EPIS,NOT AVAILABLE,NOT AVAILABLE,Y,N
38091,10441177,SAINT MARY'S EPISCOPAL CHURCH,PHILADELPHIA,PA,19104,6152,PHILADELPHIA,42101,2009-05-12T00:00:00.000Z,ALT REF,2009-05-12T00:00:00.000Z,CHURCHES,18718593,-75.2017276,39.9525904,CHRISTIAN,EPIS,NOT AVAILABLE,NOT AVAILABLE,Y,N
38098,10441184,SAINT MARYS EPISCOPAL CHURCH - CATHEDRAL ROAD,PHILADELPHIA,PA,19128,1935,PHILADELPHIA,42101,2009-05-12T00:00:00.000Z,ALT REF,2009-05-12T00:00:00.000Z,CHURCHES,727556407,-75.2413462,40.0645651,CHRISTIAN,EPIS,NOT AVAILABLE,NOT AVAILABLE,Y,N
38099,10441214,SAINT PAULS EPISCOPAL CHURCH,PHILADELPHIA,PA,19118,2715,PHILADELPHIA,42101,2009-05-12T00:00:00.000Z,ALT REF,2009-05-12T00:00:00.000Z,CHURCHES,18688067,-75.2085705,40.0790969,CHRISTIAN,EPIS,NOT AVAILABLE,NOT AVAILABLE,Y,N
38101,10445348,SAINT AGATHA - SAINT JAMES CHURCH,PHILADELPHIA,PA,19104,NULL,PHILADELPHIA,42101,2009-05-14T00:00:00.000Z,ALT REF,2009-05-14T00:00:00.000Z,CHURCHES,724047731,-75.198156,39.9548108,CHRISTIAN,NOT AVAILABLE,NOT AVAILABLE,NOT AVAILABLE,N,Y
38102,10448496,SAINT CYPRIAN CATHOLIC CHURCH,PHILADELPHIA,PA,19143,2236,PHILADELPHIA,42101,2009-05-13T00:00:00.000Z,ALT REF,2009-05-13T00:00:00.000Z,CHURCHES,18718691,-75.2483958,39.9534749,CHRISTIAN,NOT AVAILABLE,NOT AVAILABLE,NOT AVAILABLE,N,Y
38103,10452946,THE BAPTIST WORSHIP CENTER,PHILADELPHIA,PA,19137,1106,PHILADELPHIA,42101,2009-05-18T00:00:00.000Z,ALT REF,2009-05-18T00:00:00.000Z,CHURCHES,18706243,-75.0736512,40.0091226,CHRISTIAN,NBC,NOT AVAILABLE,NOT AVAILABLE,Y,N
38104,10445367,SAINT CECILIA CHURCH,PHILADELPHIA,PA,19111,2504,PHILADELPHIA,42101,2009-05-13T00:00:00.000Z,ALT REF,2009-05-13T00:00:00.000Z,CHURCHES,18687972,-75.0804983,40.0761611,CHRISTIAN,NOT AVAILABLE,NOT AVAILABLE,NOT AVAILABLE,N,Y
38105,10585298,SECOND ANTIOCH BAPTIST CHURCH,PHILADELPHIA,PA,19104,1228,PHILADELPHIA,42101,2009-05-14T00:00:00.000Z,ALT REF,2009-05-14T00:00:00.000Z,CHURCHES,18714692,-75.2062079,39.9707383,CHRISTIAN,ABC,NOT AVAILABLE,NOT AVAILABLE,Y,N
38106,10441183,SAINT AUGUSTINES CHURCH OF THE COVENANT,PHILADELPHIA,PA,19130,1212,PHILADELPHIA,42101,2009-05-12T00:00:00.000Z,ALT REF,2009-05-12T00:00:00.000Z,CHURCHES,18713609,-75.1805658,39.9743497,CHRISTIAN,EPIS,NOT AVAILABLE,NOT AVAILABLE,Y,N
38107,10441207,SAINT GEORGE SAINT BARNABAS EPISCOPAL CHURCH,PHILADELPHIA,PA,19143,2234,PHILADELPHIA,42101,2009-05-12T00:00:00.000Z,ALT REF,2009-05-12T00:00:00.000Z,CHURCHES,18718628,-75.2447328,39.9540237,CHRISTIAN,EPIS,NOT AVAILABLE,NOT AVAILABLE,Y,N
38108,10440260,SAINT CLEMENTS CHURCH,PHILADELPHIA,PA,19103,1409,PHILADELPHIA,42101,2009-05-12T00:00:00.000Z,ALT REF,2009-05-12T00:00:00.000Z,CHURCHES,18717799,-75.1730469,39.9564088,CHRISTIAN,EPIS,NOT AVAILABLE,NOT AVAILABLE,Y,N
38109,10440444,ALL SAINTS EPISCOPAL CHURCH - RHAWNHURST,PHILADELPHIA,PA,19111,2911,PHILADELPHIA,42101,2009-05-18T00:00:00.000Z,ALT REF,2009-05-18T00:00:00.000Z,CHURCHES,18690975,-75.0602631,40.0626915,CHRISTIAN,EPIS,NOT AVAILABLE,NOT AVAILABLE,Y,N
38110,10431191,THE BAWA MUHAIYADDEEN FELLOWSHIP,PHILADELPHIA,PA,19131,1221,PHILADELPHIA,42101,2009-05-18T00:00:00.000Z,ALT REF,2009-05-18T00:00:00.000Z,"MOSQUES, RELIGIOUS",18710731,-75.2418327,39.9908068,MUSLIM,NOT AVAILABLE,NOT AVAILABLE,NOT AVAILABLE,N,N
38111,10589221,PROVIDENCE BAPTIST CHURCH,PHILADELPHIA,PA,19144,2113,PHILADELPHIA,42101,2009-05-15T00:00:00.000Z,ALT REF,2009-05-15T00:00:00.000Z,CHURCHES,18698265,-75.1754383,40.0401644,CHRISTIAN,ABC,NOT AVAILABLE,NOT AVAILABLE,Y,N
38112,10453933,RISING SUN BAPTIST CHURCH,PHILADELPHIA,PA,19147,2616,PHILADELPHIA,42101,2009-05-15T00:00:00.000Z,ALT REF,2009-05-15T00:00:00.000Z,CHURCHES,18721060,-75.1620532,39.940832,CHRISTIAN,NBC,NOT AVAILABLE,NOT AVAILABLE,Y,N
38113,10441222,ALL SAINTS EPISCOPAL CHURCH,PHILADELPHIA,PA,19114,2813,PHILADELPHIA,42101,2009-05-18T00:00:00.000Z,ALT REF,2009-05-18T00:00:00.000Z,CHURCHES,18691201,-74.9940251,40.0587923,CHRISTIAN,EPIS,NOT AVAILABLE,NOT AVAILABLE,Y,N
38114,10454233,RESURRECTION BAPTIST CHURCH,PHILADELPHIA,PA,19131,3516,PHILADELPHIA,42101,2009-05-15T00:00:00.000Z,ALT REF,2009-05-15T00:00:00.000Z,CHURCHES,18713220,-75.2302279,39.9772603,CHRISTIAN,NBC,NOT AVAILABLE,NOT AVAILABLE,Y,N
38115,10441193,SAINT ANDREWS-IN-THE-FIELD EPISCOPAL CHURCH,PHILADELPHIA,PA,19116,2027,PHILADELPHIA,42101,2009-05-12T00:00:00.000Z,ALT REF,2009-05-12T00:00:00.000Z,CHURCHES,18680367,-75.0193258,40.1227111,CHRISTIAN,EPIS,NOT AVAILABLE,NOT AVAILABLE,Y,N
38116,10442564,SAINT ROSE OF LIMA CHURCH,PHILADELPHIA,PA,19151,4217,PHILADELPHIA,42101,2009-05-12T00:00:00.000Z,ALT REF,2009-05-12T00:00:00.000Z,CHURCHES,18713825,-75.2380392,39.975539,CHRISTIAN,NOT AVAILABLE,NOT AVAILABLE,NOT AVAILABLE,N,Y
38117,10443015,SAINT JOHN THE BAPTIST CHURCH,PHILADELPHIA,PA,19127,1523,PHILADELPHIA,42101,2009-05-13T00:00:00.000Z,ALT REF,2009-05-13T00:00:00.000Z,CHURCHES,18702929,-75.2199255,40.0247796,CHRISTIAN,NOT AVAILABLE,NOT AVAILABLE,NOT AVAILABLE,N,Y
38118,10445394,SAINT JOAN OF ARC CHURCH,PHILADELPHIA,PA,19134,2118,PHILADELPHIA,42101,2009-05-13T00:00:00.000Z,ALT REF,2009-05-13T00:00:00.000Z,CHURCHES,18643627,-75.1023927,39.9978453,CHRISTIAN,NOT AVAILABLE,NOT AVAILABLE,NOT AVAILABLE,N,Y
38119,10445370,SAINT CHRISTOPHER CHURCH,PHILADELPHIA,PA,19116,1721,PHILADELPHIA,42101,2009-05-13T00:00:00.000Z,ALT REF,2009-05-13T00:00:00.000Z,CHURCHES,18680246,-75.0112505,40.1237044,CHRISTIAN,NOT AVAILABLE,NOT AVAILABLE,NOT AVAILABLE,N,Y
38120,10445151,CHURCH OF SAINT PHILLIP NERI,PHILADELPHIA,PA,19147,3319,PHILADELPHIA,42101,2009-05-13T00:00:00.000Z,ALT REF,2009-05-13T00:00:00.000Z,CHURCHES,18721758,-75.1475617,39.9368791,CHRISTIAN,NOT AVAILABLE,NOT AVAILABLE,NOT AVAILABLE,N,Y
38121,10445360,SAINT BARNABAS CHURCH,PHILADELPHIA,PA,19142,3004,PHILADELPHIA,42101,2009-05-13T00:00:00.000Z,ALT REF,2009-05-13T00:00:00.000Z,CHURCHES,18725284,-75.2264872,39.922217,CHRISTIAN,NOT AVAILABLE,NOT AVAILABLE,NOT AVAILABLE,N,Y
38122,10576810,SPIRIT AND TRUTH FELLOWSHIP,PHILADELPHIA,PA,19140,2320,PHILADELPHIA,42101,2009-05-14T00:00:00.000Z,ALT REF,2009-05-14T00:00:00.000Z,CHURCHES,18704191,-75.1372405,40.0186182,CHRISTIAN,CRC,NOT AVAILABLE,NOT AVAILABLE,Y,N
38123,10589230,ROXBOROUGH BAPTIST CHURCH,PHILADELPHIA,PA,19128,1646,PHILADELPHIA,42101,2009-05-15T00:00:00.000Z,ALT REF,2009-05-15T00:00:00.000Z,CHURCHES,18700451,-75.2137289,40.0328091,CHRISTIAN,ABC,NOT AVAILABLE,NOT AVAILABLE,Y,N
38124,10589240,SECOND BAPTIST CHURCH OF GERMANTOWN,PHILADELPHIA,PA,19119,2345,PHILADELPHIA,42101,2009-05-15T00:00:00.000Z,ALT REF,2009-05-14T00:00:00.000Z,CHURCHES,18695617,-75.1827345,40.0484668,CHRISTIAN,ABC,NOT AVAILABLE,NOT AVAILABLE,Y,N
38125,10445371,SAINT DOMINIC CHURCH,PHILADELPHIA,PA,19136,2032,PHILADELPHIA,42101,2009-05-13T00:00:00.000Z,ALT REF,2009-05-13T00:00:00.000Z,CHURCHES,18695051,-75.0169132,40.045774,CHRISTIAN,NOT AVAILABLE,NOT AVAILABLE,NOT AVAILABLE,N,Y
38139,10441218,ALL SOULS CHURCH FOR THE DEAF,PHILADELPHIA,PA,19123,4005,PHILADELPHIA,42101,2009-06-02T00:00:00.000Z,ALT REF,2009-06-02T00:00:00.000Z,CHURCHES,727563046,-75.1465149,39.9599796,CHRISTIAN,EPIS,NOT AVAILABLE,NOT AVAILABLE,Y,N
38141,10441180,GRACE EPIPHANY EPISCOPAL CHURCH,PHILADELPHIA,PA,19119,1020,PHILADELPHIA,42101,2009-05-21T00:00:00.000Z,ALT REF,2009-05-21T00:00:00.000Z,CHURCHES,18690853,-75.1886635,40.0659619,CHRISTIAN,EPIS,NOT AVAILABLE,NOT AVAILABLE,Y,N
38142,10445415,OUR LADY OF CONSOLATION CHURCH,PHILADELPHIA,PA,19135,2008,PHILADELPHIA,42101,2009-05-22T00:00:00.000Z,ALT REF,2009-04-30T00:00:00.000Z,CHURCHES,18701486,-75.0373619,40.0257194,CHRISTIAN,NOT AVAILABLE,NOT AVAILABLE,NOT AVAILABLE,N,Y
38143,10442668,MATERNITY BLESSED VIRGIN MARY CHURCH,PHILADELPHIA,PA,19115,4616,PHILADELPHIA,42101,2009-05-22T00:00:00.000Z,ALT REF,2009-05-22T00:00:00.000Z,CHURCHES,18687020,-75.0401894,40.0808428,CHRISTIAN,NOT AVAILABLE,NOT AVAILABLE,NOT AVAILABLE,N,Y
38145,10454407,EMANUEL INSTITUTIONAL BAPTIST CHURCH,PHILADELPHIA,PA,19121,3006,PHILADELPHIA,42101,2009-05-19T00:00:00.000Z,ALT REF,2009-05-19T00:00:00.000Z,CHURCHES,18712255,-75.1710676,39.9812578,CHRISTIAN,NBC,NOT AVAILABLE,NOT AVAILABLE,Y,N
38146,10453394,FIRST TIMOTHY BAPTIST CHURCH,PHILADELPHIA,PA,19104,1137,PHILADELPHIA,42101,2009-05-19T00:00:00.000Z,ALT REF,2009-05-19T00:00:00.000Z,CHURCHES,18713737,-75.2033954,39.9738761,CHRISTIAN,NBC,NOT AVAILABLE,NOT AVAILABLE,Y,N
38147,10589119,GIBSON TEMPLE BAPTIST CHURCH,PHILADELPHIA,PA,19121,1203,PHILADELPHIA,42101,2009-05-21T00:00:00.000Z,ALT REF,2009-05-21T00:00:00.000Z,CHURCHES,18710931,-75.1782935,39.9890087,CHRISTIAN,ABC,NOT AVAILABLE,NOT AVAILABLE,Y,N
38149,10431205,MASJID AS-SUNNAH AN-NABAWIYYAH,PHILADELPHIA,PA,19144,5969,PHILADELPHIA,42101,2009-05-19T00:00:00.000Z,ALT REF,2009-05-19T00:00:00.000Z,"MOSQUES, RELIGIOUS",18701105,-75.1634245,40.0289115,MUSLIM,NOT AVAILABLE,NOT AVAILABLE,NOT AVAILABLE,N,N
38150,10454905,GALILEE COMMUNITY BAPTIST CHURCH,PHILADELPHIA,PA,19146,2901,PHILADELPHIA,42101,2009-05-19T00:00:00.000Z,ALT REF,2009-05-19T00:00:00.000Z,CHURCHES,18721952,-75.1737079,39.9368439,CHRISTIAN,NBC,NOT AVAILABLE,NOT AVAILABLE,Y,N
38151,10442563,OUR LADY OF CALVARY CHURCH,PHILADELPHIA,PA,19154,4213,PHILADELPHIA,42101,2009-05-22T00:00:00.000Z,ALT REF,2009-05-22T00:00:00.000Z,CHURCHES,710825996,-74.9784028,40.0791037,CHRISTIAN,NOT AVAILABLE,NOT AVAILABLE,NOT AVAILABLE,N,Y
38152,10581655,NORTHWEST INDEPENDENT BAPTIST CHURCH,PHILADELPHIA,PA,19132,3518,PHILADELPHIA,42101,2009-05-22T00:00:00.000Z,ALT REF,2009-05-22T00:00:00.000Z,CHURCHES,18709893,-75.1743525,39.9937135,CHRISTIAN,BAPT,NOT AVAILABLE,NOT AVAILABLE,Y,N
38153,10431787,MASJID AL-MUJAHIDEEN,PHILADELPHIA,PA,19143,1103,PHILADELPHIA,42101,2009-05-22T00:00:00.000Z,ALT REF,2009-05-22T00:00:00.000Z,"MOSQUES, RELIGIOUS",18718338,-75.2420036,39.9550539,MUSLIM,NOT AVAILABLE,NOT AVAILABLE,NOT AVAILABLE,N,N
38154,10440330,HOUSE OF PRAYER EPISCOPAL CHURCH,PHILADELPHIA,PA,19141,1309,PHILADELPHIA,42101,2009-05-20T00:00:00.000Z,ALT REF,2009-05-20T00:00:00.000Z,CHURCHES,18695589,-75.1494675,40.0465683,CHRISTIAN,EPIS,NOT AVAILABLE,NOT AVAILABLE,Y,N
38155,10448225,HOLY TRINITY BYZANTINE CATHOLIC CHURCH,PHILADELPHIA,PA,19126,2906,PHILADELPHIA,42101,2009-05-20T00:00:00.000Z,ALT REF,2009-05-20T00:00:00.000Z,CHURCHES,18693130,-75.1326889,40.0556042,CHRISTIAN,NOT AVAILABLE,NOT AVAILABLE,NOT AVAILABLE,N,Y
38156,10445384,HOLY SPIRIT CHURCH,PHILADELPHIA,PA,19145,5808,PHILADELPHIA,42101,2009-05-08T00:00:00.000Z,ALT REF,2009-05-20T00:00:00.000Z,CHURCHES,125429225,-75.1802071,39.9091813,CHRISTIAN,NOT AVAILABLE,NOT AVAILABLE,NOT AVAILABLE,N,Y
38157,10431746,MASJID AL-JAMIA,PHILADELPHIA,PA,19104,5240,PHILADELPHIA,42101,2009-05-20T00:00:00.000Z,ALT REF,2009-05-20T00:00:00.000Z,"MOSQUES, RELIGIOUS",722531448,-75.2083735,39.9546404,MUSLIM,NOT AVAILABLE,NOT AVAILABLE,NOT AVAILABLE,N,N
38183,10438085,HAROLD O DAVIS MEMORIAL BAPTIST CHURCH,PHILADELPHIA,PA,19140,1315,PHILADELPHIA,42101,2008-02-21T00:00:00.000Z,ALT REF,2008-02-25T00:00:00.000Z,CHURCHES,18703522,-75.1417805,40.0209529,CHRISTIAN,NOT AVAILABLE,NOT AVAILABLE,NOT AVAILABLE,Y,N
38185,10461103,NEW LIFE NORTHEAST PRESBYTERIAN CHURCH,PHILADELPHIA,PA,19149,2014,PHILADELPHIA,42101,2009-08-05T00:00:00.000Z,ALT REF,2009-08-05T00:00:00.000Z,CHURCHES,18698542,-75.0495917,40.0349533,CHRISTIAN,PCA,NOT AVAILABLE,NOT AVAILABLE,Y,N
38190,10589160,STAR OF HOPE BAPTIST CHURCH,PHILADELPHIA,PA,19135,NULL,PHILADELPHIA,42101,2009-08-06T00:00:00.000Z,ALT REF,2009-08-06T00:00:00.000Z,CHURCHES,18700674,-75.0366052,40.0276898,CHRISTIAN,ABC,NOT AVAILABLE,NOT AVAILABLE,Y,N
38193,10431912,THE MUSLIM COMMUNITY CENTER OF PHILADELPHIA,PHILADELPHIA,PA,19132,2421,PHILADELPHIA,42101,2009-08-05T00:00:00.000Z,ALT REF,2009-08-10T00:00:00.000Z,"MOSQUES, RELIGIOUS",727351538,-75.1533266,40.0008716,MUSLIM,NOT AVAILABLE,NOT AVAILABLE,NOT AVAILABLE,N,N
38194,10588942,AGAPE BAPTIST CHURCH,PHILADELPHIA,PA,19150,1019,PHILADELPHIA,42101,2009-08-10T00:00:00.000Z,ALT REF,2009-08-04T00:00:00.000Z,CHURCHES,18687434,-75.1727111,40.0807459,CHRISTIAN,ABC,NOT AVAILABLE,NOT AVAILABLE,Y,N
38464,10589009,FALLS OF SCHUYLKILL BAPTIST CHURCH,PHILADELPHIA,PA,19129,1715,PHILADELPHIA,42101,2009-06-25T00:00:00.000Z,ALT REF,2009-06-25T00:00:00.000Z,CHURCHES,18706847,-75.1931625,40.0093528,CHRISTIAN,ABC,NOT AVAILABLE,NOT AVAILABLE,Y,N
38478,10589278,WAYLAND MEMORIAL BAPTIST CHURCH,PHILADELPHIA,PA,19143,3238,PHILADELPHIA,42101,2009-06-24T00:00:00.000Z,ALT REF,2009-06-24T00:00:00.000Z,CHURCHES,18719708,-75.2268474,39.9475605,CHRISTIAN,ABC,NOT AVAILABLE,NOT AVAILABLE,Y,N
38487,10588965,EASTERN STAR BAPTIST CHURCH,PHILADELPHIA,PA,19144,2318,PHILADELPHIA,42101,2009-06-29T00:00:00.000Z,ALT REF,2009-06-29T00:00:00.000Z,CHURCHES,18700098,-75.1646365,40.0322764,CHRISTIAN,ABC,NOT AVAILABLE,NOT AVAILABLE,Y,N
38488,10452855,CHRIST INTERNATIONAL BAPTIST CHURCH,PHILADELPHIA,PA,19142,2220,PHILADELPHIA,42101,2009-07-01T00:00:00.000Z,ALT REF,2009-06-24T00:00:00.000Z,CHURCHES,18724666,-75.2338396,39.924897,CHRISTIAN,NBC,NOT AVAILABLE,NOT AVAILABLE,Y,N
38489,10441224,CHURCH OF SAINT ALBAN ROXBOROUGH,PHILADELPHIA,PA,19128,2444,PHILADELPHIA,42101,2009-07-01T00:00:00.000Z,ALT REF,2009-06-24T00:00:00.000Z,CHURCHES,18697626,-75.2248952,40.0422829,CHRISTIAN,EPIS,NOT AVAILABLE,NOT AVAILABLE,Y,N
38490,10431213,AL-AQSA ISLAMIC SOCIETY,PHILADELPHIA,PA,19122,3712,PHILADELPHIA,42101,2009-07-01T00:00:00.000Z,ALT REF,2009-06-24T00:00:00.000Z,"MOSQUES, RELIGIOUS",125412628,-75.1414205,39.9738734,MUSLIM,NOT AVAILABLE,NOT AVAILABLE,NOT AVAILABLE,N,N
38497,10589006,EVANGELICAL HAITIAN BAPTIST CHURCH,PHILADELPHIA,PA,19138,1712,PHILADELPHIA,42101,2009-07-01T00:00:00.000Z,ALT REF,2009-06-25T00:00:00.000Z,CHURCHES,18695960,-75.1639551,40.0456082,CHRISTIAN,ABC,NOT AVAILABLE,NOT AVAILABLE,Y,N
38498,10589200,TRUTH BAPTIST CHURCH,PHILADELPHIA,PA,19140,2904,PHILADELPHIA,42101,2009-06-29T00:00:00.000Z,ALT REF,2009-06-29T00:00:00.000Z,CHURCHES,722971115,-75.1541043,40.0152995,CHRISTIAN,ABC,NOT AVAILABLE,NOT AVAILABLE,Y,N
38499,10588972,CHRIST COMMUNITY CHURCH,PHILADELPHIA,PA,19104,3019,PHILADELPHIA,42101,2009-06-25T00:00:00.000Z,ALT REF,2009-05-05T00:00:00.000Z,CHURCHES,18718039,-75.2031631,39.9561564,CHRISTIAN,ABC,NOT AVAILABLE,NOT AVAILABLE,Y,N
38500,10589008,FAIR HAVENS BAPTIST CHURCH,PHILADELPHIA,PA,19141,2915,PHILADELPHIA,42101,2009-05-19T00:00:00.000Z,ALT REF,2009-05-19T00:00:00.000Z,CHURCHES,18699848,-75.1437338,40.0320479,CHRISTIAN,ABC,NOT AVAILABLE,NOT AVAILABLE,Y,N
38501,10431610,MASJID SALFIA,PHILADELPHIA,PA,19121,1133,PHILADELPHIA,42101,2009-06-30T00:00:00.000Z,ALT REF,2009-06-30T00:00:00.000Z,"MOSQUES, RELIGIOUS",18710664,-75.1841653,39.9895094,MUSLIM,NOT AVAILABLE,NOT AVAILABLE,NOT AVAILABLE,N,N
38510,10683928,AMITABHA BUDDHIST SOCIETY OF PHILADELPHIA,PHILADELPHIA,PA,19107,3003,PHILADELPHIA,42101,2009-06-24T00:00:00.000Z,ALT REF,2009-06-24T00:00:00.000Z,PLACES OF WORSHIP,18718263,-75.1568612,39.9533689,BUDDHIST,"MAHAYANA, PURE LAND BUDDHISM",NOT AVAILABLE,NOT AVAILABLE,N,N
38515,10576809,GERMANTOWN HOPE COMMUNITY CHURCH,PHILADELPHIA,PA,19144,3641,PHILADELPHIA,42101,2009-05-19T00:00:00.000Z,ALT REF,2009-07-01T00:00:00.000Z,CHURCHES,18702337,-75.168135,40.0260165,CHRISTIAN,CRC,NOT AVAILABLE,NOT AVAILABLE,Y,N
38530,10589219,PRINCE OF PEACE BAPTIST CHURCH,PHILADELPHIA,PA,19121,2514,PHILADELPHIA,42101,2009-07-01T00:00:00.000Z,ALT REF,2009-07-01T00:00:00.000Z,CHURCHES,18711683,-75.1844283,39.9839635,CHRISTIAN,ABC,NOT AVAILABLE,NOT AVAILABLE,Y,N
38531,10589127,GREATER SAINT MATTHEW BAPTIST CHURCH,PHILADELPHIA,PA,19146,1133,PHILADELPHIA,42101,2009-07-01T00:00:00.000Z,ALT REF,2009-07-01T00:00:00.000Z,CHURCHES,18720367,-75.1813093,39.944023,CHRISTIAN,ABC,NOT AVAILABLE,NOT AVAILABLE,Y,N
38532,10431200,INTERNATIONAL MUSLIM BROTHERHOOD,PHILADELPHIA,PA,19131,4619,PHILADELPHIA,42101,2009-06-30T00:00:00.000Z,ALT REF,2009-07-01T00:00:00.000Z,"MOSQUES, RELIGIOUS",18714593,-75.2150574,39.9713567,MUSLIM,NOT AVAILABLE,NOT AVAILABLE,NOT AVAILABLE,N,N
38541,10589096,FIRST BAPTIST CHURCH OF PHILADELPHIA,PHILADELPHIA,PA,19103,5401,PHILADELPHIA,42101,2009-07-06T00:00:00.000Z,ALT REF,2009-07-06T00:00:00.000Z,CHURCHES,18718917,-75.1685503,39.9504692,CHRISTIAN,ABC,NOT AVAILABLE,NOT AVAILABLE,Y,N
38543,10684613,KUAN-YIN BUDDHIST ASSOCIATION OF PHILADELPHIA,PHILADELPHIA,PA,19123,3218,PHILADELPHIA,42101,2009-06-30T00:00:00.000Z,ALT REF,2009-06-30T00:00:00.000Z,PLACES OF WORSHIP,18716257,-75.1583433,39.963264,BUDDHIST,"MAHAYANA, VIETNAMESE",NOT AVAILABLE,NOT AVAILABLE,N,N
38546,10435780,NEW COVENANT BAPTIST CHURCH,PHILADELPHIA,PA,19144,3528,PHILADELPHIA,42101,2009-07-07T00:00:00.000Z,ALT REF,2009-07-01T00:00:00.000Z,CHURCHES,18701764,-75.1725971,40.0277104,CHRISTIAN,SBC,1825,NOT AVAILABLE,Y,N
38564,10589002,EBENEZER HAITIAN BAPTIST CHURCH,PHILADELPHIA,PA,19120,3935,PHILADELPHIA,42101,2009-06-24T00:00:00.000Z,ALT REF,2009-06-24T00:00:00.000Z,CHURCHES,18701929,-75.1197168,40.025599,CHRISTIAN,ABC,NOT AVAILABLE,NOT AVAILABLE,Y,N
38625,10589126,GREATER FREEWILL BAPTIST CHURCH,PHILADELPHIA,PA,19138,1741,PHILADELPHIA,42101,2009-06-25T00:00:00.000Z,ALT REF,2009-06-25T00:00:00.000Z,CHURCHES,18696355,-75.1630245,40.0441752,CHRISTIAN,ABC,NOT AVAILABLE,NOT AVAILABLE,Y,N
38627,10684892,PHILADELPHIA SHAMBHALA CENTER,PHILADELPHIA,PA,19103,4417,PHILADELPHIA,42101,2009-05-28T00:00:00.000Z,ALT REF,2009-06-24T00:00:00.000Z,PLACES OF WORSHIP,18718745,-75.1743716,39.9512168,BUDDHIST,"TIBETAN, NYINGMA/KAGYU/SHAMBHALA",NOT AVAILABLE,NOT AVAILABLE,N,N
38628,10461047,BETHEL KOREAN PRESBYTERIAN CHURCH,PHILADELPHIA,PA,19126,2902,PHILADELPHIA,42101,2009-06-24T00:00:00.000Z,ALT REF,2009-06-24T00:00:00.000Z,CHURCHES,18693067,-75.130422,40.0559478,CHRISTIAN,PCA,NOT AVAILABLE,NOT AVAILABLE,Y,N
38633,10431868,MUSLIM SOCIETY OF DELAWARE VALLEY,PHILADELPHIA,PA,19133,3715,PHILADELPHIA,42101,2009-06-30T00:00:00.000Z,ALT REF,2009-06-30T00:00:00.000Z,"MOSQUES, RELIGIOUS",18711564,-75.1322776,39.9835992,MUSLIM,NOT AVAILABLE,NOT AVAILABLE,NOT AVAILABLE,N,N
38634,10445417,OUR LADY OF LOURDES CATHOLIC CHURCH,PHILADELPHIA,PA,19151,2620,PHILADELPHIA,42101,2009-06-24T00:00:00.000Z,ALT REF,2009-06-24T00:00:00.000Z,CHURCHES,18711636,-75.2481207,39.9858241,CHRISTIAN,NOT AVAILABLE,NOT AVAILABLE,NOT AVAILABLE,N,Y
38646,10456838,EKKLESIA AFRICAN METHODIST EPISCOPAL CHURCH,PHILADELPHIA,PA,19151,4219,PHILADELPHIA,42101,2009-08-06T00:00:00.000Z,ALT REF,2009-08-06T00:00:00.000Z,CHURCHES,18713869,-75.2397624,39.9754454,CHRISTIAN,AME,NOT AVAILABLE,NOT AVAILABLE,Y,N
38647,10455538,MILLER MEMORIAL BAPTIST CHURCH,PHILADELPHIA,PA,19121,3917,PHILADELPHIA,42101,2009-08-05T00:00:00.000Z,ALT REF,2009-08-05T00:00:00.000Z,CHURCHES,18712709,-75.1717038,39.9781641,CHRISTIAN,NBC,NOT AVAILABLE,NOT AVAILABLE,Y,N
38649,10578650,FIRST FILIPINO BAPTIST CHURCH,PHILADELPHIA,PA,19120,3328,PHILADELPHIA,42101,2009-08-06T00:00:00.000Z,ALT REF,2009-08-06T00:00:00.000Z,CHURCHES,18700488,-75.1293661,40.03029,CHRISTIAN,BAPT,NOT AVAILABLE,NOT AVAILABLE,Y,N
38717,10455628,THE BAPTIST FELLOWSHIP CHURCH,PHILADELPHIA,PA,19104,1277,PHILADELPHIA,42101,2009-07-28T00:00:00.000Z,ALT REF,2009-07-28T00:00:00.000Z,CHURCHES,723597717,-75.2126563,39.9729723,CHRISTIAN,NBC,NOT AVAILABLE,NOT AVAILABLE,Y,N
38723,10588976,SOMERTON UNITED METHODIST CHURCH,PHILADELPHIA,PA,19116,1630,PHILADELPHIA,42101,2009-07-21T00:00:00.000Z,ALT REF,2009-07-21T00:00:00.000Z,CHURCHES,18748407,-75.0131292,40.1263377,CHRISTIAN,NOT AVAILABLE,NOT AVAILABLE,NOT AVAILABLE,Y,N
38726,10581656,FALLS PRESBYTERIAN CHURCH,PHILADELPHIA,PA,19129,1400,PHILADELPHIA,42101,2009-05-28T00:00:00.000Z,ALT REF,2009-05-28T00:00:00.000Z,CHURCHES,18705168,-75.1901138,40.0162645,CHRISTIAN,NOT AVAILABLE,NOT AVAILABLE,NOT AVAILABLE,Y,N
38729,10440443,CITY CHURCH OF PHILADELPHIA,PHILADELPHIA,PA,19148,3505,PHILADELPHIA,42101,2009-08-05T00:00:00.000Z,ALT REF,2009-08-05T00:00:00.000Z,CHURCHES,18725166,-75.1679744,39.9212779,CHRISTIAN,NOT AVAILABLE,NOT AVAILABLE,NOT AVAILABLE,Y,N
38730,10454794,HASHEM CHRISTIAN WORSHIP CENTER,PHILADELPHIA,PA,19138,2645,PHILADELPHIA,42101,2009-08-06T00:00:00.000Z,ALT REF,2009-08-06T00:00:00.000Z,CHURCHES,18692169,-75.1491748,40.0589852,CHRISTIAN,NOT AVAILABLE,NOT AVAILABLE,NOT AVAILABLE,Y,N
38731,10461098,EMMANUEL CHAPEL,PHILADELPHIA,PA,19147,5711,PHILADELPHIA,42101,2008-02-29T00:00:00.000Z,ALT REF,2008-02-29T00:00:00.000Z,CHURCHES,18723031,-75.1589976,39.9319497,CHRISTIAN,NOT AVAILABLE,NOT AVAILABLE,NOT AVAILABLE,Y,N
38732,10428414,CHABAD-LUBAVITCH OF OLD CITY,PHILADELPHIA,PA,19106,1218,PHILADELPHIA,42101,2007-08-01T00:00:00.000Z,PHONE,2008-09-05T00:00:00.000Z,SYNAGOGUES,18717760,-75.1437954,39.9559129,JUDAIC,CHABAD,NOT AVAILABLE,CHABAD,N,N
38734,10461045,ALL NATIONS CHURCH,PHILADELPHIA,PA,19142,1823,PHILADELPHIA,42101,2008-02-29T00:00:00.000Z,ALT REF,2008-09-05T00:00:00.000Z,CHURCHES,18725557,-75.2404359,39.9208889,CHRISTIAN,PCA,NOT AVAILABLE,NOT AVAILABLE,Y,N
38735,10452413,MOUNT ZION OF GERMANTOWN,PHILADELPHIA,PA,19144,2711,PHILADELPHIA,42101,2008-02-29T00:00:00.000Z,ALT REF,2008-09-05T00:00:00.000Z,CHURCHES,18698840,-75.1774912,40.0372145,CHRISTIAN,NBC,NOT AVAILABLE,NOT AVAILABLE,Y,N
38736,10459900,CRESHEIM VALLEY CHURCH,PHILADELPHIA,PA,19118,3301,PHILADELPHIA,42101,2008-02-29T00:00:00.000Z,ALT REF,2008-09-05T00:00:00.000Z,CHURCHES,18688506,-75.2053958,40.0757597,CHRISTIAN,PCA,NOT AVAILABLE,NOT AVAILABLE,Y,N
38737,10461102,NEW LIFE PRESBYTERIAN CHURCH OF PHILADELPHIA,PHILADELPHIA,PA,19120,4010,PHILADELPHIA,42101,2008-02-21T00:00:00.000Z,ALT REF,2008-09-05T00:00:00.000Z,CHURCHES,18701515,-75.1163341,40.0272644,CHRISTIAN,PCA,NOT AVAILABLE,NOT AVAILABLE,Y,N
38739,10439968,THE CHURCH OF JESUS CHRIST OF LATTER DAY SAINTS - INDEPENDENCE WARD,PHILADELPHIA,PA,19141,2106,PHILADELPHIA,42101,2007-10-16T00:00:00.000Z,ALT REF,2008-09-05T00:00:00.000Z,CHURCHES,18702464,-75.1481304,40.0251104,CHRISTIAN,LDS,NOT AVAILABLE,NOT AVAILABLE,Y,N
38740,10439776,THE CHURCH OF JESUS CHRIST OF LATTER DAY SAINTS - PHILADELPHIA 5TH (SPANISH) BRANCH,PHILADELPHIA,PA,19141,2106,PHILADELPHIA,42101,2007-10-16T00:00:00.000Z,ALT REF,2008-09-05T00:00:00.000Z,CHURCHES,18702464,-75.1481312,40.0251068,CHRISTIAN,LDS,NOT AVAILABLE,NOT AVAILABLE,Y,N
38741,10441201,SAINT STEPHEN'S EPISCOPAL CHURCH,PHILADELPHIA,PA,19107,4224,PHILADELPHIA,42101,2007-11-07T00:00:00.000Z,ALT REF,2008-09-05T00:00:00.000Z,CHURCHES,18718799,-75.1565808,39.9506594,CHRISTIAN,EPIS,NOT AVAILABLE,NOT AVAILABLE,Y,N
38743,10442773,SAINT RICHARD CHURCH,PHILADELPHIA,PA,19145,NULL,PHILADELPHIA,42101,2007-09-06T00:00:00.000Z,ALT REF,2008-09-05T00:00:00.000Z,CHURCHES,18726308,-75.1782223,39.9134916,CHRISTIAN,NOT AVAILABLE,NOT AVAILABLE,NOT AVAILABLE,N,Y
38745,10445347,SAINT ADALBERT CHURCH (POLISH),PHILADELPHIA,PA,19134,NULL,PHILADELPHIA,42101,2007-09-06T00:00:00.000Z,ALT REF,2008-09-05T00:00:00.000Z,CHURCHES,18645304,-75.1024565,39.984634,CHRISTIAN,NOT AVAILABLE,NOT AVAILABLE,NOT AVAILABLE,N,Y
38746,10452672,PINN MEMORIAL BAPTIST CHURCH,PHILADELPHIA,PA,19131,2321,PHILADELPHIA,42101,2008-02-21T00:00:00.000Z,ALT REF,2008-09-05T00:00:00.000Z,CHURCHES,18710761,-75.2330076,39.990233,CHRISTIAN,NBC,NOT AVAILABLE,NOT AVAILABLE,Y,N
38747,10453689,GREATER MOUNT VERNON BAPTIST CHURCH,PHILADELPHIA,PA,19133,1113,PHILADELPHIA,42101,2008-02-21T00:00:00.000Z,ALT REF,2008-09-05T00:00:00.000Z,CHURCHES,18709822,-75.1497809,39.9936234,CHRISTIAN,NBC,NOT AVAILABLE,NOT AVAILABLE,Y,N
38748,10445398,OLD SAINT JOSEPH'S CHURCH,PHILADELPHIA,PA,19106,3809,PHILADELPHIA,42101,2007-09-06T00:00:00.000Z,ALT REF,2008-09-05T00:00:00.000Z,CHURCHES,18719644,-75.1474309,39.9467302,CHRISTIAN,NOT AVAILABLE,NOT AVAILABLE,NOT AVAILABLE,N,Y
38749,10445392,SAINT JEROME CHURCH,PHILADELPHIA,PA,19136,1830,PHILADELPHIA,42101,2007-09-06T00:00:00.000Z,ALT REF,2008-09-05T00:00:00.000Z,CHURCHES,18692120,-75.0300136,40.0562222,CHRISTIAN,NOT AVAILABLE,NOT AVAILABLE,NOT AVAILABLE,N,Y
38750,10445381,HOLY CROSS CATHOLIC CHURCH,PHILADELPHIA,PA,19119,1714,PHILADELPHIA,42101,2007-09-06T00:00:00.000Z,ALT REF,2008-09-05T00:00:00.000Z,CHURCHES,18691854,-75.1889893,40.0616594,CHRISTIAN,NOT AVAILABLE,NOT AVAILABLE,NOT AVAILABLE,N,Y
38751,10445346,CATHEDRAL BASILICA OF SAINTS PETER AND PAUL,PHILADELPHIA,PA,19103,NULL,PHILADELPHIA,42101,2007-09-06T00:00:00.000Z,ALT REF,2008-09-05T00:00:00.000Z,CHURCHES,18717578,-75.1687255,39.9574825,CHRISTIAN,NOT AVAILABLE,NOT AVAILABLE,NOT AVAILABLE,N,Y
38752,10445351,SAINT AMBROSE CHURCH,PHILADELPHIA,PA,19120,NULL,PHILADELPHIA,42101,2007-09-06T00:00:00.000Z,ALT REF,2008-09-05T00:00:00.000Z,CHURCHES,18701515,-75.1167674,40.0272003,CHRISTIAN,NOT AVAILABLE,NOT AVAILABLE,NOT AVAILABLE,N,Y
38753,10440237,CHURCH OF THE ANNUNCIATION,PHILADELPHIA,PA,19119,3003,PHILADELPHIA,42101,2007-11-07T00:00:00.000Z,ALT REF,2008-09-05T00:00:00.000Z,CHURCHES,18695129,-75.1923933,40.0492416,CHRISTIAN,EPIS,NOT AVAILABLE,NOT AVAILABLE,Y,N
38754,10438820,THE CHURCH OF JESUS CHRIST OF LATTER DAY SAINTS - LOGAN WARD,PHILADELPHIA,PA,19141,2106,PHILADELPHIA,42101,2007-10-16T00:00:00.000Z,ALT REF,2008-09-05T00:00:00.000Z,CHURCHES,18702464,-75.1481327,40.0250997,CHRISTIAN,LDS,NOT AVAILABLE,NOT AVAILABLE,Y,N
38762,10427131,VILNA CONGREGATION,PHILADELPHIA,PA,19106,4110,PHILADELPHIA,42101,2007-07-27T00:00:00.000Z,PHONE,2008-09-05T00:00:00.000Z,SYNAGOGUES,18720235,-75.1507249,39.9439723,JUDAIC,ORTHODOX,NOT AVAILABLE,SYNAGOGUE,N,N
38766,10427122,ISRAEL KESHER CONGREGATION,PHILADELPHIA,PA,19147,1517,PHILADELPHIA,42101,2007-08-08T00:00:00.000Z,ALT REF,2008-09-05T00:00:00.000Z,SYNAGOGUES,18720443,-75.14952,39.9425147,JUDAIC,ORTHODOX,NOT AVAILABLE,SYNAGOGUE,N,N
38767,10429395,ROTHENBERG MINYON,PHILADELPHIA,PA,19102,4017,PHILADELPHIA,42101,2007-07-27T00:00:00.000Z,PHONE,2008-09-05T00:00:00.000Z,SYNAGOGUES,18854934,-75.1656224,39.9492221,JUDAIC,NUSACH ASHKENAZ,NOT AVAILABLE,NOT AVAILABLE,N,N
38768,10431199,MASJID AL-HASHR,PHILADELPHIA,PA,19132,2626,PHILADELPHIA,42101,2007-10-08T00:00:00.000Z,ALT REF,2008-09-05T00:00:00.000Z,"MOSQUES, RELIGIOUS",18709146,-75.166766,39.9976419,MUSLIM,NOT AVAILABLE,NOT AVAILABLE,NOT AVAILABLE,N,N
43383,10456906,SAINT PAUL AFRICAN METHODIST EPISCOPAL CHURCH,PHILADELPHIA,PA,19153,NULL,PHILADELPHIA,42101,2008-02-21T00:00:00.000Z,ALT REF,2008-02-21T00:00:00.000Z,CHURCHES,125406087,-75.2453056,39.8898176,CHRISTIAN,AME,NOT AVAILABLE,NOT AVAILABLE,Y,N