OBJECTID,ID,NAME,CITY,STATE,ZIP,ZIPP4,COUNTY,FIPS,CONTDATE,CONTHOW,GEODATE,NAICSDESCR,GEOLINKID,X,Y,SUBTYPE,DENOM,MEMBERS,LOC_TYPE,PROT,CATH
5140,10460279,NEW VALLEY CHURCH,PHOENIX,AZ,85044,9132,MARICOPA,4013,2008-02-22T00:00:00.000Z,ALT REF,2008-02-22T00:00:00.000Z,CHURCHES,19396705,-111.976361,33.3083049,CHRISTIAN,PCA,NOT AVAILABLE,NOT AVAILABLE,Y,N
5141,10437642,CHRIST LUTHERAN CHURCH,PHOENIX,AZ,85018,5236,MARICOPA,4013,2007-09-21T00:00:00.000Z,ALT REF,2007-09-21T00:00:00.000Z,CHURCHES,20865841,-111.997466,33.494374,CHRISTIAN,LCMS,NOT AVAILABLE,NOT AVAILABLE,Y,N
5148,10439074,THE CHURCH OF JESUS CHRIST OF LATTER DAY SAINTS - AHWATUKEE 1ST WARD,PHOENIX,AZ,85044,NULL,MARICOPA,4013,2007-10-16T00:00:00.000Z,ALT REF,2007-10-16T00:00:00.000Z,CHURCHES,122782759,-111.9862502,33.3259898,CHRISTIAN,LDS,NOT AVAILABLE,NOT AVAILABLE,Y,N
5153,10448779,SAINT ROSE PHILIPPINE DUCHESNE CHAPEL,PHOENIX,AZ,85086,NULL,MARICOPA,4013,2007-10-02T00:00:00.000Z,ALT REF,2007-10-02T00:00:00.000Z,CHURCHES,NULL,-112.1221347,33.8443161,CHRISTIAN,NOT AVAILABLE,NOT AVAILABLE,NOT AVAILABLE,N,Y
5158,10442707,DORMITION OF THE MOTHER OF GOD UKRAINIAN BYZANTINE CATHOLIC CHURCH,PHOENIX,AZ,85019,1539,MARICOPA,4013,2008-10-28T00:00:00.000Z,ALT REF,2008-10-28T00:00:00.000Z,CHURCHES,20907732,-112.1390413,33.531628,CHRISTIAN,NOT AVAILABLE,NOT AVAILABLE,NOT AVAILABLE,N,Y
5159,10584757,FIRST CHRISTIAN FELLOWSHIP CHURCH OF PHOENIX,PHOENIX,AZ,85041,2234,MARICOPA,4013,2008-10-28T00:00:00.000Z,ALT REF,2008-10-28T00:00:00.000Z,CHURCHES,20850149,-112.0908707,33.4057233,CHRISTIAN,BAPT,NOT AVAILABLE,NOT AVAILABLE,Y,N
5160,10760287,CHRIST THE REDEEMER LUTHERAN CHURCH,PHOENIX,AZ,85051,3641,MARICOPA,4013,2008-10-27T00:00:00.000Z,ALT REF,2008-10-27T00:00:00.000Z,CHURCHES,20960202,-112.1508908,33.564723,CHRISTIAN,LCMS,NOT AVAILABLE,NOT AVAILABLE,Y,N
5161,10446824,IMMACULATE HEART OF MARY CHURCH,PHOENIX,AZ,85034,1005,MARICOPA,4013,2008-10-28T00:00:00.000Z,ALT REF,2008-10-28T00:00:00.000Z,CHURCHES,20857543,-112.0618317,33.4479359,CHRISTIAN,NOT AVAILABLE,NOT AVAILABLE,NOT AVAILABLE,N,Y
5162,10440495,ALL SAINTS' EPISCOPAL CHURCH AND DAY SCHOOL,PHOENIX,AZ,85012,1109,MARICOPA,4013,2008-10-27T00:00:00.000Z,ALT REF,2008-10-27T00:00:00.000Z,CHURCHES,20891430,-112.0746325,33.5296006,CHRISTIAN,EPIS,NOT AVAILABLE,NOT AVAILABLE,Y,N
5173,10761652,CAMELBACK CHURCH OF CHRIST,PHOENIX,AZ,85018,3019,MARICOPA,4013,2008-10-27T00:00:00.000Z,ALT REF,2008-10-27T00:00:00.000Z,CHURCHES,20899002,-111.9674255,33.5024777,CHRISTIAN,COC,450,NOT AVAILABLE,Y,N
5177,10761238,PHOENIX SHADOW ROCK UNITED CHURCH OF CHRIST,PHOENIX,AZ,85029,1806,MARICOPA,4013,2008-10-27T00:00:00.000Z,ALT REF,2008-10-27T00:00:00.000Z,CHURCHES,20890710,-112.0835371,33.6026423,CHRISTIAN,UCC,714,NOT AVAILABLE,Y,N
5178,10432129,PILGRIM REST BAPTIST CHURCH,PHOENIX,AZ,85034,2315,MARICOPA,4013,2008-10-27T00:00:00.000Z,ALT REF,2008-10-27T00:00:00.000Z,CHURCHES,122795242,-112.0516999,33.4467923,CHRISTIAN,BAPT,NOT AVAILABLE,NOT AVAILABLE,Y,N
5180,10446837,SAINT MARYS BASILICA,PHOENIX,AZ,85004,2219,MARICOPA,4013,2008-10-27T00:00:00.000Z,ALT REF,2008-10-27T00:00:00.000Z,CHURCHES,719307703,-112.0693878,33.4507171,CHRISTIAN,NOT AVAILABLE,NOT AVAILABLE,NOT AVAILABLE,N,Y
5181,10761239,SHEPHERD OF THE HILLS CONGREGATIONAL UNITED CHURCH OF CHRIST,PHOENIX,AZ,85018,4524,MARICOPA,4013,2008-10-27T00:00:00.000Z,ALT REF,2008-10-27T00:00:00.000Z,CHURCHES,726175751,-111.9626851,33.4948442,CHRISTIAN,UCC,432,NOT AVAILABLE,Y,N
5182,10435278,STARLIGHT PARK BAPTIST CHURCH,PHOENIX,AZ,85033,3528,MARICOPA,4013,2008-10-27T00:00:00.000Z,ALT REF,2008-10-27T00:00:00.000Z,CHURCHES,20878847,-112.22939,33.486929,CHRISTIAN,SBC,866,NOT AVAILABLE,Y,N
5189,10759797,ALL SAINTS LUTHERAN CHURCH,PHOENIX,AZ,85022,3518,MARICOPA,4013,2008-10-27T00:00:00.000Z,ALT REF,2008-10-27T00:00:00.000Z,CHURCHES,20944096,-112.0633799,33.6289724,CHRISTIAN,ELCA,NOT AVAILABLE,NOT AVAILABLE,Y,N
5190,10437107,PLEASANT VIEW BAPTIST CHURCH,PHOENIX,AZ,85041,2318,MARICOPA,4013,2008-10-27T00:00:00.000Z,ALT REF,2008-10-27T00:00:00.000Z,CHURCHES,20850137,-112.0911264,33.4010112,CHRISTIAN,SBC,826,NOT AVAILABLE,Y,N
5191,10759757,SHEPHERD OF THE VALLEY LUTHERAN CHURCH,PHOENIX,AZ,85015,1401,MARICOPA,4013,2008-10-27T00:00:00.000Z,ALT REF,2008-10-27T00:00:00.000Z,CHURCHES,20883656,-112.0920263,33.532029,CHRISTIAN,ELCA,NOT AVAILABLE,NOT AVAILABLE,Y,N
5199,10580087,FREEWAY BAPTIST CHURCH,PHOENIX,AZ,85021,4119,MARICOPA,4013,2008-10-28T00:00:00.000Z,ALT REF,2008-10-28T00:00:00.000Z,CHURCHES,20883974,-112.1143126,33.5611559,CHRISTIAN,BAPT,NOT AVAILABLE,NOT AVAILABLE,Y,N
5200,10432128,PHOENIX FIRST ASSEMBLY OF GOD,PHOENIX,AZ,85022,5137,MARICOPA,4013,2008-10-27T00:00:00.000Z,ALT REF,2008-10-27T00:00:00.000Z,CHURCHES,20889631,-112.0318393,33.6098769,CHRISTIAN,AG,NOT AVAILABLE,NOT AVAILABLE,Y,N
5203,10431933,THE VALLEY CATHEDRAL,PHOENIX,AZ,85012,1107,MARICOPA,4013,2008-10-27T00:00:00.000Z,ALT REF,2008-10-27T00:00:00.000Z,CHURCHES,20891399,-112.0720229,33.528232,CHRISTIAN,NONDENOM,NOT AVAILABLE,NOT AVAILABLE,Y,N
5206,10446841,SAINT THOMAS THE APOSTLE CATHOLIC CHURCH,PHOENIX,AZ,85016,5526,MARICOPA,4013,2008-10-28T00:00:00.000Z,ALT REF,2008-10-28T00:00:00.000Z,CHURCHES,20885834,-112.0310908,33.5024414,CHRISTIAN,NOT AVAILABLE,NOT AVAILABLE,NOT AVAILABLE,N,Y
5207,10446830,SAINT FRANCIS XAVIER PARISH,PHOENIX,AZ,85012,1711,MARICOPA,4013,2008-10-27T00:00:00.000Z,ALT REF,2008-10-27T00:00:00.000Z,CHURCHES,122798738,-112.0733643,33.5060274,CHRISTIAN,NOT AVAILABLE,NOT AVAILABLE,NOT AVAILABLE,N,Y
5219,10584750,WEST HIGH BAPTIST CHURCH,PHOENIX,AZ,85015,5761,MARICOPA,4013,2008-11-04T00:00:00.000Z,ALT REF,2008-11-04T00:00:00.000Z,CHURCHES,20853588,-112.099514,33.4857891,CHRISTIAN,BAPT,NOT AVAILABLE,NOT AVAILABLE,Y,N
5220,10584755,NORTH VALLEY BAPTIST CHURCH,PHOENIX,AZ,85024,4421,MARICOPA,4013,2008-11-04T00:00:00.000Z,ALT REF,2008-11-04T00:00:00.000Z,CHURCHES,122808797,-112.0370852,33.6764385,CHRISTIAN,BAPT,NOT AVAILABLE,NOT AVAILABLE,Y,N
5221,10584754,NORTH VILLAGE BAPTIST CHURCH,PHOENIX,AZ,85020,3213,MARICOPA,4013,2008-11-04T00:00:00.000Z,ALT REF,2008-11-04T00:00:00.000Z,CHURCHES,20884564,-112.0604848,33.5646353,CHRISTIAN,BAPT,NOT AVAILABLE,NOT AVAILABLE,Y,N
5237,10585672,MADISON BAPTIST CHURCH,PHOENIX,AZ,85014,1719,MARICOPA,4013,2008-10-28T00:00:00.000Z,ALT REF,2008-10-28T00:00:00.000Z,CHURCHES,20886643,-112.0568079,33.5278375,CHRISTIAN,ABC,NOT AVAILABLE,NOT AVAILABLE,Y,N
5238,10435084,LOVE BAPTIST CHURCH,PHOENIX,AZ,85051,8435,MARICOPA,4013,2008-10-28T00:00:00.000Z,ALT REF,2008-10-28T00:00:00.000Z,CHURCHES,20882129,-112.1248322,33.5389655,CHRISTIAN,SBC,770,NOT AVAILABLE,Y,N
5241,10446833,SAINT JOAN OF ARC CATHOLIC CHURCH,PHOENIX,AZ,85032,4627,MARICOPA,4013,2008-10-28T00:00:00.000Z,ALT REF,2008-10-28T00:00:00.000Z,CHURCHES,20936179,-111.9999968,33.6259725,CHRISTIAN,NOT AVAILABLE,NOT AVAILABLE,NOT AVAILABLE,N,Y
5243,10446832,SAINT JEROME CATHOLIC CHURCH,PHOENIX,AZ,85029,4258,MARICOPA,4013,2008-10-28T00:00:00.000Z,ALT REF,2008-10-28T00:00:00.000Z,CHURCHES,122792604,-112.1334721,33.5849796,CHRISTIAN,NOT AVAILABLE,NOT AVAILABLE,NOT AVAILABLE,N,Y
5244,10585668,FIRST INSTITUTIONAL BAPTIST CHURCH,PHOENIX,AZ,85034,2223,MARICOPA,4013,2008-10-28T00:00:00.000Z,ALT REF,2008-10-28T00:00:00.000Z,CHURCHES,20857539,-112.0574272,33.4469006,CHRISTIAN,ABC,NOT AVAILABLE,NOT AVAILABLE,Y,N
5245,10585674,MONTE VISTA BAPTIST CHURCH,PHOENIX,AZ,85008,2203,MARICOPA,4013,2008-10-28T00:00:00.000Z,ALT REF,2008-10-28T00:00:00.000Z,CHURCHES,20851655,-112.0038276,33.4740806,CHRISTIAN,ABC,NOT AVAILABLE,NOT AVAILABLE,Y,N
5250,10443181,SAINT BENEDICT CATHOLIC CHURCH,PHOENIX,AZ,85048,801,MARICOPA,4013,2008-10-28T00:00:00.000Z,ALT REF,2008-10-28T00:00:00.000Z,CHURCHES,724053664,-111.9791077,33.299591,CHRISTIAN,NOT AVAILABLE,NOT AVAILABLE,NOT AVAILABLE,N,Y
5253,10446840,SAINT THERESA PARISH,PHOENIX,AZ,85018,7912,MARICOPA,4013,2008-10-28T00:00:00.000Z,ALT REF,2008-10-28T00:00:00.000Z,CHURCHES,743309594,-111.9721433,33.4795993,CHRISTIAN,NOT AVAILABLE,NOT AVAILABLE,NOT AVAILABLE,N,Y
5289,10432130,THE RIVER OF LIFE CHURCH,PHOENIX,AZ,85040,1930,MARICOPA,4013,2007-09-17T00:00:00.000Z,ALT REF,2007-09-11T00:00:00.000Z,CHURCHES,20868683,-111.993787,33.4123848,CHRISTIAN,NOT AVAILABLE,NOT AVAILABLE,NOT AVAILABLE,Y,N
5290,10576253,PHOENIX CHRISTIAN REFORMED CHURCH,PHOENIX,AZ,85016,7402,MARICOPA,4013,2008-11-05T00:00:00.000Z,ALT REF,2008-11-05T00:00:00.000Z,CHURCHES,20854543,-112.0282892,33.484394,CHRISTIAN,CRC,NOT AVAILABLE,NOT AVAILABLE,Y,N
5291,10430523,ALRASOOL MOSQUE AND ISLAMIC EDUCATIONAL CENTER,PHOENIX,AZ,85017,2809,MARICOPA,4013,2008-11-04T00:00:00.000Z,ALT REF,2008-11-04T00:00:00.000Z,"MOSQUES, RELIGIOUS",20910699,-112.1345003,33.514978,MUSLIM,NOT AVAILABLE,NOT AVAILABLE,NOT AVAILABLE,N,N
5293,10576252,ORANGEWOOD CHRISTIAN REFORMED CHURCH,PHOENIX,AZ,85051,6466,MARICOPA,4013,2008-11-05T00:00:00.000Z,ALT REF,2008-11-05T00:00:00.000Z,CHURCHES,20911343,-112.1393771,33.5463676,CHRISTIAN,CRC,NOT AVAILABLE,NOT AVAILABLE,Y,N
5294,10446835,SAINT LUKES CATHOLIC CHURCH,PHOENIX,AZ,85027,4748,MARICOPA,4013,2008-11-05T00:00:00.000Z,ALT REF,2008-11-05T00:00:00.000Z,CHURCHES,20943058,-112.0834981,33.6648466,CHRISTIAN,NOT AVAILABLE,NOT AVAILABLE,NOT AVAILABLE,N,Y
5297,10433307,MOUNTAIN VIEW LUTHERAN CHURCH,PHOENIX,AZ,85044,1702,MARICOPA,4013,2007-09-17T00:00:00.000Z,ALT REF,2007-09-17T00:00:00.000Z,CHURCHES,20953962,-111.9808107,33.3467418,CHRISTIAN,ELCA,NOT AVAILABLE,NOT AVAILABLE,Y,N
5301,10440493,THE EPISCOPAL CHURCH OF THE HOLY SPIRIT,PHOENIX,AZ,85032,7041,MARICOPA,4013,2008-11-21T00:00:00.000Z,ALT REF,2008-11-21T00:00:00.000Z,CHURCHES,20885169,-112.0275064,33.5963962,CHRISTIAN,EPIS,NOT AVAILABLE,NOT AVAILABLE,Y,N
5304,10433799,HILLSIDE SOUTHERN BAPTIST CHURCH,PHOENIX,AZ,85023,5112,MARICOPA,4013,2008-11-04T00:00:00.000Z,ALT REF,2008-11-04T00:00:00.000Z,CHURCHES,129774086,-112.0884235,33.6085888,CHRISTIAN,SBC,846,NOT AVAILABLE,Y,N
5307,10442222,SAINT MARK CATHOLIC CHURCH,PHOENIX,AZ,85008,6108,MARICOPA,4013,2008-11-05T00:00:00.000Z,ALT REF,2008-11-05T00:00:00.000Z,CHURCHES,20852097,-112.0186652,33.4532275,CHRISTIAN,NOT AVAILABLE,NOT AVAILABLE,NOT AVAILABLE,N,Y
5315,10685442,BUDDHA HEART UNITED STATES OF AMERICA - PHOENIX,PHOENIX,AZ,85013,2903,MARICOPA,4013,2008-11-24T00:00:00.000Z,ALT REF,2008-11-24T00:00:00.000Z,PLACES OF WORSHIP,20854124,-112.083437,33.4989726,BUDDHIST,"MAHAYANA, NON-SECTARIAN",NOT AVAILABLE,NOT AVAILABLE,N,N
5316,10685532,PHOENIX SHAMBHALA MEDITATION CENTER,PHOENIX,AZ,85014,1342,MARICOPA,4013,2008-11-25T00:00:00.000Z,ALT REF,2008-11-25T00:00:00.000Z,PLACES OF WORSHIP,20886836,-112.0559481,33.5313314,BUDDHIST,KAGYU,NOT AVAILABLE,NOT AVAILABLE,N,N
5317,10684112,CALM VILLAGE TEMPLE,PHOENIX,AZ,85041,7025,MARICOPA,4013,2008-12-01T00:00:00.000Z,ALT REF,2008-12-01T00:00:00.000Z,"TEMPLES, RELIGIOUS",20850579,-112.0831201,33.3781986,BUDDHIST,THERAVADA,NOT AVAILABLE,NOT AVAILABLE,N,N
5318,10678078,GURU NANAK DWARA ASHRAM,PHOENIX,AZ,85006,1614,MARICOPA,4013,2008-11-24T00:00:00.000Z,ALT REF,2008-11-24T00:00:00.000Z,PLACES OF WORSHIP,20856940,-112.0620867,33.4732563,HINDU,NOT AVAILABLE,NOT AVAILABLE,NOT AVAILABLE,N,N
5319,10431567,ISLAMIC COMMUNITY CENTER,PHOENIX,AZ,85017,1913,MARICOPA,4013,2008-12-01T00:00:00.000Z,ALT REF,2008-12-01T00:00:00.000Z,"MOSQUES, RELIGIOUS",20909976,-112.1339634,33.5220061,MUSLIM,NOT AVAILABLE,NOT AVAILABLE,NOT AVAILABLE,N,N
5320,10684238,DESERT CACTUS SANGHA,PHOENIX,AZ,85016,3009,MARICOPA,4013,2008-11-24T00:00:00.000Z,ALT REF,2008-11-24T00:00:00.000Z,PLACES OF WORSHIP,20893557,-112.0408406,33.517959,BUDDHIST,"VIETNAMESE, ZEN",NOT AVAILABLE,NOT AVAILABLE,N,N
5321,10685455,CLEAR LIGHT BUDDHIST CENTER,PHOENIX,AZ,85020,2930,MARICOPA,4013,2008-11-24T00:00:00.000Z,ALT REF,2008-11-24T00:00:00.000Z,PLACES OF WORSHIP,20882389,-112.0665622,33.566131,BUDDHIST,"VAJRAYANA, TIBETAN, NEW KADAMPA",NOT AVAILABLE,NOT AVAILABLE,N,N
5322,10684517,INTERNATIONAL BUDDHIST ASSOCIATION OF ARIZONA,PHOENIX,AZ,85014,1135,MARICOPA,4013,2008-11-25T00:00:00.000Z,ALT REF,2008-11-25T00:00:00.000Z,PLACES OF WORSHIP,20886592,-112.0478532,33.5349331,BUDDHIST,"MAHAYANA, HUMANISTIC BUDDHISM",NOT AVAILABLE,NOT AVAILABLE,N,N
5331,10430529,MASJID JAUHARTUL ISLAM,PHOENIX,AZ,85041,8103,MARICOPA,4013,2008-11-24T00:00:00.000Z,ALT REF,2008-11-24T00:00:00.000Z,"MOSQUES, RELIGIOUS",20940056,-112.0750977,33.3709297,MUSLIM,NOT AVAILABLE,NOT AVAILABLE,NOT AVAILABLE,N,N
5332,10585676,NEW HOPE HOUSE OF THE LIVING GOD,PHOENIX,AZ,85017,4704,MARICOPA,4013,2008-11-24T00:00:00.000Z,ALT REF,2008-11-24T00:00:00.000Z,CHURCHES,728169739,-112.1165535,33.493402,CHRISTIAN,ABC,NOT AVAILABLE,NOT AVAILABLE,Y,N
5334,10684882,PEACE HOUSE,PHOENIX,AZ,85042,6706,MARICOPA,4013,2008-11-24T00:00:00.000Z,ALT REF,2008-11-24T00:00:00.000Z,PLACES OF WORSHIP,101982121,-112.0560698,33.3763935,BUDDHIST,"VIETNAMESE, ZEN",NOT AVAILABLE,NOT AVAILABLE,N,N
5340,10435510,WEST PHOENIX BAPTIST CHURCH,PHOENIX,AZ,85031,2917,MARICOPA,4013,2008-11-24T00:00:00.000Z,ALT REF,2008-11-24T00:00:00.000Z,CHURCHES,20880835,-112.1553316,33.4945196,CHRISTIAN,SBC,1860,NOT AVAILABLE,Y,N
5352,10430527,ISLAMIC COMMUNITY CENTER OF PHOENIX,PHOENIX,AZ,85051,6855,MARICOPA,4013,2008-11-24T00:00:00.000Z,ALT REF,2008-11-24T00:00:00.000Z,"MOSQUES, RELIGIOUS",20883949,-112.1127896,33.5465531,MUSLIM,NOT AVAILABLE,NOT AVAILABLE,NOT AVAILABLE,N,N
5353,10446842,SAINT VINCENT DE PAUL PARISH,PHOENIX,AZ,85031,3446,MARICOPA,4013,2008-11-24T00:00:00.000Z,ALT REF,2008-11-24T00:00:00.000Z,CHURCHES,20880924,-112.1695483,33.4854974,CHRISTIAN,NOT AVAILABLE,NOT AVAILABLE,NOT AVAILABLE,N,Y
5354,10430526,MASJID MUHAMMAD NUMBER 32,PHOENIX,AZ,85042,4701,MARICOPA,4013,2008-11-24T00:00:00.000Z,ALT REF,2008-11-24T00:00:00.000Z,"MOSQUES, RELIGIOUS",20851582,-112.0297616,33.390109,MUSLIM,NOT AVAILABLE,NOT AVAILABLE,NOT AVAILABLE,N,N
5358,10439686,THE CHURCH OF JESUS CHRIST OF LATTER DAY SAINTS - OSBORN WARD,PHOENIX,AZ,85015,5811,MARICOPA,4013,2008-11-25T00:00:00.000Z,ALT REF,2008-11-21T00:00:00.000Z,CHURCHES,20853867,-112.0983306,33.4850248,CHRISTIAN,LDS,NOT AVAILABLE,NOT AVAILABLE,Y,N
5359,10430403,ISLAMIC CENTER OF NORTH PHOENIX,PHOENIX,AZ,85020,2623,MARICOPA,4013,2008-11-25T00:00:00.000Z,ALT REF,2008-11-25T00:00:00.000Z,"MOSQUES, RELIGIOUS",20884921,-112.0617837,33.56894,MUSLIM,NOT AVAILABLE,NOT AVAILABLE,NOT AVAILABLE,N,N
5364,10440494,SAINT STEPHENS EPISCOPAL CHURCH,PHOENIX,AZ,85008,2611,MARICOPA,4013,2008-11-25T00:00:00.000Z,ALT REF,2008-11-25T00:00:00.000Z,CHURCHES,719362176,-111.9615804,33.473697,CHRISTIAN,EPIS,NOT AVAILABLE,NOT AVAILABLE,Y,N
5365,10436798,SOUTHERN BAPTIST TEMPLE,PHOENIX,AZ,85042,4240,MARICOPA,4013,2007-09-18T00:00:00.000Z,ALT REF,2007-09-18T00:00:00.000Z,CHURCHES,122797217,-112.074168,33.3872146,CHRISTIAN,SBC,1184,NOT AVAILABLE,Y,N
5370,10448780,VIETNAMESE MARTYRS CHURCH,PHOENIX,AZ,85020,3111,MARICOPA,4013,2008-03-27T00:00:00.000Z,ALT REF,2008-03-27T00:00:00.000Z,CHURCHES,122798994,-112.0658611,33.5627696,CHRISTIAN,NOT AVAILABLE,NOT AVAILABLE,NOT AVAILABLE,N,Y
5371,10446825,MOST HOLY TRINITY CATHOLIC CHURCH,PHOENIX,AZ,85020,3111,MARICOPA,4013,2007-10-02T00:00:00.000Z,ALT REF,2007-10-02T00:00:00.000Z,CHURCHES,122798994,-112.0658564,33.5627727,CHRISTIAN,NOT AVAILABLE,NOT AVAILABLE,NOT AVAILABLE,N,Y
5374,10438180,FIRST CHRISTIAN CHURCH,PHOENIX,AZ,85013,1110,MARICOPA,4013,2007-10-10T00:00:00.000Z,ALT REF,2007-10-10T00:00:00.000Z,CHURCHES,20882094,-112.0831285,33.5355737,CHRISTIAN,CHRISTIAN,NOT AVAILABLE,NOT AVAILABLE,Y,N
5381,10438461,THE CHURCH OF JESUS CHRIST OF LATTER DAY SAINTS - CAMPOBELLO WARD,PHOENIX,AZ,85053,3727,MARICOPA,4013,2007-10-16T00:00:00.000Z,ALT REF,2007-10-19T00:00:00.000Z,CHURCHES,20912927,-112.1429234,33.6219358,CHRISTIAN,LDS,NOT AVAILABLE,NOT AVAILABLE,Y,N
5433,10438772,THE CHURCH OF JESUS CHRIST OF LATTER DAY SAINTS - THUNDERBIRD WARD,PHOENIX,AZ,85032,4113,MARICOPA,4013,2007-10-16T00:00:00.000Z,ALT REF,2007-10-19T00:00:00.000Z,CHURCHES,20936062,-111.989222,33.6284475,CHRISTIAN,LDS,NOT AVAILABLE,NOT AVAILABLE,Y,N
5438,10438852,THE CHURCH OF JESUS CHRIST OF LATTER DAY SAINTS - AGUA FRIA WARD,PHOENIX,AZ,85037,1402,MARICOPA,4013,2007-10-16T00:00:00.000Z,ALT REF,2007-10-19T00:00:00.000Z,CHURCHES,31335704,-112.2470859,33.5020074,CHRISTIAN,LDS,NOT AVAILABLE,NOT AVAILABLE,Y,N
5447,10438967,THE CHURCH OF JESUS CHRIST OF LATTER DAY SAINTS - ESTRELLA (SPANISH) WARD,PHOENIX,AZ,85037,1402,MARICOPA,4013,2007-10-16T00:00:00.000Z,ALT REF,2007-10-19T00:00:00.000Z,CHURCHES,31335704,-112.2470823,33.5020055,CHRISTIAN,LDS,NOT AVAILABLE,NOT AVAILABLE,Y,N
5451,10438993,THE CHURCH OF JESUS CHRIST OF LATTER DAY SAINTS - CHEERY LYNN (SPANISH) BRANCH,PHOENIX,AZ,85014,5651,MARICOPA,4013,2007-10-16T00:00:00.000Z,ALT REF,2007-10-19T00:00:00.000Z,CHURCHES,20877026,-112.0532279,33.4849379,CHRISTIAN,LDS,NOT AVAILABLE,NOT AVAILABLE,Y,N
5460,10439051,THE CHURCH OF JESUS CHRIST OF LATTER DAY SAINTS - PHOENIX 43RD (DEAF) BRANCH,PHOENIX,AZ,85004,1321,MARICOPA,4013,2007-10-16T00:00:00.000Z,ALT REF,2007-10-19T00:00:00.000Z,CHURCHES,20855664,-112.0710687,33.4752604,CHRISTIAN,LDS,NOT AVAILABLE,NOT AVAILABLE,Y,N
5479,10439210,THE CHURCH OF JESUS CHRIST OF LATTER DAY SAINTS - MOUNTAIN PARK WARD,PHOENIX,AZ,85048,8564,MARICOPA,4013,2007-10-16T00:00:00.000Z,ALT REF,2007-10-18T00:00:00.000Z,CHURCHES,20939927,-112.0196266,33.2974492,CHRISTIAN,LDS,NOT AVAILABLE,NOT AVAILABLE,Y,N
5488,10439342,THE CHURCH OF JESUS CHRIST OF LATTER DAY SAINTS - LAKEWOOD WARD,PHOENIX,AZ,85048,8564,MARICOPA,4013,2007-10-16T00:00:00.000Z,ALT REF,2007-10-18T00:00:00.000Z,CHURCHES,20939927,-112.0196257,33.297449,CHRISTIAN,LDS,NOT AVAILABLE,NOT AVAILABLE,Y,N
5521,10439570,THE CHURCH OF JESUS CHRIST OF LATTER DAY SAINTS - CAMELVIEW WARD,PHOENIX,AZ,85018,5433,MARICOPA,4013,2007-10-16T00:00:00.000Z,ALT REF,2007-10-19T00:00:00.000Z,CHURCHES,20870588,-111.9852156,33.4926232,CHRISTIAN,LDS,NOT AVAILABLE,NOT AVAILABLE,Y,N
5523,10439576,THE CHURCH OF JESUS CHRIST OF LATTER DAY SAINTS - INDEPENDENCE WARD,PHOENIX,AZ,85037,1402,MARICOPA,4013,2007-10-16T00:00:00.000Z,ALT REF,2007-10-19T00:00:00.000Z,CHURCHES,31335704,-112.2470821,33.5020018,CHRISTIAN,LDS,NOT AVAILABLE,NOT AVAILABLE,Y,N
5528,10439588,THE CHURCH OF JESUS CHRIST OF LATTER DAY SAINTS - FOOTHILLS WARD,PHOENIX,AZ,85048,8564,MARICOPA,4013,2007-10-16T00:00:00.000Z,ALT REF,2007-10-18T00:00:00.000Z,CHURCHES,20939927,-112.0196294,33.2974471,CHRISTIAN,LDS,NOT AVAILABLE,NOT AVAILABLE,Y,N
5535,10439611,THE CHURCH OF JESUS CHRIST OF LATTER DAY SAINTS - ROSE LANE WARD,PHOENIX,AZ,85019,2602,MARICOPA,4013,2007-10-16T00:00:00.000Z,ALT REF,2007-10-19T00:00:00.000Z,CHURCHES,20910859,-112.1402364,33.5108176,CHRISTIAN,LDS,NOT AVAILABLE,NOT AVAILABLE,Y,N
5542,10439626,THE CHURCH OF JESUS CHRIST OF LATTER DAY SAINTS - SOLANO (SPANISH) WARD,PHOENIX,AZ,85019,2602,MARICOPA,4013,2007-10-16T00:00:00.000Z,ALT REF,2007-10-19T00:00:00.000Z,CHURCHES,20910859,-112.1402372,33.5108211,CHRISTIAN,LDS,NOT AVAILABLE,NOT AVAILABLE,Y,N
5549,10439659,THE CHURCH OF JESUS CHRIST OF LATTER DAY SAINTS - COUNTRY CLUB WARD,PHOENIX,AZ,85014,5651,MARICOPA,4013,2007-10-16T00:00:00.000Z,ALT REF,2007-10-19T00:00:00.000Z,CHURCHES,20877026,-112.053228,33.4849408,CHRISTIAN,LDS,NOT AVAILABLE,NOT AVAILABLE,Y,N
5553,10439673,THE CHURCH OF JESUS CHRIST OF LATTER DAY SAINTS - CENTRAL WARD,PHOENIX,AZ,85004,1321,MARICOPA,4013,2007-10-16T00:00:00.000Z,ALT REF,2007-10-19T00:00:00.000Z,CHURCHES,20855664,-112.0710634,33.4752583,CHRISTIAN,LDS,NOT AVAILABLE,NOT AVAILABLE,Y,N
5560,10439731,THE CHURCH OF JESUS CHRIST OF LATTER DAY SAINTS - CAMELBACK 2ND (SPANISH) BRANCH,PHOENIX,AZ,85018,5433,MARICOPA,4013,2007-10-16T00:00:00.000Z,ALT REF,2007-10-19T00:00:00.000Z,CHURCHES,20870588,-111.9852131,33.4926264,CHRISTIAN,LDS,NOT AVAILABLE,NOT AVAILABLE,Y,N
5579,10440034,THE CHURCH OF JESUS CHRIST OF LATTER DAY SAINTS - COUNTRY GABLES WARD,PHOENIX,AZ,85053,3727,MARICOPA,4013,2007-10-16T00:00:00.000Z,ALT REF,2007-10-19T00:00:00.000Z,CHURCHES,20912927,-112.1429209,33.6219342,CHRISTIAN,LDS,NOT AVAILABLE,NOT AVAILABLE,Y,N
5585,10440075,THE CHURCH OF JESUS CHRIST OF LATTER DAY SAINTS - GREENWAY WARD,PHOENIX,AZ,85032,4113,MARICOPA,4013,2007-10-16T00:00:00.000Z,ALT REF,2007-10-19T00:00:00.000Z,CHURCHES,20936062,-111.9892274,33.6284486,CHRISTIAN,LDS,NOT AVAILABLE,NOT AVAILABLE,Y,N
5593,10440247,SAINT LUKE'S AT THE MOUNTAIN EPISCOPAL,PHOENIX,AZ,85042,7723,MARICOPA,4013,2007-11-06T00:00:00.000Z,ALT REF,2007-11-06T00:00:00.000Z,CHURCHES,122796159,-112.0624977,33.3637604,CHRISTIAN,EPIS,NOT AVAILABLE,NOT AVAILABLE,Y,N
5604,10585446,LIVING STREAMS CHURCH,PHOENIX,AZ,85020,4817,MARICOPA,4013,2008-11-24T00:00:00.000Z,ALT REF,2008-11-24T00:00:00.000Z,CHURCHES,122798835,-112.0745045,33.5388804,CHRISTIAN,ABC,NOT AVAILABLE,NOT AVAILABLE,Y,N
5605,10574825,FISHER CHAPEL AFRICAN METHODIST EPISCOPAL ZION CHURCH,PHOENIX,AZ,85042,8067,MARICOPA,4013,2008-11-24T00:00:00.000Z,ALT REF,2008-11-24T00:00:00.000Z,CHURCHES,20938660,-112.0483406,33.370198,CHRISTIAN,AMEZ,NOT AVAILABLE,NOT AVAILABLE,Y,N
5611,10685278,VIETNAM TEMPLE,PHOENIX,AZ,85035,2222,MARICOPA,4013,2008-11-19T00:00:00.000Z,ALT REF,2008-11-19T00:00:00.000Z,"TEMPLES, RELIGIOUS",20879465,-112.1601571,33.4734226,BUDDHIST,MAHAYANA,NOT AVAILABLE,NOT AVAILABLE,N,N
5619,10585667,FIRST HISPANIC BAPTIST CHURCH,PHOENIX,AZ,85007,2609,MARICOPA,4013,2008-11-20T00:00:00.000Z,ALT REF,2008-11-20T00:00:00.000Z,CHURCHES,20855289,-112.0932919,33.4500261,CHRISTIAN,ABC,NOT AVAILABLE,NOT AVAILABLE,Y,N
5620,10446831,SAINT GREGORY CATHOLIC CHURCH,PHOENIX,AZ,85015,5513,MARICOPA,4013,2008-11-20T00:00:00.000Z,ALT REF,2008-11-20T00:00:00.000Z,CHURCHES,20853654,-112.0982002,33.4882822,CHRISTIAN,NOT AVAILABLE,NOT AVAILABLE,NOT AVAILABLE,N,Y
5621,10448365,SAINT STEPHEN PRO-CATHEDRAL,PHOENIX,AZ,85020,3950,MARICOPA,4013,2008-11-20T00:00:00.000Z,ALT REF,2008-11-20T00:00:00.000Z,CHURCHES,20884632,-112.0476389,33.5567641,CHRISTIAN,NOT AVAILABLE,NOT AVAILABLE,NOT AVAILABLE,N,Y
5622,10585678,FOUNTAIN OF LIFE INTERNATIONAL,PHOENIX,AZ,85022,4332,MARICOPA,4013,2008-11-20T00:00:00.000Z,ALT REF,2008-11-20T00:00:00.000Z,CHURCHES,20889739,-112.0596867,33.6145009,CHRISTIAN,ABC,NOT AVAILABLE,NOT AVAILABLE,Y,N
5635,10440406,SAINT MARYS EPISCOPAL CHURCH,PHOENIX,AZ,85019,1303,MARICOPA,4013,2008-11-21T00:00:00.000Z,ALT REF,2008-11-21T00:00:00.000Z,CHURCHES,20907797,-112.1424451,33.5319242,CHRISTIAN,EPIS,NOT AVAILABLE,NOT AVAILABLE,Y,N
5636,10684001,BODHIHEART,PHOENIX,AZ,85008,2639,MARICOPA,4013,2008-11-21T00:00:00.000Z,ALT REF,2008-11-21T00:00:00.000Z,PLACES OF WORSHIP,20864530,-111.9626547,33.4758118,BUDDHIST,"TIBETAN, GELUGPA LINEAGE",NOT AVAILABLE,NOT AVAILABLE,N,N
5637,10683940,ARIZONA BUDDHIST TEMPLE,PHOENIX,AZ,85019,3617,MARICOPA,4013,2008-11-21T00:00:00.000Z,ALT REF,2008-11-21T00:00:00.000Z,"TEMPLES, RELIGIOUS",20880389,-112.1491269,33.4925696,BUDDHIST,JODO SHINSHU BUDDHISM,NOT AVAILABLE,NOT AVAILABLE,N,N
5638,10584752,SHADOW MOUNTAIN BAPTIST CHURCH,PHOENIX,AZ,85027,1803,MARICOPA,4013,2008-11-21T00:00:00.000Z,ALT REF,2008-11-21T00:00:00.000Z,CHURCHES,20944834,-112.1170237,33.6881267,CHRISTIAN,BAPT,NOT AVAILABLE,NOT AVAILABLE,Y,N
5639,10584753,OSBORN ROAD BAPTIST CHURCH,PHOENIX,AZ,85031,3834,MARICOPA,4013,2008-11-21T00:00:00.000Z,ALT REF,2008-11-21T00:00:00.000Z,CHURCHES,20880977,-112.1522362,33.4880744,CHRISTIAN,BAPT,NOT AVAILABLE,NOT AVAILABLE,Y,N
5640,10584759,CORNERSTONE BAPTIST CHURCH,PHOENIX,AZ,85032,3340,MARICOPA,4013,2008-11-21T00:00:00.000Z,ALT REF,2008-11-21T00:00:00.000Z,CHURCHES,20957922,-111.9926576,33.6391613,CHRISTIAN,BAPT,NOT AVAILABLE,NOT AVAILABLE,Y,N
5641,10446827,SAINT ANTHONY CATHOLIC CHURCH,PHOENIX,AZ,85003,2505,MARICOPA,4013,2008-11-21T00:00:00.000Z,ALT REF,2008-11-21T00:00:00.000Z,CHURCHES,20856294,-112.0746602,33.4383613,CHRISTIAN,NOT AVAILABLE,NOT AVAILABLE,NOT AVAILABLE,N,Y
5642,10434727,ROYAL PALMS BAPTIST CHURCH,PHOENIX,AZ,85021,4205,MARICOPA,4013,2008-11-21T00:00:00.000Z,ALT REF,2008-11-21T00:00:00.000Z,CHURCHES,20882187,-112.1003944,33.5646296,CHRISTIAN,SBC,1465,NOT AVAILABLE,Y,N
5643,10439589,THE CHURCH OF JESUS CHRIST OF LATTER DAY SAINTS - MOON VALLEY WARD,PHOENIX,AZ,85029,3270,MARICOPA,4013,2008-11-21T00:00:00.000Z,ALT REF,2008-11-21T00:00:00.000Z,CHURCHES,20912301,-112.1348238,33.5924389,CHRISTIAN,LDS,NOT AVAILABLE,NOT AVAILABLE,Y,N
5644,10584756,MISSION DRIVE BAPTIST CHURCH,PHOENIX,AZ,85051,6732,MARICOPA,4013,2008-11-21T00:00:00.000Z,ALT REF,2008-11-21T00:00:00.000Z,CHURCHES,20882114,-112.1166229,33.5517016,CHRISTIAN,BAPT,NOT AVAILABLE,NOT AVAILABLE,Y,N
5646,10585669,GREATER PROGRESSIVE CHRISTIAN CHURCH,PHOENIX,AZ,85007,1630,MARICOPA,4013,2008-11-21T00:00:00.000Z,ALT REF,2008-11-21T00:00:00.000Z,CHURCHES,20855117,-112.0928203,33.4655376,CHRISTIAN,ABC,NOT AVAILABLE,NOT AVAILABLE,Y,N
5647,10432126,LOVE INTERNATIONAL MINISTRIES,PHOENIX,AZ,85017,2934,MARICOPA,4013,2008-11-21T00:00:00.000Z,ALT REF,2008-11-21T00:00:00.000Z,CHURCHES,20887458,-112.116141,33.5134794,CHRISTIAN,NONDENOM,NOT AVAILABLE,NOT AVAILABLE,Y,N
5650,10460278,NEW CITY CHURCH PHOENIX,PHOENIX,AZ,85041,6433,MARICOPA,4013,2008-11-24T00:00:00.000Z,ALT REF,2008-11-24T00:00:00.000Z,CHURCHES,102025882,-112.1118429,33.3831814,CHRISTIAN,PCA,NOT AVAILABLE,NOT AVAILABLE,Y,N
5651,10431859,MUSLIM COMMUNITY MOSQUE,PHOENIX,AZ,85008,3807,MARICOPA,4013,2008-11-24T00:00:00.000Z,ALT REF,2008-11-24T00:00:00.000Z,"MOSQUES, RELIGIOUS",20851849,-112.0132613,33.4681617,MUSLIM,NOT AVAILABLE,NOT AVAILABLE,NOT AVAILABLE,N,N
5652,10446834,SAINT JOSEPH CATHOLIC CHURCH,PHOENIX,AZ,85028,2810,MARICOPA,4013,2008-11-24T00:00:00.000Z,ALT REF,2008-11-24T00:00:00.000Z,CHURCHES,20900343,-111.9951516,33.5867998,CHRISTIAN,NOT AVAILABLE,NOT AVAILABLE,NOT AVAILABLE,N,Y
5661,10432131,CALVARY COMMUNITY CHURCH,PHOENIX,AZ,85029,1345,MARICOPA,4013,2008-11-21T00:00:00.000Z,ALT REF,2008-11-21T00:00:00.000Z,CHURCHES,20891017,-112.1184087,33.6009734,CHRISTIAN,CAL,NOT AVAILABLE,NOT AVAILABLE,Y,N
5662,10584760,COMMUNITY BIBLE BAPTIST CHURCH,PHOENIX,AZ,85022,2706,MARICOPA,4013,2008-11-21T00:00:00.000Z,ALT REF,2008-11-21T00:00:00.000Z,CHURCHES,20944204,-112.0500146,33.6355742,CHRISTIAN,BAPT,NOT AVAILABLE,NOT AVAILABLE,Y,N
5663,10585662,CHURCH OF NEW COVENANT,PHOENIX,AZ,85015,3817,MARICOPA,4013,2008-11-21T00:00:00.000Z,ALT REF,2008-11-21T00:00:00.000Z,CHURCHES,20883133,-112.0963008,33.5026344,CHRISTIAN,ABC,NOT AVAILABLE,NOT AVAILABLE,Y,N
5666,10442736,SAINT PAUL CATHOLIC CHURCH,PHOENIX,AZ,85023,3606,MARICOPA,4013,2008-11-21T00:00:00.000Z,ALT REF,2008-11-21T00:00:00.000Z,CHURCHES,20940318,-112.0795124,33.6264416,CHRISTIAN,NOT AVAILABLE,NOT AVAILABLE,NOT AVAILABLE,N,Y
5667,10446821,SAINTS SIMON AND JUDE CATHEDRAL CHURCH,PHOENIX,AZ,85017,1804,MARICOPA,4013,2008-11-21T00:00:00.000Z,ALT REF,2008-11-21T00:00:00.000Z,CHURCHES,122798370,-112.116281,33.5298124,CHRISTIAN,NOT AVAILABLE,NOT AVAILABLE,NOT AVAILABLE,N,Y
5670,10446826,SAINT AGNES CATHOLIC CHURCH,PHOENIX,AZ,85008,3556,MARICOPA,4013,2008-11-20T00:00:00.000Z,ALT REF,2008-11-20T00:00:00.000Z,CHURCHES,20851882,-112.0309835,33.4682063,CHRISTIAN,NOT AVAILABLE,NOT AVAILABLE,NOT AVAILABLE,N,Y
5671,10442782,SAINT AUGUSTINE CATHOLIC CHURCH,PHOENIX,AZ,85033,4327,MARICOPA,4013,2008-11-20T00:00:00.000Z,ALT REF,2008-11-20T00:00:00.000Z,CHURCHES,20879034,-112.2127416,33.4907654,CHRISTIAN,NOT AVAILABLE,NOT AVAILABLE,NOT AVAILABLE,N,Y
5672,10432132,NORTH PHOENIX BAPTIST CHURCH,PHOENIX,AZ,85012,1315,MARICOPA,4013,2008-11-20T00:00:00.000Z,ALT REF,2008-11-20T00:00:00.000Z,CHURCHES,122798839,-112.0715859,33.5220144,CHRISTIAN,SBC,NOT AVAILABLE,NOT AVAILABLE,Y,N
5677,10442621,SAINT MATTHEW CATHOLIC CHURCH,PHOENIX,AZ,85009,3819,MARICOPA,4013,2008-11-21T00:00:00.000Z,ALT REF,2008-11-21T00:00:00.000Z,CHURCHES,20853016,-112.1040456,33.4514353,CHRISTIAN,NOT AVAILABLE,NOT AVAILABLE,NOT AVAILABLE,N,Y
5681,10432127,PALMCROFT BAPTIST CHURCH,PHOENIX,AZ,85053,3821,MARICOPA,4013,2008-11-24T00:00:00.000Z,ALT REF,2008-11-24T00:00:00.000Z,CHURCHES,20934763,-112.1327865,33.6299958,CHRISTIAN,BAPT,NOT AVAILABLE,NOT AVAILABLE,Y,N
5682,10584751,SUNRISE INDEPENDENT BAPTIST CHURCH,PHOENIX,AZ,85027,1837,MARICOPA,4013,2008-11-20T00:00:00.000Z,ALT REF,2008-11-20T00:00:00.000Z,CHURCHES,20945642,-112.1175334,33.6908228,CHRISTIAN,BAPT,NOT AVAILABLE,NOT AVAILABLE,Y,N
5684,10446839,SACRED HEART PARISH,PHOENIX,AZ,85034,4602,MARICOPA,4013,2008-11-20T00:00:00.000Z,ALT REF,2008-11-20T00:00:00.000Z,CHURCHES,20856612,-112.0561447,33.4343129,CHRISTIAN,NOT AVAILABLE,NOT AVAILABLE,NOT AVAILABLE,N,Y
5689,10446822,CORPUS CHRISTI CATHOLIC CHURCH,PHOENIX,AZ,85044,3500,MARICOPA,4013,2007-10-02T00:00:00.000Z,ALT REF,2007-10-02T00:00:00.000Z,CHURCHES,21384336,-112.0062773,33.3273021,CHRISTIAN,NOT AVAILABLE,NOT AVAILABLE,NOT AVAILABLE,N,Y
5690,10446823,HOLY FAMILY CATHOLIC CHURCH,PHOENIX,AZ,85042,5804,MARICOPA,4013,2007-10-02T00:00:00.000Z,ALT REF,2007-10-02T00:00:00.000Z,CHURCHES,122795771,-112.0311633,33.385493,CHRISTIAN,NOT AVAILABLE,NOT AVAILABLE,NOT AVAILABLE,N,Y
5691,10446828,SAINT CATHERINE OF SIENNA CHURCH,PHOENIX,AZ,85042,4237,MARICOPA,4013,2007-10-03T00:00:00.000Z,ALT REF,2007-10-03T00:00:00.000Z,CHURCHES,122797219,-112.073983,33.3897288,CHRISTIAN,NOT AVAILABLE,NOT AVAILABLE,NOT AVAILABLE,N,Y
5692,10446829,SAINT EDWARD THE CONFESSOR CHURCH,PHOENIX,AZ,85042,4011,MARICOPA,4013,2007-10-02T00:00:00.000Z,ALT REF,2007-10-02T00:00:00.000Z,CHURCHES,20862313,-111.9857272,33.3932346,CHRISTIAN,NOT AVAILABLE,NOT AVAILABLE,NOT AVAILABLE,N,Y
5693,10446836,SAINT MARTIN DE PORRES CHURCH,PHOENIX,AZ,85041,1750,MARICOPA,4013,2007-10-02T00:00:00.000Z,ALT REF,2007-10-02T00:00:00.000Z,CHURCHES,20881734,-112.1414899,33.4023616,CHRISTIAN,NOT AVAILABLE,NOT AVAILABLE,NOT AVAILABLE,N,Y
5694,10446838,OUR LADY OF THE VALLEY ROMAN CATHOLIC CHURCH,PHOENIX,AZ,85053,3913,MARICOPA,4013,2007-10-02T00:00:00.000Z,ALT REF,2007-10-02T00:00:00.000Z,CHURCHES,20934804,-112.1281573,33.6259141,CHRISTIAN,NOT AVAILABLE,NOT AVAILABLE,NOT AVAILABLE,N,Y
5700,10448138,SAINT JOHN OF THE DESERT MELKITE CATHOLIC CHURCH,PHOENIX,AZ,85032,4629,MARICOPA,4013,2007-10-03T00:00:00.000Z,ALT REF,2007-10-03T00:00:00.000Z,CHURCHES,20944750,-112.0017336,33.6266951,CHRISTIAN,NOT AVAILABLE,NOT AVAILABLE,NOT AVAILABLE,N,Y
5701,10448169,SAINT JOSEPH MARONITE CATHOLIC CHURCH,PHOENIX,AZ,85008,1706,MARICOPA,4013,2007-10-02T00:00:00.000Z,ALT REF,2007-10-02T00:00:00.000Z,CHURCHES,20864529,-111.9650945,33.476642,CHRISTIAN,NOT AVAILABLE,NOT AVAILABLE,NOT AVAILABLE,N,Y
5704,10460277,KOREAN-AMERICAN PRESBYTERIAN CHURCH OF ARIZONA,PHOENIX,AZ,85032,6179,MARICOPA,4013,2008-02-22T00:00:00.000Z,ALT REF,2008-02-22T00:00:00.000Z,CHURCHES,20889190,-112.0083238,33.6064512,CHRISTIAN,PCA,NOT AVAILABLE,NOT AVAILABLE,Y,N
5705,10457803,MURPH COMMUNITY AFRICAN METHODIST EPISCOPAL CHURCH,PHOENIX,AZ,85017,1205,MARICOPA,4013,2008-02-22T00:00:00.000Z,ALT REF,2008-02-22T00:00:00.000Z,CHURCHES,122812169,-112.117448,33.5353888,CHRISTIAN,AME,NOT AVAILABLE,NOT AVAILABLE,Y,N
5706,10457879,TANNER CHAPEL AFRICAN METHODIST EPISCOPAL CHURCH,PHOENIX,AZ,85034,2241,MARICOPA,4013,2008-02-21T00:00:00.000Z,ALT REF,2008-02-25T00:00:00.000Z,CHURCHES,20856713,-112.0638977,33.4474519,CHRISTIAN,AME,NOT AVAILABLE,NOT AVAILABLE,Y,N
5714,10440088,THE CHURCH OF JESUS CHRIST OF LATTER DAY SAINTS - MOON MOUNTAIN WARD,PHOENIX,AZ,85023,NULL,MARICOPA,4013,2007-10-16T00:00:00.000Z,ALT REF,2007-10-16T00:00:00.000Z,CHURCHES,122798894,-112.077981,33.6254198,CHRISTIAN,LDS,NOT AVAILABLE,NOT AVAILABLE,Y,N
5718,10439990,THE CHURCH OF JESUS CHRIST OF LATTER DAY SAINTS - BLACK CANYON WARD,PHOENIX,AZ,85051,3924,MARICOPA,4013,2007-10-16T00:00:00.000Z,ALT REF,2007-10-16T00:00:00.000Z,CHURCHES,20891122,-112.1259066,33.563029,CHRISTIAN,LDS,NOT AVAILABLE,NOT AVAILABLE,Y,N
5719,10439942,THE CHURCH OF JESUS CHRIST OF LATTER DAY SAINTS - CAMELBACK 1ST (SPANISH) BRANCH,PHOENIX,AZ,85008,3104,MARICOPA,4013,2007-10-16T00:00:00.000Z,ALT REF,2007-10-16T00:00:00.000Z,CHURCHES,20864377,-111.9959163,33.4717701,CHRISTIAN,LDS,NOT AVAILABLE,NOT AVAILABLE,Y,N
5728,10439730,THE CHURCH OF JESUS CHRIST OF LATTER DAY SAINTS - MONTE VISTA (SPANISH) BRANCH,PHOENIX,AZ,85021,4506,MARICOPA,4013,2007-10-16T00:00:00.000Z,ALT REF,2007-10-16T00:00:00.000Z,CHURCHES,20884267,-112.0785566,33.5632328,CHRISTIAN,LDS,NOT AVAILABLE,NOT AVAILABLE,Y,N
5732,10439685,THE CHURCH OF JESUS CHRIST OF LATTER DAY SAINTS - NORTH MOUNTAIN WARD,PHOENIX,AZ,85021,4506,MARICOPA,4013,2007-10-16T00:00:00.000Z,ALT REF,2007-10-16T00:00:00.000Z,CHURCHES,20884267,-112.0785566,33.5632345,CHRISTIAN,LDS,NOT AVAILABLE,NOT AVAILABLE,Y,N
5733,10439671,THE CHURCH OF JESUS CHRIST OF LATTER DAY SAINTS - SOUTH MOUNTAIN WARD,PHOENIX,AZ,85041,NULL,MARICOPA,4013,2007-10-16T00:00:00.000Z,ALT REF,2007-10-16T00:00:00.000Z,CHURCHES,20851032,-112.0814721,33.3925147,CHRISTIAN,LDS,NOT AVAILABLE,NOT AVAILABLE,Y,N
5736,10439658,THE CHURCH OF JESUS CHRIST OF LATTER DAY SAINTS - CAPITOL WARD,PHOENIX,AZ,85035,2214,MARICOPA,4013,2007-10-16T00:00:00.000Z,ALT REF,2007-10-16T00:00:00.000Z,CHURCHES,20879467,-112.1587884,33.4729198,CHRISTIAN,LDS,NOT AVAILABLE,NOT AVAILABLE,Y,N
5737,10439642,THE CHURCH OF JESUS CHRIST OF LATTER DAY SAINTS - BILTMORE WARD,PHOENIX,AZ,85016,3021,MARICOPA,4013,2007-10-16T00:00:00.000Z,ALT REF,2007-10-16T00:00:00.000Z,CHURCHES,20885758,-112.0416087,33.5162135,CHRISTIAN,LDS,NOT AVAILABLE,NOT AVAILABLE,Y,N
5738,10439615,THE CHURCH OF JESUS CHRIST OF LATTER DAY SAINTS - MONTANA DEL SUR (SPANISH) WARD,PHOENIX,AZ,85041,NULL,MARICOPA,4013,2007-10-16T00:00:00.000Z,ALT REF,2007-10-16T00:00:00.000Z,CHURCHES,20851032,-112.0814691,33.3925148,CHRISTIAN,LDS,NOT AVAILABLE,NOT AVAILABLE,Y,N
5739,10439612,THE CHURCH OF JESUS CHRIST OF LATTER DAY SAINTS - ARCADIA WARD,PHOENIX,AZ,85018,4528,MARICOPA,4013,2007-10-16T00:00:00.000Z,ALT REF,2007-10-16T00:00:00.000Z,CHURCHES,20865929,-111.9604293,33.4968709,CHRISTIAN,LDS,NOT AVAILABLE,NOT AVAILABLE,Y,N
5740,10439603,THE CHURCH OF JESUS CHRIST OF LATTER DAY SAINTS - PARADISE VALLEY WARD,PHOENIX,AZ,85028,NULL,MARICOPA,4013,2007-10-16T00:00:00.000Z,ALT REF,2007-10-16T00:00:00.000Z,CHURCHES,20888376,-112.0040524,33.5823352,CHRISTIAN,LDS,NOT AVAILABLE,NOT AVAILABLE,Y,N
5742,10439595,THE CHURCH OF JESUS CHRIST OF LATTER DAY SAINTS - BETHANY HOME WARD,PHOENIX,AZ,85021,4506,MARICOPA,4013,2007-10-16T00:00:00.000Z,ALT REF,2007-10-16T00:00:00.000Z,CHURCHES,20884267,-112.0785566,33.5632322,CHRISTIAN,LDS,NOT AVAILABLE,NOT AVAILABLE,Y,N
5743,10439591,THE CHURCH OF JESUS CHRIST OF LATTER DAY SAINTS - GATEWAY WARD,PHOENIX,AZ,85008,3104,MARICOPA,4013,2007-10-16T00:00:00.000Z,ALT REF,2007-10-16T00:00:00.000Z,CHURCHES,20864377,-111.9959163,33.4717701,CHRISTIAN,LDS,NOT AVAILABLE,NOT AVAILABLE,Y,N
5747,10439572,THE CHURCH OF JESUS CHRIST OF LATTER DAY SAINTS - MARYVALE WARD,PHOENIX,AZ,85033,4102,MARICOPA,4013,2007-10-16T00:00:00.000Z,ALT REF,2007-10-16T00:00:00.000Z,CHURCHES,20880029,-112.1869364,33.4919621,CHRISTIAN,LDS,NOT AVAILABLE,NOT AVAILABLE,Y,N
5759,10439245,THE CHURCH OF JESUS CHRIST OF LATTER DAY SAINTS - ROSE GARDEN WARD,PHOENIX,AZ,85027,3153,MARICOPA,4013,2007-10-16T00:00:00.000Z,ALT REF,2007-10-16T00:00:00.000Z,CHURCHES,20943166,-112.1226533,33.6762263,CHRISTIAN,LDS,NOT AVAILABLE,NOT AVAILABLE,Y,N
5761,10439183,THE CHURCH OF JESUS CHRIST OF LATTER DAY SAINTS - SHADOW MOUNTAIN WARD,PHOENIX,AZ,85032,5610,MARICOPA,4013,2007-10-16T00:00:00.000Z,ALT REF,2007-10-16T00:00:00.000Z,CHURCHES,21415239,-112.0170996,33.6117793,CHRISTIAN,LDS,NOT AVAILABLE,NOT AVAILABLE,Y,N
5765,10439069,THE CHURCH OF JESUS CHRIST OF LATTER DAY SAINTS - SHAW BUTTE WARD,PHOENIX,AZ,85023,NULL,MARICOPA,4013,2007-10-16T00:00:00.000Z,ALT REF,2007-10-16T00:00:00.000Z,CHURCHES,122798894,-112.077982,33.6254198,CHRISTIAN,LDS,NOT AVAILABLE,NOT AVAILABLE,Y,N
5768,10439030,THE CHURCH OF JESUS CHRIST OF LATTER DAY SAINTS - PHOENIX NORTH (YOUNG SINGLE ADULT) WARD,PHOENIX,AZ,85023,NULL,MARICOPA,4013,2007-10-16T00:00:00.000Z,ALT REF,2007-10-16T00:00:00.000Z,CHURCHES,122798894,-112.0779545,33.6254198,CHRISTIAN,LDS,NOT AVAILABLE,NOT AVAILABLE,Y,N
5769,10439000,THE CHURCH OF JESUS CHRIST OF LATTER DAY SAINTS - ENCANTO 1ST (SPANISH) WARD,PHOENIX,AZ,85035,2214,MARICOPA,4013,2007-10-16T00:00:00.000Z,ALT REF,2007-10-16T00:00:00.000Z,CHURCHES,20879467,-112.158789,33.4729198,CHRISTIAN,LDS,NOT AVAILABLE,NOT AVAILABLE,Y,N
5773,10439419,THE CHURCH OF JESUS CHRIST OF LATTER DAY SAINTS - CACTUS VIEW WARD,PHOENIX,AZ,85023,6464,MARICOPA,4013,2007-10-16T00:00:00.000Z,ALT REF,2007-10-16T00:00:00.000Z,CHURCHES,21405940,-112.0774167,33.6477354,CHRISTIAN,LDS,NOT AVAILABLE,NOT AVAILABLE,Y,N
5774,10440492,IGLESIA EPISCOPAL DE SAN PABLO,PHOENIX,AZ,85008,1126,MARICOPA,4013,2007-11-06T00:00:00.000Z,ALT REF,2007-11-06T00:00:00.000Z,CHURCHES,20851592,-112.0147337,33.4791623,CHRISTIAN,EPIS,NOT AVAILABLE,NOT AVAILABLE,Y,N
5782,10438685,THE CHURCH OF JESUS CHRIST OF LATTER DAY SAINTS - MOUNTAIN VIEW WARD,PHOENIX,AZ,85028,NULL,MARICOPA,4013,2007-10-16T00:00:00.000Z,ALT REF,2007-10-16T00:00:00.000Z,CHURCHES,20888376,-112.0040522,33.5823352,CHRISTIAN,LDS,NOT AVAILABLE,NOT AVAILABLE,Y,N
5784,10438847,THE CHURCH OF JESUS CHRIST OF LATTER DAY SAINTS - CORTEZ PARK WARD,PHOENIX,AZ,85051,3924,MARICOPA,4013,2007-10-16T00:00:00.000Z,ALT REF,2007-10-16T00:00:00.000Z,CHURCHES,20891122,-112.1259066,33.563023,CHRISTIAN,LDS,NOT AVAILABLE,NOT AVAILABLE,Y,N
5800,10439583,THE CHURCH OF JESUS CHRIST OF LATTER DAY SAINTS - ROYAL PALM WARD,PHOENIX,AZ,85021,4506,MARICOPA,4013,2007-10-16T00:00:00.000Z,ALT REF,2007-10-16T00:00:00.000Z,CHURCHES,20884267,-112.0785566,33.5632336,CHRISTIAN,LDS,NOT AVAILABLE,NOT AVAILABLE,Y,N
5810,10439670,THE CHURCH OF JESUS CHRIST OF LATTER DAY SAINTS - LAVEEN WARD,PHOENIX,AZ,85035,2214,MARICOPA,4013,2007-10-16T00:00:00.000Z,ALT REF,2007-10-16T00:00:00.000Z,CHURCHES,20879467,-112.1587884,33.4729198,CHRISTIAN,LDS,NOT AVAILABLE,NOT AVAILABLE,Y,N
5814,10439732,THE CHURCH OF JESUS CHRIST OF LATTER DAY SAINTS - CIELITO (SPANISH) WARD,PHOENIX,AZ,85033,4102,MARICOPA,4013,2007-10-16T00:00:00.000Z,ALT REF,2007-10-16T00:00:00.000Z,CHURCHES,20880029,-112.1869364,33.4919633,CHRISTIAN,LDS,NOT AVAILABLE,NOT AVAILABLE,Y,N
5815,10439760,THE CHURCH OF JESUS CHRIST OF LATTER DAY SAINTS - VIA VERDE (SPANISH) BRANCH,PHOENIX,AZ,85032,5610,MARICOPA,4013,2007-10-16T00:00:00.000Z,ALT REF,2007-10-16T00:00:00.000Z,CHURCHES,21415239,-112.0170993,33.6117793,CHRISTIAN,LDS,NOT AVAILABLE,NOT AVAILABLE,Y,N
5818,10439953,THE CHURCH OF JESUS CHRIST OF LATTER DAY SAINTS - VINEYARD WARD,PHOENIX,AZ,85041,NULL,MARICOPA,4013,2007-10-16T00:00:00.000Z,ALT REF,2007-10-16T00:00:00.000Z,CHURCHES,20851032,-112.081472,33.3925147,CHRISTIAN,LDS,NOT AVAILABLE,NOT AVAILABLE,Y,N
5824,10439184,THE CHURCH OF JESUS CHRIST OF LATTER DAY SAINTS - GRANITE REEF WARD,PHOENIX,AZ,85032,5610,MARICOPA,4013,2007-10-16T00:00:00.000Z,ALT REF,2007-10-16T00:00:00.000Z,CHURCHES,21415239,-112.0171008,33.6117793,CHRISTIAN,LDS,NOT AVAILABLE,NOT AVAILABLE,Y,N
5839,10438855,THE CHURCH OF JESUS CHRIST OF LATTER DAY SAINTS - LOOKOUT MOUNTAIN WARD,PHOENIX,AZ,85023,6464,MARICOPA,4013,2007-10-16T00:00:00.000Z,ALT REF,2007-10-16T00:00:00.000Z,CHURCHES,21405940,-112.0774182,33.6477353,CHRISTIAN,LDS,NOT AVAILABLE,NOT AVAILABLE,Y,N
5842,10438811,THE CHURCH OF JESUS CHRIST OF LATTER DAY SAINTS - DEER VALLEY 1ST WARD,PHOENIX,AZ,85027,3153,MARICOPA,4013,2007-10-16T00:00:00.000Z,ALT REF,2007-10-16T00:00:00.000Z,CHURCHES,20943166,-112.1226563,33.6762263,CHRISTIAN,LDS,NOT AVAILABLE,NOT AVAILABLE,Y,N
5844,10438674,THE CHURCH OF JESUS CHRIST OF LATTER DAY SAINTS - BUFFALO RIDGE WARD,PHOENIX,AZ,85027,3153,MARICOPA,4013,2007-10-16T00:00:00.000Z,ALT REF,2007-10-16T00:00:00.000Z,CHURCHES,20943166,-112.1226558,33.6762263,CHRISTIAN,LDS,NOT AVAILABLE,NOT AVAILABLE,Y,N
5850,10438504,THE CHURCH OF JESUS CHRIST OF LATTER DAY SAINTS - AHWATUKEE 2ND WARD,PHOENIX,AZ,85044,NULL,MARICOPA,4013,2007-10-16T00:00:00.000Z,ALT REF,2007-10-16T00:00:00.000Z,CHURCHES,122782759,-111.9862458,33.3259873,CHRISTIAN,LDS,NOT AVAILABLE,NOT AVAILABLE,Y,N
5853,10440227,TRINITY EPISCOPAL CATHEDRAL,PHOENIX,AZ,85003,1406,MARICOPA,4013,2007-11-06T00:00:00.000Z,ALT REF,2007-11-06T00:00:00.000Z,CHURCHES,20856133,-112.0749981,33.4589354,CHRISTIAN,EPIS,NOT AVAILABLE,NOT AVAILABLE,Y,N
5854,10457780,SEVENTH-DAY ADVENTIST REFORM MOVEMENT,PHOENIX,AZ,85031,2707,MARICOPA,4013,2008-02-22T00:00:00.000Z,ALT REF,2008-02-22T00:00:00.000Z,CHURCHES,20880610,-112.1630603,33.4946183,CHRISTIAN,NOT AVAILABLE,NOT AVAILABLE,NOT AVAILABLE,Y,N
5862,10427302,PHOENIX COMMUNITY KOLLEL,PHOENIX,AZ,85014,1262,MARICOPA,4013,2007-07-26T00:00:00.000Z,PHONE,2007-07-26T00:00:00.000Z,SYNAGOGUES,20891380,-112.0653765,33.5316298,JUDAIC,ORTHODOX-ASHKENAZ,NOT AVAILABLE,CENTER,N,N
5863,10429092,PHOENIX BUCHORI JEWISH COMMUNITY-SHAAREI TZION OHEL BRACHA,PHOENIX,AZ,85014,1263,MARICOPA,4013,2007-08-07T00:00:00.000Z,ALT REF,2007-08-07T00:00:00.000Z,SYNAGOGUES,20891380,-112.0653765,33.5316743,JUDAIC,ORTHODOX,NOT AVAILABLE,NOT AVAILABLE,N,N
5873,10429090,BETH JOSEPH CONGREGATION,PHOENIX,AZ,85012,1206,MARICOPA,4013,2007-07-25T00:00:00.000Z,PHONE,2007-07-25T00:00:00.000Z,SYNAGOGUES,19394525,-112.066832,33.5233485,JUDAIC,ORTHODOX,NOT AVAILABLE,NOT AVAILABLE,N,N
5881,10426175,HAVURAH P'NAI OR PHOENIX,PHOENIX,AZ,85032,6413,MARICOPA,4013,2007-08-07T00:00:00.000Z,ALT REF,2007-08-07T00:00:00.000Z,SYNAGOGUES,20895020,-111.9818331,33.6076225,JUDAIC,ORTHODOX,NOT AVAILABLE,SYNAGOGUE,N,N
5883,10429091,BUKHARIAN JEWISH CONGRESS OF ARIZONA,PHOENIX,AZ,85022,2895,MARICOPA,4013,2007-08-06T00:00:00.000Z,PHONE,2007-08-06T00:00:00.000Z,SYNAGOGUES,122778047,-112.0477036,33.6400317,JUDAIC,ORTHODOX,NOT AVAILABLE,NOT AVAILABLE,N,N
5884,10429073,YOUNG ISRAEL OF PHOENIX,PHOENIX,AZ,85014,1553,MARICOPA,4013,2007-07-24T00:00:00.000Z,PHONE,2007-07-24T00:00:00.000Z,SYNAGOGUES,20886888,-112.0634009,33.5306773,JUDAIC,YOUNG ISRAEL,NOT AVAILABLE,NOT AVAILABLE,N,N
5887,10428902,CHABAD LUBAVITCH OF ARIZONA,PHOENIX,AZ,85016,1123,MARICOPA,4013,2007-08-06T00:00:00.000Z,PHONE,2007-08-06T00:00:00.000Z,SYNAGOGUES,20891278,-112.0361151,33.5389671,JUDAIC,CHABAD,NOT AVAILABLE,CHABAD,N,N
5888,10426264,BETH AMI TEMPLE,PHOENIX,AZ,85018,NULL,MARICOPA,4013,2007-07-23T00:00:00.000Z,PHONE,2007-07-23T00:00:00.000Z,SYNAGOGUES,122799007,-112.0047961,33.5311222,JUDAIC,NOT AVAILABLE,NOT AVAILABLE,SYNAGOGUE,N,N
5889,10429540,CONGREGATION BETH EL,PHOENIX,AZ,85021,8635,MARICOPA,4013,2007-08-06T00:00:00.000Z,PHONE,2007-08-06T00:00:00.000Z,SYNAGOGUES,20891434,-112.0884239,33.539101,JUDAIC,NOT AVAILABLE,NOT AVAILABLE,NOT AVAILABLE,N,N
5890,10427946,TEMPLE CHAI,PHOENIX,AZ,85032,4839,MARICOPA,4013,2007-08-06T00:00:00.000Z,PHONE,2007-08-06T00:00:00.000Z,SYNAGOGUES,20895382,-111.9805973,33.6200395,JUDAIC,REFORM,961,NOT AVAILABLE,N,N
5892,10428549,CHABAD LUBAVITCH OF NORTH PHOENIX,PHOENIX,AZ,85050,NULL,MARICOPA,4013,2007-08-07T00:00:00.000Z,PHONE,2007-08-07T00:00:00.000Z,SYNAGOGUES,21403777,-111.9838776,33.6891829,JUDAIC,CHABAD,NOT AVAILABLE,CHABAD,N,N
5896,10585673,MARYVALE BAPTIST CHURCH,PHOENIX,AZ,85017,1912,MARICOPA,4013,2008-10-28T00:00:00.000Z,ALT REF,2008-10-28T00:00:00.000Z,CHURCHES,20909975,-112.1348095,33.5208402,CHRISTIAN,ABC,NOT AVAILABLE,NOT AVAILABLE,Y,N
5899,10457773,GREATER BETHEL AFRICAN METHODIST EPISCOPAL CHURCH,PHOENIX,AZ,85042,6387,MARICOPA,4013,2008-02-21T00:00:00.000Z,ALT REF,2008-02-21T00:00:00.000Z,CHURCHES,20867954,-111.9960534,33.3822464,CHRISTIAN,AME,NOT AVAILABLE,NOT AVAILABLE,Y,N
5902,10684066,BUDDHIST GROUP PHOENIX,PHOENIX,AZ,85014,1010,MARICOPA,4013,2008-11-25T00:00:00.000Z,ALT REF,2008-11-25T00:00:00.000Z,PLACES OF WORSHIP,20891376,-112.0640086,33.5369568,BUDDHIST,"TIBETAN, KARMA KAGYU",NOT AVAILABLE,NOT AVAILABLE,N,N
5904,10683849,THE SITTING FROG ZEN SANGHA,PHOENIX,AZ,85004,1918,MARICOPA,4013,2009-08-03T00:00:00.000Z,ALT REF,2009-08-03T00:00:00.000Z,PLACES OF WORSHIP,20855916,-112.0682273,33.4584847,BUDDHIST,"MAHAYANA, NON-SECTARIAN",NOT AVAILABLE,NOT AVAILABLE,N,N
5905,10683853,THE SITTING FROG ZEN SANGHA,PHOENIX,AZ,85004,1949,MARICOPA,4013,2009-08-03T00:00:00.000Z,ALT REF,2009-08-03T00:00:00.000Z,PLACES OF WORSHIP,722618307,-112.072215,33.4591314,BUDDHIST,ZEN,NOT AVAILABLE,NOT AVAILABLE,N,N
25994,10574943,DANIEL CHAPEL AFRICAN METHODIST EPISCOPAL ZION CHURCH,PHOENIX,IL,60426,2664,COOK,17031,2009-04-07T00:00:00.000Z,ALT REF,2009-04-07T00:00:00.000Z,CHURCHES,19878707,-87.6324582,41.6115864,CHRISTIAN,AMEZ,NOT AVAILABLE,NOT AVAILABLE,Y,N