OBJECTID,ID,NAME,CITY,STATE,ZIP,ZIPP4,COUNTY,FIPS,CONTDATE,CONTHOW,GEODATE,NAICSDESCR,GEOLINKID,X,Y,SUBTYPE,DENOM,MEMBERS,LOC_TYPE,PROT,CATH
436,10431471,AL-HILAL MASJID,SAN JOSE,CA,95131,1801,SANTA CLARA,6085,2008-12-03T00:00:00.000Z,ALT REF,2008-12-05T00:00:00.000Z,"MOSQUES, RELIGIOUS",24590956,-121.8898968,37.4027225,MUSLIM,NOT AVAILABLE,NOT AVAILABLE,NOT AVAILABLE,N,N
566,10446527,MOST HOLY TRINITY CATHOLIC CHURCH,SAN JOSE,CA,95122,1748,SANTA CLARA,6085,2008-11-06T00:00:00.000Z,ALT REF,2008-11-06T00:00:00.000Z,CHURCHES,23709238,-121.8274081,37.3304867,CHRISTIAN,NOT AVAILABLE,NOT AVAILABLE,NOT AVAILABLE,N,Y
594,10446516,SAINT FRANCIS OF ASSISI CATHOLIC COMMUNITY,SAN JOSE,CA,95135,1220,SANTA CLARA,6085,2008-11-11T00:00:00.000Z,ALT REF,2008-11-11T00:00:00.000Z,CHURCHES,23720582,-121.7684473,37.2936087,CHRISTIAN,NOT AVAILABLE,NOT AVAILABLE,NOT AVAILABLE,N,Y
596,10433051,BETHEL CHURCH OF SAN JOSE,SAN JOSE,CA,95128,3907,SANTA CLARA,6085,2008-11-11T00:00:00.000Z,ALT REF,2008-11-11T00:00:00.000Z,CHURCHES,23730138,-121.951417,37.3040372,CHRISTIAN,AG,NOT AVAILABLE,NOT AVAILABLE,Y,N
597,10446524,SAINT JULIE BILLIART PARISH,SAN JOSE,CA,95119,1625,SANTA CLARA,6085,2008-11-11T00:00:00.000Z,ALT REF,2008-11-11T00:00:00.000Z,CHURCHES,23726829,-121.8032725,37.227384,CHRISTIAN,NOT AVAILABLE,NOT AVAILABLE,NOT AVAILABLE,N,Y
618,10446535,SAINT MARY OF THE ASSUMPTION CROATIAN CATHOLIC PARISH,SAN JOSE,CA,95126,3711,SANTA CLARA,6085,2008-11-12T00:00:00.000Z,ALT REF,2008-11-12T00:00:00.000Z,CHURCHES,23706266,-121.9057372,37.3139461,CHRISTIAN,NOT AVAILABLE,NOT AVAILABLE,NOT AVAILABLE,N,Y
627,10446526,SAINT MARIA GORETTI CATHOLIC CHURCH,SAN JOSE,CA,95111,1251,SANTA CLARA,6085,2008-11-17T00:00:00.000Z,ALT REF,2008-11-17T00:00:00.000Z,CHURCHES,23713690,-121.8346989,37.2968121,CHRISTIAN,NOT AVAILABLE,NOT AVAILABLE,NOT AVAILABLE,N,Y
629,10446523,SAINT JOHN VIANNEY CATHOLIC CHURCH,SAN JOSE,CA,95127,2011,SANTA CLARA,6085,2008-11-11T00:00:00.000Z,ALT REF,2008-11-11T00:00:00.000Z,CHURCHES,23704214,-121.826865,37.3721741,CHRISTIAN,NOT AVAILABLE,NOT AVAILABLE,NOT AVAILABLE,N,Y
659,10442986,FIVE WOUNDS PORTUGUESE NATIONAL CHURCH,SAN JOSE,CA,95116,2343,SANTA CLARA,6085,2008-11-06T00:00:00.000Z,ALT REF,2008-11-06T00:00:00.000Z,CHURCHES,23713204,-121.8637649,37.3495999,CHRISTIAN,NOT AVAILABLE,NOT AVAILABLE,NOT AVAILABLE,N,Y
669,10440707,SAINT FRANCIS EPISCOPAL CHURCH,SAN JOSE,CA,95125,3459,SANTA CLARA,6085,2008-11-07T00:00:00.000Z,ALT REF,2008-11-07T00:00:00.000Z,CHURCHES,23710966,-121.8977529,37.2967945,CHRISTIAN,EPIS,NOT AVAILABLE,NOT AVAILABLE,Y,N
670,10440708,SAINT EDWARDS EPISCOPAL CHURCH,SAN JOSE,CA,95124,5135,SANTA CLARA,6085,2008-11-07T00:00:00.000Z,ALT REF,2008-11-07T00:00:00.000Z,CHURCHES,23715972,-121.9308007,37.2498801,CHRISTIAN,EPIS,NOT AVAILABLE,NOT AVAILABLE,Y,N
674,10446522,SAINT CHRISTOPHER CHURCH,SAN JOSE,CA,95125,4709,SANTA CLARA,6085,2008-11-06T00:00:00.000Z,ALT REF,2008-11-06T00:00:00.000Z,CHURCHES,23699466,-121.9030904,37.2840401,CHRISTIAN,NOT AVAILABLE,NOT AVAILABLE,NOT AVAILABLE,N,Y
750,10446534,SAINT VICTORS CATHOLIC CHURCH,SAN JOSE,CA,95132,2854,SANTA CLARA,6085,2008-11-07T00:00:00.000Z,ALT REF,2008-11-07T00:00:00.000Z,CHURCHES,23714008,-121.8506404,37.397295,CHRISTIAN,NOT AVAILABLE,NOT AVAILABLE,NOT AVAILABLE,N,Y
754,10433057,EAST VALLEY PENTECOSTAL CHURCH,SAN JOSE,CA,95148,2063,SANTA CLARA,6085,2008-11-07T00:00:00.000Z,ALT REF,2008-11-07T00:00:00.000Z,CHURCHES,23717401,-121.7987127,37.3270686,CHRISTIAN,UPC,NOT AVAILABLE,NOT AVAILABLE,Y,N
756,10446529,SAINT THOMAS OF CANTERBURY CATHOLIC CHURCH,SAN JOSE,CA,95130,2116,SANTA CLARA,6085,2008-11-07T00:00:00.000Z,ALT REF,2008-11-07T00:00:00.000Z,CHURCHES,23707921,-121.9796004,37.2760359,CHRISTIAN,NOT AVAILABLE,NOT AVAILABLE,NOT AVAILABLE,N,Y
762,10446530,QUEEN OF APOSTLES CHURCH,SAN JOSE,CA,95129,2134,SANTA CLARA,6085,2008-11-07T00:00:00.000Z,ALT REF,2008-11-07T00:00:00.000Z,CHURCHES,127814487,-121.9906691,37.3155665,CHRISTIAN,NOT AVAILABLE,NOT AVAILABLE,NOT AVAILABLE,N,Y
774,10684428,GYUTO VAJRAYANA CENTER,SAN JOSE,CA,95132,2417,SANTA CLARA,6085,2008-11-07T00:00:00.000Z,ALT REF,2008-11-07T00:00:00.000Z,PLACES OF WORSHIP,23726808,-121.8468369,37.4074473,BUDDHIST,"TIBETAN, GELUGPA",NOT AVAILABLE,NOT AVAILABLE,N,N
788,10446519,HOLY FAMILY CATHOLIC CHURCH,SAN JOSE,CA,95136,2701,SANTA CLARA,6085,2008-11-07T00:00:00.000Z,ALT REF,2008-11-07T00:00:00.000Z,CHURCHES,23803103,-121.8634087,37.2624281,CHRISTIAN,NOT AVAILABLE,NOT AVAILABLE,NOT AVAILABLE,N,Y
792,10446525,SAINT LEO THE GREAT CHURCH,SAN JOSE,CA,95126,3126,SANTA CLARA,6085,2008-11-07T00:00:00.000Z,ALT REF,2008-11-07T00:00:00.000Z,CHURCHES,23711564,-121.9114524,37.328879,CHRISTIAN,NOT AVAILABLE,NOT AVAILABLE,NOT AVAILABLE,N,Y
793,10433054,LIFECHURCH SILICON VALLEY,SAN JOSE,CA,95118,2201,SANTA CLARA,6085,2008-11-07T00:00:00.000Z,ALT REF,2008-11-07T00:00:00.000Z,CHURCHES,23726979,-121.8996213,37.253404,CHRISTIAN,4SQ,NOT AVAILABLE,NOT AVAILABLE,Y,N
795,10683933,ANANDA DHARMA CENTER,SAN JOSE,CA,95112,5419,SANTA CLARA,6085,2008-11-06T00:00:00.000Z,ALT REF,2008-11-06T00:00:00.000Z,PLACES OF WORSHIP,23693550,-121.887424,37.340135,BUDDHIST,"MAHAYANA, VAJRAYANA, TIBETAN GELUGPA",NOT AVAILABLE,NOT AVAILABLE,N,N
802,10433052,FAMILY COMMUNITY CHURCH,SAN JOSE,CA,95138,1105,SANTA CLARA,6085,2008-11-13T00:00:00.000Z,ALT REF,2008-11-13T00:00:00.000Z,CHURCHES,112040794,-121.7785503,37.258102,CHRISTIAN,AG,NOT AVAILABLE,NOT AVAILABLE,Y,N
804,10436267,KOREAN BAPTIST CHURCH,SAN JOSE,CA,95129,3325,SANTA CLARA,6085,2008-11-13T00:00:00.000Z,ALT REF,2008-11-13T00:00:00.000Z,CHURCHES,23710999,-121.9826794,37.3076278,CHRISTIAN,SBC,850,NOT AVAILABLE,Y,N
812,10433055,JUBILEE CHRISTIAN CENTER,SAN JOSE,CA,95134,2310,SANTA CLARA,6085,2007-09-10T00:00:00.000Z,ALT REF,2007-09-13T00:00:00.000Z,CHURCHES,23734569,-121.9598812,37.4257048,CHRISTIAN,NONDENOM,NOT AVAILABLE,NOT AVAILABLE,Y,N
828,10576338,SAN JOSE CHRISTIAN REFORMED CHURCH,SAN JOSE,CA,95124,5754,SANTA CLARA,6085,2008-11-11T00:00:00.000Z,ALT REF,2008-11-11T00:00:00.000Z,CHURCHES,23729860,-121.906791,37.2452067,CHRISTIAN,CRC,NOT AVAILABLE,NOT AVAILABLE,Y,N
829,10677846,ISKCON TEMPLE OF SILICON VALLEY,SAN JOSE,CA,95128,3503,SANTA CLARA,6085,2008-11-17T00:00:00.000Z,ALT REF,2008-11-17T00:00:00.000Z,"TEMPLES, RELIGIOUS",23695387,-121.9320986,37.3089535,HINDU,NOT AVAILABLE,NOT AVAILABLE,NOT AVAILABLE,N,N
830,10585703,BURMESE CHRISTIAN COMMUNITY CHURCH,SAN JOSE,CA,95127,2214,SANTA CLARA,6085,2008-11-17T00:00:00.000Z,ALT REF,2008-11-17T00:00:00.000Z,CHURCHES,127844070,-121.821991,37.3768475,CHRISTIAN,ABC,NOT AVAILABLE,NOT AVAILABLE,Y,N
833,10585853,FIRST SPANISH AMERICAN BAPTIST CHURCH,SAN JOSE,CA,95112,3349,SANTA CLARA,6085,2008-11-14T00:00:00.000Z,ALT REF,2008-11-14T00:00:00.000Z,CHURCHES,23693635,-121.8871212,37.3474149,CHRISTIAN,ABC,NOT AVAILABLE,NOT AVAILABLE,Y,N
834,10446514,CATHEDRAL BASILICA OF SAINT JOSEPH,SAN JOSE,CA,95113,2303,SANTA CLARA,6085,2008-11-13T00:00:00.000Z,ALT REF,2008-11-13T00:00:00.000Z,CHURCHES,23707508,-121.8903982,37.3341083,CHRISTIAN,NOT AVAILABLE,NOT AVAILABLE,NOT AVAILABLE,N,Y
836,10433053,SOUTH HILLS COMMUNITY CHURCH,SAN JOSE,CA,95120,1908,SANTA CLARA,6085,2008-11-13T00:00:00.000Z,ALT REF,2008-11-13T00:00:00.000Z,CHURCHES,23728896,-121.8558192,37.2221718,CHRISTIAN,SBC,NOT AVAILABLE,NOT AVAILABLE,Y,N
837,10440713,EPISCOPAL CHURCH IN ALMADEN,SAN JOSE,CA,95120,1908,SANTA CLARA,6085,2008-11-13T00:00:00.000Z,ALT REF,2008-11-13T00:00:00.000Z,CHURCHES,23730484,-121.8575204,37.2228063,CHRISTIAN,EPIS,NOT AVAILABLE,NOT AVAILABLE,Y,N
843,10446528,OUR LADY OF GUADALUPE CHURCH,SAN JOSE,CA,95116,3047,SANTA CLARA,6085,2008-11-12T00:00:00.000Z,ALT REF,2008-11-12T00:00:00.000Z,CHURCHES,23712688,-121.8454613,37.3527578,CHRISTIAN,NOT AVAILABLE,NOT AVAILABLE,NOT AVAILABLE,N,Y
849,10577737,LIBERTY BAPTIST CHURCH,SAN JOSE,CA,95122,1354,SANTA CLARA,6085,2008-11-11T00:00:00.000Z,ALT REF,2008-11-11T00:00:00.000Z,CHURCHES,23726770,-121.8177864,37.3147181,CHRISTIAN,BAPT,NOT AVAILABLE,NOT AVAILABLE,Y,N
850,10585691,ANTIOCH BAPTIST CHURCH,SAN JOSE,CA,95112,5221,SANTA CLARA,6085,2008-11-11T00:00:00.000Z,ALT REF,2008-11-11T00:00:00.000Z,CHURCHES,23704820,-121.8879135,37.3431299,CHRISTIAN,ABC,NOT AVAILABLE,NOT AVAILABLE,Y,N
852,10585950,NEW COMMUNITY OF FAITH,SAN JOSE,CA,95129,3944,SANTA CLARA,6085,2008-11-11T00:00:00.000Z,ALT REF,2008-11-11T00:00:00.000Z,CHURCHES,127809187,-122.0166533,37.3009901,CHRISTIAN,ABC,NOT AVAILABLE,NOT AVAILABLE,Y,N
855,10585862,GRACE BAPTIST CHURCH,SAN JOSE,CA,95112,3513,SANTA CLARA,6085,2008-11-11T00:00:00.000Z,ALT REF,2008-11-11T00:00:00.000Z,CHURCHES,23712865,-121.8790402,37.3388732,CHRISTIAN,ABC,NOT AVAILABLE,NOT AVAILABLE,Y,N
856,10433056,CATHEDRAL OF FAITH,SAN JOSE,CA,95125,2005,SANTA CLARA,6085,2008-11-11T00:00:00.000Z,ALT REF,2008-11-11T00:00:00.000Z,CHURCHES,24607457,-121.8748869,37.2919929,CHRISTIAN,NONDENOM,NOT AVAILABLE,NOT AVAILABLE,Y,N
866,10446533,SANTA TERESA CHURCH,SAN JOSE,CA,95123,3912,SANTA CLARA,6085,2008-11-11T00:00:00.000Z,ALT REF,2008-11-11T00:00:00.000Z,CHURCHES,23697093,-121.8474967,37.2428097,CHRISTIAN,NOT AVAILABLE,NOT AVAILABLE,NOT AVAILABLE,N,Y
867,10574827,FIRST AFRICAN METHODIST EPISCOPAL ZION CHURCH,SAN JOSE,CA,95116,2216,SANTA CLARA,6085,2008-11-12T00:00:00.000Z,ALT REF,2008-11-12T00:00:00.000Z,CHURCHES,23693832,-121.8701092,37.3432829,CHRISTIAN,AMEZ,NOT AVAILABLE,NOT AVAILABLE,Y,N
873,10761386,CENTRAL CHRISTIAN CHURCH,SAN JOSE,CA,95124,1746,SANTA CLARA,6085,2008-11-12T00:00:00.000Z,ALT REF,2008-11-12T00:00:00.000Z,CHURCHES,23708181,-121.9108494,37.2775185,CHRISTIAN,CHRISTIAN,NOT AVAILABLE,NOT AVAILABLE,Y,N
877,10430647,ISLAMIC CENTER OF SAN JOSE,SAN JOSE,CA,95112,5246,SANTA CLARA,6085,2008-11-14T00:00:00.000Z,ALT REF,2008-11-14T00:00:00.000Z,"MOSQUES, RELIGIOUS",23693504,-121.8923716,37.341927,MUSLIM,NOT AVAILABLE,NOT AVAILABLE,NOT AVAILABLE,N,N
883,10446532,SACRED HEART CHURCH,SAN JOSE,CA,95110,3215,SANTA CLARA,6085,2008-11-17T00:00:00.000Z,ALT REF,2008-11-17T00:00:00.000Z,CHURCHES,23749820,-121.8850853,37.3176597,CHRISTIAN,NOT AVAILABLE,NOT AVAILABLE,NOT AVAILABLE,N,Y
888,10434185,EMMANUEL BAPTIST CHURCH,SAN JOSE,CA,95127,1441,SANTA CLARA,6085,2008-11-13T00:00:00.000Z,ALT REF,2008-11-13T00:00:00.000Z,CHURCHES,23717376,-121.8386841,37.3783026,CHRISTIAN,SBC,3500,NOT AVAILABLE,Y,N
890,10684999,SAN JOSE BUDDHIST CHURCH BETSUIN,SAN JOSE,CA,95112,3234,SANTA CLARA,6085,2008-11-14T00:00:00.000Z,ALT REF,2008-11-14T00:00:00.000Z,PLACES OF WORSHIP,23693554,-121.8946404,37.3499848,BUDDHIST,JODO SHINSHU BUDDHISM,NOT AVAILABLE,NOT AVAILABLE,N,N
891,10440710,SAINT STEPHENS IN THE FIELDS EPISCOPAL CHURCH,SAN JOSE,CA,95139,1352,SANTA CLARA,6085,2008-11-14T00:00:00.000Z,ALT REF,2008-11-14T00:00:00.000Z,CHURCHES,23721600,-121.7691234,37.2240066,CHRISTIAN,EPIS,NOT AVAILABLE,NOT AVAILABLE,Y,N
893,10448139,SAINT ELIAS THE PROPHET,SAN JOSE,CA,95127,1920,SANTA CLARA,6085,2008-11-12T00:00:00.000Z,ALT REF,2008-11-12T00:00:00.000Z,CHURCHES,23704212,-121.828402,37.3692023,CHRISTIAN,NOT AVAILABLE,NOT AVAILABLE,NOT AVAILABLE,N,Y
895,10684652,LIEU QUAN BUDDHIST CULTURAL CENTER,SAN JOSE,CA,95127,4904,SANTA CLARA,6085,2008-11-17T00:00:00.000Z,ALT REF,2008-11-17T00:00:00.000Z,PLACES OF WORSHIP,23740737,-121.8051899,37.3557057,BUDDHIST,MAHAYANA/MINDFULNESS TRAINING,NOT AVAILABLE,NOT AVAILABLE,N,N
898,10584623,LANDMARK BAPTIST CHURCH,SAN JOSE,CA,95111,2516,SANTA CLARA,6085,2008-11-12T00:00:00.000Z,ALT REF,2008-11-12T00:00:00.000Z,CHURCHES,23699224,-121.8198119,37.2798784,CHRISTIAN,BAPT,NOT AVAILABLE,NOT AVAILABLE,Y,N
985,10684402,GOLD SAGE MONASTERY,SAN JOSE,CA,95127,5007,SANTA CLARA,6085,2008-12-02T00:00:00.000Z,ALT REF,2008-12-02T00:00:00.000Z,MONASTERIES (EXCEPT SCHOOLS),23750810,-121.7920874,37.3547701,BUDDHIST,"MAHAYANA, CH'AN (ZEN)",NOT AVAILABLE,NOT AVAILABLE,N,N
994,10446531,OUR LADY QUEEN OF MARTYRS VIETNAM MISSION,SAN JOSE,CA,95113,1912,SANTA CLARA,6085,2008-03-27T00:00:00.000Z,ALT REF,2008-03-27T00:00:00.000Z,CHURCHES,23713187,-121.8830789,37.3402109,CHRISTIAN,NOT AVAILABLE,NOT AVAILABLE,NOT AVAILABLE,N,Y
995,10446515,SAINT PATRICK PROTO CATHEDRAL PARISH (VIETNAMESE),SAN JOSE,CA,95113,1912,SANTA CLARA,6085,2007-08-31T00:00:00.000Z,ALT REF,2007-08-31T00:00:00.000Z,CHURCHES,23713187,-121.8830811,37.3402104,CHRISTIAN,NOT AVAILABLE,NOT AVAILABLE,NOT AVAILABLE,N,Y
1007,10446517,SAINT FRANCES CABRINI CATHOLIC CHURCH,SAN JOSE,CA,95124,2746,SANTA CLARA,6085,2008-11-12T00:00:00.000Z,ALT REF,2008-11-12T00:00:00.000Z,CHURCHES,23735858,-121.9372318,37.2610292,CHRISTIAN,NOT AVAILABLE,NOT AVAILABLE,NOT AVAILABLE,N,Y
1008,10448695,KNANAYA CATHOLIC COMMUNITY OF NORTHERN CALIFORNIA,SAN JOSE,CA,95124,2746,SANTA CLARA,6085,2007-08-31T00:00:00.000Z,ALT REF,2009-01-26T00:00:00.000Z,CHURCHES,23735858,-121.9372346,37.2610308,CHRISTIAN,NOT AVAILABLE,NOT AVAILABLE,NOT AVAILABLE,N,Y
1047,10448395,SAINT BROTHER ALBERT CHMIELOWSKI CHURCH,SAN JOSE,CA,95127,4336,SANTA CLARA,6085,2008-12-03T00:00:00.000Z,ALT REF,2008-12-03T00:00:00.000Z,CHURCHES,23698545,-121.8075427,37.357454,CHRISTIAN,NOT AVAILABLE,NOT AVAILABLE,NOT AVAILABLE,N,Y
1051,10431835,MUSALLA SAN JOSE EASTRIDGE,SAN JOSE,CA,95122,1390,SANTA CLARA,6085,2008-12-04T00:00:00.000Z,ALT REF,2008-12-04T00:00:00.000Z,"MOSQUES, RELIGIOUS",23725342,-121.8087368,37.3213082,MUSLIM,NOT AVAILABLE,NOT AVAILABLE,NOT AVAILABLE,N,N
1055,10430570,SHIA ASSOCIATION OF BAY AREA,SAN JOSE,CA,95134,2308,SANTA CLARA,6085,2008-12-03T00:00:00.000Z,ALT REF,2008-12-03T00:00:00.000Z,"MOSQUES, RELIGIOUS",23735180,-121.956098,37.4211977,MUSLIM,NOT AVAILABLE,NOT AVAILABLE,NOT AVAILABLE,N,N
1066,10440709,TRINITY EPISCOPAL CATHEDRAL,SAN JOSE,CA,95113,1205,SANTA CLARA,6085,2007-11-05T00:00:00.000Z,ALT REF,2007-11-05T00:00:00.000Z,CHURCHES,23693475,-121.8907927,37.3378207,CHRISTIAN,EPIS,NOT AVAILABLE,NOT AVAILABLE,Y,N
1067,10440711,IGLESIA NUESTRA SENORA DE GUADALUPE,SAN JOSE,CA,95113,1205,SANTA CLARA,6085,2007-11-05T00:00:00.000Z,ALT REF,2007-11-05T00:00:00.000Z,CHURCHES,23693475,-121.890814,37.3378151,CHRISTIAN,EPIS,NOT AVAILABLE,NOT AVAILABLE,Y,N
1068,10440712,SAINT PHILIP'S EPISCOPAL CHURCH,SAN JOSE,CA,95127,2212,SANTA CLARA,6085,2007-11-05T00:00:00.000Z,ALT REF,2007-11-08T00:00:00.000Z,CHURCHES,23704215,-121.8236244,37.375827,CHRISTIAN,EPIS,NOT AVAILABLE,NOT AVAILABLE,Y,N
1069,10440714,HOLY CHILD EPISCOPAL CHURCH,SAN JOSE,CA,95127,2212,SANTA CLARA,6085,2007-11-05T00:00:00.000Z,ALT REF,2007-11-07T00:00:00.000Z,CHURCHES,23704215,-121.8236193,37.3759559,CHRISTIAN,EPIS,NOT AVAILABLE,NOT AVAILABLE,Y,N
1117,10684314,DUC-VIEN BUDDHIST COMMUNITY PAGODA,SAN JOSE,CA,95121,2745,SANTA CLARA,6085,2008-11-17T00:00:00.000Z,ALT REF,2008-11-17T00:00:00.000Z,PLACES OF WORSHIP,23730297,-121.8351927,37.3143793,BUDDHIST,"MAHAYANA, VIETNAMESE",NOT AVAILABLE,NOT AVAILABLE,N,N
1124,10685000,SAN JOSE MYOKAKUJI BETSUIN,SAN JOSE,CA,95130,1364,SANTA CLARA,6085,2008-11-19T00:00:00.000Z,ALT REF,2008-11-19T00:00:00.000Z,PLACES OF WORSHIP,23729511,-121.96247,37.2958077,BUDDHIST,NICHIREN SHU,NOT AVAILABLE,NOT AVAILABLE,N,N
1147,10445842,SAINT MARTIN OF TOURS PARISH,SAN JOSE,CA,95128,1640,SANTA CLARA,6085,2007-08-31T00:00:00.000Z,ALT REF,2007-08-31T00:00:00.000Z,CHURCHES,23709632,-121.9391362,37.3243753,CHRISTIAN,NOT AVAILABLE,NOT AVAILABLE,NOT AVAILABLE,N,Y
1148,10446518,HOLY CROSS PARISH,SAN JOSE,CA,95112,3214,SANTA CLARA,6085,2007-08-31T00:00:00.000Z,ALT REF,2007-08-31T00:00:00.000Z,CHURCHES,23704514,-121.8867092,37.3522564,CHRISTIAN,NOT AVAILABLE,NOT AVAILABLE,NOT AVAILABLE,N,Y
1149,10446521,SAINT ANTHONY CATHOLIC CHURCH,SAN JOSE,CA,95120,2310,SANTA CLARA,6085,2007-08-31T00:00:00.000Z,ALT REF,2007-08-31T00:00:00.000Z,CHURCHES,127813983,-121.8231795,37.1987281,CHRISTIAN,NOT AVAILABLE,NOT AVAILABLE,NOT AVAILABLE,N,Y
1173,10448468,CHRIST THE KING CATHOLIC CHURCH,SAN JOSE,CA,95111,4203,SANTA CLARA,6085,2007-08-31T00:00:00.000Z,ALT REF,2007-08-31T00:00:00.000Z,CHURCHES,28411193,-121.8079016,37.2603349,CHRISTIAN,NOT AVAILABLE,NOT AVAILABLE,NOT AVAILABLE,N,Y
1181,10460052,SAN JOSE KOREAN MISSION CHURCH,SAN JOSE,CA,95124,4815,SANTA CLARA,6085,2008-02-25T00:00:00.000Z,ALT REF,2008-02-25T00:00:00.000Z,CHURCHES,23705314,-121.9046121,37.2585544,CHRISTIAN,PCA,NOT AVAILABLE,NOT AVAILABLE,Y,N
1183,10457800,MOUNT HERMON AFRICAN METHODIST EPISCOPAL CHURCH,SAN JOSE,CA,95112,3451,SANTA CLARA,6085,2008-02-25T00:00:00.000Z,ALT REF,2008-02-25T00:00:00.000Z,CHURCHES,23693632,-121.8830373,37.3419186,CHRISTIAN,AME,NOT AVAILABLE,NOT AVAILABLE,Y,N
1187,10459845,CALVARY UNITED METHODIST CHURCH,SAN JOSE,CA,95126,1713,SANTA CLARA,6085,2008-03-11T00:00:00.000Z,ALT REF,2008-03-11T00:00:00.000Z,CHURCHES,23708957,-121.9213678,37.3365444,CHRISTIAN,PCA,NOT AVAILABLE,NOT AVAILABLE,Y,N
1224,10446520,HOLY SPIRIT CHURCH,SAN JOSE,CA,95120,2742,SANTA CLARA,6085,2007-08-31T00:00:00.000Z,ALT REF,2007-08-31T00:00:00.000Z,CHURCHES,23730474,-121.8738233,37.2289921,CHRISTIAN,NOT AVAILABLE,NOT AVAILABLE,NOT AVAILABLE,N,Y
1265,10457844,SAINT JAMES AFRICAN METHODIST EPISCOPAL CHURCH,SAN JOSE,CA,95116,3045,SANTA CLARA,6085,2008-02-25T00:00:00.000Z,ALT REF,2008-02-25T00:00:00.000Z,CHURCHES,23712687,-121.8474099,37.3520341,CHRISTIAN,AME,NOT AVAILABLE,NOT AVAILABLE,Y,N
1275,10460325,SAINT TIMOTHYS LUTHERAN CHURCH,SAN JOSE,CA,95124,5754,SANTA CLARA,6085,2008-03-07T00:00:00.000Z,ALT REF,2008-03-10T00:00:00.000Z,CHURCHES,23729860,-121.9070897,37.2461277,CHRISTIAN,ELCA,NOT AVAILABLE,NOT AVAILABLE,Y,N
1338,10429130,ALMADEN VALLEY TORAH CENTER,SAN JOSE,CA,95118,3422,SANTA CLARA,6085,2007-07-25T00:00:00.000Z,PHONE,2007-07-25T00:00:00.000Z,SYNAGOGUES,23703576,-121.890661,37.2424673,JUDAIC,ORTHODOX,NOT AVAILABLE,NOT AVAILABLE,N,N
1356,10429588,CONGREGATION SINAI,SAN JOSE,CA,95125,4450,SANTA CLARA,6085,2007-07-30T00:00:00.000Z,PHONE,2007-07-30T00:00:00.000Z,SYNAGOGUES,23717863,-121.9121134,37.2974053,JUDAIC,NOT AVAILABLE,NOT AVAILABLE,NOT AVAILABLE,N,N
1371,10429129,AHABAT TORAH,SAN JOSE,CA,95125,5316,SANTA CLARA,6085,2007-07-25T00:00:00.000Z,PHONE,2007-07-25T00:00:00.000Z,SYNAGOGUES,23725205,-121.9143089,37.2965049,JUDAIC,ORTHODOX,NOT AVAILABLE,NOT AVAILABLE,N,N
1372,10429131,AM ECHAD TORAH COMMUNITY,SAN JOSE,CA,95125,5317,SANTA CLARA,6085,2007-07-31T00:00:00.000Z,PHONE,2007-07-31T00:00:00.000Z,SYNAGOGUES,23725204,-121.9132297,37.2970847,JUDAIC,ORTHODOX,NOT AVAILABLE,NOT AVAILABLE,N,N
1375,10427959,TEMPLE EMANU-EL,SAN JOSE,CA,95126,1842,SANTA CLARA,6085,2007-07-30T00:00:00.000Z,PHONE,2007-07-30T00:00:00.000Z,SYNAGOGUES,23716049,-121.9203433,37.3404959,JUDAIC,REFORM,419,NOT AVAILABLE,N,N
1391,10431441,AFGHAN CULTURAL CENTER,SAN JOSE,CA,95125,1319,SANTA CLARA,6085,2007-10-04T00:00:00.000Z,ALT REF,2007-10-04T00:00:00.000Z,"MOSQUES, RELIGIOUS",23727556,-121.875081,37.3065139,MUSLIM,NOT AVAILABLE,NOT AVAILABLE,NOT AVAILABLE,N,N
1551,10585968,SAN JOSE OPEN BIBLE CHURCH,SAN JOSE,CA,95118,2814,SANTA CLARA,6085,2008-11-14T00:00:00.000Z,ALT REF,2008-11-14T00:00:00.000Z,CHURCHES,23697719,-121.9026667,37.2418145,CHRISTIAN,NOT AVAILABLE,NOT AVAILABLE,NOT AVAILABLE,Y,N
1553,10460328,CROSSROADS BIBLE CHURCH,SAN JOSE,CA,95128,2841,SANTA CLARA,6085,2008-03-07T00:00:00.000Z,ALT REF,2008-03-07T00:00:00.000Z,CHURCHES,23708861,-121.9221677,37.3158153,CHRISTIAN,NOT AVAILABLE,NOT AVAILABLE,NOT AVAILABLE,Y,N
1555,10427557,TEMPLE BETH SHOLOM,SAN JOSE,CA,95125,2041,SANTA CLARA,6085,2007-07-20T00:00:00.000Z,PHONE,2008-09-05T00:00:00.000Z,SYNAGOGUES,24586305,-121.875119,37.2939738,JUDAIC,REFORM,23,NOT AVAILABLE,N,N