OBJECTID,ID,NAME,CITY,STATE,ZIP,ZIPP4,COUNTY,FIPS,CONTDATE,CONTHOW,GEODATE,NAICSDESCR,GEOLINKID,X,Y,SUBTYPE,DENOM,MEMBERS,LOC_TYPE,PROT,CATH
427,10448013,SAINT DOMINICS CATHOLIC CHURCH,SAN FRANCISCO,CA,94115,3124,SAN FRANCISCO,6075,2008-11-06T00:00:00.000Z,ALT REF,2008-11-06T00:00:00.000Z,CHURCHES,23599205,-122.4358344,37.7870235,CHRISTIAN,NOT AVAILABLE,NOT AVAILABLE,NOT AVAILABLE,N,Y
428,10429584,CONGREGATION NER TAMID,SAN FRANCISCO,CA,94116,1229,SAN FRANCISCO,6075,2007-07-30T00:00:00.000Z,PHONE,2007-07-30T00:00:00.000Z,SYNAGOGUES,23614909,-122.479019,37.7487709,JUDAIC,NOT AVAILABLE,NOT AVAILABLE,NOT AVAILABLE,N,N
430,10429047,CONGREGATION TORATH EMETH,SAN FRANCISCO,CA,94121,3618,SAN FRANCISCO,6075,2007-08-08T00:00:00.000Z,ALT REF,2007-08-08T00:00:00.000Z,SYNAGOGUES,23595301,-122.4861505,37.7750678,JUDAIC,ORTHODOX,NOT AVAILABLE,NOT AVAILABLE,N,N
433,10430592,MUSLIM STUDENT ASSOCIATION (MSA) OF THE UNIVERSITY OF SAN FRANCISCO,SAN FRANCISCO,CA,94117,NULL,SAN FRANCISCO,6075,2007-07-17T00:00:00.000Z,PHONE,2007-07-17T00:00:00.000Z,"MOSQUES, RELIGIOUS",23604612,-122.4523599,37.7753467,MUSLIM,NOT AVAILABLE,NOT AVAILABLE,NOT AVAILABLE,N,N
458,10454650,MATTHEW ZION BAPTIST CHURCH,SAN FRANCISCO,CA,94134,1501,SAN FRANCISCO,6075,2008-03-10T00:00:00.000Z,ALT REF,2008-03-10T00:00:00.000Z,CHURCHES,23615945,-122.4063098,37.7332742,CHRISTIAN,NBC,NOT AVAILABLE,NOT AVAILABLE,Y,N
498,10448015,SAINT EMYDIUS CHURCH,SAN FRANCISCO,CA,94112,1720,SAN FRANCISCO,6075,2008-11-06T00:00:00.000Z,ALT REF,2008-11-06T00:00:00.000Z,CHURCHES,23597148,-122.4620473,37.7233792,CHRISTIAN,NOT AVAILABLE,NOT AVAILABLE,NOT AVAILABLE,N,Y
499,10448008,SAINT BONIFACE CATHOLIC CHURCH,SAN FRANCISCO,CA,94102,3809,SAN FRANCISCO,6075,2008-11-06T00:00:00.000Z,ALT REF,2008-11-06T00:00:00.000Z,CHURCHES,23605183,-122.4130629,37.7816059,CHRISTIAN,NOT AVAILABLE,NOT AVAILABLE,NOT AVAILABLE,N,Y
500,10448021,SAINT JAMES CATHOLIC CHURCH,SAN FRANCISCO,CA,94110,2931,SAN FRANCISCO,6075,2008-11-06T00:00:00.000Z,ALT REF,2008-11-06T00:00:00.000Z,CHURCHES,23605729,-122.4233817,37.7537323,CHRISTIAN,NOT AVAILABLE,NOT AVAILABLE,NOT AVAILABLE,N,Y
501,10448024,SAINT KEVIN CATHOLIC CHURCH,SAN FRANCISCO,CA,94110,5629,SAN FRANCISCO,6075,2008-11-06T00:00:00.000Z,ALT REF,2008-11-06T00:00:00.000Z,CHURCHES,23601297,-122.4147999,37.7386592,CHRISTIAN,NOT AVAILABLE,NOT AVAILABLE,NOT AVAILABLE,N,Y
502,10448004,SAINT AGNES CHURCH,SAN FRANCISCO,CA,94117,2010,SAN FRANCISCO,6075,2008-11-06T00:00:00.000Z,ALT REF,2008-11-06T00:00:00.000Z,CHURCHES,23610752,-122.4461475,37.7714021,CHRISTIAN,NOT AVAILABLE,NOT AVAILABLE,NOT AVAILABLE,N,Y
503,10440561,SAINT AIDANS EPISCOPAL CHURCH,SAN FRANCISCO,CA,94131,2538,SAN FRANCISCO,6075,2008-11-06T00:00:00.000Z,ALT REF,2008-11-06T00:00:00.000Z,CHURCHES,711546437,-122.4375994,37.7432734,CHRISTIAN,EPIS,NOT AVAILABLE,NOT AVAILABLE,Y,N
504,10452472,PROVIDENCE BAPTIST CHURCH,SAN FRANCISCO,CA,94124,2152,SAN FRANCISCO,6075,2008-11-06T00:00:00.000Z,ALT REF,2008-11-06T00:00:00.000Z,CHURCHES,23610900,-122.3897267,37.7358896,CHRISTIAN,NBC,NOT AVAILABLE,NOT AVAILABLE,Y,N
510,10684118,CHAGDUD GONPA,SAN FRANCISCO,CA,94107,4306,SAN FRANCISCO,6075,2008-10-29T00:00:00.000Z,ALT REF,2008-10-29T00:00:00.000Z,PLACES OF WORSHIP,23593756,-122.3879959,37.7603095,BUDDHIST,"TIBETAN, NYINGMAPA",NOT AVAILABLE,NOT AVAILABLE,N,N
511,10440549,TRUE SUNSHINE EPISCOPAL ANGLICAN CHURCH,SAN FRANCISCO,CA,94133,4222,SAN FRANCISCO,6075,2008-11-05T00:00:00.000Z,ALT REF,2008-11-05T00:00:00.000Z,CHURCHES,23610722,-122.4115958,37.7967203,CHRISTIAN,EPIS,NOT AVAILABLE,NOT AVAILABLE,Y,N
512,10574826,FIRST AFRICAN METHODIST EPISCOPAL ZION CHURCH,SAN FRANCISCO,CA,94118,4412,SAN FRANCISCO,6075,2008-11-05T00:00:00.000Z,ALT REF,2008-11-05T00:00:00.000Z,CHURCHES,23605205,-122.445993,37.7775378,CHRISTIAN,AMEZ,NOT AVAILABLE,NOT AVAILABLE,Y,N
514,10442591,OLD SAINT MARYS CATHEDRAL,SAN FRANCISCO,CA,94108,2501,SAN FRANCISCO,6075,2008-11-06T00:00:00.000Z,ALT REF,2008-11-06T00:00:00.000Z,CHURCHES,724945438,-122.4057976,37.7928592,CHRISTIAN,NOT AVAILABLE,NOT AVAILABLE,NOT AVAILABLE,N,Y
515,10448029,CHURCH OF THE NATIVITY,SAN FRANCISCO,CA,94102,5154,SAN FRANCISCO,6075,2008-11-06T00:00:00.000Z,ALT REF,2008-11-06T00:00:00.000Z,CHURCHES,23609579,-122.4218893,37.7762937,CHRISTIAN,NOT AVAILABLE,NOT AVAILABLE,NOT AVAILABLE,N,Y
516,10586023,SUNSET MINISTRY,SAN FRANCISCO,CA,94122,4152,SAN FRANCISCO,6075,2008-11-06T00:00:00.000Z,ALT REF,2008-11-06T00:00:00.000Z,CHURCHES,23612372,-122.4961579,37.7535801,CHRISTIAN,ABC,NOT AVAILABLE,NOT AVAILABLE,Y,N
517,10586027,TEMPLE BAPTIST CHURCH,SAN FRANCISCO,CA,94132,2048,SAN FRANCISCO,6075,2008-11-06T00:00:00.000Z,ALT REF,2008-11-06T00:00:00.000Z,CHURCHES,706954368,-122.4752523,37.7283677,CHRISTIAN,ABC,NOT AVAILABLE,NOT AVAILABLE,Y,N
518,10586040,FIRST BURMESE BAPTIST CHURCH OF SAN FRANCISCO,SAN FRANCISCO,CA,94121,2104,SAN FRANCISCO,6075,2008-11-06T00:00:00.000Z,ALT REF,2008-11-06T00:00:00.000Z,CHURCHES,127806763,-122.4801856,37.7808146,CHRISTIAN,ABC,NOT AVAILABLE,NOT AVAILABLE,Y,N
519,10585978,IGLESIA BAUTISTA PORTOLA BAPTIST CHURCH,SAN FRANCISCO,CA,94134,1036,SAN FRANCISCO,6075,2008-11-06T00:00:00.000Z,ALT REF,2008-11-06T00:00:00.000Z,CHURCHES,23614239,-122.4207921,37.7282517,CHRISTIAN,ABC,NOT AVAILABLE,NOT AVAILABLE,Y,N
520,10586021,SAINT PAUL TABERNACLE BAPTIST CHURCH,SAN FRANCISCO,CA,94124,2326,SAN FRANCISCO,6075,2008-11-06T00:00:00.000Z,ALT REF,2008-11-06T00:00:00.000Z,CHURCHES,127814578,-122.3939829,37.7364001,CHRISTIAN,ABC,NOT AVAILABLE,NOT AVAILABLE,Y,N
521,10585724,COMMUNITY BAPTIST CHURCH,SAN FRANCISCO,CA,94115,2913,SAN FRANCISCO,6075,2008-11-06T00:00:00.000Z,ALT REF,2008-11-06T00:00:00.000Z,CHURCHES,23598858,-122.4415419,37.7857909,CHRISTIAN,ABC,NOT AVAILABLE,NOT AVAILABLE,Y,N
522,10585736,COSMOPOLITAN BAPTIST CHURCH,SAN FRANCISCO,CA,94112,2936,SAN FRANCISCO,6075,2008-11-06T00:00:00.000Z,ALT REF,2008-11-06T00:00:00.000Z,CHURCHES,23603780,-122.458816,37.7139444,CHRISTIAN,ABC,NOT AVAILABLE,NOT AVAILABLE,Y,N
523,10585854,FIRST SPANISH AMERICAN BAPTIST CHURCH,SAN FRANCISCO,CA,94110,4028,SAN FRANCISCO,6075,2008-11-06T00:00:00.000Z,ALT REF,2008-11-06T00:00:00.000Z,CHURCHES,23604229,-122.414188,37.7497862,CHRISTIAN,ABC,NOT AVAILABLE,NOT AVAILABLE,Y,N
524,10585840,FIRST CHINESE BAPTIST CHURCH,SAN FRANCISCO,CA,94108,2118,SAN FRANCISCO,6075,2008-11-06T00:00:00.000Z,ALT REF,2008-11-06T00:00:00.000Z,CHURCHES,23620412,-122.4068163,37.7934704,CHRISTIAN,ABC,NOT AVAILABLE,NOT AVAILABLE,Y,N
526,10431772,MASJID AT-TAWHEED,SAN FRANCISCO,CA,94109,5516,SAN FRANCISCO,6075,2008-11-06T00:00:00.000Z,ALT REF,2008-11-06T00:00:00.000Z,"MOSQUES, RELIGIOUS",23618428,-122.42059,37.7874624,MUSLIM,NOT AVAILABLE,NOT AVAILABLE,NOT AVAILABLE,N,N
527,10431752,MASJID AL-NOOR,SAN FRANCISCO,CA,94103,2417,SAN FRANCISCO,6075,2008-11-06T00:00:00.000Z,ALT REF,2008-11-06T00:00:00.000Z,"MOSQUES, RELIGIOUS",23738410,-122.4197089,37.7694443,MUSLIM,NOT AVAILABLE,NOT AVAILABLE,NOT AVAILABLE,N,N
533,10448031,OUR LADY OF FATIMA BYZANTINE CATHOLIC CHURCH,SAN FRANCISCO,CA,94121,1307,SAN FRANCISCO,6075,2008-11-05T00:00:00.000Z,ALT REF,2008-11-05T00:00:00.000Z,CHURCHES,23594769,-122.4799972,37.7857835,CHRISTIAN,NOT AVAILABLE,NOT AVAILABLE,NOT AVAILABLE,N,Y
534,10455644,SAINT JAMES MISSIONARY BAPTIST CHURCH,SAN FRANCISCO,CA,94124,2120,SAN FRANCISCO,6075,2008-11-05T00:00:00.000Z,ALT REF,2008-11-05T00:00:00.000Z,CHURCHES,23607046,-122.3857611,37.7389063,CHRISTIAN,NBC,NOT AVAILABLE,NOT AVAILABLE,Y,N
535,10440557,SAINT CYPRIANS EPISCOPAL CHURCH,SAN FRANCISCO,CA,94115,4326,SAN FRANCISCO,6075,2008-11-05T00:00:00.000Z,ALT REF,2008-11-05T00:00:00.000Z,CHURCHES,23619105,-122.4433556,37.7789076,CHRISTIAN,EPIS,NOT AVAILABLE,NOT AVAILABLE,Y,N
536,10448025,SAINT MICHAEL KOREAN CATHOLIC CHURCH,SAN FRANCISCO,CA,94112,3002,SAN FRANCISCO,6075,2008-11-05T00:00:00.000Z,ALT REF,2008-11-05T00:00:00.000Z,CHURCHES,23598741,-122.45437,37.7134838,CHRISTIAN,NOT AVAILABLE,NOT AVAILABLE,NOT AVAILABLE,N,Y
537,10580022,CALVARY BAPTIST CHURCH,SAN FRANCISCO,CA,94112,4219,SAN FRANCISCO,6075,2008-11-05T00:00:00.000Z,ALT REF,2008-11-05T00:00:00.000Z,CHURCHES,23611471,-122.4477576,37.7103265,CHRISTIAN,BAPT,NOT AVAILABLE,NOT AVAILABLE,Y,N
538,10584625,CHINESE INDEPENDENT BAPTIST CHURCH,SAN FRANCISCO,CA,94108,1113,SAN FRANCISCO,6075,2008-11-05T00:00:00.000Z,ALT REF,2008-11-05T00:00:00.000Z,CHURCHES,23620342,-122.4093101,37.7946036,CHRISTIAN,BAPT,NOT AVAILABLE,NOT AVAILABLE,Y,N
539,10442546,SAINT PETER CATHOLIC CHURCH,SAN FRANCISCO,CA,94110,4107,SAN FRANCISCO,6075,2008-11-05T00:00:00.000Z,ALT REF,2008-11-05T00:00:00.000Z,CHURCHES,23596143,-122.4105876,37.7522506,CHRISTIAN,NOT AVAILABLE,NOT AVAILABLE,NOT AVAILABLE,N,Y
540,10448042,SAINT THOMAS THE APOSTLE CATHOLIC CHURCH,SAN FRANCISCO,CA,94121,2512,SAN FRANCISCO,6075,2008-11-05T00:00:00.000Z,ALT REF,2008-11-05T00:00:00.000Z,CHURCHES,23597491,-122.5002471,37.7753375,CHRISTIAN,NOT AVAILABLE,NOT AVAILABLE,NOT AVAILABLE,N,Y
541,10448010,SAINT CECILIA CATHOLIC CHURCH,SAN FRANCISCO,CA,94116,3077,SAN FRANCISCO,6075,2008-11-05T00:00:00.000Z,ALT REF,2008-11-05T00:00:00.000Z,CHURCHES,23619971,-122.4735662,37.7398385,CHRISTIAN,NOT AVAILABLE,NOT AVAILABLE,NOT AVAILABLE,N,Y
542,10448041,SAINT THOMAS MORE CATHOLIC CHURCH,SAN FRANCISCO,CA,94132,2913,SAN FRANCISCO,6075,2008-11-05T00:00:00.000Z,ALT REF,2008-11-05T00:00:00.000Z,CHURCHES,28478345,-122.4728469,37.7119406,CHRISTIAN,NOT AVAILABLE,NOT AVAILABLE,NOT AVAILABLE,N,Y
543,10448038,STAR OF THE SEA CHURCH,SAN FRANCISCO,CA,94118,3006,SAN FRANCISCO,6075,2008-11-05T00:00:00.000Z,ALT REF,2008-11-05T00:00:00.000Z,CHURCHES,127806847,-122.4666695,37.7813332,CHRISTIAN,NOT AVAILABLE,NOT AVAILABLE,NOT AVAILABLE,N,Y
544,10457702,BETHEL AFRICAN METHODIST EPISCOPAL CHURCH,SAN FRANCISCO,CA,94115,4815,SAN FRANCISCO,6075,2008-11-05T00:00:00.000Z,ALT REF,2008-11-05T00:00:00.000Z,CHURCHES,23608743,-122.4267427,37.7799066,CHRISTIAN,AME,NOT AVAILABLE,NOT AVAILABLE,Y,N
545,10448028,MOST HOLY REDEEMER CATHOLIC CHURCH,SAN FRANCISCO,CA,94114,2414,SAN FRANCISCO,6075,2008-11-05T00:00:00.000Z,ALT REF,2008-11-05T00:00:00.000Z,CHURCHES,23602114,-122.4375325,37.7602757,CHRISTIAN,NOT AVAILABLE,NOT AVAILABLE,NOT AVAILABLE,N,Y
546,10448026,MISSION DOLORES BASILICA,SAN FRANCISCO,CA,94114,1712,SAN FRANCISCO,6075,2008-11-05T00:00:00.000Z,ALT REF,2008-11-05T00:00:00.000Z,CHURCHES,23594485,-122.426964,37.7643915,CHRISTIAN,NOT AVAILABLE,NOT AVAILABLE,NOT AVAILABLE,N,Y
547,10448030,NOTRE DAME DES VICTOIRES,SAN FRANCISCO,CA,94108,3612,SAN FRANCISCO,6075,2008-11-05T00:00:00.000Z,ALT REF,2008-11-05T00:00:00.000Z,CHURCHES,23621107,-122.406502,37.7907264,CHRISTIAN,NOT AVAILABLE,NOT AVAILABLE,NOT AVAILABLE,N,Y
548,10452968,PARADISE BAPTIST CHURCH,SAN FRANCISCO,CA,94112,3113,SAN FRANCISCO,6075,2008-11-05T00:00:00.000Z,ALT REF,2008-11-05T00:00:00.000Z,CHURCHES,120886172,-122.4495201,37.7167561,CHRISTIAN,NBC,NOT AVAILABLE,NOT AVAILABLE,Y,N
549,10576337,GOLDEN GATE CHRISTIAN CHURCH,SAN FRANCISCO,CA,94121,2317,SAN FRANCISCO,6075,2008-11-05T00:00:00.000Z,ALT REF,2008-11-06T00:00:00.000Z,CHURCHES,127806769,-122.4769744,37.7808323,CHRISTIAN,CRC,NOT AVAILABLE,NOT AVAILABLE,Y,N
550,10448011,SAINT CHARLES BORROMEO CATHOLIC CHURCH,SAN FRANCISCO,CA,94110,1908,SAN FRANCISCO,6075,2008-11-05T00:00:00.000Z,ALT REF,2008-11-05T00:00:00.000Z,CHURCHES,23619818,-122.4168651,37.7617922,CHRISTIAN,NOT AVAILABLE,NOT AVAILABLE,NOT AVAILABLE,N,Y
551,10457898,WRIGHT CHAPEL AFRICAN METHODIST EPISCOPAL CHURCH,SAN FRANCISCO,CA,94112,2903,SAN FRANCISCO,6075,2008-11-05T00:00:00.000Z,ALT REF,2008-11-05T00:00:00.000Z,CHURCHES,23599676,-122.4592767,37.7162182,CHRISTIAN,AME,NOT AVAILABLE,NOT AVAILABLE,Y,N
552,10448043,CHURCH OF THE VISITACION,SAN FRANCISCO,CA,94134,2838,SAN FRANCISCO,6075,2008-11-05T00:00:00.000Z,ALT REF,2008-11-05T00:00:00.000Z,CHURCHES,23618318,-122.4089052,37.7095385,CHRISTIAN,NOT AVAILABLE,NOT AVAILABLE,NOT AVAILABLE,N,Y
553,10448039,SAINT STEPHEN CATHOLIC CHURCH,SAN FRANCISCO,CA,94132,1548,SAN FRANCISCO,6075,2008-11-05T00:00:00.000Z,ALT REF,2008-11-05T00:00:00.000Z,CHURCHES,23603523,-122.4790701,37.7309279,CHRISTIAN,NOT AVAILABLE,NOT AVAILABLE,NOT AVAILABLE,N,Y
554,10455165,UNION SPRINGS BAPTIST CHURCH,SAN FRANCISCO,CA,94117,3517,SAN FRANCISCO,6075,2008-11-05T00:00:00.000Z,ALT REF,2008-11-06T00:00:00.000Z,CHURCHES,23604004,-122.4302783,37.7703572,CHRISTIAN,NBC,NOT AVAILABLE,NOT AVAILABLE,Y,N
555,10440555,CHURCH OF THE ADVENT OF CHRIST THE KING,SAN FRANCISCO,CA,94102,5147,SAN FRANCISCO,6075,2008-11-06T00:00:00.000Z,ALT REF,2008-11-06T00:00:00.000Z,CHURCHES,23603851,-122.4218853,37.7759201,CHRISTIAN,EPIS,NOT AVAILABLE,NOT AVAILABLE,Y,N
556,10448005,SAINT ANNE OF THE SUNSET CATHOLIC CHURCH,SAN FRANCISCO,CA,94122,2116,SAN FRANCISCO,6075,2008-11-05T00:00:00.000Z,ALT REF,2008-11-05T00:00:00.000Z,CHURCHES,23608099,-122.4709495,37.7625606,CHRISTIAN,NOT AVAILABLE,NOT AVAILABLE,NOT AVAILABLE,N,Y
557,10443072,SAINT VINCENT DE PAUL CHURCH,SAN FRANCISCO,CA,94123,4625,SAN FRANCISCO,6075,2008-11-06T00:00:00.000Z,ALT REF,2008-11-06T00:00:00.000Z,CHURCHES,23605537,-122.4372455,37.7962791,CHRISTIAN,NOT AVAILABLE,NOT AVAILABLE,NOT AVAILABLE,N,Y
558,10448017,SAINT FINN BARR CATHOLIC CHURCH,SAN FRANCISCO,CA,94112,1326,SAN FRANCISCO,6075,2008-11-05T00:00:00.000Z,ALT REF,2008-11-05T00:00:00.000Z,CHURCHES,23602795,-122.4468613,37.730535,CHRISTIAN,NOT AVAILABLE,NOT AVAILABLE,NOT AVAILABLE,N,Y
559,10580399,HAMILTON SQUARE BAPTIST CHURCH,SAN FRANCISCO,CA,94109,6654,SAN FRANCISCO,6075,2008-11-05T00:00:00.000Z,ALT REF,2008-11-05T00:00:00.000Z,CHURCHES,23604821,-122.4234942,37.7858183,CHRISTIAN,BAPT,NOT AVAILABLE,NOT AVAILABLE,Y,N
560,10437549,FIRST UNION BAPTIST CHURCH,SAN FRANCISCO,CA,94115,4723,SAN FRANCISCO,6075,2008-11-06T00:00:00.000Z,ALT REF,2008-11-06T00:00:00.000Z,CHURCHES,24579176,-122.4306822,37.7799209,CHRISTIAN,SBC,1463,NOT AVAILABLE,Y,N
562,10440554,ALL SAINTS EPISCOPAL CHURCH,SAN FRANCISCO,CA,94117,2921,SAN FRANCISCO,6075,2008-11-06T00:00:00.000Z,ALT REF,2008-11-06T00:00:00.000Z,CHURCHES,23620201,-122.4459718,37.7694065,CHRISTIAN,EPIS,NOT AVAILABLE,NOT AVAILABLE,Y,N
564,10685496,KADAMPA BUDDHIST TEMPLE,SAN FRANCISCO,CA,94110,1208,SAN FRANCISCO,6075,2008-11-06T00:00:00.000Z,ALT REF,2008-11-06T00:00:00.000Z,"TEMPLES, RELIGIOUS",23594554,-122.420163,37.7635611,BUDDHIST,"MAHAYANA, NEW KADAMPA TRADITION",NOT AVAILABLE,NOT AVAILABLE,N,N
567,10684440,HARTFORD STREET ZEN CENTER ISSANJI,SAN FRANCISCO,CA,94114,2013,SAN FRANCISCO,6075,2008-11-05T00:00:00.000Z,ALT REF,2008-11-05T00:00:00.000Z,PLACES OF WORSHIP,23606084,-122.4337869,37.7615887,BUDDHIST,SOTO ZEN (SUZUKI ROSHI),NOT AVAILABLE,NOT AVAILABLE,N,N
568,10431430,MASJID AL-NOOR,SAN FRANCISCO,CA,94103,3460,SAN FRANCISCO,6075,2008-11-06T00:00:00.000Z,ALT REF,2008-11-06T00:00:00.000Z,"MOSQUES, RELIGIOUS",23594476,-122.4199544,37.7654198,MUSLIM,NOT AVAILABLE,NOT AVAILABLE,NOT AVAILABLE,N,N
569,10685534,PURE MIND CENTER,SAN FRANCISCO,CA,94103,2720,SAN FRANCISCO,6075,2008-10-30T00:00:00.000Z,ALT REF,2008-10-30T00:00:00.000Z,PLACES OF WORSHIP,23612065,-122.410286,37.7783337,BUDDHIST,"MAHAYANA, LINJI CHAN (RINZAI ZEN)",NOT AVAILABLE,NOT AVAILABLE,N,N
570,10448020,HOLY NAME OF JESUS CHURCH,SAN FRANCISCO,CA,94122,3015,SAN FRANCISCO,6075,2008-11-05T00:00:00.000Z,ALT REF,2008-11-05T00:00:00.000Z,CHURCHES,23595680,-122.4986417,37.7573651,CHRISTIAN,NOT AVAILABLE,NOT AVAILABLE,NOT AVAILABLE,N,Y
571,10448003,CATHEDRAL OF SAINT MARY OF THE ASSUMPTION,SAN FRANCISCO,CA,94109,6606,SAN FRANCISCO,6075,2008-11-05T00:00:00.000Z,ALT REF,2008-11-05T00:00:00.000Z,CHURCHES,23605287,-122.4251677,37.7843066,CHRISTIAN,NOT AVAILABLE,NOT AVAILABLE,NOT AVAILABLE,N,Y
572,10448016,CHURCH OF THE EPIPHANY CATHOLIC CHURCH,SAN FRANCISCO,CA,94112,3831,SAN FRANCISCO,6075,2008-11-05T00:00:00.000Z,ALT REF,2008-11-05T00:00:00.000Z,CHURCHES,23620047,-122.434737,37.7154089,CHRISTIAN,NOT AVAILABLE,NOT AVAILABLE,NOT AVAILABLE,N,Y
573,10440560,GRACE CATHEDRAL,SAN FRANCISCO,CA,94108,2206,SAN FRANCISCO,6075,2008-11-06T00:00:00.000Z,ALT REF,2008-11-07T00:00:00.000Z,CHURCHES,23599388,-122.4136374,37.7918308,CHRISTIAN,EPIS,NOT AVAILABLE,NOT AVAILABLE,Y,N
577,10442637,SAINT PATRICK CATHOLIC CHURCH,SAN FRANCISCO,CA,94103,3113,SAN FRANCISCO,6075,2008-11-07T00:00:00.000Z,ALT REF,2008-11-07T00:00:00.000Z,CHURCHES,724946115,-122.4035601,37.7854842,CHRISTIAN,NOT AVAILABLE,NOT AVAILABLE,NOT AVAILABLE,N,Y
578,10433049,THIRD BAPTIST CHURCH,SAN FRANCISCO,CA,94115,4618,SAN FRANCISCO,6075,2008-11-07T00:00:00.000Z,ALT REF,2008-11-07T00:00:00.000Z,CHURCHES,23610858,-122.4347321,37.7778862,CHRISTIAN,BAPT,NOT AVAILABLE,NOT AVAILABLE,Y,N
579,10684559,KAGYU DRODEN KUNCHAB,SAN FRANCISCO,CA,94117,2021,SAN FRANCISCO,6075,2008-11-07T00:00:00.000Z,ALT REF,2008-11-07T00:00:00.000Z,PLACES OF WORSHIP,724770343,-122.4490571,37.7728696,BUDDHIST,"TIBETAN, KAGYU",NOT AVAILABLE,NOT AVAILABLE,N,N
580,10684569,KAMTSANG CHOLING UNITED STATES OF AMERICA,SAN FRANCISCO,CA,94127,1647,SAN FRANCISCO,6075,2008-11-07T00:00:00.000Z,ALT REF,2008-11-07T00:00:00.000Z,PLACES OF WORSHIP,23738087,-122.4589561,37.7398116,BUDDHIST,"TIBETAN, KAGYU",NOT AVAILABLE,NOT AVAILABLE,N,N
587,10684228,DEEP STREAMS INSTITUTE,SAN FRANCISCO,CA,94109,5239,SAN FRANCISCO,6075,2008-11-07T00:00:00.000Z,ALT REF,2008-11-07T00:00:00.000Z,PLACES OF WORSHIP,23599199,-122.4273424,37.7873927,BUDDHIST,RINZAI/SOTO ZEN,NOT AVAILABLE,NOT AVAILABLE,N,N
590,10454535,SAINT MARK INSTITUTIONAL BAPTIST CHURCH,SAN FRANCISCO,CA,94110,1736,SAN FRANCISCO,6075,2008-11-07T00:00:00.000Z,ALT REF,2008-11-07T00:00:00.000Z,CHURCHES,23619592,-122.421148,37.7595225,CHRISTIAN,NBC,NOT AVAILABLE,NOT AVAILABLE,Y,N
617,10448058,SAINT VERONICA CATHOLIC CHURCH,SOUTH SAN FRANCISCO,CA,94080,4302,SAN MATEO,6081,2008-11-11T00:00:00.000Z,ALT REF,2008-11-11T00:00:00.000Z,CHURCHES,23596432,-122.4298764,37.647235,CHRISTIAN,NOT AVAILABLE,NOT AVAILABLE,NOT AVAILABLE,N,Y
621,10448056,MATER DOLOROSA CATHOLIC CHURCH,SOUTH SAN FRANCISCO,CA,94080,1446,SAN MATEO,6081,2008-11-12T00:00:00.000Z,ALT REF,2008-11-12T00:00:00.000Z,CHURCHES,23593062,-122.4339377,37.6623387,CHRISTIAN,NOT AVAILABLE,NOT AVAILABLE,NOT AVAILABLE,N,Y
657,10448009,SAINT BRENDAN ROMAN CATHOLIC CHURCH,SAN FRANCISCO,CA,94127,1029,SAN FRANCISCO,6075,2008-11-06T00:00:00.000Z,ALT REF,2008-11-06T00:00:00.000Z,CHURCHES,23615473,-122.4563914,37.7431269,CHRISTIAN,NOT AVAILABLE,NOT AVAILABLE,NOT AVAILABLE,N,Y
658,10448023,SAINT JOHN OF GOD CHURCH,SAN FRANCISCO,CA,94122,2649,SAN FRANCISCO,6075,2008-11-06T00:00:00.000Z,ALT REF,2008-11-06T00:00:00.000Z,CHURCHES,23593907,-122.4617378,37.7643977,CHRISTIAN,NOT AVAILABLE,NOT AVAILABLE,NOT AVAILABLE,N,Y
661,10448037,SACRED HEART CHURCH,SAN FRANCISCO,CA,94117,2620,SAN FRANCISCO,6075,2008-11-07T00:00:00.000Z,ALT REF,2008-11-07T00:00:00.000Z,CHURCHES,23604010,-122.4306384,37.7747615,CHRISTIAN,NOT AVAILABLE,NOT AVAILABLE,NOT AVAILABLE,N,Y
662,10448032,OUR LADY OF LOURDES CHURCH,SAN FRANCISCO,CA,94124,NULL,SAN FRANCISCO,6075,2008-11-07T00:00:00.000Z,ALT REF,2008-11-07T00:00:00.000Z,CHURCHES,23612192,-122.3928675,37.7353836,CHRISTIAN,NOT AVAILABLE,NOT AVAILABLE,NOT AVAILABLE,N,Y
664,10685220,TSE CHEN LING CENTER FOR TIBETAN BUDDHIST STUDIES,SAN FRANCISCO,CA,94117,3511,SAN FRANCISCO,6075,2008-11-07T00:00:00.000Z,ALT REF,2008-11-07T00:00:00.000Z,PLACES OF WORSHIP,23620475,-122.4293829,37.7739777,BUDDHIST,"TIBETAN, GELUGPA",NOT AVAILABLE,NOT AVAILABLE,N,N
667,10761278,REFUGE MINISTRIES,SAN FRANCISCO,CA,94103,2823,SAN FRANCISCO,6075,2008-11-07T00:00:00.000Z,ALT REF,2008-11-07T00:00:00.000Z,CHURCHES,23748133,-122.4074884,37.778927,CHRISTIAN,UCC,466,NOT AVAILABLE,Y,N
680,10685383,BUDDHIST CHURCH OF SAN FRANCISCO,SAN FRANCISCO,CA,94109,4421,SAN FRANCISCO,6075,2008-11-07T00:00:00.000Z,ALT REF,2008-11-07T00:00:00.000Z,PLACES OF WORSHIP,127811695,-122.4267773,37.7886818,BUDDHIST,JODO SHINSHU (PURELAND),NOT AVAILABLE,NOT AVAILABLE,N,N
811,10433050,GLIDE MEMORIAL UNITED METHODIST CHURCH,SAN FRANCISCO,CA,94102,2735,SAN FRANCISCO,6075,2007-09-24T00:00:00.000Z,ALT REF,2007-09-24T00:00:00.000Z,CHURCHES,28504433,-122.4114646,37.7852282,CHRISTIAN,UMC,NOT AVAILABLE,NOT AVAILABLE,Y,N
841,10431745,MASJID AL-JAME FIJI JAM'ATUL ISLAM OF AMERICA,SOUTH SAN FRANCISCO,CA,94080,5640,SAN MATEO,6081,2008-11-12T00:00:00.000Z,ALT REF,2008-11-12T00:00:00.000Z,"MOSQUES, RELIGIOUS",24532213,-122.4351954,37.6397356,MUSLIM,NOT AVAILABLE,NOT AVAILABLE,NOT AVAILABLE,N,N
878,10448055,ALL SOULS CATHOLIC CHURCH,SOUTH SAN FRANCISCO,CA,94080,2712,SAN MATEO,6081,2008-11-11T00:00:00.000Z,ALT REF,2008-11-11T00:00:00.000Z,CHURCHES,23620211,-122.4143448,37.6568877,CHRISTIAN,NOT AVAILABLE,NOT AVAILABLE,NOT AVAILABLE,N,Y
894,10448057,SAINT AUGUSTINE CATHOLIC CHURCH,SOUTH SAN FRANCISCO,CA,94080,5122,SAN MATEO,6081,2008-11-10T00:00:00.000Z,ALT REF,2008-11-10T00:00:00.000Z,CHURCHES,23599461,-122.4637098,37.6459429,CHRISTIAN,NOT AVAILABLE,NOT AVAILABLE,NOT AVAILABLE,N,Y
918,10684997,SAN FRANCISCO SHAMBHALA MEDITATION CENTER,SAN FRANCISCO,CA,94116,2352,SAN FRANCISCO,6075,2008-11-07T00:00:00.000Z,ALT REF,2008-11-07T00:00:00.000Z,PLACES OF WORSHIP,23618584,-122.4838615,37.7429754,BUDDHIST,"MAHAYANA, TIBETAN, SHAMBHALA BUDDHIST",NOT AVAILABLE,NOT AVAILABLE,N,N
919,10440298,TRINITY EPISCOPAL CHURCH,SAN FRANCISCO,CA,94109,5308,SAN FRANCISCO,6075,2008-11-06T00:00:00.000Z,ALT REF,2008-11-06T00:00:00.000Z,CHURCHES,23599197,-122.424901,37.7883327,CHRISTIAN,EPIS,NOT AVAILABLE,NOT AVAILABLE,Y,N
920,10762495,THE NAGARADHAMMA TEMPLE,SAN FRANCISCO,CA,94122,1316,SAN FRANCISCO,6075,2008-11-07T00:00:00.000Z,ALT REF,2008-11-07T00:00:00.000Z,"TEMPLES, RELIGIOUS",724791576,-122.4927087,37.7645226,BUDDHIST,NOT AVAILABLE,NOT AVAILABLE,NOT AVAILABLE,N,N
921,10585777,FIRST BAPTIST CHURCH,SAN FRANCISCO,CA,94102,6230,SAN FRANCISCO,6075,2008-11-07T00:00:00.000Z,ALT REF,2008-11-11T00:00:00.000Z,CHURCHES,127829643,-122.4239827,37.772211,CHRISTIAN,ABC,NOT AVAILABLE,NOT AVAILABLE,Y,N
922,10440548,THE EPISCOPAL CHURCH OF THE INCARNATION,SAN FRANCISCO,CA,94122,4223,SAN FRANCISCO,6075,2008-11-06T00:00:00.000Z,ALT REF,2008-11-06T00:00:00.000Z,CHURCHES,23595390,-122.4868919,37.7545332,CHRISTIAN,EPIS,NOT AVAILABLE,NOT AVAILABLE,Y,N
923,10431893,SAN FRANCISCO MUSLIM COMMUNITY CENTER,SAN FRANCISCO,CA,94117,1506,SAN FRANCISCO,6075,2008-11-07T00:00:00.000Z,ALT REF,2008-11-07T00:00:00.000Z,"MOSQUES, RELIGIOUS",23602170,-122.4379039,37.7773927,MUSLIM,NOT AVAILABLE,NOT AVAILABLE,NOT AVAILABLE,N,N
924,10684400,GOLD MOUNTAIN MONASTERY,SAN FRANCISCO,CA,94108,2117,SAN FRANCISCO,6075,2008-11-07T00:00:00.000Z,ALT REF,2008-11-07T00:00:00.000Z,MONASTERIES (EXCEPT SCHOOLS),23615792,-122.4063612,37.7935078,BUDDHIST,"MAHAYANA, CH'AN (ZEN)",NOT AVAILABLE,NOT AVAILABLE,N,N
981,10683746,JEWEL HEART SAN FRANCISCO CENTER,SAN FRANCISCO,CA,94102,3218,SAN FRANCISCO,6075,2008-10-30T00:00:00.000Z,ALT REF,2008-10-30T00:00:00.000Z,PLACES OF WORSHIP,23619773,-122.4203239,37.7824223,BUDDHIST,"TIBETAN, GELUGPA",NOT AVAILABLE,NOT AVAILABLE,N,N
982,10430337,MUHAMMAD MOSQUE,SAN FRANCISCO,CA,94124,2312,SAN FRANCISCO,6075,2008-11-12T00:00:00.000Z,ALT REF,2008-12-03T00:00:00.000Z,"MOSQUES, RELIGIOUS",120906101,-122.3917683,37.7327779,MUSLIM,NOT AVAILABLE,NOT AVAILABLE,NOT AVAILABLE,N,N
986,10762356,CALVARY PRESBYTERIAN CHURCH,SAN FRANCISCO,CA,94115,1318,SAN FRANCISCO,6075,2008-11-07T00:00:00.000Z,ALT REF,2008-11-07T00:00:00.000Z,CHURCHES,23604031,-122.4348795,37.7926411,CHRISTIAN,PCUSA,1238,NOT AVAILABLE,Y,N
987,10684989,SAM BAO TEMPLE,SAN FRANCISCO,CA,94109,3621,SAN FRANCISCO,6075,2008-11-12T00:00:00.000Z,ALT REF,2008-11-12T00:00:00.000Z,"TEMPLES, RELIGIOUS",23619791,-122.4222429,37.7917992,BUDDHIST,"MAHAYANA, HUMANISTIC BUDDHISM",NOT AVAILABLE,NOT AVAILABLE,N,N
1054,10440355,IGLESIA EPISCOPAL DEL BUEN SAMARITANO,SAN FRANCISCO,CA,94109,2616,SAN FRANCISCO,6075,2007-11-05T00:00:00.000Z,ALT REF,2007-11-05T00:00:00.000Z,CHURCHES,23619780,-122.4212179,37.7854542,CHRISTIAN,EPIS,NOT AVAILABLE,NOT AVAILABLE,Y,N
1059,10440550,EPISCOPAL CHURCH OF SAINT JOHN THE EVANGELIST,SAN FRANCISCO,CA,94103,3511,SAN FRANCISCO,6075,2007-11-05T00:00:00.000Z,ALT REF,2007-11-05T00:00:00.000Z,CHURCHES,23594401,-122.4212669,37.7664068,CHRISTIAN,EPIS,NOT AVAILABLE,NOT AVAILABLE,Y,N
1060,10440551,SAINT GREGORY OF NYSSA EPISCOPAL CHURCH,SAN FRANCISCO,CA,94107,2306,SAN FRANCISCO,6075,2007-11-05T00:00:00.000Z,ALT REF,2007-11-05T00:00:00.000Z,CHURCHES,23601889,-122.4017286,37.7632208,CHRISTIAN,EPIS,NOT AVAILABLE,NOT AVAILABLE,Y,N
1061,10440552,HOLY INNOCENT'S EPISCOPAL CHURCH,SAN FRANCISCO,CA,94110,3618,SAN FRANCISCO,6075,2007-11-05T00:00:00.000Z,ALT REF,2007-11-05T00:00:00.000Z,CHURCHES,23603696,-122.4235218,37.7494172,CHRISTIAN,EPIS,NOT AVAILABLE,NOT AVAILABLE,Y,N
1062,10440556,SAINT JAMES EPISCOPAL CHURCH,SAN FRANCISCO,CA,94118,1225,SAN FRANCISCO,6075,2007-11-05T00:00:00.000Z,ALT REF,2007-11-05T00:00:00.000Z,CHURCHES,23599426,-122.4673341,37.7849359,CHRISTIAN,EPIS,NOT AVAILABLE,NOT AVAILABLE,Y,N
1063,10440558,SEI KO KAI CHRIST CHURCH,SAN FRANCISCO,CA,94115,2214,SAN FRANCISCO,6075,2007-11-05T00:00:00.000Z,ALT REF,2007-11-06T00:00:00.000Z,CHURCHES,23614111,-122.4372083,37.7901867,CHRISTIAN,EPIS,NOT AVAILABLE,NOT AVAILABLE,Y,N
1064,10440559,SAINT LUKE'S EPISCOPAL CHURCH,SAN FRANCISCO,CA,94109,3612,SAN FRANCISCO,6075,2007-11-05T00:00:00.000Z,ALT REF,2007-11-05T00:00:00.000Z,CHURCHES,23600701,-122.4221746,37.7920475,CHRISTIAN,EPIS,NOT AVAILABLE,NOT AVAILABLE,Y,N
1085,10684998,SAN FRANCISCO ZEN CENTER,SAN FRANCISCO,CA,94102,5649,SAN FRANCISCO,6075,2008-11-06T00:00:00.000Z,ALT REF,2008-11-06T00:00:00.000Z,PLACES OF WORSHIP,23613419,-122.4261299,37.7738367,BUDDHIST,SOTO ZEN,NOT AVAILABLE,NOT AVAILABLE,N,N
1091,10448036,SAINT PHILLIP THE APOSTLE CATHOLIC CHURCH,SAN FRANCISCO,CA,94114,3227,SAN FRANCISCO,6075,2008-11-06T00:00:00.000Z,ALT REF,2008-11-06T00:00:00.000Z,CHURCHES,23602122,-122.4359235,37.7517778,CHRISTIAN,NOT AVAILABLE,NOT AVAILABLE,NOT AVAILABLE,N,Y
1095,10683824,DRUKPA KARGYUD SAN FRANCISCO,SAN FRANCISCO,CA,94114,1524,SAN FRANCISCO,6075,2008-11-07T00:00:00.000Z,ALT REF,2008-11-07T00:00:00.000Z,PLACES OF WORSHIP,23599962,-122.4355135,37.7632908,BUDDHIST,"TIBETAN, KAGYU, DRIKUNG",NOT AVAILABLE,NOT AVAILABLE,N,N
1096,10685543,SAN FRAN DHAMMARAM TEMPLE,SAN FRANCISCO,CA,94122,1520,SAN FRANCISCO,6075,2008-11-11T00:00:00.000Z,ALT REF,2008-11-11T00:00:00.000Z,"TEMPLES, RELIGIOUS",23609492,-122.4866256,37.764821,BUDDHIST,THERAVADA,NOT AVAILABLE,NOT AVAILABLE,N,N
1097,10448035,SAINT PETER AND PAUL CHURCH,SAN FRANCISCO,CA,94133,2805,SAN FRANCISCO,6075,2008-11-06T00:00:00.000Z,ALT REF,2008-11-06T00:00:00.000Z,CHURCHES,724777515,-122.410125,37.8015615,CHRISTIAN,NOT AVAILABLE,NOT AVAILABLE,NOT AVAILABLE,N,Y
1111,10684270,DHARMA FELLOWSHIP OF HIS HOLINESS THE GYALWA KARMAPA,SAN FRANCISCO,CA,94114,2013,SAN FRANCISCO,6075,2008-11-07T00:00:00.000Z,ALT REF,2008-11-07T00:00:00.000Z,PLACES OF WORSHIP,23606084,-122.4337209,37.7613806,BUDDHIST,"VAJRAYANA, NON-SECTARIAN, WESTERN BUDDHISM, KAGYU-NYINGMA TRADITION",NOT AVAILABLE,NOT AVAILABLE,N,N
1112,10684958,RIGPA - SAN FRANCISCO BAY AREA,SAN FRANCISCO,CA,94105,3616,SAN FRANCISCO,6075,2008-11-07T00:00:00.000Z,ALT REF,2008-11-07T00:00:00.000Z,PLACES OF WORSHIP,23612135,-122.3999398,37.787254,BUDDHIST,"TIBETAN, NYINGMAPA (RIGPA)",NOT AVAILABLE,NOT AVAILABLE,N,N
1113,10585744,DOUBLE ROCK BAPTIST CHURCH,SAN FRANCISCO,CA,94124,2739,SAN FRANCISCO,6075,2008-11-07T00:00:00.000Z,ALT REF,2008-11-07T00:00:00.000Z,CHURCHES,23616945,-122.3907645,37.7306716,CHRISTIAN,ABC,NOT AVAILABLE,NOT AVAILABLE,Y,N
1114,10584624,TREE OF LIFE BAPTIST CHURCH,SAN FRANCISCO,CA,94110,6145,SAN FRANCISCO,6075,2008-11-07T00:00:00.000Z,ALT REF,2008-11-07T00:00:00.000Z,CHURCHES,23618911,-122.4130321,37.7369355,CHRISTIAN,BAPT,NOT AVAILABLE,NOT AVAILABLE,Y,N
1115,10684041,DIAMOND WAY BUDDHIST CENTER,SAN FRANCISCO,CA,94127,1028,SAN FRANCISCO,6075,2008-11-07T00:00:00.000Z,ALT REF,2008-11-07T00:00:00.000Z,PLACES OF WORSHIP,23611013,-122.4613141,37.7448531,BUDDHIST,"TIBETAN, KARMA KAGYU",NOT AVAILABLE,NOT AVAILABLE,N,N
1120,10454745,NEW PROVIDENCE BAPTIST CHURCH,SAN FRANCISCO,CA,94112,2244,SAN FRANCISCO,6075,2008-11-07T00:00:00.000Z,ALT REF,2008-11-07T00:00:00.000Z,CHURCHES,23605336,-122.4568851,37.7224567,CHRISTIAN,NBC,NOT AVAILABLE,NOT AVAILABLE,Y,N
1121,10448012,CORPUS CHRISTI CHURCH,SAN FRANCISCO,CA,94112,2618,SAN FRANCISCO,6075,2008-11-07T00:00:00.000Z,ALT REF,2008-11-07T00:00:00.000Z,CHURCHES,23616526,-122.4350305,37.726719,CHRISTIAN,NOT AVAILABLE,NOT AVAILABLE,NOT AVAILABLE,N,Y
1122,10684995,SAN FRANCISCO BUDDHIST CENTER,SAN FRANCISCO,CA,94110,2403,SAN FRANCISCO,6075,2008-11-07T00:00:00.000Z,ALT REF,2008-11-07T00:00:00.000Z,PLACES OF WORSHIP,23597652,-122.4197321,37.756353,BUDDHIST,NOT AVAILABLE,NOT AVAILABLE,NOT AVAILABLE,N,N
1123,10448034,SAINT PAUL OF THE SHIPWRECK CATHOLIC CHURCH,SAN FRANCISCO,CA,94124,3518,SAN FRANCISCO,6075,2008-11-07T00:00:00.000Z,ALT REF,2008-11-07T00:00:00.000Z,CHURCHES,23607796,-122.3963248,37.7198264,CHRISTIAN,NOT AVAILABLE,NOT AVAILABLE,NOT AVAILABLE,N,Y
1129,10443119,SAINT IGNATIUS CHURCH,SAN FRANCISCO,CA,94118,4267,SAN FRANCISCO,6075,2008-11-06T00:00:00.000Z,ALT REF,2008-11-06T00:00:00.000Z,CHURCHES,23613749,-122.4525424,37.7755034,CHRISTIAN,NOT AVAILABLE,NOT AVAILABLE,NOT AVAILABLE,N,Y
1165,10448007,SAINT BENEDICT PARISH FOR THE DEAF,SAN FRANCISCO,CA,94109,4328,SAN FRANCISCO,6075,2007-08-30T00:00:00.000Z,ALT REF,2007-09-04T00:00:00.000Z,CHURCHES,23612940,-122.4274263,37.7889477,CHRISTIAN,NOT AVAILABLE,NOT AVAILABLE,NOT AVAILABLE,N,Y
1166,10448014,SAINT ELIZABETH CHURCH,SAN FRANCISCO,CA,94134,NULL,SAN FRANCISCO,6075,2007-08-30T00:00:00.000Z,ALT REF,2007-09-04T00:00:00.000Z,CHURCHES,23617483,-122.4067489,37.7256547,CHRISTIAN,NOT AVAILABLE,NOT AVAILABLE,NOT AVAILABLE,N,Y
1167,10448018,SAINT GABRIEL CHURCH,SAN FRANCISCO,CA,94116,2704,SAN FRANCISCO,6075,2007-08-30T00:00:00.000Z,ALT REF,2007-08-30T00:00:00.000Z,CHURCHES,23595733,-122.4983319,37.7393834,CHRISTIAN,NOT AVAILABLE,NOT AVAILABLE,NOT AVAILABLE,N,Y
1168,10448019,HOLY FAMILY CHINESE MISSION,SAN FRANCISCO,CA,94133,4204,SAN FRANCISCO,6075,2007-08-30T00:00:00.000Z,ALT REF,2007-08-30T00:00:00.000Z,CHURCHES,23799247,-122.412356,37.7975265,CHRISTIAN,NOT AVAILABLE,NOT AVAILABLE,NOT AVAILABLE,N,Y
1169,10448022,SAINT JOHN THE EVANGELIST CHURCH,SAN FRANCISCO,CA,94112,1018,SAN FRANCISCO,6075,2007-08-30T00:00:00.000Z,ALT REF,2007-08-30T00:00:00.000Z,CHURCHES,23617816,-122.4271986,37.7340982,CHRISTIAN,NOT AVAILABLE,NOT AVAILABLE,NOT AVAILABLE,N,Y
1170,10448027,SAINT MONICA CHURCH,SAN FRANCISCO,CA,94121,NULL,SAN FRANCISCO,6075,2007-08-30T00:00:00.000Z,ALT REF,2007-08-31T00:00:00.000Z,CHURCHES,127806831,-122.482822,37.7806244,CHRISTIAN,NOT AVAILABLE,NOT AVAILABLE,NOT AVAILABLE,N,Y
1171,10448033,SAINT PAUL CHURCH,SAN FRANCISCO,CA,94131,NULL,SAN FRANCISCO,6075,2007-08-30T00:00:00.000Z,ALT REF,2007-08-31T00:00:00.000Z,CHURCHES,23600522,-122.4272951,37.7442513,CHRISTIAN,NOT AVAILABLE,NOT AVAILABLE,NOT AVAILABLE,N,Y
1172,10448040,SAINT TERESA OF AVILA CHURCH,SAN FRANCISCO,CA,94107,NULL,SAN FRANCISCO,6075,2007-08-30T00:00:00.000Z,ALT REF,2007-08-30T00:00:00.000Z,CHURCHES,23611511,-122.3971762,37.7615547,CHRISTIAN,NOT AVAILABLE,NOT AVAILABLE,NOT AVAILABLE,N,Y
1174,10448502,SAINT FRANCIS OF ASSISI CHURCH,SAN FRANCISCO,CA,94133,3917,SAN FRANCISCO,6075,2007-08-30T00:00:00.000Z,ALT REF,2007-08-30T00:00:00.000Z,CHURCHES,23619629,-122.4077226,37.7990461,CHRISTIAN,NOT AVAILABLE,NOT AVAILABLE,NOT AVAILABLE,N,Y
1182,10457689,ALLEN CHAPEL AFRICAN METHODIST EPISCOPAL CHURCH,SAN FRANCISCO,CA,94124,2257,SAN FRANCISCO,6075,2008-02-25T00:00:00.000Z,ALT REF,2008-02-25T00:00:00.000Z,CHURCHES,23616675,-122.3995099,37.7320889,CHRISTIAN,AME,NOT AVAILABLE,NOT AVAILABLE,Y,N
1228,10440553,SAINT FRANCIS' EPISCOPAL CHURCH,SAN FRANCISCO,CA,94127,1913,SAN FRANCISCO,6075,2007-11-05T00:00:00.000Z,ALT REF,2007-11-05T00:00:00.000Z,CHURCHES,23616076,-122.4695571,37.7305385,CHRISTIAN,EPIS,NOT AVAILABLE,NOT AVAILABLE,Y,N
1241,10430591,SAN FRANCISCO STATE UNIVERSITY MUSLIM ASSOCIATION,SAN FRANCISCO,CA,94132,NULL,SAN FRANCISCO,6075,2007-07-17T00:00:00.000Z,PHONE,2007-07-17T00:00:00.000Z,"MOSQUES, RELIGIOUS",23606848,-122.4772342,37.7210898,MUSLIM,NOT AVAILABLE,NOT AVAILABLE,NOT AVAILABLE,N,N
1243,10448324,IMMACULATE CONCEPTION PARISH,SAN FRANCISCO,CA,94134,1244,SAN FRANCISCO,6075,2007-08-30T00:00:00.000Z,ALT REF,2007-08-30T00:00:00.000Z,CHURCHES,23617213,-122.4073729,37.7303461,CHRISTIAN,NOT AVAILABLE,NOT AVAILABLE,NOT AVAILABLE,N,Y
1245,10454166,HOLY MISSIONARY BAPTIST CHURCH,SAN FRANCISCO,CA,94132,1603,SAN FRANCISCO,6075,2008-03-11T00:00:00.000Z,ALT REF,2008-03-11T00:00:00.000Z,CHURCHES,23738193,-122.4754248,37.7336867,CHRISTIAN,NBC,NOT AVAILABLE,NOT AVAILABLE,Y,N
1258,10448006,SAINT ANTHONY OF PADUA CHURCH,SAN FRANCISCO,CA,94110,4609,SAN FRANCISCO,6075,2007-08-30T00:00:00.000Z,ALT REF,2007-08-30T00:00:00.000Z,CHURCHES,23597056,-122.4143155,37.7479584,CHRISTIAN,NOT AVAILABLE,NOT AVAILABLE,NOT AVAILABLE,N,Y
1284,10429062,CONGREGATION CHEVRA THILIM,SAN FRANCISCO,CA,94121,3611,SAN FRANCISCO,6075,2007-07-25T00:00:00.000Z,PHONE,2007-07-25T00:00:00.000Z,SYNAGOGUES,23595133,-122.4847043,37.775336,JUDAIC,ORTHODOX,NOT AVAILABLE,NOT AVAILABLE,N,N
1297,10427758,CONGREGATION SHERITH ISRAEL,SAN FRANCISCO,CA,94115,2814,SAN FRANCISCO,6075,2007-07-30T00:00:00.000Z,PHONE,2007-08-01T00:00:00.000Z,SYNAGOGUES,23599400,-122.4319303,37.7893631,JUDAIC,REFORM,659,NOT AVAILABLE,N,N
1306,10427545,CONGREGATION SHA'AR ZAHAV,SAN FRANCISCO,CA,94103,2262,SAN FRANCISCO,6075,2007-07-30T00:00:00.000Z,PHONE,2007-07-30T00:00:00.000Z,SYNAGOGUES,23747676,-122.4268137,37.7648562,JUDAIC,REFORM,391,NOT AVAILABLE,N,N
1317,10428650,CHABAD OF NOE VALLEY,SAN FRANCISCO,CA,94110,4929,SAN FRANCISCO,6075,2007-07-25T00:00:00.000Z,PHONE,2007-07-25T00:00:00.000Z,SYNAGOGUES,23595400,-122.4222196,37.7441466,JUDAIC,CHABAD,NOT AVAILABLE,CHABAD,N,N
1318,10429018,CONGREGATION KENESETH ISRAEL,SAN FRANCISCO,CA,94109,6170,SAN FRANCISCO,6075,2007-07-31T00:00:00.000Z,PHONE,2007-07-31T00:00:00.000Z,SYNAGOGUES,23618424,-122.4143784,37.7881922,JUDAIC,ORTHODOX,NOT AVAILABLE,NOT AVAILABLE,N,N
1319,10428420,CHABAD STUDENT CENTER OF SAN FRANCISCO,SAN FRANCISCO,CA,94132,1604,SAN FRANCISCO,6075,2007-07-26T00:00:00.000Z,PHONE,2007-07-26T00:00:00.000Z,SYNAGOGUES,23738193,-122.4746661,37.7333057,JUDAIC,CHABAD,NOT AVAILABLE,CHABAD,N,N
1320,10427720,CONGREGATION EMANU-EL,SAN FRANCISCO,CA,94118,1423,SAN FRANCISCO,6075,2007-07-20T00:00:00.000Z,PHONE,2007-07-20T00:00:00.000Z,SYNAGOGUES,23608804,-122.4597348,37.7871909,JUDAIC,REFORM,2463,NOT AVAILABLE,N,N
1337,10429128,CONGREGATION ADATH ISRAEL,SAN FRANCISCO,CA,94122,4323,SAN FRANCISCO,6075,2007-07-25T00:00:00.000Z,PHONE,2007-07-25T00:00:00.000Z,SYNAGOGUES,23612359,-122.4837479,37.7536796,JUDAIC,ORTHODOX,NOT AVAILABLE,NOT AVAILABLE,N,N
1345,10428117,JEWISH COMMUNITY CENTER OF SAN FRANCISCO,SAN FRANCISCO,CA,94118,1904,SAN FRANCISCO,6075,2007-07-24T00:00:00.000Z,PHONE,2007-07-24T00:00:00.000Z,SYNAGOGUES,23599411,-122.4473264,37.7874889,JUDAIC,NOT AVAILABLE,NOT AVAILABLE,NOT AVAILABLE,N,N
1350,10428877,RICHMOND TORAH CENTER - CHABAD,SAN FRANCISCO,CA,94118,2914,SAN FRANCISCO,6075,2007-07-25T00:00:00.000Z,PHONE,2007-07-25T00:00:00.000Z,SYNAGOGUES,24579286,-122.4688912,37.7801683,JUDAIC,CHABAD,NOT AVAILABLE,CHABAD,N,N
1352,10429026,CONGREGATION ANSHEY SFARD,SAN FRANCISCO,CA,94118,1032,SAN FRANCISCO,6075,2007-08-01T00:00:00.000Z,PHONE,2007-08-01T00:00:00.000Z,SYNAGOGUES,23600775,-122.4755784,37.7826195,JUDAIC,ORTHODOX,NOT AVAILABLE,NOT AVAILABLE,N,N
1358,10429586,CONGREGATION BETH SHOLOM,SAN FRANCISCO,CA,94118,1027,SAN FRANCISCO,6075,2007-07-31T00:00:00.000Z,PHONE,2007-07-31T00:00:00.000Z,SYNAGOGUES,23600773,-122.4735689,37.7822442,JUDAIC,NOT AVAILABLE,NOT AVAILABLE,NOT AVAILABLE,N,N
1359,10429585,CONGREGATION B'NAI EMUNAH,SAN FRANCISCO,CA,94116,2017,SAN FRANCISCO,6075,2007-07-27T00:00:00.000Z,PHONE,2007-07-27T00:00:00.000Z,SYNAGOGUES,23618604,-122.5041948,37.7414997,JUDAIC,NOT AVAILABLE,NOT AVAILABLE,NOT AVAILABLE,N,N
1365,10428276,CHABAD OF SAN FRANCISCO,SAN FRANCISCO,CA,94121,3514,SAN FRANCISCO,6075,2007-07-25T00:00:00.000Z,PHONE,2007-07-25T00:00:00.000Z,SYNAGOGUES,23595344,-122.4870939,37.773136,JUDAIC,CHABAD,NOT AVAILABLE,CHABAD,N,N
1367,10429031,YOUNG ISRAEL OF SAN FRANCISCO,SAN FRANCISCO,CA,94122,4324,SAN FRANCISCO,6075,2007-07-25T00:00:00.000Z,PHONE,2007-07-25T00:00:00.000Z,SYNAGOGUES,23612359,-122.4834069,37.7542332,JUDAIC,YOUNG ISRAEL,NOT AVAILABLE,NOT AVAILABLE,N,N
1368,10429127,MAGAIN DAVID SEPHARDIM CONGREGATION,SAN FRANCISCO,CA,94118,2405,SAN FRANCISCO,6075,2007-07-25T00:00:00.000Z,PHONE,2007-07-25T00:00:00.000Z,SYNAGOGUES,127806797,-122.4625798,37.7820981,JUDAIC,ORTHODOX,NOT AVAILABLE,NOT AVAILABLE,N,N
1378,10427681,CONGREGATION BETH ISRAEL-JUDEA,SAN FRANCISCO,CA,94132,2901,SAN FRANCISCO,6075,2007-07-25T00:00:00.000Z,PHONE,2007-08-13T00:00:00.000Z,SYNAGOGUES,127834435,-122.4739087,37.712967,JUDAIC,REFORM,280,NOT AVAILABLE,N,N
1383,10431927,YEMENI MOSQUE,SAN FRANCISCO,CA,94102,3914,SAN FRANCISCO,6075,2007-10-04T00:00:00.000Z,ALT REF,2007-10-04T00:00:00.000Z,"MOSQUES, RELIGIOUS",23619086,-122.4114907,37.7828233,MUSLIM,NOT AVAILABLE,NOT AVAILABLE,NOT AVAILABLE,N,N
1388,10431438,ISLAMIC CENTER OF SAN FRANCISCO,SAN FRANCISCO,CA,94110,6020,SAN FRANCISCO,6075,2007-10-04T00:00:00.000Z,ALT REF,2007-10-04T00:00:00.000Z,"MOSQUES, RELIGIOUS",23601443,-122.4165082,37.7346742,MUSLIM,NOT AVAILABLE,NOT AVAILABLE,NOT AVAILABLE,N,N
1393,10431682,ISLAMIC SOCIETY OF SAN FRANCISCO,SAN FRANCISCO,CA,94102,3945,SAN FRANCISCO,6075,2007-10-04T00:00:00.000Z,ALT REF,2007-10-04T00:00:00.000Z,"MOSQUES, RELIGIOUS",23608017,-122.4117871,37.7814357,MUSLIM,NOT AVAILABLE,NOT AVAILABLE,NOT AVAILABLE,N,N
1542,10684937,RATNA SHRI SANGHA,SAN FRANCISCO,CA,94121,3724,SAN FRANCISCO,6075,2008-11-07T00:00:00.000Z,ALT REF,2008-11-07T00:00:00.000Z,PLACES OF WORSHIP,23599281,-122.4830353,37.7743472,BUDDHIST,"TIBETAN, KAGYU, DRIKUNG",NOT AVAILABLE,NOT AVAILABLE,N,N
1543,10684807,NIKI ROTHMAN,SAN FRANCISCO,CA,94103,5521,SAN FRANCISCO,6075,2008-12-03T00:00:00.000Z,ALT REF,2008-12-03T00:00:00.000Z,PLACES OF WORSHIP,23602225,-122.4262778,37.7676451,BUDDHIST,MAHAYANA,NOT AVAILABLE,NOT AVAILABLE,N,N