OBJECTID,ID,NAME,CITY,STATE,ZIP,ZIPP4,COUNTY,FIPS,CONTDATE,CONTHOW,GEODATE,NAICSDESCR,GEOLINKID,X,Y,SUBTYPE,DENOM,MEMBERS,LOC_TYPE,PROT,CATH
11882,10441942,ANNUNCIATION NATIONAL CATHOLIC CHURCH,SAN ANTONIO,TX,78207,6031,BEXAR,48029,2007-08-30T00:00:00.000Z,ALT REF,2007-08-30T00:00:00.000Z,CHURCHES,18203110,-98.522002,29.4150264,CHRISTIAN,NOT AVAILABLE,NOT AVAILABLE,NOT AVAILABLE,N,Y
11884,10456237,BETHEL AFRICAN METHODIST EPISCOPAL CHURCH,SAN ANTONIO,TX,78202,2755,BEXAR,48029,2008-03-03T00:00:00.000Z,ALT REF,2008-03-03T00:00:00.000Z,CHURCHES,18192830,-98.4757987,29.4233793,CHRISTIAN,AME,NOT AVAILABLE,NOT AVAILABLE,Y,N
11886,10444436,SAINT LAWRENCE THE MARTYR CATHOLIC CHURCH,SAN ANTONIO,TX,78221,3335,BEXAR,48029,2007-08-31T00:00:00.000Z,ALT REF,2007-08-31T00:00:00.000Z,CHURCHES,18215180,-98.5001362,29.3379349,CHRISTIAN,NOT AVAILABLE,NOT AVAILABLE,NOT AVAILABLE,N,Y
11887,10436147,VALLEY HI FIRST BAPTIST CHURCH,SAN ANTONIO,TX,78227,NULL,BEXAR,48029,2007-09-20T00:00:00.000Z,ALT REF,2007-09-20T00:00:00.000Z,CHURCHES,704784655,-98.6366185,29.3677656,CHRISTIAN,SBC,1040,NOT AVAILABLE,Y,N
11893,10579441,FELLOWSHIP INDEPENDENT BAPTIST CHURCH,SAN ANTONIO,TX,78252,2703,BEXAR,48029,2009-05-07T00:00:00.000Z,ALT REF,2009-05-07T00:00:00.000Z,CHURCHES,18329258,-98.6341924,29.3323648,CHRISTIAN,BAPT,NOT AVAILABLE,NOT AVAILABLE,Y,N
11894,10436368,RAINBOW HILLS BAPTIST CHURCH,SAN ANTONIO,TX,78227,2406,BEXAR,48029,2007-11-08T00:00:00.000Z,ALT REF,2007-11-08T00:00:00.000Z,CHURCHES,18213088,-98.6573539,29.4095398,CHRISTIAN,SBC,1393,NOT AVAILABLE,Y,N
11895,10577952,HUISACHE AVENUE BAPTIST CHURCH,SAN ANTONIO,TX,78201,5130,BEXAR,48029,2009-05-08T00:00:00.000Z,ALT REF,2009-05-08T00:00:00.000Z,CHURCHES,18205618,-98.5164769,29.4560742,CHRISTIAN,BAPT,NOT AVAILABLE,NOT AVAILABLE,Y,N
11896,10577127,ANCHOR BAPTIST CHURCH,SAN ANTONIO,TX,78239,1916,BEXAR,48029,2009-05-07T00:00:00.000Z,ALT REF,2009-05-07T00:00:00.000Z,CHURCHES,18248769,-98.3858865,29.5232873,CHRISTIAN,BAPT,NOT AVAILABLE,NOT AVAILABLE,Y,N
11897,10580922,FREE GRACE BAPTIST CHURCH,SAN ANTONIO,TX,78201,2935,BEXAR,48029,2009-05-07T00:00:00.000Z,ALT REF,2009-05-07T00:00:00.000Z,CHURCHES,18204057,-98.5244641,29.4819867,CHRISTIAN,BAPT,NOT AVAILABLE,NOT AVAILABLE,Y,N
11898,10444422,SAINT BONAVENTURE CATHOLIC CHURCH,SAN ANTONIO,TX,78211,4128,BEXAR,48029,2009-05-11T00:00:00.000Z,ALT REF,2009-05-11T00:00:00.000Z,CHURCHES,18183916,-98.5516145,29.3307656,CHRISTIAN,NOT AVAILABLE,NOT AVAILABLE,NOT AVAILABLE,N,Y
11899,10432912,CASTLE HILLS FIRST BAPTIST CHURCH,SAN ANTONIO,TX,78213,1815,BEXAR,48029,2007-09-13T00:00:00.000Z,ALT REF,2007-09-13T00:00:00.000Z,CHURCHES,25026057,-98.5251354,29.5347763,CHRISTIAN,SBC,NOT AVAILABLE,NOT AVAILABLE,Y,N
11900,10432914,WAYSIDE CHAPEL EVANGELICAL FREE CHURCH,SAN ANTONIO,TX,78213,2423,BEXAR,48029,2007-09-13T00:00:00.000Z,ALT REF,2007-09-13T00:00:00.000Z,CHURCHES,18237465,-98.5163398,29.5211319,CHRISTIAN,EF,NOT AVAILABLE,NOT AVAILABLE,Y,N
11901,10432915,UNIVERSITY UNITED METHODIST CHURCH,SAN ANTONIO,TX,78249,2025,BEXAR,48029,2007-09-13T00:00:00.000Z,ALT REF,2007-09-13T00:00:00.000Z,CHURCHES,705813069,-98.5849927,29.5646479,CHRISTIAN,UMC,NOT AVAILABLE,NOT AVAILABLE,Y,N
11902,10432916,WESTOVER HILLS ASSEMBLY OF GOD,SAN ANTONIO,TX,78251,2703,BEXAR,48029,2007-09-13T00:00:00.000Z,ALT REF,2007-09-13T00:00:00.000Z,CHURCHES,122474369,-98.6692992,29.4747021,CHRISTIAN,AG,NOT AVAILABLE,NOT AVAILABLE,Y,N
11903,10432917,CORNERSTONE CHURCH,SAN ANTONIO,TX,78258,4129,BEXAR,48029,2007-09-11T00:00:00.000Z,ALT REF,2007-09-11T00:00:00.000Z,CHURCHES,122453137,-98.4942346,29.6123464,CHRISTIAN,NONDENOM,NOT AVAILABLE,NOT AVAILABLE,Y,N
11904,10432918,TRINITY BAPTIST CHURCH,SAN ANTONIO,TX,78212,3024,BEXAR,48029,2007-09-11T00:00:00.000Z,ALT REF,2007-09-11T00:00:00.000Z,CHURCHES,18187948,-98.4876106,29.4573022,CHRISTIAN,CBF,NOT AVAILABLE,NOT AVAILABLE,Y,N
11905,10432919,ALAMO HEIGHTS UNITED METHODIST CHURCH,SAN ANTONIO,TX,78209,1832,BEXAR,48029,2007-09-13T00:00:00.000Z,ALT REF,2007-09-13T00:00:00.000Z,CHURCHES,25008333,-98.473082,29.498179,CHRISTIAN,UMC,NOT AVAILABLE,NOT AVAILABLE,Y,N
11906,10432920,BANDERA ROAD COMMUNITY CHURCH,SAN ANTONIO,TX,78250,2564,BEXAR,48029,2007-09-13T00:00:00.000Z,ALT REF,2007-09-13T00:00:00.000Z,CHURCHES,18235711,-98.6446626,29.5308027,CHRISTIAN,NONDENOM,NOT AVAILABLE,NOT AVAILABLE,Y,N
11909,10433492,KIRBY BAPTIST CHURCH,SAN ANTONIO,TX,78219,1035,BEXAR,48029,2007-11-08T00:00:00.000Z,ALT REF,2007-11-08T00:00:00.000Z,CHURCHES,18193992,-98.3907588,29.4663351,CHRISTIAN,SBC,957,NOT AVAILABLE,Y,N
11911,10433787,NORTHSIDE BAPTIST CHURCH,SAN ANTONIO,TX,78201,3504,BEXAR,48029,2007-11-08T00:00:00.000Z,ALT REF,2007-11-08T00:00:00.000Z,CHURCHES,18200052,-98.5263301,29.4747171,CHRISTIAN,SBC,1284,NOT AVAILABLE,Y,N
11913,10434042,NORTHWEST HILLS BAPTIST CHURCH,SAN ANTONIO,TX,78250,4624,BEXAR,48029,2007-11-08T00:00:00.000Z,ALT REF,2007-11-08T00:00:00.000Z,CHURCHES,18214352,-98.6438074,29.4938573,CHRISTIAN,SBC,756,NOT AVAILABLE,Y,N
11914,10434063,UNIVERSITY BAPTIST CHURCH,SAN ANTONIO,TX,78249,2955,BEXAR,48029,2007-11-08T00:00:00.000Z,ALT REF,2007-11-08T00:00:00.000Z,CHURCHES,122474194,-98.6138494,29.550712,CHRISTIAN,SBC,1109,NOT AVAILABLE,Y,N
11915,10434115,CHURCHILL BAPTIST CHURCH,SAN ANTONIO,TX,78231,2437,BEXAR,48029,2007-11-08T00:00:00.000Z,ALT REF,2007-11-08T00:00:00.000Z,CHURCHES,18232072,-98.5174339,29.5535059,CHRISTIAN,SBC,831,NOT AVAILABLE,Y,N
11916,10434389,CROSSROADS BAPTIST CHURCH,SAN ANTONIO,TX,78254,3016,BEXAR,48029,2007-09-20T00:00:00.000Z,ALT REF,2007-09-20T00:00:00.000Z,CHURCHES,18237868,-98.6614551,29.5200444,CHRISTIAN,SBC,1491,NOT AVAILABLE,Y,N
11919,10460048,OAKWOOD PRESBYTERIAN CHURCH,SAN ANTONIO,TX,78254,2000,BEXAR,48029,2008-03-07T00:00:00.000Z,ALT REF,2008-03-07T00:00:00.000Z,CHURCHES,18235657,-98.6684724,29.5304109,CHRISTIAN,PCA,NOT AVAILABLE,NOT AVAILABLE,Y,N
11922,10580923,CALVARY BAPTIST CHURCH,SAN ANTONIO,TX,78202,1627,BEXAR,48029,2009-05-07T00:00:00.000Z,ALT REF,2009-05-07T00:00:00.000Z,CHURCHES,18188864,-98.454028,29.4332105,CHRISTIAN,BAPT,NOT AVAILABLE,NOT AVAILABLE,Y,N
11924,10435953,EISENHAUER ROAD BAPTIST CHURCH,SAN ANTONIO,TX,78218,3407,BEXAR,48029,2007-11-08T00:00:00.000Z,ALT REF,2007-11-08T00:00:00.000Z,CHURCHES,18191808,-98.4182584,29.4960653,CHRISTIAN,SBC,2168,NOT AVAILABLE,Y,N
11925,10436062,BROOKHILL BAPTIST CHURCH,SAN ANTONIO,TX,78223,3313,BEXAR,48029,2007-11-08T00:00:00.000Z,ALT REF,2007-11-08T00:00:00.000Z,CHURCHES,18181691,-98.4336451,29.3598272,CHRISTIAN,SBC,755,NOT AVAILABLE,Y,N
11926,10436167,PARKHILLS BAPTIST CHURCH,SAN ANTONIO,TX,78232,1413,BEXAR,48029,2007-11-08T00:00:00.000Z,ALT REF,2007-11-08T00:00:00.000Z,CHURCHES,18254776,-98.4723816,29.6042824,CHRISTIAN,SBC,2421,NOT AVAILABLE,Y,N
11929,10444442,SAINT MARY MAGDALEN CHURCH,SAN ANTONIO,TX,78201,3540,BEXAR,48029,2009-05-08T00:00:00.000Z,ALT REF,2009-05-08T00:00:00.000Z,CHURCHES,18204123,-98.5238017,29.477388,CHRISTIAN,NOT AVAILABLE,NOT AVAILABLE,NOT AVAILABLE,N,Y
11930,10436530,GRACE POINT CHURCH,SAN ANTONIO,TX,78240,1311,BEXAR,48029,2007-11-08T00:00:00.000Z,ALT REF,2007-11-08T00:00:00.000Z,CHURCHES,18235650,-98.5880894,29.5303016,CHRISTIAN,SBC,793,NOT AVAILABLE,Y,N
11931,10436601,DELLVIEW BAPTIST CHURCH,SAN ANTONIO,TX,78213,3407,BEXAR,48029,2007-11-08T00:00:00.000Z,ALT REF,2007-11-28T00:00:00.000Z,CHURCHES,18203903,-98.537997,29.4966172,CHRISTIAN,SBC,1162,NOT AVAILABLE,Y,N
11932,10436892,BAPTIST TEMPLE CHURCH,SAN ANTONIO,TX,78210,3105,BEXAR,48029,2007-11-08T00:00:00.000Z,ALT REF,2007-11-27T00:00:00.000Z,CHURCHES,18196802,-98.4565107,29.4008574,CHRISTIAN,SBC,2961,NOT AVAILABLE,Y,N
11933,10437004,CRESTVIEW BAPTIST CHURCH,SAN ANTONIO,TX,78239,2603,BEXAR,48029,2007-11-08T00:00:00.000Z,ALT REF,2007-11-08T00:00:00.000Z,CHURCHES,25033061,-98.3702697,29.511809,CHRISTIAN,SBC,1855,NOT AVAILABLE,Y,N
11934,10437106,VILLAGE PARKWAY BAPTIST CHURCH,SAN ANTONIO,TX,78251,1829,BEXAR,48029,2007-11-08T00:00:00.000Z,ALT REF,2007-11-08T00:00:00.000Z,CHURCHES,18213755,-98.6526343,29.4719237,CHRISTIAN,SBC,1422,NOT AVAILABLE,Y,N
11941,10437721,CONCORDIA LUTHERAN CHURCH,SAN ANTONIO,TX,78258,4456,BEXAR,48029,2007-09-24T00:00:00.000Z,ALT REF,2007-09-24T00:00:00.000Z,CHURCHES,110200450,-98.5268608,29.6092205,CHRISTIAN,LCMS,NOT AVAILABLE,NOT AVAILABLE,Y,N
11942,10437948,COKER UNITED METHODIST CHURCH,SAN ANTONIO,TX,78216,1812,BEXAR,48029,2007-09-24T00:00:00.000Z,ALT REF,2007-09-24T00:00:00.000Z,CHURCHES,18249912,-98.4913969,29.55535,CHRISTIAN,UMC,NOT AVAILABLE,NOT AVAILABLE,Y,N
11944,10438370,FIRST PRESBYTERIAN,SAN ANTONIO,TX,78205,1918,BEXAR,48029,2007-10-10T00:00:00.000Z,ALT REF,2007-10-10T00:00:00.000Z,CHURCHES,18188426,-98.4845923,29.4289067,CHRISTIAN,PCUSA,3153,NOT AVAILABLE,Y,N
11955,10440264,SAINT MICHAEL'S EPISCOPAL CHURCH,SAN ANTONIO,TX,78251,3600,BEXAR,48029,2007-11-08T00:00:00.000Z,ALT REF,2007-11-08T00:00:00.000Z,CHURCHES,18214000,-98.6922409,29.4889583,CHRISTIAN,EPIS,NOT AVAILABLE,NOT AVAILABLE,Y,N
11958,10440405,SAINT DAVID'S EPISCOPAL CHURCH,SAN ANTONIO,TX,78209,6049,BEXAR,48029,2007-11-07T00:00:00.000Z,ALT REF,2007-11-07T00:00:00.000Z,CHURCHES,18189521,-98.4386483,29.4812783,CHRISTIAN,EPIS,NOT AVAILABLE,NOT AVAILABLE,Y,N
11960,10441567,SAINT ANDREW'S EPISCOPAL CHURCH,SAN ANTONIO,TX,78238,NULL,BEXAR,48029,2007-11-07T00:00:00.000Z,ALT REF,2007-11-07T00:00:00.000Z,CHURCHES,18248070,-98.6123444,29.4714572,CHRISTIAN,EPIS,NOT AVAILABLE,NOT AVAILABLE,Y,N
11961,10441569,SAINT MARK'S EPISCOPAL CHURCH,SAN ANTONIO,TX,78205,1819,BEXAR,48029,2007-11-08T00:00:00.000Z,ALT REF,2007-11-08T00:00:00.000Z,CHURCHES,18192222,-98.488815,29.4289663,CHRISTIAN,EPIS,NOT AVAILABLE,NOT AVAILABLE,Y,N
11962,10441572,SAINT LUKE'S EPISCOPAL CHURCH,SAN ANTONIO,TX,78209,4445,BEXAR,48029,2007-11-07T00:00:00.000Z,ALT REF,2007-11-07T00:00:00.000Z,CHURCHES,18189319,-98.4793742,29.4856233,CHRISTIAN,EPIS,NOT AVAILABLE,NOT AVAILABLE,Y,N
11963,10441573,SAINT PHILIP'S EPISCOPAL CHURCH,SAN ANTONIO,TX,78210,3416,BEXAR,48029,2007-11-07T00:00:00.000Z,ALT REF,2007-11-07T00:00:00.000Z,CHURCHES,18195715,-98.4320386,29.4021135,CHRISTIAN,EPIS,NOT AVAILABLE,NOT AVAILABLE,Y,N
11964,10441575,EPISCOPAL CHURCH OF THE HOLY SPIRIT,SAN ANTONIO,TX,78249,NULL,BEXAR,48029,2007-11-07T00:00:00.000Z,ALT REF,2007-11-28T00:00:00.000Z,CHURCHES,18249246,-98.6200541,29.576472,CHRISTIAN,EPIS,NOT AVAILABLE,NOT AVAILABLE,Y,N
11965,10441576,SAINT FRANCIS' EPISCOPAL CHURCH,SAN ANTONIO,TX,78240,1063,BEXAR,48029,2007-11-08T00:00:00.000Z,ALT REF,2007-11-28T00:00:00.000Z,CHURCHES,18235480,-98.5684375,29.531753,CHRISTIAN,EPIS,NOT AVAILABLE,NOT AVAILABLE,Y,N
11966,10441578,THE EPISCOPAL CHURCH OF THE RESURRECTION,SAN ANTONIO,TX,78218,2112,BEXAR,48029,2007-11-09T00:00:00.000Z,ALT REF,2007-11-09T00:00:00.000Z,CHURCHES,25033059,-98.3726626,29.5111908,CHRISTIAN,EPIS,NOT AVAILABLE,NOT AVAILABLE,Y,N
11967,10441612,SAINT THOMAS EPISCOPAL CHURCH,SAN ANTONIO,TX,78232,NULL,BEXAR,48029,2007-11-08T00:00:00.000Z,ALT REF,2007-11-08T00:00:00.000Z,CHURCHES,18224924,-98.4728023,29.6089381,CHRISTIAN,EPIS,NOT AVAILABLE,NOT AVAILABLE,Y,N
11972,10441861,SAINT LUKES CATHOLIC CHURCH,SAN ANTONIO,TX,78228,1835,BEXAR,48029,2007-08-30T00:00:00.000Z,ALT REF,2007-08-30T00:00:00.000Z,CHURCHES,18201522,-98.5748733,29.4858524,CHRISTIAN,NOT AVAILABLE,NOT AVAILABLE,NOT AVAILABLE,N,Y
11981,10442558,SAINT THOMAS MORE PARISH,SAN ANTONIO,TX,78218,3617,BEXAR,48029,2007-08-31T00:00:00.000Z,ALT REF,2007-08-31T00:00:00.000Z,CHURCHES,18190268,-98.4059775,29.4945294,CHRISTIAN,NOT AVAILABLE,NOT AVAILABLE,NOT AVAILABLE,N,Y
11986,10444275,SAN FERNANDO CATHEDRAL,SAN ANTONIO,TX,78205,NULL,BEXAR,48029,2007-08-30T00:00:00.000Z,ALT REF,2007-08-30T00:00:00.000Z,CHURCHES,18193130,-98.4941388,29.4245147,CHRISTIAN,NOT AVAILABLE,NOT AVAILABLE,NOT AVAILABLE,N,Y
11987,10444278,DIVINE PROVIDENCE CATHOLIC CHURCH,SAN ANTONIO,TX,78242,2335,BEXAR,48029,2007-09-04T00:00:00.000Z,ALT REF,2007-08-30T00:00:00.000Z,CHURCHES,18184618,-98.6088541,29.3509932,CHRISTIAN,NOT AVAILABLE,NOT AVAILABLE,NOT AVAILABLE,N,Y
11988,10444414,PRINCE OF PEACE PARISH,SAN ANTONIO,TX,78251,4711,BEXAR,48029,2007-08-31T00:00:00.000Z,ALT REF,2007-08-31T00:00:00.000Z,CHURCHES,18214426,-98.6422746,29.4800234,CHRISTIAN,NOT AVAILABLE,NOT AVAILABLE,NOT AVAILABLE,N,Y
11989,10444418,SAINT ANN CATHOLIC CHURCH,SAN ANTONIO,TX,78201,6357,BEXAR,48029,2007-08-31T00:00:00.000Z,ALT REF,2007-08-31T00:00:00.000Z,CHURCHES,18200430,-98.5125389,29.4496497,CHRISTIAN,NOT AVAILABLE,NOT AVAILABLE,NOT AVAILABLE,N,Y
11990,10444427,SAINT GREGORY THE GREAT CATHOLIC CHURCH AND SCHOOL,SAN ANTONIO,TX,78213,3416,BEXAR,48029,2007-08-31T00:00:00.000Z,ALT REF,2007-08-31T00:00:00.000Z,CHURCHES,18209984,-98.5443244,29.4980372,CHRISTIAN,NOT AVAILABLE,NOT AVAILABLE,NOT AVAILABLE,N,Y
11991,10444434,SAINT JOSEPH CATHOLIC CHURCH (SOUTH SAN),SAN ANTONIO,TX,78211,1978,BEXAR,48029,2007-09-04T00:00:00.000Z,ALT REF,2007-08-31T00:00:00.000Z,CHURCHES,122475454,-98.5466482,29.3679239,CHRISTIAN,NOT AVAILABLE,NOT AVAILABLE,NOT AVAILABLE,N,Y
11992,10444435,SAINT JUDES CATHOLIC CHURCH,SAN ANTONIO,TX,78237,2021,BEXAR,48029,2007-09-04T00:00:00.000Z,ALT REF,2007-08-31T00:00:00.000Z,CHURCHES,18201615,-98.5547922,29.4299658,CHRISTIAN,NOT AVAILABLE,NOT AVAILABLE,NOT AVAILABLE,N,Y
11993,10444440,SAINT MARTIN DE PORRES CATHOLIC CHURCH,SAN ANTONIO,TX,78237,3630,BEXAR,48029,2007-09-04T00:00:00.000Z,ALT REF,2007-08-31T00:00:00.000Z,CHURCHES,18201682,-98.5655685,29.4121915,CHRISTIAN,NOT AVAILABLE,NOT AVAILABLE,NOT AVAILABLE,N,Y
11994,10444441,SAINT MARY CATHOLIC CHURCH,SAN ANTONIO,TX,78205,2304,BEXAR,48029,2007-09-04T00:00:00.000Z,ALT REF,2007-08-31T00:00:00.000Z,CHURCHES,126556773,-98.4910729,29.4255735,CHRISTIAN,NOT AVAILABLE,NOT AVAILABLE,NOT AVAILABLE,N,Y
11995,10444454,SANTO NINO CATHOLIC CHURCH,SAN ANTONIO,TX,78222,1605,BEXAR,48029,2007-08-31T00:00:00.000Z,ALT REF,2007-08-31T00:00:00.000Z,CHURCHES,18215105,-98.3801027,29.3987878,CHRISTIAN,NOT AVAILABLE,NOT AVAILABLE,NOT AVAILABLE,N,Y
11996,10444455,VIETNAMESE MARTYRS CATHOLIC CHURCH,SAN ANTONIO,TX,78218,3327,BEXAR,48029,2007-09-04T00:00:00.000Z,ALT REF,2007-08-31T00:00:00.000Z,CHURCHES,18191746,-98.4176946,29.4909782,CHRISTIAN,NOT AVAILABLE,NOT AVAILABLE,NOT AVAILABLE,N,Y
11999,10448516,SAINT PADRE PIO PARISH SHRINE,SAN ANTONIO,TX,78259,2682,BEXAR,48029,2007-08-31T00:00:00.000Z,ALT REF,2007-08-31T00:00:00.000Z,"SHRINES, RELIGIOUS",110200770,-98.4412912,29.6417514,CHRISTIAN,NOT AVAILABLE,NOT AVAILABLE,NOT AVAILABLE,N,Y
12001,10461302,FAITH PRESBYTERIAN CHURCH,SAN ANTONIO,TX,78248,1402,BEXAR,48029,2008-03-10T00:00:00.000Z,ALT REF,2008-03-10T00:00:00.000Z,CHURCHES,18225784,-98.5108541,29.5983502,CHRISTIAN,PCA,NOT AVAILABLE,NOT AVAILABLE,Y,N
12002,10461326,REDEEMER PRESBYTERIAN CHURCH,SAN ANTONIO,TX,78212,4201,BEXAR,48029,2008-03-07T00:00:00.000Z,ALT REF,2008-03-07T00:00:00.000Z,CHURCHES,18198310,-98.4989545,29.4473972,CHRISTIAN,PCA,NOT AVAILABLE,NOT AVAILABLE,Y,N
12003,10456169,EMMANUEL AFRICAN METHODIST EPISCOPAL CHURCH,SAN ANTONIO,TX,78220,4931,BEXAR,48029,2008-03-10T00:00:00.000Z,ALT REF,2008-03-10T00:00:00.000Z,CHURCHES,18190007,-98.3908904,29.407519,CHRISTIAN,AME,NOT AVAILABLE,NOT AVAILABLE,Y,N
12005,10456140,BALL TABERNACLE AFRICAN METHODIST EPISCOPAL CHURCH,SAN ANTONIO,TX,78219,4003,BEXAR,48029,2008-03-06T00:00:00.000Z,ALT REF,2008-03-06T00:00:00.000Z,CHURCHES,18194227,-98.4139875,29.4253316,CHRISTIAN,AME,NOT AVAILABLE,NOT AVAILABLE,Y,N
12006,10454456,MOUNT ZION FIRST BAPTIST CHURCH,SAN ANTONIO,TX,78203,1407,BEXAR,48029,2008-03-07T00:00:00.000Z,ALT REF,2008-03-07T00:00:00.000Z,CHURCHES,18188566,-98.4735198,29.4135938,CHRISTIAN,NBC,NOT AVAILABLE,NOT AVAILABLE,Y,N
12011,10456377,HODGES CHAPEL AFRICAN METHODIST EPISCOPAL CHURCH,SAN ANTONIO,TX,78202,3117,BEXAR,48029,2008-03-04T00:00:00.000Z,ALT REF,2008-03-04T00:00:00.000Z,CHURCHES,18188820,-98.4587126,29.4260978,CHRISTIAN,AME,NOT AVAILABLE,NOT AVAILABLE,Y,N
12012,10456314,WALKER TEMPLE AFRICAN METHODIST EPISCOPAL CHURCH,SAN ANTONIO,TX,78233,6720,BEXAR,48029,2008-03-04T00:00:00.000Z,ALT REF,2008-03-04T00:00:00.000Z,CHURCHES,18232793,-98.3973762,29.5501706,CHRISTIAN,AME,NOT AVAILABLE,NOT AVAILABLE,Y,N
12015,10432921,FIRST BAPTIST CHURCH - SAN ANTONIO,SAN ANTONIO,TX,78215,2105,BEXAR,48029,2007-09-13T00:00:00.000Z,ALT REF,2007-09-13T00:00:00.000Z,CHURCHES,18198407,-98.4868194,29.4311982,CHRISTIAN,SBC,NOT AVAILABLE,NOT AVAILABLE,Y,N
12016,10459225,GRANT MEMORIAL AFRICAN METHODIST EPISCOPAL CHURCH,SAN ANTONIO,TX,78251,2107,BEXAR,48029,2008-03-10T00:00:00.000Z,ALT REF,2008-03-10T00:00:00.000Z,CHURCHES,18214611,-98.6403425,29.4524127,CHRISTIAN,AME,NOT AVAILABLE,NOT AVAILABLE,Y,N
12024,10441840,EL CARMEN - OUR LADY OF MOUNT CARMEL,SAN ANTONIO,TX,78221,9644,BEXAR,48029,2007-08-30T00:00:00.000Z,ALT REF,2007-08-30T00:00:00.000Z,CHURCHES,108458877,-98.466814,29.2403838,CHRISTIAN,NOT AVAILABLE,NOT AVAILABLE,NOT AVAILABLE,N,Y
12029,10444426,SAINT GABRIEL CATHOLIC CHURCH,SAN ANTONIO,TX,78237,2625,BEXAR,48029,2007-08-31T00:00:00.000Z,ALT REF,2007-08-31T00:00:00.000Z,CHURCHES,18201759,-98.5804097,29.4196779,CHRISTIAN,NOT AVAILABLE,NOT AVAILABLE,NOT AVAILABLE,N,Y
12036,10441568,SAINT PAUL'S EPISCOPAL CHURCH,SAN ANTONIO,TX,78208,1224,BEXAR,48029,2007-11-08T00:00:00.000Z,ALT REF,2007-11-08T00:00:00.000Z,CHURCHES,18197179,-98.4677844,29.4428596,CHRISTIAN,EPIS,NOT AVAILABLE,NOT AVAILABLE,Y,N
12037,10441574,SAINT GEORGE EPISCOPAL CHURCH,SAN ANTONIO,TX,78213,1820,BEXAR,48029,2007-11-08T00:00:00.000Z,ALT REF,2007-11-08T00:00:00.000Z,CHURCHES,18235580,-98.5239427,29.5311262,CHRISTIAN,EPIS,NOT AVAILABLE,NOT AVAILABLE,Y,N
12039,10435815,HARLANDALE BAPTIST CHURCH,SAN ANTONIO,TX,78214,2044,BEXAR,48029,2007-11-08T00:00:00.000Z,ALT REF,2007-11-08T00:00:00.000Z,CHURCHES,18182475,-98.4936824,29.3685159,CHRISTIAN,SBC,2220,NOT AVAILABLE,Y,N
12043,10440205,TRINITY EPISCOPAL CHURCH,SAN ANTONIO,TX,78228,3266,BEXAR,48029,2007-11-08T00:00:00.000Z,ALT REF,2007-11-08T00:00:00.000Z,CHURCHES,18200861,-98.5399779,29.4699887,CHRISTIAN,EPIS,NOT AVAILABLE,NOT AVAILABLE,Y,N
12046,10456589,SHERMAN AFRICAN METHODIST EPISCOPAL CHURCH,SAN ANTONIO,TX,78237,2232,BEXAR,48029,2008-03-10T00:00:00.000Z,ALT REF,2008-03-10T00:00:00.000Z,CHURCHES,18202674,-98.5869549,29.4273895,CHRISTIAN,AME,NOT AVAILABLE,NOT AVAILABLE,Y,N
12052,10441577,SAINT MARGARET'S EPISCOPAL CHURCH,SAN ANTONIO,TX,78247,1522,BEXAR,48029,2007-11-07T00:00:00.000Z,ALT REF,2007-11-07T00:00:00.000Z,CHURCHES,18344092,-98.3843172,29.5832398,CHRISTIAN,EPIS,NOT AVAILABLE,NOT AVAILABLE,Y,N
12059,10441899,SAINT EDWARD THE CONFESSOR HOLY CATHOLIC CHURCH WESTERN RITE,SAN ANTONIO,TX,78217,1117,BEXAR,48029,2007-08-30T00:00:00.000Z,ALT REF,2007-08-30T00:00:00.000Z,CHURCHES,18248148,-98.3944836,29.576234,CHRISTIAN,NOT AVAILABLE,NOT AVAILABLE,NOT AVAILABLE,N,Y
12065,10444402,HOLY ROSARY CATHOLIC CHURCH,SAN ANTONIO,TX,78228,4901,BEXAR,48029,2007-08-30T00:00:00.000Z,ALT REF,2007-08-30T00:00:00.000Z,CHURCHES,18205084,-98.561018,29.4506684,CHRISTIAN,NOT AVAILABLE,NOT AVAILABLE,NOT AVAILABLE,N,Y
12066,10444400,HOLY FAMILY CATHOLIC CHURCH,SAN ANTONIO,TX,78228,5839,BEXAR,48029,2007-08-30T00:00:00.000Z,ALT REF,2007-08-30T00:00:00.000Z,CHURCHES,18202125,-98.5830248,29.4432447,CHRISTIAN,NOT AVAILABLE,NOT AVAILABLE,NOT AVAILABLE,N,Y
12074,10441571,THE EPISCOPAL CHURCH OF RECONCILIATION,SAN ANTONIO,TX,78217,4741,BEXAR,48029,2007-11-07T00:00:00.000Z,ALT REF,2007-11-07T00:00:00.000Z,CHURCHES,18237219,-98.4224533,29.5220144,CHRISTIAN,EPIS,NOT AVAILABLE,NOT AVAILABLE,Y,N
12075,10441570,CHRIST EPISCOPAL CHURCH,SAN ANTONIO,TX,78212,3400,BEXAR,48029,2007-11-08T00:00:00.000Z,ALT REF,2007-11-08T00:00:00.000Z,CHURCHES,18197588,-98.4970917,29.451364,CHRISTIAN,EPIS,NOT AVAILABLE,NOT AVAILABLE,Y,N
12077,10435332,MEDICAL CENTER BAPTIST CHURCH,SAN ANTONIO,TX,78240,3835,BEXAR,48029,2007-11-08T00:00:00.000Z,ALT REF,2007-11-08T00:00:00.000Z,CHURCHES,18249642,-98.5888148,29.5001256,CHRISTIAN,SBC,888,NOT AVAILABLE,Y,N
12081,10444405,IMMACULATE HEART OF MARY CHURCH,SAN ANTONIO,TX,78204,3112,BEXAR,48029,2007-08-30T00:00:00.000Z,ALT REF,2007-08-30T00:00:00.000Z,CHURCHES,18198324,-98.5001293,29.4195449,CHRISTIAN,NOT AVAILABLE,NOT AVAILABLE,NOT AVAILABLE,N,Y
12085,10442409,SAINT MICHAEL CHURCH,SAN ANTONIO,TX,78210,1740,BEXAR,48029,2007-09-04T00:00:00.000Z,ALT REF,2007-08-30T00:00:00.000Z,CHURCHES,18195616,-98.4757594,29.4091059,CHRISTIAN,NOT AVAILABLE,NOT AVAILABLE,NOT AVAILABLE,N,Y
12090,10440265,CHURCH OF THE HOLY CROSS,SAN ANTONIO,TX,78221,3338,BEXAR,48029,2007-11-07T00:00:00.000Z,ALT REF,2007-11-07T00:00:00.000Z,CHURCHES,18215180,-98.499792,29.3388226,CHRISTIAN,EPIS,NOT AVAILABLE,NOT AVAILABLE,Y,N
12111,10444421,SAINT BENEDICT CHURCH,SAN ANTONIO,TX,78220,3543,BEXAR,48029,2009-05-18T00:00:00.000Z,ALT REF,2009-05-18T00:00:00.000Z,CHURCHES,18250459,-98.4031132,29.4140771,CHRISTIAN,NOT AVAILABLE,NOT AVAILABLE,NOT AVAILABLE,N,Y
12112,10444425,SAINT FRANCIS OF ASSISI CATHOLIC CHURCH,SAN ANTONIO,TX,78249,2008,BEXAR,48029,2009-05-08T00:00:00.000Z,ALT REF,2009-05-08T00:00:00.000Z,CHURCHES,18228521,-98.567969,29.5761137,CHRISTIAN,NOT AVAILABLE,NOT AVAILABLE,NOT AVAILABLE,N,Y
12113,10444448,SAINT ROSE OF LIMA CATHOLIC CHURCH,SAN ANTONIO,TX,78245,1826,BEXAR,48029,2009-05-07T00:00:00.000Z,ALT REF,2009-05-07T00:00:00.000Z,CHURCHES,122474827,-98.6844203,29.4186384,CHRISTIAN,NOT AVAILABLE,NOT AVAILABLE,NOT AVAILABLE,N,Y
12115,10430236,CONGREGACION VIDA NUEVA,SAN ANTONIO,TX,78201,5920,BEXAR,48029,2007-08-07T00:00:00.000Z,ALT REF,2007-08-15T00:00:00.000Z,SYNAGOGUES,18203684,-98.5339123,29.4474454,JUDAIC,NOT AVAILABLE,NOT AVAILABLE,NOT AVAILABLE,N,N
12116,10430209,CONGREGATION AGUDAS ACHIM,SAN ANTONIO,TX,78248,1695,BEXAR,48029,2007-08-07T00:00:00.000Z,ALT REF,2007-08-07T00:00:00.000Z,SYNAGOGUES,122476868,-98.5279748,29.5918615,JUDAIC,NOT AVAILABLE,NOT AVAILABLE,NOT AVAILABLE,N,N
12117,10430287,TEMPLE BETH-EL,SAN ANTONIO,TX,78212,5854,BEXAR,48029,2007-08-07T00:00:00.000Z,ALT REF,2007-08-09T00:00:00.000Z,SYNAGOGUES,18197578,-98.4979735,29.4487295,JUDAIC,NOT AVAILABLE,NOT AVAILABLE,NOT AVAILABLE,N,N
12118,10430210,CONGREGATION RODFEI SHOLOM,SAN ANTONIO,TX,78230,5400,BEXAR,48029,2007-08-08T00:00:00.000Z,PHONE,2007-08-10T00:00:00.000Z,SYNAGOGUES,18250016,-98.5429984,29.57058,JUDAIC,NOT AVAILABLE,NOT AVAILABLE,NOT AVAILABLE,N,N
12120,10430201,SHEARIT YISRAEL MESSIANIC FELLOWSHIP,SAN ANTONIO,TX,78220,4037,BEXAR,48029,2007-08-08T00:00:00.000Z,ALT REF,2007-08-08T00:00:00.000Z,SYNAGOGUES,18189870,-98.4406366,29.4067275,JUDAIC,NOT AVAILABLE,NOT AVAILABLE,NOT AVAILABLE,N,N
12124,10428259,BARSHOP JEWISH COMMUNITY CENTER OF SAN ANTONIO,SAN ANTONIO,TX,78231,1877,BEXAR,48029,2007-07-26T00:00:00.000Z,PHONE,2007-07-26T00:00:00.000Z,SYNAGOGUES,705837696,-98.5330994,29.5571349,JUDAIC,NOT AVAILABLE,NOT AVAILABLE,NOT AVAILABLE,N,N
12125,10430206,CONGREGATION ISRAEL OF SAN ANTONIO,SAN ANTONIO,TX,78248,1690,BEXAR,48029,2007-08-07T00:00:00.000Z,ALT REF,2007-08-07T00:00:00.000Z,SYNAGOGUES,122476867,-98.5301444,29.586723,JUDAIC,NOT AVAILABLE,NOT AVAILABLE,NOT AVAILABLE,N,N
12126,10431911,MOSQUE ASSOCIATION MUSLIM CENTER,SAN ANTONIO,TX,78202,1503,BEXAR,48029,2007-10-08T00:00:00.000Z,ALT REF,2007-10-08T00:00:00.000Z,"MOSQUES, RELIGIOUS",18188778,-98.4557193,29.4296727,MUSLIM,NOT AVAILABLE,NOT AVAILABLE,NOT AVAILABLE,N,N
12127,10431384,ISLAMIC CENTER OF SAN ANTONIO,SAN ANTONIO,TX,78229,2035,BEXAR,48029,2007-10-08T00:00:00.000Z,ALT REF,2007-10-08T00:00:00.000Z,"MOSQUES, RELIGIOUS",18248065,-98.5640959,29.5206281,MUSLIM,NOT AVAILABLE,NOT AVAILABLE,NOT AVAILABLE,N,N
12129,10430203,TEMPLE CHAI INCORPORATED,SAN ANTONIO,TX,78231,1871,BEXAR,48029,2007-08-07T00:00:00.000Z,ALT REF,2007-08-07T00:00:00.000Z,SYNAGOGUES,705837696,-98.5331053,29.5571491,JUDAIC,NOT AVAILABLE,NOT AVAILABLE,NOT AVAILABLE,N,N
12133,10437122,ALAMO CITY CHRISTIAN FELLOWSHIP,SAN ANTONIO,TX,78218,3702,BEXAR,48029,2007-09-20T00:00:00.000Z,ALT REF,2007-09-20T00:00:00.000Z,CHURCHES,18191821,-98.3971503,29.4897595,CHRISTIAN,SBC,3656,NOT AVAILABLE,Y,N
12134,10444450,SAINT VINCENT DE PAUL CATHOLIC CHURCH,SAN ANTONIO,TX,78227,NULL,BEXAR,48029,2007-08-31T00:00:00.000Z,ALT REF,2007-08-31T00:00:00.000Z,CHURCHES,18212413,-98.6461847,29.3906394,CHRISTIAN,NOT AVAILABLE,NOT AVAILABLE,NOT AVAILABLE,N,Y
12136,10432913,OAK HILLS CHURCH,SAN ANTONIO,TX,78257,NULL,BEXAR,48029,2007-09-11T00:00:00.000Z,ALT REF,2007-09-11T00:00:00.000Z,CHURCHES,18224832,-98.609736,29.6191838,CHRISTIAN,NONDENOM,NOT AVAILABLE,NOT AVAILABLE,Y,N
12137,10431552,ISLAMIC ASSOCIATION OF BEXAR COUNTY,SAN ANTONIO,TX,78242,NULL,BEXAR,48029,2007-10-08T00:00:00.000Z,ALT REF,2007-10-08T00:00:00.000Z,"MOSQUES, RELIGIOUS",18186344,-98.6264857,29.3431587,MUSLIM,NOT AVAILABLE,NOT AVAILABLE,NOT AVAILABLE,N,N
12138,10438311,MACARTHUR PARK CHURCH OF CHRIST,SAN ANTONIO,TX,78217,NULL,BEXAR,48029,2007-10-10T00:00:00.000Z,ALT REF,2007-10-10T00:00:00.000Z,CHURCHES,18238250,-98.4331595,29.5168353,CHRISTIAN,COC,900,NOT AVAILABLE,Y,N
12139,10430265,BETH SIMCHA MESSIANIC SYNAGOGUE,SAN ANTONIO,TX,78218,NULL,BEXAR,48029,2008-03-27T00:00:00.000Z,ALT REF,2008-03-27T00:00:00.000Z,SYNAGOGUES,18191821,-98.3971575,29.489756,JUDAIC,NOT AVAILABLE,NOT AVAILABLE,NOT AVAILABLE,N,N
12140,10578925,HILLBURN DRIVE GRACE BAPTIST CHURCH,SAN ANTONIO,TX,78242,2360,BEXAR,48029,2009-05-08T00:00:00.000Z,ALT REF,2009-05-08T00:00:00.000Z,CHURCHES,18184634,-98.6043961,29.352022,CHRISTIAN,BAPT,NOT AVAILABLE,NOT AVAILABLE,Y,N
12146,10444277,CHRIST THE KING CHURCH,SAN ANTONIO,TX,78207,2443,BEXAR,48029,2009-05-07T00:00:00.000Z,ALT REF,2009-05-07T00:00:00.000Z,CHURCHES,18200741,-98.5330833,29.4345439,CHRISTIAN,NOT AVAILABLE,NOT AVAILABLE,NOT AVAILABLE,N,Y
12147,10683842,SAN ANTONIO ZEN CENTER,SAN ANTONIO,TX,78201,5544,BEXAR,48029,2009-05-07T00:00:00.000Z,ALT REF,2009-05-07T00:00:00.000Z,PLACES OF WORSHIP,18205644,-98.5189056,29.4530331,BUDDHIST,SOTO ZEN,NOT AVAILABLE,NOT AVAILABLE,N,N
12148,10430248,CONGREGATION BETH AM OF SAN ANTONIO,SAN ANTONIO,TX,78213,NULL,BEXAR,48029,2009-09-15T00:00:00.000Z,ALT REF,2009-09-15T00:00:00.000Z,SYNAGOGUES,18250427,-98.546829,29.5000366,JUDAIC,NOT AVAILABLE,NOT AVAILABLE,NOT AVAILABLE,N,N
12149,10683810,SAN ANTONIO INSIGHT MEDITATION - YELLOW DOG SANGHA,SAN ANTONIO,TX,78213,NULL,BEXAR,48029,2009-05-26T00:00:00.000Z,ALT REF,2009-09-15T00:00:00.000Z,PLACES OF WORSHIP,18250427,-98.546829,29.5000366,BUDDHIST,INSIGHT MEDITATION VIPASSANA PRACTICE GROUP.,NOT AVAILABLE,NOT AVAILABLE,N,N
12150,11532040,FIRST UNITARIAN UNIVERSALIST CHURCH,SAN ANTONIO,TX,78213,NULL,BEXAR,48029,2009-05-26T00:00:00.000Z,ALT REF,2009-09-15T00:00:00.000Z,PLACES OF WORSHIP,18250427,-98.546829,29.5000366,OTHER,NOT AVAILABLE,NOT AVAILABLE,NOT AVAILABLE,N,N
12157,10578898,FREEDOM BAPTIST CHURCH,SAN ANTONIO,TX,78238,2234,BEXAR,48029,2009-05-08T00:00:00.000Z,ALT REF,2009-05-08T00:00:00.000Z,CHURCHES,18209640,-98.6196401,29.4923521,CHRISTIAN,BAPT,NOT AVAILABLE,NOT AVAILABLE,Y,N
12158,10578767,MCCAULEY BAPTIST CHURCH,SAN ANTONIO,TX,78221,1333,BEXAR,48029,2009-05-08T00:00:00.000Z,ALT REF,2009-05-08T00:00:00.000Z,CHURCHES,18185328,-98.5148458,29.3586504,CHRISTIAN,BAPT,NOT AVAILABLE,NOT AVAILABLE,Y,N
12159,10444404,IMMACULATE CONCEPTION CHURCH,SAN ANTONIO,TX,78207,7717,BEXAR,48029,2009-05-12T00:00:00.000Z,ALT REF,2009-05-12T00:00:00.000Z,CHURCHES,18199133,-98.5212143,29.4079757,CHRISTIAN,NOT AVAILABLE,NOT AVAILABLE,NOT AVAILABLE,N,Y
12160,10444433,SAINT JOSEPH CATHOLIC CHURCH - DOWNTOWN,SAN ANTONIO,TX,78205,2619,BEXAR,48029,2009-05-18T00:00:00.000Z,ALT REF,2009-05-18T00:00:00.000Z,CHURCHES,126556585,-98.4863409,29.4236709,CHRISTIAN,NOT AVAILABLE,NOT AVAILABLE,NOT AVAILABLE,N,Y
12165,10589507,SECOND BAPTIST CHURCH,SAN ANTONIO,TX,78220,1220,BEXAR,48029,2009-05-11T00:00:00.000Z,ALT REF,2009-05-11T00:00:00.000Z,CHURCHES,18196450,-98.4362383,29.4196859,CHRISTIAN,ABC,NOT AVAILABLE,NOT AVAILABLE,Y,N
12166,10580925,PRIMERA IGLESIA BAUTISTA FUNDAMENTAL MEXICANA,SAN ANTONIO,TX,78210,4109,BEXAR,48029,2009-05-11T00:00:00.000Z,ALT REF,2009-05-11T00:00:00.000Z,CHURCHES,18195102,-98.4656027,29.3954664,CHRISTIAN,BAPT,NOT AVAILABLE,NOT AVAILABLE,Y,N
12167,10442816,SAN FRANCISCO DE LA ESPADA MISSION,SAN ANTONIO,TX,78214,3815,BEXAR,48029,2009-05-13T00:00:00.000Z,ALT REF,2009-05-13T00:00:00.000Z,CHURCHES,18182798,-98.4511844,29.3180554,CHRISTIAN,NOT AVAILABLE,NOT AVAILABLE,NOT AVAILABLE,N,Y
12169,10580917,LIGHTHOUSE BAPTIST CHURCH,SAN ANTONIO,TX,78217,3821,BEXAR,48029,2009-05-08T00:00:00.000Z,ALT REF,2009-05-08T00:00:00.000Z,CHURCHES,18234940,-98.4470029,29.5352585,CHRISTIAN,BAPT,NOT AVAILABLE,NOT AVAILABLE,Y,N
12170,10762756,WINDCREST UNITED METHODIST CHURCH,SAN ANTONIO,TX,78239,2536,BEXAR,48029,2009-05-08T00:00:00.000Z,ALT REF,2009-05-08T00:00:00.000Z,CHURCHES,18239446,-98.3809089,29.5109865,CHRISTIAN,UMC,NOT AVAILABLE,NOT AVAILABLE,Y,N
12171,10441851,SAINT GERARD CATHOLIC CHURCH,SAN ANTONIO,TX,78203,1817,BEXAR,48029,2009-05-07T00:00:00.000Z,ALT REF,2009-05-07T00:00:00.000Z,CHURCHES,18195265,-98.4576843,29.4124512,CHRISTIAN,NOT AVAILABLE,NOT AVAILABLE,NOT AVAILABLE,N,Y
12172,10443203,SAINT TIMOTHY CHURCH,SAN ANTONIO,TX,78207,6841,BEXAR,48029,2009-05-07T00:00:00.000Z,ALT REF,2009-05-07T00:00:00.000Z,CHURCHES,18206784,-98.5371053,29.4124084,CHRISTIAN,NOT AVAILABLE,NOT AVAILABLE,NOT AVAILABLE,N,Y
12174,10444417,SAINT ALPHONSUS CHURCH,SAN ANTONIO,TX,78207,NULL,BEXAR,48029,2009-05-12T00:00:00.000Z,ALT REF,2009-05-12T00:00:00.000Z,CHURCHES,18208035,-98.5280147,29.416273,CHRISTIAN,NOT AVAILABLE,NOT AVAILABLE,NOT AVAILABLE,N,Y
12175,10444415,RESURRECTION OF THE LORD CATHOLIC CHURCH,SAN ANTONIO,TX,78227,1850,BEXAR,48029,2009-05-11T00:00:00.000Z,ALT REF,2009-05-11T00:00:00.000Z,CHURCHES,18214747,-98.625001,29.4261609,CHRISTIAN,NOT AVAILABLE,NOT AVAILABLE,NOT AVAILABLE,N,Y
12176,10444431,SAINT JOHN BERCHMANS CATHOLIC CHURCH,SAN ANTONIO,TX,78226,1217,BEXAR,48029,2009-05-11T00:00:00.000Z,ALT REF,2009-05-11T00:00:00.000Z,CHURCHES,709414535,-98.5500659,29.3972071,CHRISTIAN,NOT AVAILABLE,NOT AVAILABLE,NOT AVAILABLE,N,Y
12177,10580915,TRUE VINE BAPTIST CHURCH,SAN ANTONIO,TX,78245,1178,BEXAR,48029,2009-05-12T00:00:00.000Z,ALT REF,2009-05-12T00:00:00.000Z,CHURCHES,118123002,-98.6857682,29.4353667,CHRISTIAN,BAPT,NOT AVAILABLE,NOT AVAILABLE,Y,N
12178,10444409,OUR LADY OF GRACE CATHOLIC CHURCH,SAN ANTONIO,TX,78212,3026,BEXAR,48029,2009-05-13T00:00:00.000Z,ALT REF,2009-05-13T00:00:00.000Z,CHURCHES,18197390,-98.4914895,29.4589304,CHRISTIAN,NOT AVAILABLE,NOT AVAILABLE,NOT AVAILABLE,N,Y
12180,10444411,BASILICA OF THE NATIONAL SHRINE OF THE LITTLE FLOWER,SAN ANTONIO,TX,78201,6123,BEXAR,48029,2009-05-13T00:00:00.000Z,ALT REF,2009-05-13T00:00:00.000Z,"SHRINES, RELIGIOUS",18200790,-98.5253973,29.4461256,CHRISTIAN,NOT AVAILABLE,NOT AVAILABLE,NOT AVAILABLE,N,Y
12181,10444416,SACRED HEART CHURCH,SAN ANTONIO,TX,78207,3421,BEXAR,48029,2009-05-13T00:00:00.000Z,ALT REF,2009-05-13T00:00:00.000Z,CHURCHES,18200435,-98.5181547,29.4279956,CHRISTIAN,NOT AVAILABLE,NOT AVAILABLE,NOT AVAILABLE,N,Y
12182,10685184,THE WHOLENESS CENTER,SAN ANTONIO,TX,78212,2035,BEXAR,48029,2009-05-18T00:00:00.000Z,ALT REF,2009-05-18T00:00:00.000Z,PLACES OF WORSHIP,18188007,-98.4880549,29.4711671,BUDDHIST,ZEN BUDDHIST MASTER THICH NHAT HAHN,NOT AVAILABLE,NOT AVAILABLE,N,N
12184,10577350,GRACE BAPTIST TEMPLE,SAN ANTONIO,TX,78240,1005,BEXAR,48029,2009-05-14T00:00:00.000Z,ALT REF,2009-05-14T00:00:00.000Z,CHURCHES,18247989,-98.5704159,29.5293815,CHRISTIAN,BAPT,NOT AVAILABLE,NOT AVAILABLE,Y,N
12185,10580916,REDEMPTION INDEPENDENT BAPTIST CHURCH,SAN ANTONIO,TX,78201,2229,BEXAR,48029,2009-05-14T00:00:00.000Z,ALT REF,2009-05-14T00:00:00.000Z,CHURCHES,18204071,-98.5272176,29.4854528,CHRISTIAN,BAPT,NOT AVAILABLE,NOT AVAILABLE,Y,N
12186,10580920,HARVEST HILL BAPTIST CHURCH,SAN ANTONIO,TX,78239,3062,BEXAR,48029,2009-05-14T00:00:00.000Z,ALT REF,2009-05-14T00:00:00.000Z,CHURCHES,27824961,-98.338595,29.5205253,CHRISTIAN,BAPT,NOT AVAILABLE,NOT AVAILABLE,Y,N
12188,10580924,PUERTA LA HERMOSA IGLESIA BAUTISTA,SAN ANTONIO,TX,78221,3512,BEXAR,48029,2009-05-07T00:00:00.000Z,ALT REF,2009-05-07T00:00:00.000Z,CHURCHES,18185140,-98.5021631,29.3329553,CHRISTIAN,BAPT,NOT AVAILABLE,NOT AVAILABLE,Y,N
12190,10578680,NORTHWEST BAPTIST CHURCH,SAN ANTONIO,TX,78250,3039,BEXAR,48029,2009-05-14T00:00:00.000Z,ALT REF,2009-05-14T00:00:00.000Z,CHURCHES,18239308,-98.6617625,29.5123705,CHRISTIAN,BAPT,NOT AVAILABLE,NOT AVAILABLE,Y,N
12191,10580919,LEON VALLEY BAPTIST CHURCH,SAN ANTONIO,TX,78251,4714,BEXAR,48029,2009-05-07T00:00:00.000Z,ALT REF,2009-05-07T00:00:00.000Z,CHURCHES,18246724,-98.6441194,29.476998,CHRISTIAN,BAPT,NOT AVAILABLE,NOT AVAILABLE,Y,N
12192,10444429,SAINT JAMES THE APOSTLE CHURCH,SAN ANTONIO,TX,78225,1767,BEXAR,48029,2009-05-08T00:00:00.000Z,ALT REF,2009-05-08T00:00:00.000Z,CHURCHES,18211031,-98.5198003,29.3882288,CHRISTIAN,NOT AVAILABLE,NOT AVAILABLE,NOT AVAILABLE,N,Y
12193,10684991,SHAMBHALA MEDITATION CENTER OF SAN ANTONIO,SAN ANTONIO,TX,78210,1244,BEXAR,48029,2009-05-07T00:00:00.000Z,ALT REF,2009-05-07T00:00:00.000Z,PLACES OF WORSHIP,18192973,-98.488082,29.4125137,BUDDHIST,TIBETAN; KAGYU AND NYINGMA LINEAGES,NOT AVAILABLE,NOT AVAILABLE,N,N
12196,10759981,ZION LUTHERAN CHURCH OF HELOTES,SAN ANTONIO,TX,78254,9547,BEXAR,48029,2009-05-07T00:00:00.000Z,ALT REF,2009-05-07T00:00:00.000Z,CHURCHES,18234973,-98.684199,29.535283,CHRISTIAN,ELCA,NOT AVAILABLE,NOT AVAILABLE,Y,N
12197,10444443,SAINT MATTHEW CATHOLIC CHURCH,SAN ANTONIO,TX,78230,2431,BEXAR,48029,2009-05-08T00:00:00.000Z,ALT REF,2009-05-08T00:00:00.000Z,CHURCHES,18234367,-98.5547503,29.5394906,CHRISTIAN,NOT AVAILABLE,NOT AVAILABLE,NOT AVAILABLE,N,Y
12198,10444410,OUR LADY OF GUADALUPE CHURCH,SAN ANTONIO,TX,78207,5509,BEXAR,48029,2009-05-14T00:00:00.000Z,ALT REF,2009-05-14T00:00:00.000Z,CHURCHES,18199266,-98.5153032,29.4198307,CHRISTIAN,NOT AVAILABLE,NOT AVAILABLE,NOT AVAILABLE,N,Y
12199,10580918,LIBERTY BAPTIST CHURCH,SAN ANTONIO,TX,78227,1701,BEXAR,48029,2009-05-14T00:00:00.000Z,ALT REF,2009-05-14T00:00:00.000Z,CHURCHES,18212822,-98.6359705,29.4185875,CHRISTIAN,BAPT,NOT AVAILABLE,NOT AVAILABLE,Y,N
12200,10589499,ANTIOCH MISSIONARY BAPTIST CHURCH,SAN ANTONIO,TX,78202,2555,BEXAR,48029,2009-05-12T00:00:00.000Z,ALT REF,2009-05-12T00:00:00.000Z,CHURCHES,18194747,-98.4526211,29.4271931,CHRISTIAN,ABC,NOT AVAILABLE,NOT AVAILABLE,Y,N
12201,10577876,DEDICATED BAPTIST CHURCH,SAN ANTONIO,TX,78220,2914,BEXAR,48029,2009-05-11T00:00:00.000Z,ALT REF,2009-05-11T00:00:00.000Z,CHURCHES,18186852,-98.3562271,29.4165227,CHRISTIAN,BAPT,NOT AVAILABLE,NOT AVAILABLE,Y,N
12202,10576947,BELIEVERS BAPTIST CHURCH,SAN ANTONIO,TX,78223,4012,BEXAR,48029,2009-05-13T00:00:00.000Z,ALT REF,2009-05-13T00:00:00.000Z,CHURCHES,18181353,-98.4236516,29.3525695,CHRISTIAN,BAPT,NOT AVAILABLE,NOT AVAILABLE,Y,N
12203,10760322,SHEPHERD OF THE HILLS LUTHERAN CHURCH,SAN ANTONIO,TX,78240,3832,BEXAR,48029,2009-05-11T00:00:00.000Z,ALT REF,2009-05-11T00:00:00.000Z,CHURCHES,18210228,-98.5892914,29.4983326,CHRISTIAN,LCMS,NOT AVAILABLE,NOT AVAILABLE,Y,N
12204,10442962,SAINT CLARE CHURCH,SAN ANTONIO,TX,78211,3754,BEXAR,48029,2009-05-11T00:00:00.000Z,ALT REF,2009-05-11T00:00:00.000Z,CHURCHES,18184499,-98.5570978,29.3489669,CHRISTIAN,NOT AVAILABLE,NOT AVAILABLE,NOT AVAILABLE,N,Y
12205,10762553,WAT DHAMMABUCHA,SAN ANTONIO,TX,78238,2206,BEXAR,48029,2009-05-11T00:00:00.000Z,ALT REF,2009-05-11T00:00:00.000Z,PLACES OF WORSHIP,18214377,-98.6278131,29.4899387,BUDDHIST,NOT AVAILABLE,NOT AVAILABLE,NOT AVAILABLE,N,N
12206,10444438,SAINT MARGARET MARY CATHOLIC CHURCH,SAN ANTONIO,TX,78223,1438,BEXAR,48029,2009-05-08T00:00:00.000Z,ALT REF,2009-05-08T00:00:00.000Z,CHURCHES,709414460,-98.4585398,29.3838791,CHRISTIAN,NOT AVAILABLE,NOT AVAILABLE,NOT AVAILABLE,N,Y
12207,10444412,OUR LADY OF PERPETUAL HELP CHURCH,SAN ANTONIO,TX,78203,2144,BEXAR,48029,2009-05-27T00:00:00.000Z,ALT REF,2009-05-27T00:00:00.000Z,CHURCHES,18188961,-98.4496602,29.413858,CHRISTIAN,NOT AVAILABLE,NOT AVAILABLE,NOT AVAILABLE,N,Y
12208,10444444,SAINT PATRICK CHURCH,SAN ANTONIO,TX,78208,1343,BEXAR,48029,2009-05-08T00:00:00.000Z,ALT REF,2009-05-08T00:00:00.000Z,CHURCHES,18197598,-98.4684941,29.4392936,CHRISTIAN,NOT AVAILABLE,NOT AVAILABLE,NOT AVAILABLE,N,Y
12209,10444408,OUR LADY OF GOOD COUNSEL CHURCH,SAN ANTONIO,TX,78237,2921,BEXAR,48029,2009-05-12T00:00:00.000Z,ALT REF,2009-05-12T00:00:00.000Z,CHURCHES,18206402,-98.5577918,29.415363,CHRISTIAN,NOT AVAILABLE,NOT AVAILABLE,NOT AVAILABLE,N,Y
12210,10441910,SAINT PETER PRINCE OF THE APOSTLES CATHOLIC CHURCH,SAN ANTONIO,TX,78209,5823,BEXAR,48029,2009-05-08T00:00:00.000Z,ALT REF,2009-05-08T00:00:00.000Z,CHURCHES,18191064,-98.4616363,29.4735309,CHRISTIAN,NOT AVAILABLE,NOT AVAILABLE,NOT AVAILABLE,N,Y
12211,10761915,SUNSET RIDGE CHURCH OF CHRIST,SAN ANTONIO,TX,78209,4001,BEXAR,48029,2009-05-08T00:00:00.000Z,ALT REF,2009-05-08T00:00:00.000Z,CHURCHES,18191410,-98.4553397,29.4921591,CHRISTIAN,COC,500,NOT AVAILABLE,Y,N
12212,10759805,ABIDING PRESENCE LUTHERAN CHURCH,SAN ANTONIO,TX,78232,4352,BEXAR,48029,2009-05-07T00:00:00.000Z,ALT REF,2009-05-07T00:00:00.000Z,CHURCHES,18228920,-98.4779771,29.574918,CHRISTIAN,ELCA,NOT AVAILABLE,NOT AVAILABLE,Y,N
12213,10444449,SAINT STEPHEN CHURCH,SAN ANTONIO,TX,78207,8022,BEXAR,48029,2009-05-07T00:00:00.000Z,ALT REF,2009-05-07T00:00:00.000Z,CHURCHES,18208358,-98.5308002,29.4018633,CHRISTIAN,NOT AVAILABLE,NOT AVAILABLE,NOT AVAILABLE,N,Y
12214,10578706,TOWN EAST BAPTIST CHURCH,SAN ANTONIO,TX,78222,NULL,BEXAR,48029,2009-05-11T00:00:00.000Z,ALT REF,2009-05-11T00:00:00.000Z,CHURCHES,18215104,-98.3754014,29.3972345,CHRISTIAN,BAPT,NOT AVAILABLE,NOT AVAILABLE,Y,N
12215,10444276,BLESSED SACRAMENT CHURCH,SAN ANTONIO,TX,78216,7326,BEXAR,48029,2009-05-07T00:00:00.000Z,ALT REF,2009-05-07T00:00:00.000Z,CHURCHES,18240710,-98.4972435,29.5040431,CHRISTIAN,NOT AVAILABLE,NOT AVAILABLE,NOT AVAILABLE,N,Y
12216,10762550,CHUA BAO QUANG,SAN ANTONIO,TX,78217,1170,BEXAR,48029,2009-05-29T00:00:00.000Z,ALT REF,2009-05-29T00:00:00.000Z,PLACES OF WORSHIP,18228326,-98.3921838,29.5766701,BUDDHIST,NOT AVAILABLE,NOT AVAILABLE,NOT AVAILABLE,N,N
12217,10580921,WOODLAND BAPTIST CHURCH,SAN ANTONIO,TX,78248,960,BEXAR,48029,2009-05-29T00:00:00.000Z,ALT REF,2009-05-29T00:00:00.000Z,CHURCHES,18250087,-98.5373864,29.5834586,CHRISTIAN,BAPT,NOT AVAILABLE,NOT AVAILABLE,Y,N
12218,10684966,RIGPE DORJE CENTER,SAN ANTONIO,TX,78230,5133,BEXAR,48029,2009-05-15T00:00:00.000Z,ALT REF,2009-05-15T00:00:00.000Z,PLACES OF WORSHIP,18239619,-98.5390342,29.5116933,BUDDHIST,"TIBETAN, KARMA KAGYU/VAJRAYANA",NOT AVAILABLE,NOT AVAILABLE,N,N
12219,10444406,OUR LADY OF THE ANGELS CHURCH,SAN ANTONIO,TX,78211,1554,BEXAR,48029,2009-05-13T00:00:00.000Z,ALT REF,2009-05-13T00:00:00.000Z,CHURCHES,18183146,-98.5268549,29.3730819,CHRISTIAN,NOT AVAILABLE,NOT AVAILABLE,NOT AVAILABLE,N,Y
12220,10578986,PYRON AVENUE BAPTIST CHURCH,SAN ANTONIO,TX,78214,2513,BEXAR,48029,2009-05-14T00:00:00.000Z,ALT REF,2009-05-14T00:00:00.000Z,CHURCHES,18180816,-98.4853586,29.3631668,CHRISTIAN,BAPT,NOT AVAILABLE,NOT AVAILABLE,Y,N
12221,10760321,MOUNT CALVARY LUTHERAN CHURCH,SAN ANTONIO,TX,78209,4846,BEXAR,48029,2009-05-07T00:00:00.000Z,ALT REF,2009-05-07T00:00:00.000Z,CHURCHES,18198490,-98.448022,29.4903449,CHRISTIAN,LCMS,NOT AVAILABLE,NOT AVAILABLE,Y,N
12222,10685006,SANGHA DEL CORAZON,SAN ANTONIO,TX,78218,1739,BEXAR,48029,2009-05-22T00:00:00.000Z,ALT REF,2009-05-22T00:00:00.000Z,PLACES OF WORSHIP,18239996,-98.4254357,29.508225,BUDDHIST,ZEN BUDDHIST MASTER THICH NHAT HAHN,NOT AVAILABLE,NOT AVAILABLE,N,N
12223,10576932,TEXAS BAPTIST CHURCH,SAN ANTONIO,TX,78218,1826,BEXAR,48029,2009-05-18T00:00:00.000Z,ALT REF,2009-05-18T00:00:00.000Z,CHURCHES,18240890,-98.4074543,29.5030483,CHRISTIAN,BAPT,NOT AVAILABLE,NOT AVAILABLE,Y,N
12224,10444428,SAINT HENRY CATHOLIC CHURCH,SAN ANTONIO,TX,78204,1622,BEXAR,48029,2009-05-08T00:00:00.000Z,ALT REF,2009-05-08T00:00:00.000Z,CHURCHES,18207939,-98.5022226,29.4074487,CHRISTIAN,NOT AVAILABLE,NOT AVAILABLE,NOT AVAILABLE,N,Y
12225,10444453,SAN JUAN DE LOS LAGOS CHURCH,SAN ANTONIO,TX,78207,4607,BEXAR,48029,2009-05-14T00:00:00.000Z,ALT REF,2009-05-14T00:00:00.000Z,CHURCHES,18199322,-98.5362922,29.4217458,CHRISTIAN,NOT AVAILABLE,NOT AVAILABLE,NOT AVAILABLE,N,Y
12226,10441791,HOLY REDEEMER CATHOLIC CHURCH,SAN ANTONIO,TX,78203,1735,BEXAR,48029,2009-05-12T00:00:00.000Z,ALT REF,2009-05-12T00:00:00.000Z,CHURCHES,18188986,-98.4573147,29.414801,CHRISTIAN,NOT AVAILABLE,NOT AVAILABLE,NOT AVAILABLE,N,Y
12227,10442333,SAINT AGNES CHURCH,SAN ANTONIO,TX,78207,1628,BEXAR,48029,2009-05-13T00:00:00.000Z,ALT REF,2009-05-13T00:00:00.000Z,CHURCHES,18200378,-98.5148662,29.4350413,CHRISTIAN,NOT AVAILABLE,NOT AVAILABLE,NOT AVAILABLE,N,Y
12229,11531370,PRIMERA IGLESIA CRISTIANA,SAN ANTONIO,TX,78204,2419,BEXAR,48029,2009-05-13T00:00:00.000Z,ALT REF,2009-05-13T00:00:00.000Z,CHURCHES,709513947,-98.5188121,29.3969869,CHRISTIAN,NOT AVAILABLE,NOT AVAILABLE,NOT AVAILABLE,N,Y
12230,10432909,HARVEST FELLOWSHIP COMMUNITY CHURCH,SAN ANTONIO,TX,78232,NULL,BEXAR,48029,2009-05-12T00:00:00.000Z,ALT REF,2009-05-12T00:00:00.000Z,CHURCHES,715304754,-98.4763378,29.6093542,CHRISTIAN,NOT AVAILABLE,NOT AVAILABLE,NOT AVAILABLE,Y,N
12231,10678051,BAPS SHRI SWAMINARAYAN MANDIR,SAN ANTONIO,TX,78249,NULL,BEXAR,48029,2009-05-07T00:00:00.000Z,ALT REF,2009-05-07T00:00:00.000Z,"TEMPLES, RELIGIOUS",18226336,-98.5849803,29.5914758,HINDU,NOT AVAILABLE,NOT AVAILABLE,NOT AVAILABLE,N,N
12232,10761914,NORTHWEST CHURCH OF CHRIST,SAN ANTONIO,TX,78254,NULL,BEXAR,48029,2009-05-12T00:00:00.000Z,ALT REF,2009-05-12T00:00:00.000Z,CHURCHES,27807200,-98.6843814,29.5340352,CHRISTIAN,COC,600,NOT AVAILABLE,Y,N
12235,10575970,CALEB AFRICAN METHODIST EPISCOPAL ZION CHURCH,SAN ANTONIO,TX,78233,3810,BEXAR,48029,2009-05-27T00:00:00.000Z,ALT REF,2009-05-27T00:00:00.000Z,CHURCHES,18228918,-98.3569407,29.5720646,CHRISTIAN,AMEZ,NOT AVAILABLE,NOT AVAILABLE,Y,N
12237,10444430,SAINT JOHN THE EVANGELIST CHURCH,SAN ANTONIO,TX,78212,1525,BEXAR,48029,2009-05-22T00:00:00.000Z,ALT REF,2009-05-22T00:00:00.000Z,CHURCHES,18188028,-98.4974483,29.4763965,CHRISTIAN,NOT AVAILABLE,NOT AVAILABLE,NOT AVAILABLE,N,Y
12238,10448184,SAINT GEORGE MARONITE CHURCH,SAN ANTONIO,TX,78240,2138,BEXAR,48029,2009-05-08T00:00:00.000Z,ALT REF,2009-05-08T00:00:00.000Z,CHURCHES,18235573,-98.6078127,29.5313279,CHRISTIAN,NOT AVAILABLE,NOT AVAILABLE,NOT AVAILABLE,N,Y
12240,10444420,SAINT ANTHONY DE PADUA CATHOLIC CHURCH,SAN ANTONIO,TX,78209,2520,BEXAR,48029,2009-05-08T00:00:00.000Z,ALT REF,2009-05-08T00:00:00.000Z,CHURCHES,18241136,-98.4696906,29.5019022,CHRISTIAN,NOT AVAILABLE,NOT AVAILABLE,NOT AVAILABLE,N,Y
12241,10444407,OUR LADY OF THE ATONEMENT CATHOLIC CHURCH,SAN ANTONIO,TX,78255,1222,BEXAR,48029,2009-05-11T00:00:00.000Z,ALT REF,2009-05-11T00:00:00.000Z,CHURCHES,18227131,-98.6446565,29.5879834,CHRISTIAN,NOT AVAILABLE,NOT AVAILABLE,NOT AVAILABLE,N,Y
12242,10444451,MISSION SAN JOSE CATHOLIC CHURCH,SAN ANTONIO,TX,78214,2762,BEXAR,48029,2009-05-11T00:00:00.000Z,ALT REF,2009-05-11T00:00:00.000Z,CHURCHES,18182543,-98.4798191,29.3623803,CHRISTIAN,NOT AVAILABLE,NOT AVAILABLE,NOT AVAILABLE,N,Y
12243,10448380,SAINT ELIZABETH ANN SETON CHURCH,SAN ANTONIO,TX,78255,2026,BEXAR,48029,2009-05-11T00:00:00.000Z,ALT REF,2009-05-11T00:00:00.000Z,CHURCHES,122450321,-98.6505044,29.6654938,CHRISTIAN,NOT AVAILABLE,NOT AVAILABLE,NOT AVAILABLE,N,Y
12244,10444423,SAINT BRIGID CATHOLIC CHURCH,SAN ANTONIO,TX,78240,2718,BEXAR,48029,2009-05-08T00:00:00.000Z,ALT REF,2009-05-08T00:00:00.000Z,CHURCHES,18235625,-98.6243418,29.5316786,CHRISTIAN,NOT AVAILABLE,NOT AVAILABLE,NOT AVAILABLE,N,Y
12245,10444419,SAINT ANTHONY MARY CLARET ROMAN CATHOLIC CHURCH,SAN ANTONIO,TX,78253,9261,BEXAR,48029,2009-05-13T00:00:00.000Z,ALT REF,2009-05-13T00:00:00.000Z,CHURCHES,110196847,-98.7395751,29.4947605,CHRISTIAN,NOT AVAILABLE,NOT AVAILABLE,NOT AVAILABLE,N,Y
12246,10444447,SAINT PIUS X CATHOLIC CHURCH,SAN ANTONIO,TX,78209,NULL,BEXAR,48029,2009-05-08T00:00:00.000Z,ALT REF,2009-05-08T00:00:00.000Z,CHURCHES,716339830,-98.4356301,29.5059777,CHRISTIAN,NOT AVAILABLE,NOT AVAILABLE,NOT AVAILABLE,N,Y
12247,10442911,HOLY TRINITY CATHOLIC CHURCH,SAN ANTONIO,TX,78258,3915,BEXAR,48029,2009-05-13T00:00:00.000Z,ALT REF,2009-05-13T00:00:00.000Z,CHURCHES,27811894,-98.4908265,29.6266904,CHRISTIAN,NOT AVAILABLE,NOT AVAILABLE,NOT AVAILABLE,N,Y
12248,10441778,SAINT LEONARD CHURCH,SAN ANTONIO,TX,78224,2021,BEXAR,48029,2009-05-12T00:00:00.000Z,ALT REF,2009-05-12T00:00:00.000Z,CHURCHES,18185048,-98.533183,29.3402247,CHRISTIAN,NOT AVAILABLE,NOT AVAILABLE,NOT AVAILABLE,N,Y
12249,10441884,SAINT LEO THE GREAT CATHOLIC CHURCH,SAN ANTONIO,TX,78214,1213,BEXAR,48029,2009-05-07T00:00:00.000Z,ALT REF,2009-05-07T00:00:00.000Z,CHURCHES,18209173,-98.5018674,29.3814068,CHRISTIAN,NOT AVAILABLE,NOT AVAILABLE,NOT AVAILABLE,N,Y
12251,10444445,SAINT PAUL CHURCH,SAN ANTONIO,TX,78228,3168,BEXAR,48029,2009-05-08T00:00:00.000Z,ALT REF,2009-05-08T00:00:00.000Z,CHURCHES,18200875,-98.548036,29.4701824,CHRISTIAN,NOT AVAILABLE,NOT AVAILABLE,NOT AVAILABLE,N,Y
12252,10444456,SAINT JOAN OF ARC CATHOLIC CHURCH,SAN ANTONIO,TX,78219,2121,BEXAR,48029,2009-05-14T00:00:00.000Z,ALT REF,2009-05-14T00:00:00.000Z,CHURCHES,18196418,-98.3826349,29.4564422,CHRISTIAN,NOT AVAILABLE,NOT AVAILABLE,NOT AVAILABLE,N,Y
12254,10444432,SAINT JOHN NEUMANN CATHOLIC CHURCH,SAN ANTONIO,TX,78239,2807,BEXAR,48029,2009-05-12T00:00:00.000Z,ALT REF,2009-06-30T00:00:00.000Z,CHURCHES,18253726,-98.3571548,29.5203978,CHRISTIAN,NOT AVAILABLE,NOT AVAILABLE,NOT AVAILABLE,N,Y
12255,10444401,HOLY NAME CATHOLIC CHURCH,SAN ANTONIO,TX,78223,3442,BEXAR,48029,2009-05-12T00:00:00.000Z,ALT REF,2009-05-12T00:00:00.000Z,CHURCHES,18181331,-98.42194,29.3620814,CHRISTIAN,NOT AVAILABLE,NOT AVAILABLE,NOT AVAILABLE,N,Y
12256,10430199,SHORESH DAVID MESSIANIC JEWISH CONGREGATION,SAN ANTONIO,TX,78204,2419,BEXAR,48029,2009-05-12T00:00:00.000Z,ALT REF,2009-05-12T00:00:00.000Z,SYNAGOGUES,709513947,-98.5188111,29.3969851,JUDAIC,NOT AVAILABLE,NOT AVAILABLE,NOT AVAILABLE,N,N
12257,10444403,HOLY SPIRIT CATHOLIC CHURCH,SAN ANTONIO,TX,78216,3412,BEXAR,48029,2009-05-12T00:00:00.000Z,ALT REF,2009-05-12T00:00:00.000Z,CHURCHES,18234579,-98.5056177,29.5371593,CHRISTIAN,NOT AVAILABLE,NOT AVAILABLE,NOT AVAILABLE,N,Y
12258,10445814,SAINT DOMINIC CATHOLIC CHURCH,SAN ANTONIO,TX,78228,3418,BEXAR,48029,2009-05-15T00:00:00.000Z,ALT REF,2009-05-15T00:00:00.000Z,CHURCHES,18202179,-98.6001546,29.4671192,CHRISTIAN,NOT AVAILABLE,NOT AVAILABLE,NOT AVAILABLE,N,Y
12259,10444424,SAINT CECILIA CATHOLIC CHURCH,SAN ANTONIO,TX,78210,2852,BEXAR,48029,2009-05-11T00:00:00.000Z,ALT REF,2009-05-11T00:00:00.000Z,CHURCHES,18194407,-98.4835474,29.4001263,CHRISTIAN,NOT AVAILABLE,NOT AVAILABLE,NOT AVAILABLE,N,Y
12260,10441928,SAINT JEROME CATHOLIC CHURCH,SAN ANTONIO,TX,78263,3003,BEXAR,48029,2009-05-14T00:00:00.000Z,ALT REF,2009-05-14T00:00:00.000Z,CHURCHES,18186867,-98.332474,29.4094367,CHRISTIAN,NOT AVAILABLE,NOT AVAILABLE,NOT AVAILABLE,N,Y
12261,10441938,SAINT HELENA CATHOLIC CHURCH,SAN ANTONIO,TX,78247,1906,BEXAR,48029,2009-05-08T00:00:00.000Z,ALT REF,2009-05-08T00:00:00.000Z,CHURCHES,18228418,-98.3845361,29.575363,CHRISTIAN,NOT AVAILABLE,NOT AVAILABLE,NOT AVAILABLE,N,Y
12262,10444452,SAN JUAN CAPISTRANO MISSION,SAN ANTONIO,TX,78214,3625,BEXAR,48029,2009-05-13T00:00:00.000Z,ALT REF,2009-05-13T00:00:00.000Z,CHURCHES,18181823,-98.4554155,29.3324775,CHRISTIAN,NOT AVAILABLE,NOT AVAILABLE,NOT AVAILABLE,N,Y
12264,10578124,BETHANY FIRST BAPTIST CHURCH,SAN ANTONIO,TX,78220,1520,BEXAR,48029,2009-05-07T00:00:00.000Z,ALT REF,2009-05-07T00:00:00.000Z,CHURCHES,18189806,-98.4182912,29.4238754,CHRISTIAN,BAPT,NOT AVAILABLE,NOT AVAILABLE,Y,N
12348,10575974,REDEEMING GRACE BAPTIST CHURCH,SAN ANTONIO,TX,78244,NULL,BEXAR,48029,2009-05-11T00:00:00.000Z,ALT REF,2009-05-11T00:00:00.000Z,CHURCHES,122476797,-98.3715343,29.4764384,CHRISTIAN,NOT AVAILABLE,NOT AVAILABLE,NOT AVAILABLE,Y,N
12349,10459223,BOYD CHAPEL AFRICAN METHODIST EPISCOPAL CHURCH,SAN ANTONIO,TX,78220,4228,BEXAR,48029,2008-03-04T00:00:00.000Z,ALT REF,2008-09-05T00:00:00.000Z,CHURCHES,18195727,-98.4323878,29.4101159,CHRISTIAN,AME,NOT AVAILABLE,NOT AVAILABLE,Y,N
12350,10456463,SAINT JOSEPH AFRICAN METHODIST EPISCOPAL CHURCH,SAN ANTONIO,TX,78203,1135,BEXAR,48029,2008-03-04T00:00:00.000Z,ALT REF,2008-09-05T00:00:00.000Z,CHURCHES,18192862,-98.4729077,29.4182533,CHRISTIAN,AME,NOT AVAILABLE,NOT AVAILABLE,Y,N
12352,10437976,NORTHERN HILLS UNITED METHODIST CHURCH,SAN ANTONIO,TX,78247,NULL,BEXAR,48029,2007-09-24T00:00:00.000Z,ALT REF,2008-09-05T00:00:00.000Z,CHURCHES,18225426,-98.4236887,29.6010367,CHRISTIAN,UMC,NOT AVAILABLE,NOT AVAILABLE,Y,N
12354,10432922,COMMUNITY BIBLE CHURCH,SAN ANTONIO,TX,78232,NULL,BEXAR,48029,2007-09-11T00:00:00.000Z,ALT REF,2008-09-05T00:00:00.000Z,CHURCHES,18249439,-98.4518723,29.6052943,CHRISTIAN,NONDENOM,NOT AVAILABLE,NOT AVAILABLE,Y,N
12355,10434034,THEO AVENUE BAPTIST CHURCH,SAN ANTONIO,TX,78214,1040,BEXAR,48029,2007-11-08T00:00:00.000Z,ALT REF,2008-09-05T00:00:00.000Z,CHURCHES,18198870,-98.5047462,29.3881874,CHRISTIAN,SBC,2505,NOT AVAILABLE,Y,N
12358,10444439,SAINT MARK THE EVANGELIST CATHOLIC CHURCH,SAN ANTONIO,TX,78232,2338,BEXAR,48029,2007-08-31T00:00:00.000Z,ALT REF,2008-09-05T00:00:00.000Z,CHURCHES,18247470,-98.468656,29.5918426,CHRISTIAN,NOT AVAILABLE,NOT AVAILABLE,NOT AVAILABLE,N,Y
12359,10444446,SAINT PHILIP OF JESUS CATHOLIC CHURCH,SAN ANTONIO,TX,78204,2224,BEXAR,48029,2007-08-31T00:00:00.000Z,ALT REF,2008-09-05T00:00:00.000Z,CHURCHES,18199014,-98.502451,29.4010242,CHRISTIAN,NOT AVAILABLE,NOT AVAILABLE,NOT AVAILABLE,N,Y
12360,10444413,OUR LADY OF SORROWS CATHOLIC CHURCH,SAN ANTONIO,TX,78212,3536,BEXAR,48029,2007-09-04T00:00:00.000Z,ALT REF,2008-09-05T00:00:00.000Z,CHURCHES,18191217,-98.4839177,29.453884,CHRISTIAN,NOT AVAILABLE,NOT AVAILABLE,NOT AVAILABLE,N,Y
12361,10432911,EAGLES NEST CHRISTIAN FELLOWSHIP,SAN ANTONIO,TX,78232,4337,BEXAR,48029,2007-09-10T00:00:00.000Z,ALT REF,2008-09-05T00:00:00.000Z,CHURCHES,18229870,-98.4813387,29.5696193,CHRISTIAN,COC,NOT AVAILABLE,NOT AVAILABLE,Y,N
12362,10433514,LIVE OAK FIRST BAPTIST CHURCH,SAN ANTONIO,TX,78233,3139,BEXAR,48029,2007-11-08T00:00:00.000Z,ALT REF,2008-09-05T00:00:00.000Z,CHURCHES,18233583,-98.3401651,29.5437446,CHRISTIAN,SBC,962,NOT AVAILABLE,Y,N
12366,10430257,CHABAD LUBAVITCH OF SOUTH TEXAS INCORPORATED,SAN ANTONIO,TX,78216,7857,BEXAR,48029,2007-08-07T00:00:00.000Z,ALT REF,2008-09-05T00:00:00.000Z,SYNAGOGUES,18228721,-98.5141501,29.5750196,JUDAIC,NOT AVAILABLE,NOT AVAILABLE,NOT AVAILABLE,N,N
12367,10432910,FAMILY PRAISE CENTER,SAN ANTONIO,TX,78238,NULL,BEXAR,48029,2007-09-11T00:00:00.000Z,ALT REF,2008-09-05T00:00:00.000Z,CHURCHES,18203769,-98.6061004,29.4785947,CHRISTIAN,NONDENOM,NOT AVAILABLE,NOT AVAILABLE,Y,N