OBJECTID,ID,NAME,CITY,STATE,ZIP,ZIPP4,COUNTY,FIPS,CONTDATE,CONTHOW,GEODATE,NAICSDESCR,GEOLINKID,X,Y,SUBTYPE,DENOM,MEMBERS,LOC_TYPE,PROT,CATH
5003,10430491,MASJID AL-ANSAR,SAN DIEGO,CA,92105,2115,SAN DIEGO,6073,2007-07-17T00:00:00.000Z,PHONE,2007-07-17T00:00:00.000Z,"MOSQUES, RELIGIOUS",24217940,-117.0882053,32.7498073,MUSLIM,NOT AVAILABLE,NOT AVAILABLE,NOT AVAILABLE,N,N
5016,10430593,ISLAMIC CENTER OF SAN DIEGO,SAN DIEGO,CA,92111,3400,SAN DIEGO,6073,2007-10-08T00:00:00.000Z,ALT REF,2007-10-08T00:00:00.000Z,"MOSQUES, RELIGIOUS",24277459,-117.1654269,32.8205896,MUSLIM,NOT AVAILABLE,NOT AVAILABLE,NOT AVAILABLE,N,N
5017,10685462,DHARMA BUM ZEN CENTER,SAN DIEGO,CA,92101,8499,SAN DIEGO,6073,2008-11-07T00:00:00.000Z,ALT REF,2008-11-07T00:00:00.000Z,PLACES OF WORSHIP,128837639,-117.162433,32.7107293,BUDDHIST,NON-SECTARIAN,NOT AVAILABLE,NOT AVAILABLE,N,N
5020,10685178,RED LOTUS SOCIETY,SAN DIEGO,CA,92101,6805,SAN DIEGO,6073,2008-11-07T00:00:00.000Z,ALT REF,2008-11-07T00:00:00.000Z,PLACES OF WORSHIP,24208258,-117.1624327,32.7107305,BUDDHIST,NON-SECTARIAN,NOT AVAILABLE,NOT AVAILABLE,N,N
5028,10431484,MASJID AL-RIBAT AL-ISLAMI,SAN DIEGO,CA,92115,1846,SAN DIEGO,6073,2007-10-04T00:00:00.000Z,ALT REF,2007-10-04T00:00:00.000Z,"MOSQUES, RELIGIOUS",24254679,-117.0433131,32.7707208,MUSLIM,NOT AVAILABLE,NOT AVAILABLE,NOT AVAILABLE,N,N
5039,10430446,AMERICAN ISLAMIC SERVICES FOUNDATION,SAN DIEGO,CA,92111,2261,SAN DIEGO,6073,2007-07-16T00:00:00.000Z,PHONE,2007-07-16T00:00:00.000Z,"MOSQUES, RELIGIOUS",24284190,-117.1580349,32.8221106,MUSLIM,NOT AVAILABLE,NOT AVAILABLE,NOT AVAILABLE,N,N
5111,10574853,MARION MEMORIAL AFRICAN METHODIST EPISCOPAL ZION CHURCH,SAN DIEGO,CA,92114,6726,SAN DIEGO,6073,2008-12-05T00:00:00.000Z,ALT REF,2008-12-05T00:00:00.000Z,CHURCHES,24215847,-117.0647935,32.6992022,CHRISTIAN,AMEZ,NOT AVAILABLE,NOT AVAILABLE,Y,N
5120,10460314,GRACE LUTHERAN CHURCH,SAN DIEGO,CA,92103,3501,SAN DIEGO,6073,2008-03-07T00:00:00.000Z,ALT REF,2008-03-07T00:00:00.000Z,CHURCHES,24284784,-117.1459551,32.7501528,CHRISTIAN,NOT AVAILABLE,NOT AVAILABLE,NOT AVAILABLE,Y,N
4041,10437774,FIRST UNITED METHODIST CHURCH OF SAN DIEGO,SAN DIEGO,CA,92108,3604,SAN DIEGO,6073,2007-09-24T00:00:00.000Z,ALT REF,2007-09-24T00:00:00.000Z,CHURCHES,135289212,-117.1425418,32.7670896,CHRISTIAN,UMC,NOT AVAILABLE,NOT AVAILABLE,Y,N
4050,10438375,FIRST PRESBYTERIAN CHURCH,SAN DIEGO,CA,92101,2610,SAN DIEGO,6073,2007-10-10T00:00:00.000Z,ALT REF,2007-10-10T00:00:00.000Z,CHURCHES,24210718,-117.1617896,32.7233752,CHRISTIAN,PCUSA,812,NOT AVAILABLE,Y,N
4140,10683730,RIGPA FELLOWSHIP,SAN DIEGO,CA,92121,2970,SAN DIEGO,6073,2008-10-31T00:00:00.000Z,ALT REF,2008-11-03T00:00:00.000Z,PLACES OF WORSHIP,24259993,-117.1824064,32.9038473,BUDDHIST,"VAJRAYANA, NYINGMA",NOT AVAILABLE,NOT AVAILABLE,N,N
4171,10574855,WINSTON CHAPEL AFRICAN METHODIST EPISCOPAL ZION CHURCH,SAN DIEGO,CA,92102,2535,SAN DIEGO,6073,2008-12-04T00:00:00.000Z,ALT REF,2008-12-04T00:00:00.000Z,CHURCHES,121230334,-117.0997901,32.7203644,CHRISTIAN,AMEZ,NOT AVAILABLE,NOT AVAILABLE,Y,N
4177,10576336,TRINITY FELLOWSHIP CHRISTIAN REFORMED CHURCH,SAN DIEGO,CA,92154,1740,SAN DIEGO,6073,2008-12-03T00:00:00.000Z,ALT REF,2008-12-03T00:00:00.000Z,CHURCHES,24201912,-117.0447691,32.5841643,CHRISTIAN,CRC,NOT AVAILABLE,NOT AVAILABLE,Y,N
4215,10447784,HOLY FAMILY CATHOLIC CHURCH,SAN DIEGO,CA,92111,7013,SAN DIEGO,6073,2008-11-10T00:00:00.000Z,ALT REF,2008-11-10T00:00:00.000Z,CHURCHES,24278730,-117.1699727,32.7805988,CHRISTIAN,NOT AVAILABLE,NOT AVAILABLE,NOT AVAILABLE,N,Y
4216,10447802,SAINT CHARLES BORROMEO CATHOLIC CHURCH,SAN DIEGO,CA,92110,4870,SAN DIEGO,6073,2008-11-07T00:00:00.000Z,ALT REF,2008-11-07T00:00:00.000Z,CHURCHES,24205736,-117.2083862,32.7430345,CHRISTIAN,NOT AVAILABLE,NOT AVAILABLE,NOT AVAILABLE,N,Y
4219,10447809,SAINT MICHAEL CHURCH,SAN DIEGO,CA,92139,2205,SAN DIEGO,6073,2008-11-07T00:00:00.000Z,ALT REF,2008-11-07T00:00:00.000Z,CHURCHES,24215192,-117.0558065,32.6737227,CHRISTIAN,NOT AVAILABLE,NOT AVAILABLE,NOT AVAILABLE,N,Y
4236,10584628,CANYON RIDGE BAPTIST CHURCH,SAN DIEGO,CA,92111,5703,SAN DIEGO,6073,2008-11-10T00:00:00.000Z,ALT REF,2008-11-10T00:00:00.000Z,CHURCHES,24594923,-117.1635012,32.8034638,CHRISTIAN,BAPT,NOT AVAILABLE,NOT AVAILABLE,Y,N
4259,10447810,SAINT RITAS CATHOLIC CHURCH,SAN DIEGO,CA,92114,3718,SAN DIEGO,6073,2008-11-07T00:00:00.000Z,ALT REF,2008-11-07T00:00:00.000Z,CHURCHES,24219440,-117.0842972,32.7044523,CHRISTIAN,NOT AVAILABLE,NOT AVAILABLE,NOT AVAILABLE,N,Y
4327,10759971,SAINT ANDREW LUTHERAN CHURCH,SAN DIEGO,CA,92119,3413,SAN DIEGO,6073,2008-11-10T00:00:00.000Z,ALT REF,2008-11-10T00:00:00.000Z,CHURCHES,24257054,-117.019771,32.7925914,CHRISTIAN,ELCA,NOT AVAILABLE,NOT AVAILABLE,Y,N
4328,10684091,BUDDHIST TEMPLE OF SAN DIEGO,SAN DIEGO,CA,92102,3227,SAN DIEGO,6073,2008-11-10T00:00:00.000Z,ALT REF,2008-11-10T00:00:00.000Z,"TEMPLES, RELIGIOUS",24208224,-117.1313862,32.7113693,BUDDHIST,JODO SHINSHU BUDDHISM,NOT AVAILABLE,NOT AVAILABLE,N,N
4329,10447779,SAINT JOSEPH CATHEDRAL,SAN DIEGO,CA,92101,3101,SAN DIEGO,6073,2008-11-10T00:00:00.000Z,ALT REF,2008-11-10T00:00:00.000Z,CHURCHES,24207622,-117.1615655,32.72116,CHRISTIAN,NOT AVAILABLE,NOT AVAILABLE,NOT AVAILABLE,N,Y
4330,10440317,ALL SOULS EPISCOPAL CHURCH,SAN DIEGO,CA,92107,3763,SAN DIEGO,6073,2008-11-10T00:00:00.000Z,ALT REF,2008-11-10T00:00:00.000Z,CHURCHES,724532330,-117.242584,32.7310673,CHRISTIAN,EPIS,NOT AVAILABLE,NOT AVAILABLE,Y,N
4331,10447798,SAINT ANNES CATHOLIC CHURCH,SAN DIEGO,CA,92113,2334,SAN DIEGO,6073,2008-11-10T00:00:00.000Z,ALT REF,2008-11-10T00:00:00.000Z,CHURCHES,24209651,-117.1353346,32.6990118,CHRISTIAN,NOT AVAILABLE,NOT AVAILABLE,NOT AVAILABLE,N,Y
4332,10445853,SAINT PATRICK CATHOLIC CHURCH,SAN DIEGO,CA,92104,4142,SAN DIEGO,6073,2008-11-10T00:00:00.000Z,ALT REF,2008-11-07T00:00:00.000Z,CHURCHES,24205860,-117.1296591,32.7440422,CHRISTIAN,NOT AVAILABLE,NOT AVAILABLE,NOT AVAILABLE,N,Y
4333,10584626,IGLESIA BAUTISTA LA PUERTA ABIERTA,SAN DIEGO,CA,92105,3612,SAN DIEGO,6073,2008-11-10T00:00:00.000Z,ALT REF,2008-11-10T00:00:00.000Z,CHURCHES,24217745,-117.0854309,32.7429912,CHRISTIAN,BAPT,NOT AVAILABLE,NOT AVAILABLE,Y,N
4334,10684040,DIAMOND WAY BUDDHIST CENTER,SAN DIEGO,CA,92122,4109,SAN DIEGO,6073,2008-11-10T00:00:00.000Z,ALT REF,2008-11-10T00:00:00.000Z,PLACES OF WORSHIP,24276436,-117.2256831,32.8407027,BUDDHIST,"TIBETAN, KARMA KAGYU",NOT AVAILABLE,NOT AVAILABLE,N,N
4335,10678092,SHIVA VISHNU TEMPLE,SAN DIEGO,CA,92126,6302,SAN DIEGO,6073,2008-11-10T00:00:00.000Z,ALT REF,2008-11-10T00:00:00.000Z,"TEMPLES, RELIGIOUS",24260994,-117.1486465,32.8952629,HINDU,NOT AVAILABLE,NOT AVAILABLE,NOT AVAILABLE,N,N
4337,10435685,PARADISE HILLS SOUTHERN BAPTIST CHURCH,SAN DIEGO,CA,92139,3117,SAN DIEGO,6073,2008-11-07T00:00:00.000Z,ALT REF,2008-11-07T00:00:00.000Z,CHURCHES,24214775,-117.0608203,32.6766477,CHRISTIAN,SBC,882,NOT AVAILABLE,Y,N
4340,10585412,MOUNT SINAI BAPTIST CHURCH,SAN DIEGO,CA,92102,3505,SAN DIEGO,6073,2008-11-07T00:00:00.000Z,ALT REF,2008-11-07T00:00:00.000Z,CHURCHES,24219014,-117.1057795,32.7161869,CHRISTIAN,ABC,NOT AVAILABLE,NOT AVAILABLE,Y,N
4342,10586044,UNIVERSITY AVENUE BAPTIST CHURCH,SAN DIEGO,CA,92115,6330,SAN DIEGO,6073,2008-11-07T00:00:00.000Z,ALT REF,2008-11-07T00:00:00.000Z,CHURCHES,128832484,-117.0663344,32.7527518,CHRISTIAN,ABC,NOT AVAILABLE,NOT AVAILABLE,Y,N
4366,10585909,INLAND VALLEY COMMUNITY CHURCH,SAN DIEGO,CA,92129,4413,SAN DIEGO,6073,2008-11-13T00:00:00.000Z,ALT REF,2008-11-20T00:00:00.000Z,CHURCHES,24261976,-117.141398,32.9662648,CHRISTIAN,ABC,NOT AVAILABLE,NOT AVAILABLE,Y,N
4531,10447782,CHRIST THE KING PARISH,SAN DIEGO,CA,92102,4301,SAN DIEGO,6073,2007-08-30T00:00:00.000Z,ALT REF,2007-08-30T00:00:00.000Z,CHURCHES,24220476,-117.1247923,32.7061926,CHRISTIAN,NOT AVAILABLE,NOT AVAILABLE,NOT AVAILABLE,N,Y
4532,10447786,THE IMMACULATA PARISH,SAN DIEGO,CA,92110,8001,SAN DIEGO,6073,2007-08-30T00:00:00.000Z,ALT REF,2007-08-30T00:00:00.000Z,CHURCHES,128810020,-117.1908961,32.7724152,CHRISTIAN,NOT AVAILABLE,NOT AVAILABLE,NOT AVAILABLE,N,Y
4533,10447796,SACRED HEART CATHOLIC CHURCH - OCEAN BEACH,SAN DIEGO,CA,92107,2250,SAN DIEGO,6073,2007-09-04T00:00:00.000Z,ALT REF,2007-08-30T00:00:00.000Z,CHURCHES,24210489,-117.2457321,32.7464323,CHRISTIAN,NOT AVAILABLE,NOT AVAILABLE,NOT AVAILABLE,N,Y
4534,10447807,SAINT JUDE SHRINE OF THE WEST,SAN DIEGO,CA,92113,3210,SAN DIEGO,6073,2007-08-30T00:00:00.000Z,ALT REF,2007-08-30T00:00:00.000Z,"SHRINES, RELIGIOUS",24219748,-117.1127578,32.6935888,CHRISTIAN,NOT AVAILABLE,NOT AVAILABLE,NOT AVAILABLE,N,Y
4535,10447812,SAN RAFAEL PARISH,SAN DIEGO,CA,92128,2004,SAN DIEGO,6073,2007-08-30T00:00:00.000Z,ALT REF,2007-08-30T00:00:00.000Z,CHURCHES,24236609,-117.0766236,33.0269705,CHRISTIAN,NOT AVAILABLE,NOT AVAILABLE,NOT AVAILABLE,N,Y
4560,10448576,DIOCESE OF SAN DIEGO,SAN DIEGO,CA,92117,5349,SAN DIEGO,6073,2007-08-30T00:00:00.000Z,ALT REF,2007-08-30T00:00:00.000Z,CHURCHES,24593466,-117.2134423,32.8119909,CHRISTIAN,NOT AVAILABLE,NOT AVAILABLE,NOT AVAILABLE,N,Y
4595,10460312,HARBOR PRESBYTERIAN CHURCH - CARMEL VALLEY,SAN DIEGO,CA,92130,1316,SAN DIEGO,6073,2008-03-07T00:00:00.000Z,ALT REF,2008-03-07T00:00:00.000Z,CHURCHES,24259424,-117.2250059,32.9576749,CHRISTIAN,PCA,NOT AVAILABLE,NOT AVAILABLE,Y,N
4599,10460323,NEW HOPE PRESBYTERIAN CHURCH,SAN DIEGO,CA,92124,1524,SAN DIEGO,6073,2008-03-10T00:00:00.000Z,ALT REF,2008-03-10T00:00:00.000Z,CHURCHES,24257210,-117.0864018,32.8306125,CHRISTIAN,PCA,NOT AVAILABLE,NOT AVAILABLE,Y,N
4612,10460313,HARBOR PRESBYTERIAN CHURCH - DOWNTOWN,SAN DIEGO,CA,92101,6917,SAN DIEGO,6073,2008-03-07T00:00:00.000Z,ALT REF,2008-03-07T00:00:00.000Z,CHURCHES,24210970,-117.159675,32.7128772,CHRISTIAN,PCA,NOT AVAILABLE,NOT AVAILABLE,Y,N
4699,10433041,ROCK CHURCH,SAN DIEGO,CA,92106,NULL,SAN DIEGO,6073,2007-09-11T00:00:00.000Z,ALT REF,2007-09-11T00:00:00.000Z,CHURCHES,128837349,-117.2192277,32.7357279,CHRISTIAN,NONDENOM,NOT AVAILABLE,NOT AVAILABLE,Y,N
4721,10448642,TRIDENTINE LATIN MASS CONGREGATION / HOLY CROSS CEMETERY CHAPEL,SAN DIEGO,CA,92102,3651,SAN DIEGO,6073,2007-09-04T00:00:00.000Z,ALT REF,2007-08-30T00:00:00.000Z,CHURCHES,24585737,-117.0981553,32.7184151,CHRISTIAN,NOT AVAILABLE,NOT AVAILABLE,NOT AVAILABLE,N,Y
4722,10459866,HARBOR PRESBYTERIAN CHURCH - MIRA MESA,SAN DIEGO,CA,92126,3275,SAN DIEGO,6073,2008-11-11T00:00:00.000Z,ALT REF,2008-11-11T00:00:00.000Z,CHURCHES,24260804,-117.1415571,32.9116598,CHRISTIAN,PCA,NOT AVAILABLE,NOT AVAILABLE,Y,N
4724,10457815,PAUL E KIDD AFRICAN METHODIST EPISCOPAL CHURCH,SAN DIEGO,CA,92111,6130,SAN DIEGO,6073,2008-11-07T00:00:00.000Z,ALT REF,2008-11-07T00:00:00.000Z,CHURCHES,24280187,-117.1671045,32.7898102,CHRISTIAN,AME,NOT AVAILABLE,NOT AVAILABLE,Y,N
4800,10429582,TIFERETH ISRAEL SYNAGOGUE,SAN DIEGO,CA,92119,1827,SAN DIEGO,6073,2007-07-30T00:00:00.000Z,PHONE,2007-07-30T00:00:00.000Z,SYNAGOGUES,24254173,-117.0250555,32.8051152,JUDAIC,NOT AVAILABLE,NOT AVAILABLE,NOT AVAILABLE,N,N
4801,10429583,CONGREGATION BETH AM,SAN DIEGO,CA,92130,1353,SAN DIEGO,6073,2007-07-30T00:00:00.000Z,PHONE,2007-07-30T00:00:00.000Z,SYNAGOGUES,117973843,-117.2080914,32.961372,JUDAIC,NOT AVAILABLE,NOT AVAILABLE,NOT AVAILABLE,N,N
4813,10427960,TEMPLE EMANU - EL,SAN DIEGO,CA,92120,4632,SAN DIEGO,6073,2007-07-27T00:00:00.000Z,PHONE,2007-07-27T00:00:00.000Z,SYNAGOGUES,24256664,-117.0633357,32.7825276,JUDAIC,REFORM,513,NOT AVAILABLE,N,N
4816,10428522,CHABAD OF DOWNTOWN SAN DIEGO,SAN DIEGO,CA,92101,6803,SAN DIEGO,6073,2007-07-26T00:00:00.000Z,PHONE,2007-07-25T00:00:00.000Z,SYNAGOGUES,24606532,-117.1621543,32.7102457,JUDAIC,CHABAD,NOT AVAILABLE,CHABAD,N,N
4873,10428973,CONGREGATION DOR HADASH,SAN DIEGO,CA,92111,1804,SAN DIEGO,6073,2007-07-27T00:00:00.000Z,PHONE,2007-07-27T00:00:00.000Z,SYNAGOGUES,24276969,-117.1462808,32.830222,JUDAIC,RECONSTRUCTIONIST,NOT AVAILABLE,NOT AVAILABLE,N,N
4882,10427677,CONGREGATION BETH ISRAEL,SAN DIEGO,CA,92122,1222,SAN DIEGO,6073,2007-07-27T00:00:00.000Z,PHONE,2007-07-27T00:00:00.000Z,SYNAGOGUES,135286975,-117.2065142,32.8708925,JUDAIC,REFORM,1493,NOT AVAILABLE,N,N
4930,10428730,CHABAD DEL MAR,SAN DIEGO,CA,92130,2478,SAN DIEGO,6073,2007-07-26T00:00:00.000Z,PHONE,2007-07-26T00:00:00.000Z,SYNAGOGUES,126531174,-117.2110044,32.9381509,JUDAIC,CHABAD,NOT AVAILABLE,CHABAD,N,N
4932,10428606,CHABAD - JEWISH STUDENT LIFE OF SAN DIEGO,SAN DIEGO,CA,92115,1429,SAN DIEGO,6073,2007-07-27T00:00:00.000Z,PHONE,2007-07-27T00:00:00.000Z,SYNAGOGUES,24255424,-117.0682531,32.7704261,JUDAIC,CHABAD,NOT AVAILABLE,CHABAD,N,N
4946,10428965,YOUNG ISRAEL OF SAN DIEGO,SAN DIEGO,CA,92119,1631,SAN DIEGO,6073,2007-07-26T00:00:00.000Z,PHONE,2007-07-26T00:00:00.000Z,SYNAGOGUES,128829120,-117.038311,32.8046455,JUDAIC,YOUNG ISRAEL,NOT AVAILABLE,NOT AVAILABLE,N,N
4974,10428879,CHABAD CENTER OF UNIVERSITY CITY,SAN DIEGO,CA,92122,2440,SAN DIEGO,6073,2007-07-25T00:00:00.000Z,PHONE,2007-07-25T00:00:00.000Z,SYNAGOGUES,128827051,-117.2056307,32.854278,JUDAIC,CHABAD,NOT AVAILABLE,CHABAD,N,N
4975,10428878,CHABAD OF SAN DIEGO,SAN DIEGO,CA,92131,1838,SAN DIEGO,6073,2007-07-25T00:00:00.000Z,PHONE,2007-07-25T00:00:00.000Z,SYNAGOGUES,24274655,-117.0870121,32.9004998,JUDAIC,CHABAD,NOT AVAILABLE,CHABAD,N,N
4978,10429125,OHR SHALOM SYNAGOGUE,SAN DIEGO,CA,92103,6511,SAN DIEGO,6073,2007-07-25T00:00:00.000Z,PHONE,2007-07-25T00:00:00.000Z,SYNAGOGUES,24206851,-117.1624095,32.7316274,JUDAIC,NOT AVAILABLE,NOT AVAILABLE,NOT AVAILABLE,N,N
4983,10429126,BETH JACOB CONGREGATION,SAN DIEGO,CA,92115,3908,SAN DIEGO,6073,2007-07-25T00:00:00.000Z,PHONE,2007-07-25T00:00:00.000Z,SYNAGOGUES,24253602,-117.0666622,32.7661077,JUDAIC,ORTHODOX,NOT AVAILABLE,NOT AVAILABLE,N,N
4990,10428462,CHABAD AT UNIVERSITY OF CALIFORNIA SAN DIEGO,SAN DIEGO,CA,92122,4574,SAN DIEGO,6073,2007-07-25T00:00:00.000Z,PHONE,2007-07-25T00:00:00.000Z,SYNAGOGUES,24279178,-117.2265745,32.8672997,JUDAIC,CHABAD,NOT AVAILABLE,CHABAD,N,N
3297,10585746,EAST VILLAGE COMMUNITY CHURCH,SAN DIEGO,CA,92101,7515,SAN DIEGO,6073,2008-11-04T00:00:00.000Z,ALT REF,2008-11-04T00:00:00.000Z,CHURCHES,24208278,-117.1523278,32.7106925,CHRISTIAN,ABC,NOT AVAILABLE,NOT AVAILABLE,Y,N
3331,10435505,FIRST BAPTIST CHURCH OF MIRA MESA,SAN DIEGO,CA,92126,2831,SAN DIEGO,6073,2008-11-05T00:00:00.000Z,ALT REF,2008-11-05T00:00:00.000Z,CHURCHES,24260767,-117.1273154,32.9162682,CHRISTIAN,SBC,1364,NOT AVAILABLE,Y,N
3332,10433047,BAYVIEW BAPTIST CHURCH,SAN DIEGO,CA,92114,4204,SAN DIEGO,6073,2008-11-05T00:00:00.000Z,ALT REF,2008-11-05T00:00:00.000Z,CHURCHES,24220139,-117.0660824,32.7055027,CHRISTIAN,BAPT,NOT AVAILABLE,NOT AVAILABLE,Y,N
3333,10684457,HSI FANG TEMPLE,SAN DIEGO,CA,92116,2643,SAN DIEGO,6073,2008-11-06T00:00:00.000Z,ALT REF,2008-11-06T00:00:00.000Z,"TEMPLES, RELIGIOUS",24282717,-117.1465627,32.7599054,BUDDHIST,"MAHAYANA, HUMANISTIC BUDDHISM",NOT AVAILABLE,NOT AVAILABLE,N,N
3334,10447787,IMMACULATE CONCEPTION CHURCH,SAN DIEGO,CA,92110,2840,SAN DIEGO,6073,2008-11-06T00:00:00.000Z,ALT REF,2008-11-06T00:00:00.000Z,CHURCHES,727358070,-117.1951088,32.7532862,CHRISTIAN,NOT AVAILABLE,NOT AVAILABLE,NOT AVAILABLE,N,Y
3340,10447789,OUR LADY OF ANGELS PARISH,SAN DIEGO,CA,92102,2911,SAN DIEGO,6073,2008-11-06T00:00:00.000Z,ALT REF,2008-11-06T00:00:00.000Z,CHURCHES,24209711,-117.1428278,32.7124771,CHRISTIAN,NOT AVAILABLE,NOT AVAILABLE,NOT AVAILABLE,N,Y
3341,10574852,LOGAN TEMPLE AFRICAN METHODIST EPISCOPAL ZION CHURCH,SAN DIEGO,CA,92113,1421,SAN DIEGO,6073,2008-11-05T00:00:00.000Z,ALT REF,2008-11-05T00:00:00.000Z,CHURCHES,24220064,-117.1254671,32.7030389,CHRISTIAN,AMEZ,NOT AVAILABLE,NOT AVAILABLE,Y,N
3342,10585960,NORTH PARK BAPTIST CHURCH,SAN DIEGO,CA,92104,3710,SAN DIEGO,6073,2008-11-06T00:00:00.000Z,ALT REF,2008-11-06T00:00:00.000Z,CHURCHES,24218558,-117.1241717,32.7476503,CHRISTIAN,ABC,NOT AVAILABLE,NOT AVAILABLE,Y,N
3343,10585925,SECOND BAPTIST CHURCH,SAN DIEGO,CA,92111,5707,SAN DIEGO,6073,2008-11-06T00:00:00.000Z,ALT REF,2008-11-06T00:00:00.000Z,CHURCHES,24278441,-117.1665327,32.7934763,CHRISTIAN,ABC,NOT AVAILABLE,NOT AVAILABLE,Y,N
3344,10441280,HOLY TRINITY EPISCOPAL CHURCH,SAN DIEGO,CA,92107,2535,SAN DIEGO,6073,2008-11-06T00:00:00.000Z,ALT REF,2008-11-06T00:00:00.000Z,CHURCHES,24210464,-117.2446185,32.7477912,CHRISTIAN,EPIS,NOT AVAILABLE,NOT AVAILABLE,Y,N
3345,10436300,NEW HOPE FRIENDSHIP BAPTIST CHURCH,SAN DIEGO,CA,92113,2321,SAN DIEGO,6073,2008-11-06T00:00:00.000Z,ALT REF,2008-11-06T00:00:00.000Z,CHURCHES,24208735,-117.1361688,32.7009418,CHRISTIAN,SBC,750,NOT AVAILABLE,Y,N
3346,10433042,COLLEGE AVENUE BAPTIST CHURCH,SAN DIEGO,CA,92115,3906,SAN DIEGO,6073,2008-11-05T00:00:00.000Z,ALT REF,2008-11-05T00:00:00.000Z,CHURCHES,24252194,-117.066304,32.7637956,CHRISTIAN,BGC,NOT AVAILABLE,NOT AVAILABLE,Y,N
3347,10441278,GOOD SAMARITAN EPISCOPAL CHURCH,SAN DIEGO,CA,92121,2102,SAN DIEGO,6073,2008-11-06T00:00:00.000Z,ALT REF,2008-11-06T00:00:00.000Z,CHURCHES,24260084,-117.2134305,32.8771437,CHRISTIAN,EPIS,NOT AVAILABLE,NOT AVAILABLE,Y,N
3349,10457762,GOOD SHEPHERD AFRICAN METHODIST EPISCOPAL CHURCH,SAN DIEGO,CA,92115,6341,SAN DIEGO,6073,2008-11-06T00:00:00.000Z,ALT REF,2008-11-06T00:00:00.000Z,CHURCHES,24254920,-117.0660232,32.7518911,CHRISTIAN,AME,NOT AVAILABLE,NOT AVAILABLE,Y,N
3350,10447785,HOLY SPIRIT CATHOLIC CHURCH,SAN DIEGO,CA,92105,5043,SAN DIEGO,6073,2008-11-06T00:00:00.000Z,ALT REF,2008-11-06T00:00:00.000Z,CHURCHES,24217798,-117.0769142,32.7343762,CHRISTIAN,NOT AVAILABLE,NOT AVAILABLE,NOT AVAILABLE,N,Y
3353,10441283,ALL SAINTS CHURCH,SAN DIEGO,CA,92103,4321,SAN DIEGO,6073,2008-11-05T00:00:00.000Z,ALT REF,2008-11-05T00:00:00.000Z,CHURCHES,24205610,-117.1592491,32.7450067,CHRISTIAN,EPIS,NOT AVAILABLE,NOT AVAILABLE,Y,N
3354,10586019,SAINT PAUL BAPTIST CHURCH,SAN DIEGO,CA,92114,3009,SAN DIEGO,6073,2008-11-04T00:00:00.000Z,ALT REF,2008-11-04T00:00:00.000Z,CHURCHES,28479355,-117.043963,32.7109872,CHRISTIAN,ABC,NOT AVAILABLE,NOT AVAILABLE,Y,N
3363,10585701,BETHEL BAPTIST CHURCH,SAN DIEGO,CA,92105,5331,SAN DIEGO,6073,2008-11-05T00:00:00.000Z,ALT REF,2008-11-05T00:00:00.000Z,CHURCHES,24218295,-117.0863763,32.726873,CHRISTIAN,ABC,NOT AVAILABLE,NOT AVAILABLE,Y,N
3364,10452908,BETHEL BAPTIST CHURCH,SAN DIEGO,CA,92113,1322,SAN DIEGO,6073,2008-11-05T00:00:00.000Z,ALT REF,2008-11-05T00:00:00.000Z,CHURCHES,24208627,-117.1318942,32.7029777,CHRISTIAN,NBC,NOT AVAILABLE,NOT AVAILABLE,Y,N
3365,10457701,BETHEL MEMORIAL AFRICAN METHODIST EPISCOPAL CHURCH,SAN DIEGO,CA,92102,4147,SAN DIEGO,6073,2008-11-05T00:00:00.000Z,ALT REF,2008-11-05T00:00:00.000Z,CHURCHES,24208395,-117.1275543,32.7081736,CHRISTIAN,AME,NOT AVAILABLE,NOT AVAILABLE,Y,N
3366,10585758,COMMUNITY CHRISTIAN CHURCH,SAN DIEGO,CA,92105,1610,SAN DIEGO,6073,2008-11-05T00:00:00.000Z,ALT REF,2008-11-05T00:00:00.000Z,CHURCHES,24252918,-117.1010883,32.7515676,CHRISTIAN,ABC,NOT AVAILABLE,NOT AVAILABLE,Y,N
3382,10447783,GOOD SHEPHERD PARISH,SAN DIEGO,CA,92126,3669,SAN DIEGO,6073,2008-11-06T00:00:00.000Z,ALT REF,2008-11-06T00:00:00.000Z,CHURCHES,24261201,-117.1469813,32.9063234,CHRISTIAN,NOT AVAILABLE,NOT AVAILABLE,NOT AVAILABLE,N,Y
3383,10447780,ASCENSION CATHOLIC PARISH,SAN DIEGO,CA,92124,1524,SAN DIEGO,6073,2008-11-05T00:00:00.000Z,ALT REF,2008-11-05T00:00:00.000Z,CHURCHES,24257210,-117.0844625,32.8290999,CHRISTIAN,NOT AVAILABLE,NOT AVAILABLE,NOT AVAILABLE,N,Y
3384,10447781,BLESSED SACRAMENT CATHOLIC CHURCH,SAN DIEGO,CA,92115,3701,SAN DIEGO,6073,2008-11-05T00:00:00.000Z,ALT REF,2008-11-05T00:00:00.000Z,CHURCHES,24253892,-117.0741918,32.7587908,CHRISTIAN,NOT AVAILABLE,NOT AVAILABLE,NOT AVAILABLE,N,Y
3397,10574854,SAINT JAMES AFRICAN METHODIST EPISCOPAL ZION CHURCH,SAN DIEGO,CA,92113,1325,SAN DIEGO,6073,2008-12-01T00:00:00.000Z,ALT REF,2008-12-05T00:00:00.000Z,CHURCHES,24208628,-117.1302011,32.703489,CHRISTIAN,AMEZ,NOT AVAILABLE,NOT AVAILABLE,Y,N
3440,10433045,MARANATHA CHAPEL,SAN DIEGO,CA,92127,2400,SAN DIEGO,6073,2008-11-05T00:00:00.000Z,ALT REF,2008-11-05T00:00:00.000Z,CHURCHES,24236391,-117.103672,33.0204586,CHRISTIAN,CAL,NOT AVAILABLE,NOT AVAILABLE,Y,N
3441,10433044,HORIZON CHRISTIAN FELLOWSHIP,SAN DIEGO,CA,92111,2622,SAN DIEGO,6073,2008-11-06T00:00:00.000Z,ALT REF,2008-11-06T00:00:00.000Z,CHURCHES,24279946,-117.1812724,32.8164429,CHRISTIAN,CAL,NOT AVAILABLE,NOT AVAILABLE,Y,N
3443,10576335,SAN DIEGO CHRISTIAN REFORMED CHURCH,SAN DIEGO,CA,92115,2907,SAN DIEGO,6073,2008-11-05T00:00:00.000Z,ALT REF,2008-11-05T00:00:00.000Z,CHURCHES,24252016,-117.0527845,32.7671466,CHRISTIAN,CRC,NOT AVAILABLE,NOT AVAILABLE,Y,N
3453,10684992,SAN DIEGO BUDDHIST MILITARY FELLOWSHIP-DOD,SAN DIEGO,CA,92136,5062,SAN DIEGO,6073,2008-10-29T00:00:00.000Z,ALT REF,2008-11-07T00:00:00.000Z,PLACES OF WORSHIP,24584862,-117.1250732,32.6837909,BUDDHIST,NON-SECTARIAN,NOT AVAILABLE,NOT AVAILABLE,N,N
3461,10441608,SAINT TIMOTHYS EPISCOPAL CHURCH,SAN DIEGO,CA,92129,4000,SAN DIEGO,6073,2008-11-07T00:00:00.000Z,ALT REF,2008-11-07T00:00:00.000Z,CHURCHES,24273583,-117.1067926,32.9593664,CHRISTIAN,EPIS,NOT AVAILABLE,NOT AVAILABLE,Y,N
3466,10447790,OUR LADY OF GUADALUPE,SAN DIEGO,CA,92113,1128,SAN DIEGO,6073,2008-11-07T00:00:00.000Z,ALT REF,2008-11-07T00:00:00.000Z,CHURCHES,128834108,-117.145602,32.7040993,CHRISTIAN,NOT AVAILABLE,NOT AVAILABLE,NOT AVAILABLE,N,Y
3468,10441279,SAINT LUKE EPISCOPAL CHURCH,SAN DIEGO,CA,92104,3607,SAN DIEGO,6073,2008-11-07T00:00:00.000Z,ALT REF,2008-11-07T00:00:00.000Z,CHURCHES,24205618,-117.1297694,32.745819,CHRISTIAN,EPIS,NOT AVAILABLE,NOT AVAILABLE,Y,N
3469,10441282,SAINT MARKS CITY HEIGHTS,SAN DIEGO,CA,92105,1243,SAN DIEGO,6073,2008-11-07T00:00:00.000Z,ALT REF,2008-11-07T00:00:00.000Z,CHURCHES,128830790,-117.1005792,32.7536769,CHRISTIAN,EPIS,NOT AVAILABLE,NOT AVAILABLE,Y,N
3475,10585837,OCEAN BEACH FIRST BAPTIST CHURCH,SAN DIEGO,CA,92107,2209,SAN DIEGO,6073,2008-11-05T00:00:00.000Z,ALT REF,2008-11-04T00:00:00.000Z,CHURCHES,24210500,-117.2464211,32.7456485,CHRISTIAN,ABC,NOT AVAILABLE,NOT AVAILABLE,Y,N
3497,10447806,SAINT JOHN THE EVANGELIST CATHOLIC CHURCH,SAN DIEGO,CA,92103,2622,SAN DIEGO,6073,2008-11-07T00:00:00.000Z,ALT REF,2008-11-07T00:00:00.000Z,CHURCHES,24284760,-117.1470742,32.7528575,CHRISTIAN,NOT AVAILABLE,NOT AVAILABLE,NOT AVAILABLE,N,Y
3505,10430542,MUSLIM COMMUNITY CENTER OF GREATER SAN DIEGO,SAN DIEGO,CA,92129,2938,SAN DIEGO,6073,2008-11-07T00:00:00.000Z,ALT REF,2008-11-07T00:00:00.000Z,"MOSQUES, RELIGIOUS",24275029,-117.1081778,32.9495699,MUSLIM,NOT AVAILABLE,NOT AVAILABLE,NOT AVAILABLE,N,N
3513,10442372,SAINT JEROME CATHOLIC CHURCH,SAN DIEGO,CA,92154,1502,SAN DIEGO,6073,2008-11-07T00:00:00.000Z,ALT REF,2008-11-07T00:00:00.000Z,CHURCHES,24204961,-117.0730235,32.5827467,CHRISTIAN,NOT AVAILABLE,NOT AVAILABLE,NOT AVAILABLE,N,Y
3620,10433046,RANCHO BERNARDO COMMUNITY PRESBYTERIAN CHURCH,SAN DIEGO,CA,92128,2362,SAN DIEGO,6073,2007-09-11T00:00:00.000Z,ALT REF,2007-09-11T00:00:00.000Z,CHURCHES,24235754,-117.061458,33.020005,CHRISTIAN,PCUSA,NOT AVAILABLE,NOT AVAILABLE,Y,N
3634,10433279,PENASQUITOS LUTHERAN CHURCH,SAN DIEGO,CA,92129,1604,SAN DIEGO,6073,2007-09-17T00:00:00.000Z,ALT REF,2007-09-17T00:00:00.000Z,CHURCHES,24273349,-117.0927342,32.9784336,CHRISTIAN,ELCA,NOT AVAILABLE,NOT AVAILABLE,Y,N
3699,10430543,AFGHAN COMMUNITY ISLAMIC CENTER,SAN DIEGO,CA,92126,4202,SAN DIEGO,6073,2008-11-12T00:00:00.000Z,ALT REF,2008-11-12T00:00:00.000Z,"MOSQUES, RELIGIOUS",24260094,-117.1531291,32.8844772,MUSLIM,NOT AVAILABLE,NOT AVAILABLE,NOT AVAILABLE,N,N
3700,10585982,FIRST MEXICAN BAPTIST CHURCH,SAN DIEGO,CA,92113,4012,SAN DIEGO,6073,2008-11-12T00:00:00.000Z,ALT REF,2008-11-12T00:00:00.000Z,CHURCHES,24219781,-117.1069801,32.6874826,CHRISTIAN,ABC,NOT AVAILABLE,NOT AVAILABLE,Y,N
3701,10684993,SAN DIEGO SHAMBHALA MEDITATION GROUP,SAN DIEGO,CA,92104,2008,SAN DIEGO,6073,2008-11-12T00:00:00.000Z,ALT REF,2008-11-12T00:00:00.000Z,PLACES OF WORSHIP,24205245,-117.1263178,32.7482928,BUDDHIST,"MAHAYANA, TIBETAN, KAGYU LINEAGE",NOT AVAILABLE,NOT AVAILABLE,N,N
3710,10677815,SHREE MANDIR,SAN DIEGO,CA,92126,4518,SAN DIEGO,6073,2008-11-12T00:00:00.000Z,ALT REF,2008-11-12T00:00:00.000Z,"TEMPLES, RELIGIOUS",24273977,-117.12415,32.8950402,HINDU,NOT AVAILABLE,NOT AVAILABLE,NOT AVAILABLE,N,N
3711,10431751,MASJID AL-NUR,SAN DIEGO,CA,92105,3005,SAN DIEGO,6073,2008-11-12T00:00:00.000Z,ALT REF,2008-11-12T00:00:00.000Z,"MOSQUES, RELIGIOUS",24217726,-117.0872962,32.7489003,MUSLIM,NOT AVAILABLE,NOT AVAILABLE,NOT AVAILABLE,N,N
3715,10685327,WAT LAO NAVARAM BUDDHIST MONASTERY,SAN DIEGO,CA,92111,5932,SAN DIEGO,6073,2008-11-10T00:00:00.000Z,ALT REF,2008-11-10T00:00:00.000Z,MONASTERIES (EXCEPT SCHOOLS),24278580,-117.1752065,32.7879803,BUDDHIST,"THERAVADA, LAOTIAN",NOT AVAILABLE,NOT AVAILABLE,N,N
3721,10447801,SAINT CHARLES CHURCH,SAN DIEGO,CA,92154,2001,SAN DIEGO,6073,2008-11-11T00:00:00.000Z,ALT REF,2008-11-11T00:00:00.000Z,CHURCHES,24203189,-117.0933287,32.5787054,CHRISTIAN,NOT AVAILABLE,NOT AVAILABLE,NOT AVAILABLE,N,Y
3732,10431778,MASJID HAMZA,SAN DIEGO,CA,92126,4589,SAN DIEGO,6073,2008-11-12T00:00:00.000Z,ALT REF,2008-11-12T00:00:00.000Z,"MOSQUES, RELIGIOUS",24273977,-117.12393,32.8955548,MUSLIM,NOT AVAILABLE,NOT AVAILABLE,NOT AVAILABLE,N,N
3736,10584627,BIBLE BELIEVERS BAPTIST CHURCH,SAN DIEGO,CA,92111,4505,SAN DIEGO,6073,2008-11-10T00:00:00.000Z,ALT REF,2008-11-10T00:00:00.000Z,CHURCHES,24278161,-117.1846747,32.8040809,CHRISTIAN,BAPT,NOT AVAILABLE,NOT AVAILABLE,Y,N
3739,10447799,SAINT BRIGID ROMAN CATHOLIC CHURCH,SAN DIEGO,CA,92109,2602,SAN DIEGO,6073,2008-11-12T00:00:00.000Z,ALT REF,2008-11-12T00:00:00.000Z,CHURCHES,24281105,-117.2524216,32.8005387,CHRISTIAN,NOT AVAILABLE,NOT AVAILABLE,NOT AVAILABLE,N,Y
3740,10440196,SAINT DUNSTANS EPISCOPAL CHURCH,SAN DIEGO,CA,92120,3236,SAN DIEGO,6073,2008-11-10T00:00:00.000Z,ALT REF,2008-11-10T00:00:00.000Z,CHURCHES,24256781,-117.0496407,32.7960511,CHRISTIAN,EPIS,NOT AVAILABLE,NOT AVAILABLE,Y,N
3741,10447794,OUR LADY OF THE SACRED HEART CATHOLIC CHURCH,SAN DIEGO,CA,92105,1412,SAN DIEGO,6073,2008-11-11T00:00:00.000Z,ALT REF,2008-11-11T00:00:00.000Z,CHURCHES,24252906,-117.1052422,32.7530268,CHRISTIAN,NOT AVAILABLE,NOT AVAILABLE,NOT AVAILABLE,N,Y
3742,10441281,SAINT ANDREWS BY THE SEA EPISCOPAL CHURCH,SAN DIEGO,CA,92109,4161,SAN DIEGO,6073,2008-11-11T00:00:00.000Z,ALT REF,2008-11-10T00:00:00.000Z,CHURCHES,24281230,-117.2502408,32.7948808,CHRISTIAN,EPIS,NOT AVAILABLE,NOT AVAILABLE,Y,N
3743,10447808,SAINT MAXIMILLIAN KOLBE POLISH MISSION,SAN DIEGO,CA,92109,4415,SAN DIEGO,6073,2008-11-11T00:00:00.000Z,ALT REF,2008-11-11T00:00:00.000Z,CHURCHES,24284312,-117.2373114,32.7981966,CHRISTIAN,NOT AVAILABLE,NOT AVAILABLE,NOT AVAILABLE,N,Y
3745,10447797,SAINT AGNES CATHOLIC CHURCH,SAN DIEGO,CA,92106,2533,SAN DIEGO,6073,2008-11-12T00:00:00.000Z,ALT REF,2008-11-12T00:00:00.000Z,CHURCHES,24207446,-117.2337603,32.7231916,CHRISTIAN,NOT AVAILABLE,NOT AVAILABLE,NOT AVAILABLE,N,Y
3750,10430583,MASJIDUL TAQWA,SAN DIEGO,CA,92102,3918,SAN DIEGO,6073,2008-11-12T00:00:00.000Z,ALT REF,2008-11-12T00:00:00.000Z,"MOSQUES, RELIGIOUS",24209688,-117.1384619,32.7060525,MUSLIM,NOT AVAILABLE,NOT AVAILABLE,NOT AVAILABLE,N,N
3753,10579163,MIRA MESA BIBLE BAPTIST CHURCH,SAN DIEGO,CA,92131,1080,SAN DIEGO,6073,2008-11-11T00:00:00.000Z,ALT REF,2008-11-11T00:00:00.000Z,CHURCHES,24274508,-117.111994,32.9115541,CHRISTIAN,BAPT,NOT AVAILABLE,NOT AVAILABLE,Y,N
3754,10454411,PILGRIM PROGRESSIVE BAPTIST CHURCH,SAN DIEGO,CA,92102,2631,SAN DIEGO,6073,2008-11-11T00:00:00.000Z,ALT REF,2008-11-11T00:00:00.000Z,CHURCHES,24219388,-117.0878463,32.7184546,CHRISTIAN,NBC,NOT AVAILABLE,NOT AVAILABLE,Y,N
3755,10445809,SAINT VINCENT DE PAUL CATHOLIC CHURCH,SAN DIEGO,CA,92103,1823,SAN DIEGO,6073,2008-11-11T00:00:00.000Z,ALT REF,2008-11-11T00:00:00.000Z,CHURCHES,24284863,-117.1726732,32.7515135,CHRISTIAN,NOT AVAILABLE,NOT AVAILABLE,NOT AVAILABLE,N,Y
3758,10762415,POINT LOMA COMMUNITY PRESBYTERIAN CHURCH,SAN DIEGO,CA,92107,2404,SAN DIEGO,6073,2008-11-11T00:00:00.000Z,ALT REF,2008-11-11T00:00:00.000Z,CHURCHES,128794330,-117.2294259,32.7388875,CHRISTIAN,PCUSA,1329,NOT AVAILABLE,Y,N
3765,10447804,SAINT DIDACUS CATHOLIC CHURCH,SAN DIEGO,CA,92116,1824,SAN DIEGO,6073,2008-11-11T00:00:00.000Z,ALT REF,2008-11-11T00:00:00.000Z,CHURCHES,24252129,-117.1221107,32.7652823,CHRISTIAN,NOT AVAILABLE,NOT AVAILABLE,NOT AVAILABLE,N,Y
3766,10447803,SAINT COLUMBIA CATHOLIC CHURCH,SAN DIEGO,CA,92123,2369,SAN DIEGO,6073,2008-11-11T00:00:00.000Z,ALT REF,2008-11-11T00:00:00.000Z,CHURCHES,24284547,-117.1340603,32.8041574,CHRISTIAN,NOT AVAILABLE,NOT AVAILABLE,NOT AVAILABLE,N,Y
3767,10447792,OUR LADY OF REFUGE CATHOLIC CHURCH,SAN DIEGO,CA,92109,5406,SAN DIEGO,6073,2008-11-11T00:00:00.000Z,ALT REF,2008-11-11T00:00:00.000Z,CHURCHES,24281218,-117.2378426,32.7955556,CHRISTIAN,NOT AVAILABLE,NOT AVAILABLE,NOT AVAILABLE,N,Y
3769,10447793,OUR LADY OF THE ROSARY CATHOLIC CHURCH,SAN DIEGO,CA,92101,2501,SAN DIEGO,6073,2008-11-11T00:00:00.000Z,ALT REF,2008-11-11T00:00:00.000Z,CHURCHES,24207547,-117.1668357,32.7228189,CHRISTIAN,NOT AVAILABLE,NOT AVAILABLE,NOT AVAILABLE,N,Y
3770,10430565,MUHAMMAD MOSQUE NUMBER 8,SAN DIEGO,CA,92102,4128,SAN DIEGO,6073,2008-11-11T00:00:00.000Z,ALT REF,2008-11-11T00:00:00.000Z,"MOSQUES, RELIGIOUS",24208490,-117.1286939,32.706648,MUSLIM,NOT AVAILABLE,NOT AVAILABLE,NOT AVAILABLE,N,N
3771,10443030,CHURCH OF SAINT MARY MAGDALENE,SAN DIEGO,CA,92110,1316,SAN DIEGO,6073,2008-11-11T00:00:00.000Z,ALT REF,2008-11-11T00:00:00.000Z,CHURCHES,24282209,-117.1988205,32.7807985,CHRISTIAN,NOT AVAILABLE,NOT AVAILABLE,NOT AVAILABLE,N,Y
3774,10585776,FIRST BAPTIST CHURCH OF SAN DIEGO,SAN DIEGO,CA,92122,2845,SAN DIEGO,6073,2008-11-13T00:00:00.000Z,ALT REF,2008-11-13T00:00:00.000Z,CHURCHES,128827047,-117.1874779,32.854027,CHRISTIAN,ABC,NOT AVAILABLE,NOT AVAILABLE,Y,N
3776,10440331,SAINT ELIZABETHS EPISCOPAL CHURCH,SAN DIEGO,CA,92111,5716,SAN DIEGO,6073,2008-11-13T00:00:00.000Z,ALT REF,2008-11-18T00:00:00.000Z,CHURCHES,24278372,-117.1647953,32.7960252,CHRISTIAN,EPIS,NOT AVAILABLE,NOT AVAILABLE,Y,N
3781,10448370,HOLY ANGELS BYZANTINE CATHOLIC CHURCH,SAN DIEGO,CA,92123,3931,SAN DIEGO,6073,2008-11-13T00:00:00.000Z,ALT REF,2008-11-13T00:00:00.000Z,CHURCHES,24278644,-117.1419057,32.7848572,CHRISTIAN,NOT AVAILABLE,NOT AVAILABLE,NOT AVAILABLE,N,Y
3784,10447788,MISSION BASILICA SAN DIEGO DE ALCALA,SAN DIEGO,CA,92108,2429,SAN DIEGO,6073,2008-11-11T00:00:00.000Z,ALT REF,2008-11-11T00:00:00.000Z,CHURCHES,121227771,-117.1062853,32.7847006,CHRISTIAN,NOT AVAILABLE,NOT AVAILABLE,NOT AVAILABLE,N,Y
3789,10447791,OUR LADY OF MOUNT CARMEL CHURCH,SAN DIEGO,CA,92129,2050,SAN DIEGO,6073,2008-11-11T00:00:00.000Z,ALT REF,2008-11-11T00:00:00.000Z,CHURCHES,24273518,-117.1020223,32.9648745,CHRISTIAN,NOT AVAILABLE,NOT AVAILABLE,NOT AVAILABLE,N,Y
3791,10447795,OUR MOTHER OF CONFIDENCE CATHOLIC CHURCH,SAN DIEGO,CA,92122,2229,SAN DIEGO,6073,2008-11-11T00:00:00.000Z,ALT REF,2008-11-11T00:00:00.000Z,CHURCHES,24279702,-117.2179433,32.850492,CHRISTIAN,NOT AVAILABLE,NOT AVAILABLE,NOT AVAILABLE,N,Y
3792,10447800,SAINT CATHERINE LABOURE CATHOLIC CHURCH,SAN DIEGO,CA,92111,3112,SAN DIEGO,6073,2008-11-11T00:00:00.000Z,ALT REF,2008-11-11T00:00:00.000Z,CHURCHES,24277600,-117.1764742,32.8178771,CHRISTIAN,NOT AVAILABLE,NOT AVAILABLE,NOT AVAILABLE,N,Y
3793,10441277,SAINT DAVIDS EPISCOPAL CHURCH,SAN DIEGO,CA,92110,1250,SAN DIEGO,6073,2008-11-10T00:00:00.000Z,ALT REF,2008-11-10T00:00:00.000Z,CHURCHES,24282137,-117.1897339,32.783434,CHRISTIAN,EPIS,NOT AVAILABLE,NOT AVAILABLE,Y,N
3810,10447805,SAINT GREGORY THE GREAT CATHOLIC CHURCH,SAN DIEGO,CA,92131,3772,SAN DIEGO,6073,2008-11-11T00:00:00.000Z,ALT REF,2008-11-11T00:00:00.000Z,CHURCHES,24602296,-117.0779037,32.9274426,CHRISTIAN,NOT AVAILABLE,NOT AVAILABLE,NOT AVAILABLE,N,Y
3828,10447811,SAINT THERESE CHURCH,SAN DIEGO,CA,92120,3033,SAN DIEGO,6073,2008-11-12T00:00:00.000Z,ALT REF,2008-11-07T00:00:00.000Z,CHURCHES,24254302,-117.0661085,32.7939041,CHRISTIAN,NOT AVAILABLE,NOT AVAILABLE,NOT AVAILABLE,N,Y
3830,10433043,SAN DIEGO CHURCH OF CHRIST,SAN DIEGO,CA,92123,4427,SAN DIEGO,6073,2008-11-13T00:00:00.000Z,ALT REF,2008-11-13T00:00:00.000Z,CHURCHES,128843490,-117.1176878,32.8166505,CHRISTIAN,ICC,NOT AVAILABLE,NOT AVAILABLE,Y,N
3833,10433040,THE ANCHOR CHURCH,SAN DIEGO,CA,92105,5712,SAN DIEGO,6073,2008-11-12T00:00:00.000Z,ALT REF,2008-11-12T00:00:00.000Z,CHURCHES,24217876,-117.0813625,32.7239507,CHRISTIAN,UPC,NOT AVAILABLE,NOT AVAILABLE,Y,N