OBJECTID,ID,NAME,CITY,STATE,ZIP,ZIPP4,COUNTY,FIPS,CONTDATE,CONTHOW,GEODATE,NAICSDESCR,GEOLINKID,X,Y,SUBTYPE,DENOM,MEMBERS,LOC_TYPE,PROT,CATH
7001,10447180,HOLY ROSARY CHURCH,SEATTLE,WA,98116,4201,KING,53033,2009-03-19T00:00:00.000Z,ALT REF,2009-03-19T00:00:00.000Z,CHURCHES,21060360,-122.3858458,47.5650392,CHRISTIAN,NOT AVAILABLE,NOT AVAILABLE,NOT AVAILABLE,N,Y
7004,10447184,OUR LADY OF MOUNT VIRGIN CHURCH,SEATTLE,WA,98144,3813,KING,53033,2009-03-20T00:00:00.000Z,ALT REF,2009-03-20T00:00:00.000Z,CHURCHES,21088603,-122.2965461,47.5884868,CHRISTIAN,NOT AVAILABLE,NOT AVAILABLE,NOT AVAILABLE,N,Y
7005,10443183,OUR LADY OF THE LAKE CHURCH,SEATTLE,WA,98115,3613,KING,53033,2009-03-20T00:00:00.000Z,ALT REF,2009-03-26T00:00:00.000Z,CHURCHES,21049082,-122.2902432,47.6935999,CHRISTIAN,NOT AVAILABLE,NOT AVAILABLE,NOT AVAILABLE,N,Y
7008,10447164,SAINT ALPHONSUS CHURCH,SEATTLE,WA,98107,3005,KING,53033,2009-03-23T00:00:00.000Z,ALT REF,2009-03-23T00:00:00.000Z,CHURCHES,21043107,-122.3757229,47.671162,CHRISTIAN,NOT AVAILABLE,NOT AVAILABLE,NOT AVAILABLE,N,Y
7011,10447170,SAINT EDWARD CHURCH,SEATTLE,WA,98118,2403,KING,53033,2009-03-23T00:00:00.000Z,ALT REF,2009-03-23T00:00:00.000Z,CHURCHES,21081604,-122.2804706,47.5507752,CHRISTIAN,NOT AVAILABLE,NOT AVAILABLE,NOT AVAILABLE,N,Y
7019,10442787,SAINT PAUL CHURCH,SEATTLE,WA,98178,2251,KING,53033,2009-03-24T00:00:00.000Z,ALT REF,2009-03-24T00:00:00.000Z,CHURCHES,21081275,-122.2626373,47.51065,CHRISTIAN,NOT AVAILABLE,NOT AVAILABLE,NOT AVAILABLE,N,Y
6004,10441152,SAINT JOHN THE BAPTIST EPISCOPAL CHURCH,SEATTLE,WA,98116,3302,KING,53033,2009-03-24T00:00:00.000Z,ALT REF,2009-03-24T00:00:00.000Z,CHURCHES,727566450,-122.3862899,47.5758217,CHRISTIAN,EPIS,NOT AVAILABLE,NOT AVAILABLE,Y,N
6007,10576028,CATHERINE MEMORIAL AFRICAN METHODIST EPISCOPAL ZION CHURCH,SEATTLE,WA,98118,2625,KING,53033,2009-03-17T00:00:00.000Z,ALT REF,2009-03-17T00:00:00.000Z,CHURCHES,21081536,-122.2870846,47.5485307,CHRISTIAN,AMEZ,NOT AVAILABLE,NOT AVAILABLE,Y,N
6009,10431773,MASJID AL-TAWHEED,SEATTLE,WA,98106,2547,KING,53033,2009-03-19T00:00:00.000Z,ALT REF,2009-03-19T00:00:00.000Z,"MOSQUES, RELIGIOUS",21085499,-122.3490574,47.5230026,MUSLIM,NOT AVAILABLE,NOT AVAILABLE,NOT AVAILABLE,N,N
6021,10438531,THE CHURCH OF JESUS CHRIST OF LATTER DAY SAINTS - TIFFANY PARK WARD,SEATTLE,WA,98178,NULL,KING,53033,2007-10-17T00:00:00.000Z,ALT REF,2007-10-17T00:00:00.000Z,CHURCHES,21071392,-122.2295646,47.4905668,CHRISTIAN,LDS,NOT AVAILABLE,NOT AVAILABLE,Y,N
6024,10438575,THE CHURCH OF JESUS CHRIST OF LATTER DAY SAINTS - SHORELINE WARD,SEATTLE,WA,98133,7302,KING,53033,2007-10-17T00:00:00.000Z,ALT REF,2007-10-17T00:00:00.000Z,CHURCHES,21051158,-122.3578714,47.7253185,CHRISTIAN,LDS,NOT AVAILABLE,NOT AVAILABLE,Y,N
6025,10438576,THE CHURCH OF JESUS CHRIST OF LATTER DAY SAINTS - BEVERLY PARK WARD,SEATTLE,WA,98108,NULL,KING,53033,2007-10-17T00:00:00.000Z,ALT REF,2007-10-17T00:00:00.000Z,CHURCHES,124505989,-122.3321007,47.5176026,CHRISTIAN,LDS,NOT AVAILABLE,NOT AVAILABLE,Y,N
6027,10438624,THE CHURCH OF JESUS CHRIST OF LATTER DAY SAINTS - UNIVERSITY 2ND (STUDENT SINGLE) WARD,SEATTLE,WA,98105,6607,KING,53033,2007-10-17T00:00:00.000Z,ALT REF,2007-10-17T00:00:00.000Z,CHURCHES,129663119,-122.3125216,47.6540428,CHRISTIAN,LDS,NOT AVAILABLE,NOT AVAILABLE,Y,N
6080,10439353,THE CHURCH OF JESUS CHRIST OF LATTER DAY SAINTS - SEATAC WARD,SEATTLE,WA,98166,1254,KING,53033,2007-10-17T00:00:00.000Z,ALT REF,2007-10-17T00:00:00.000Z,CHURCHES,21095827,-122.3469521,47.477279,CHRISTIAN,LDS,NOT AVAILABLE,NOT AVAILABLE,Y,N
6090,10439414,THE CHURCH OF JESUS CHRIST OF LATTER DAY SAINTS - GREENWOOD WARD,SEATTLE,WA,98133,7302,KING,53033,2007-10-17T00:00:00.000Z,ALT REF,2007-10-17T00:00:00.000Z,CHURCHES,21051158,-122.3578645,47.7253111,CHRISTIAN,LDS,NOT AVAILABLE,NOT AVAILABLE,Y,N
6091,10439415,THE CHURCH OF JESUS CHRIST OF LATTER DAY SAINTS - UNIVERSITY 1ST (STUDENT SINGLE) WARD,SEATTLE,WA,98105,6607,KING,53033,2007-10-17T00:00:00.000Z,ALT REF,2007-10-17T00:00:00.000Z,CHURCHES,129663119,-122.312501,47.6540469,CHRISTIAN,LDS,NOT AVAILABLE,NOT AVAILABLE,Y,N
6093,10439423,THE CHURCH OF JESUS CHRIST OF LATTER DAY SAINTS - WEST SEATTLE WARD,SEATTLE,WA,98116,3713,KING,53033,2007-10-17T00:00:00.000Z,ALT REF,2007-10-17T00:00:00.000Z,CHURCHES,21059548,-122.3885572,47.5681402,CHRISTIAN,LDS,NOT AVAILABLE,NOT AVAILABLE,Y,N
6100,10439452,THE CHURCH OF JESUS CHRIST OF LATTER DAY SAINTS - SEATTLE 7TH WARD,SEATTLE,WA,98105,2748,KING,53033,2007-10-17T00:00:00.000Z,ALT REF,2007-10-17T00:00:00.000Z,CHURCHES,21048078,-122.3208577,47.6702072,CHRISTIAN,LDS,NOT AVAILABLE,NOT AVAILABLE,Y,N
6110,10439546,THE CHURCH OF JESUS CHRIST OF LATTER DAY SAINTS - SEATTLE 5TH WARD,SEATTLE,WA,98105,2748,KING,53033,2007-10-17T00:00:00.000Z,ALT REF,2007-10-17T00:00:00.000Z,CHURCHES,21048078,-122.3208401,47.670212,CHRISTIAN,LDS,NOT AVAILABLE,NOT AVAILABLE,Y,N
6115,10439559,THE CHURCH OF JESUS CHRIST OF LATTER DAY SAINTS - SEATTLE 3RD WARD,SEATTLE,WA,98105,2748,KING,53033,2007-10-17T00:00:00.000Z,ALT REF,2007-10-17T00:00:00.000Z,CHURCHES,21048078,-122.3208413,47.6702178,CHRISTIAN,LDS,NOT AVAILABLE,NOT AVAILABLE,Y,N
6119,10439564,THE CHURCH OF JESUS CHRIST OF LATTER DAY SAINTS - BURIEN WARD,SEATTLE,WA,98166,1254,KING,53033,2007-10-17T00:00:00.000Z,ALT REF,2007-10-17T00:00:00.000Z,CHURCHES,21095827,-122.3469524,47.4772811,CHRISTIAN,LDS,NOT AVAILABLE,NOT AVAILABLE,Y,N
6123,10439656,THE CHURCH OF JESUS CHRIST OF LATTER DAY SAINTS - SEATTLE UNIVERSITY 3RD (STUDENT SINGLE) WARD,SEATTLE,WA,98105,6607,KING,53033,2007-10-17T00:00:00.000Z,ALT REF,2007-10-17T00:00:00.000Z,CHURCHES,129663119,-122.3125012,47.6540482,CHRISTIAN,LDS,NOT AVAILABLE,NOT AVAILABLE,Y,N
6125,10439712,THE CHURCH OF JESUS CHRIST OF LATTER DAY SAINTS - MYERS WAY (TONGAN) BRANCH,SEATTLE,WA,98108,NULL,KING,53033,2007-10-17T00:00:00.000Z,ALT REF,2007-10-17T00:00:00.000Z,CHURCHES,124505989,-122.3321104,47.5176047,CHRISTIAN,LDS,NOT AVAILABLE,NOT AVAILABLE,Y,N
6130,10439897,THE CHURCH OF JESUS CHRIST OF LATTER DAY SAINTS - HIGHLINE (SAMOAN) WARD,SEATTLE,WA,98166,1254,KING,53033,2007-10-17T00:00:00.000Z,ALT REF,2007-10-17T00:00:00.000Z,CHURCHES,21095827,-122.3469405,47.477265,CHRISTIAN,LDS,NOT AVAILABLE,NOT AVAILABLE,Y,N
6154,10441148,SAINT MARK'S EPISCOPAL CATHEDRAL,SEATTLE,WA,98102,4323,KING,53033,2007-11-02T00:00:00.000Z,ALT REF,2007-11-02T00:00:00.000Z,CHURCHES,21045147,-122.3212192,47.6318879,CHRISTIAN,EPIS,NOT AVAILABLE,NOT AVAILABLE,Y,N
6155,10441151,SAINT GEORGE'S EPISCOPAL CHURCH,SEATTLE,WA,98125,4219,KING,53033,2007-11-02T00:00:00.000Z,ALT REF,2007-11-02T00:00:00.000Z,CHURCHES,21050245,-122.3050668,47.7199778,CHRISTIAN,EPIS,NOT AVAILABLE,NOT AVAILABLE,Y,N
6156,10441155,THE EPISCOPAL CHURCH OF THE ASCENSION IN MAGNOLIA,SEATTLE,WA,98199,3939,KING,53033,2007-11-02T00:00:00.000Z,ALT REF,2007-11-02T00:00:00.000Z,CHURCHES,21042803,-122.4011967,47.6390478,CHRISTIAN,EPIS,NOT AVAILABLE,NOT AVAILABLE,Y,N
6169,10441762,HOLY FAMILY PARISH,SEATTLE,WA,98106,2724,KING,53033,2007-08-29T00:00:00.000Z,ALT REF,2007-08-29T00:00:00.000Z,CHURCHES,21085932,-122.3588084,47.5170472,CHRISTIAN,NOT AVAILABLE,NOT AVAILABLE,NOT AVAILABLE,N,Y
6196,10447167,SAINT BERNADETTE CATHOLIC CHURCH,SEATTLE,WA,98146,2752,KING,53033,2007-08-30T00:00:00.000Z,ALT REF,2007-08-30T00:00:00.000Z,CHURCHES,21094242,-122.3485586,47.4891379,CHRISTIAN,NOT AVAILABLE,NOT AVAILABLE,NOT AVAILABLE,N,Y
6197,10447168,SAINT BRIDGET CHURCH,SEATTLE,WA,98105,2800,KING,53033,2007-08-30T00:00:00.000Z,ALT REF,2007-08-30T00:00:00.000Z,CHURCHES,21045649,-122.2745576,47.6653235,CHRISTIAN,NOT AVAILABLE,NOT AVAILABLE,NOT AVAILABLE,N,Y
6198,10447176,SAINT MATTHEW PARISH,SEATTLE,WA,98125,4021,KING,53033,2007-08-30T00:00:00.000Z,ALT REF,2007-08-30T00:00:00.000Z,CHURCHES,21050378,-122.3138952,47.7215348,CHRISTIAN,NOT AVAILABLE,NOT AVAILABLE,NOT AVAILABLE,N,Y
6199,10447181,OUR LADY OF FATIMA PARISH,SEATTLE,WA,98199,2622,KING,53033,2007-08-30T00:00:00.000Z,ALT REF,2007-08-30T00:00:00.000Z,CHURCHES,21042420,-122.3997272,47.6472237,CHRISTIAN,NOT AVAILABLE,NOT AVAILABLE,NOT AVAILABLE,N,Y
6203,10589725,NEW DIRECTION MISSIONARY CHURCH,SEATTLE,WA,98108,2621,KING,53033,2009-03-20T00:00:00.000Z,ALT REF,2009-03-20T00:00:00.000Z,CHURCHES,21087682,-122.3220855,47.5507626,CHRISTIAN,ABC,NOT AVAILABLE,NOT AVAILABLE,Y,N
6204,10441150,SAINT ANDREWS EPISCOPAL CHURCH,SEATTLE,WA,98115,4033,KING,53033,2009-03-24T00:00:00.000Z,ALT REF,2009-03-24T00:00:00.000Z,CHURCHES,21050635,-122.3279446,47.6864783,CHRISTIAN,EPIS,NOT AVAILABLE,NOT AVAILABLE,Y,N
6205,10447165,SAINT ANNE CATHOLIC CHURCH,SEATTLE,WA,98119,3306,KING,53033,2009-03-23T00:00:00.000Z,ALT REF,2009-03-23T00:00:00.000Z,CHURCHES,21044805,-122.3586126,47.6316006,CHRISTIAN,NOT AVAILABLE,NOT AVAILABLE,NOT AVAILABLE,N,Y
6206,10441145,SAINT CLEMENTS OF ROME EPISCOPAL CHURCH,SEATTLE,WA,98144,3917,KING,53033,2009-03-24T00:00:00.000Z,ALT REF,2009-03-24T00:00:00.000Z,CHURCHES,21088761,-122.2918944,47.5891763,CHRISTIAN,EPIS,NOT AVAILABLE,NOT AVAILABLE,Y,N
6216,10454877,DAMASCUS BAPTIST CHURCH,SEATTLE,WA,98118,6103,KING,53033,2008-03-07T00:00:00.000Z,ALT REF,2008-03-07T00:00:00.000Z,CHURCHES,124507636,-122.2824095,47.5541708,CHRISTIAN,NBC,NOT AVAILABLE,NOT AVAILABLE,Y,N
6220,10685292,SAKYA MONASTERY OF TIBETAN BUDDHISM,SEATTLE,WA,98117,3042,KING,53033,2009-03-25T00:00:00.000Z,ALT REF,2009-03-25T00:00:00.000Z,MONASTERIES (EXCEPT SCHOOLS),21047561,-122.3582757,47.6893563,BUDDHIST,"TIBETAN, SAKYA SCHOOL, NON-SECTARIAN, ECUMENICAL",NOT AVAILABLE,NOT AVAILABLE,N,N
6222,10589756,WEDGWOOD COMMUNITY CHURCH,SEATTLE,WA,98115,4725,KING,53033,2009-03-26T00:00:00.000Z,ALT REF,2009-03-26T00:00:00.000Z,CHURCHES,21049133,-122.2964074,47.6886644,CHRISTIAN,ABC,NOT AVAILABLE,NOT AVAILABLE,Y,N
6224,10432621,TABERNACLE MISSIONARY BAPTIST CHURCH,SEATTLE,WA,98144,2443,KING,53033,2009-03-25T00:00:00.000Z,ALT REF,2009-03-25T00:00:00.000Z,CHURCHES,21082376,-122.2958877,47.5989723,CHRISTIAN,BAPT,NOT AVAILABLE,NOT AVAILABLE,Y,N
6225,10684472,HUMAN KIND CLEAR BEAD SANGHA,SEATTLE,WA,98103,5938,KING,53033,2009-03-19T00:00:00.000Z,ALT REF,2009-03-19T00:00:00.000Z,PLACES OF WORSHIP,21047114,-122.3375543,47.6697556,BUDDHIST,ZEN BUDDHIST MASTER THICH NHAT HAHN,NOT AVAILABLE,NOT AVAILABLE,N,N
6232,10589667,CHINESE BAPTIST CHURCH,SEATTLE,WA,98108,3103,KING,53033,2009-03-17T00:00:00.000Z,ALT REF,2009-03-17T00:00:00.000Z,CHURCHES,21084196,-122.3029394,47.5505398,CHRISTIAN,ABC,NOT AVAILABLE,NOT AVAILABLE,Y,N
6233,10677824,THE VEDANTA SOCIETY OF WESTERN WASHINGTON,SEATTLE,WA,98102,3909,KING,53033,2009-03-25T00:00:00.000Z,ALT REF,2009-03-25T00:00:00.000Z,PLACES OF WORSHIP,21044982,-122.3204892,47.6450688,HINDU,NOT AVAILABLE,NOT AVAILABLE,NOT AVAILABLE,N,N
6234,10589701,GOODWILL MISSIONARY BAPTIST CHURCH,SEATTLE,WA,98122,5602,KING,53033,2009-03-18T00:00:00.000Z,ALT REF,2009-03-18T00:00:00.000Z,CHURCHES,21083410,-122.3124297,47.6025119,CHRISTIAN,ABC,NOT AVAILABLE,NOT AVAILABLE,Y,N
6241,10580639,EVERGREEN BAPTIST CHURCH,SEATTLE,WA,98155,2117,KING,53033,2009-03-18T00:00:00.000Z,ALT REF,2009-03-18T00:00:00.000Z,CHURCHES,21023091,-122.3238177,47.7671406,CHRISTIAN,BAPT,NOT AVAILABLE,NOT AVAILABLE,Y,N
6243,10684310,DRIKUNG KYOBPA CHOLING MEDITATION CENTER,SEATTLE,WA,98136,1853,KING,53033,2009-03-18T00:00:00.000Z,ALT REF,2009-03-18T00:00:00.000Z,PLACES OF WORSHIP,21063025,-122.387591,47.5463752,BUDDHIST,"TIBETAN, DRIKUNG KAGYU",NOT AVAILABLE,NOT AVAILABLE,N,N
6256,10580640,BIBLE BELIEVERS BAPTIST CHURCH,SEATTLE,WA,98125,7765,KING,53033,2009-03-17T00:00:00.000Z,ALT REF,2009-03-17T00:00:00.000Z,CHURCHES,21054427,-122.3009992,47.7057933,CHRISTIAN,BAPT,NOT AVAILABLE,NOT AVAILABLE,Y,N
6261,10457885,WALKER CHAPEL AFRICAN METHODIST EPISCOPAL CHURCH,SEATTLE,WA,98144,3118,KING,53033,2008-03-07T00:00:00.000Z,ALT REF,2008-03-07T00:00:00.000Z,CHURCHES,21082340,-122.2960182,47.5952798,CHRISTIAN,AME,NOT AVAILABLE,NOT AVAILABLE,Y,N
6307,10431323,ETHIOPIAN MUSLIM ASSOCIATION OF SEATTLE,SEATTLE,WA,98168,1246,KING,53033,2009-03-18T00:00:00.000Z,ALT REF,2009-03-18T00:00:00.000Z,"MOSQUES, RELIGIOUS",732275941,-122.3112188,47.4960379,MUSLIM,NOT AVAILABLE,NOT AVAILABLE,NOT AVAILABLE,N,N
6308,10431537,IAH SAN MOSQUE FOUNDATION,SEATTLE,WA,98125,4202,KING,53033,2009-03-19T00:00:00.000Z,ALT REF,2009-03-19T00:00:00.000Z,"MOSQUES, RELIGIOUS",21050247,-122.3055742,47.7199099,MUSLIM,NOT AVAILABLE,NOT AVAILABLE,NOT AVAILABLE,N,N
6310,10685022,SEATTLE NICHIREN BUDDHIST CHURCH,SEATTLE,WA,98104,3028,KING,53033,2009-03-26T00:00:00.000Z,ALT REF,2009-03-26T00:00:00.000Z,PLACES OF WORSHIP,21088885,-122.3178271,47.5977996,BUDDHIST,"MAHAYANA, NICHIREN SHU",NOT AVAILABLE,NOT AVAILABLE,N,N
6311,10438101,PLYMOUTH CHURCH SEATTLE,SEATTLE,WA,98101,3107,KING,53033,2009-03-20T00:00:00.000Z,ALT REF,2009-03-20T00:00:00.000Z,CHURCHES,724941962,-122.3326953,47.6086813,CHRISTIAN,UCC,939,NOT AVAILABLE,Y,N
6312,10580637,BIBLE BAPTIST CHURCH,SEATTLE,WA,98166,1935,KING,53033,2009-03-23T00:00:00.000Z,ALT REF,2009-03-23T00:00:00.000Z,CHURCHES,21098088,-122.3429036,47.4692161,CHRISTIAN,BAPT,NOT AVAILABLE,NOT AVAILABLE,Y,N
6313,10441149,SAINT STEPHENS EPISCOPAL CHURCH,SEATTLE,WA,98105,3803,KING,53033,2009-03-24T00:00:00.000Z,ALT REF,2009-03-24T00:00:00.000Z,CHURCHES,21045632,-122.2759993,47.6610016,CHRISTIAN,EPIS,NOT AVAILABLE,NOT AVAILABLE,Y,N
6314,10576030,THE EBENEZER AFRICAN METHODIST EPISCOPAL ZION CHURCH,SEATTLE,WA,98122,2922,KING,53033,2009-03-18T00:00:00.000Z,ALT REF,2009-03-18T00:00:00.000Z,CHURCHES,21083183,-122.3022346,47.6169732,CHRISTIAN,AMEZ,NOT AVAILABLE,NOT AVAILABLE,Y,N
6315,10447172,SAINT JOHN THE EVANGELIST CATHOLIC CHURCH,SEATTLE,WA,98117,3011,KING,53033,2009-03-23T00:00:00.000Z,ALT REF,2009-03-23T00:00:00.000Z,CHURCHES,21046416,-122.3574176,47.686756,CHRISTIAN,NOT AVAILABLE,NOT AVAILABLE,NOT AVAILABLE,N,Y
6318,10430096,KEHILAT SHALOM,SEATTLE,WA,98104,1599,KING,53033,2009-03-19T00:00:00.000Z,ALT REF,2009-03-19T00:00:00.000Z,SYNAGOGUES,21089602,-122.3346781,47.6036837,JUDAIC,NOT AVAILABLE,NOT AVAILABLE,NOT AVAILABLE,N,N
6319,10684730,MINDFULNESS COMMUNITY OF PUGET SOUND,SEATTLE,WA,98144,4628,KING,53033,2009-03-20T00:00:00.000Z,ALT REF,2009-03-20T00:00:00.000Z,PLACES OF WORSHIP,21083665,-122.3012871,47.5859246,BUDDHIST,ZEN BUDDHIST MASTER THICH NHAT HAHN,NOT AVAILABLE,NOT AVAILABLE,N,N
6320,10684403,GOLD SUMMIT SAGELY MONASTERY,SEATTLE,WA,98119,4202,KING,53033,2009-03-18T00:00:00.000Z,ALT REF,2009-03-18T00:00:00.000Z,MONASTERIES (EXCEPT SCHOOLS),21085042,-122.3584072,47.620778,BUDDHIST,"MAHAYANA, CH'AN (ZEN)",NOT AVAILABLE,NOT AVAILABLE,N,N
6330,10684225,DECHEN LING BUDDHIST CENTER,SEATTLE,WA,98103,8719,KING,53033,2009-03-17T00:00:00.000Z,ALT REF,2009-03-17T00:00:00.000Z,PLACES OF WORSHIP,21051560,-122.3462647,47.6517711,BUDDHIST,"VAJRAYANA, GELUGPA",NOT AVAILABLE,NOT AVAILABLE,N,N
6334,10684211,DAI BAI ZAN CHO BO ZEN JI TEMPLE,SEATTLE,WA,98122,2809,KING,53033,2009-03-17T00:00:00.000Z,ALT REF,2009-03-17T00:00:00.000Z,"TEMPLES, RELIGIOUS",21082771,-122.3064039,47.618034,BUDDHIST,RINZAI ZEN,NOT AVAILABLE,NOT AVAILABLE,N,N
6336,10461419,VOLUNTEER PARK SEVENTH-DAY ADVENTIST CHURCH,SEATTLE,WA,98102,4527,KING,53033,2008-02-27T00:00:00.000Z,ALT REF,2008-02-27T00:00:00.000Z,CHURCHES,21045186,-122.3154067,47.626821,CHRISTIAN,NOT AVAILABLE,NOT AVAILABLE,NOT AVAILABLE,Y,N
6338,10454242,CHERRY HILL BAPTIST CHURCH,SEATTLE,WA,98122,4804,KING,53033,2009-03-17T00:00:00.000Z,ALT REF,2009-03-17T00:00:00.000Z,CHURCHES,21083111,-122.3033434,47.6081794,CHRISTIAN,NBC,NOT AVAILABLE,NOT AVAILABLE,Y,N
6340,10461415,CROSSPOINT CHURCH - GREEN LAKE,SEATTLE,WA,98103,5659,KING,53033,2009-03-17T00:00:00.000Z,ALT REF,2009-03-17T00:00:00.000Z,CHURCHES,21046878,-122.3481008,47.6751233,CHRISTIAN,PCA,NOT AVAILABLE,NOT AVAILABLE,Y,N
6350,10684273,DHARMA FRIENDSHIP FOUNDATION,SEATTLE,WA,98122,3046,KING,53033,2009-03-17T00:00:00.000Z,ALT REF,2009-03-17T00:00:00.000Z,PLACES OF WORSHIP,21083145,-122.3004604,47.613147,BUDDHIST,MIXED TIBETAN,NOT AVAILABLE,NOT AVAILABLE,N,N
6351,10441763,IMMACULATE CONCEPTION CATHOLIC CHURCH,SEATTLE,WA,98122,4706,KING,53033,2009-03-19T00:00:00.000Z,ALT REF,2009-03-19T00:00:00.000Z,CHURCHES,21089868,-122.3082011,47.6100261,CHRISTIAN,NOT AVAILABLE,NOT AVAILABLE,NOT AVAILABLE,N,Y
6352,10576222,EMMAUS ROAD,SEATTLE,WA,98121,1217,KING,53033,2009-03-16T00:00:00.000Z,ALT REF,2009-03-16T00:00:00.000Z,CHURCHES,21084987,-122.3495096,47.6171175,CHRISTIAN,CRC,NOT AVAILABLE,NOT AVAILABLE,Y,N
6354,10685434,BODHIHEART SANGHA,SEATTLE,WA,98102,5022,KING,53033,2009-03-17T00:00:00.000Z,ALT REF,2009-03-17T00:00:00.000Z,PLACES OF WORSHIP,21090281,-122.3174853,47.6249069,BUDDHIST,"THERAVADA, VAJRAYANA, TIBETAN AND BURMESE VIPASSANA",NOT AVAILABLE,NOT AVAILABLE,N,N
6358,10761927,HOLGATE CHURCH OF CHRIST,SEATTLE,WA,98144,4744,KING,53033,2009-03-19T00:00:00.000Z,ALT REF,2009-03-19T00:00:00.000Z,CHURCHES,21088730,-122.2986613,47.5865495,CHRISTIAN,COC,400,NOT AVAILABLE,Y,N
6359,10589699,FREMONT BAPTIST CHURCH,SEATTLE,WA,98103,8804,KING,53033,2009-03-18T00:00:00.000Z,ALT REF,2009-03-18T00:00:00.000Z,CHURCHES,21052920,-122.3490899,47.6509717,CHRISTIAN,ABC,NOT AVAILABLE,NOT AVAILABLE,Y,N
6369,10589758,WEST SEATTLE BAPTIST CHURCH,SEATTLE,WA,98116,4101,KING,53033,2009-03-26T00:00:00.000Z,ALT REF,2009-03-26T00:00:00.000Z,CHURCHES,21059591,-122.3871704,47.5649893,CHRISTIAN,ABC,NOT AVAILABLE,NOT AVAILABLE,Y,N
6382,10447173,SAINT JOSEPH CATHOLIC CHURCH,SEATTLE,WA,98112,3928,KING,53033,2009-03-23T00:00:00.000Z,ALT REF,2009-03-23T00:00:00.000Z,CHURCHES,21051482,-122.3079032,47.6266226,CHRISTIAN,NOT AVAILABLE,NOT AVAILABLE,NOT AVAILABLE,N,Y
6383,10457819,PRIMM TABERNACLE AFRICAN METHODIST EPISCOPAL CHURCH,SEATTLE,WA,98118,2340,KING,53033,2009-03-23T00:00:00.000Z,ALT REF,2009-03-23T00:00:00.000Z,CHURCHES,21087244,-122.2769633,47.5531482,CHRISTIAN,AME,NOT AVAILABLE,NOT AVAILABLE,Y,N
6384,10453180,PEOPLES INSTITUTIONAL BAPTIST CHURCH,SEATTLE,WA,98122,6017,KING,53033,2009-03-20T00:00:00.000Z,ALT REF,2009-03-20T00:00:00.000Z,CHURCHES,21083369,-122.3015611,47.6029023,CHRISTIAN,NBC,NOT AVAILABLE,NOT AVAILABLE,Y,N
6387,10684812,NORTH CASCADES BUDDHIST PRIORY,SEATTLE,WA,98115,3412,KING,53033,2009-04-16T00:00:00.000Z,ALT REF,2009-04-16T00:00:00.000Z,PLACES OF WORSHIP,21049058,-122.3017428,47.6953465,BUDDHIST,"ORDER OF BUDDHIST CONTEMPLATIVES, SOTO ZEN",NOT AVAILABLE,NOT AVAILABLE,N,N
6389,10447166,SAINT BENEDICT CHURCH,SEATTLE,WA,98103,6838,KING,53033,2009-03-23T00:00:00.000Z,ALT REF,2009-03-23T00:00:00.000Z,CHURCHES,21047229,-122.3369655,47.6645526,CHRISTIAN,NOT AVAILABLE,NOT AVAILABLE,NOT AVAILABLE,N,Y
6390,10430158,TEMPLE DE HIRSCH SINAI,SEATTLE,WA,98122,4127,KING,53033,2007-08-07T00:00:00.000Z,ALT REF,2007-08-07T00:00:00.000Z,SYNAGOGUES,21083220,-122.312036,47.6138365,JUDAIC,REFORM,NOT AVAILABLE,NOT AVAILABLE,N,N
6392,10430169,CONGREGATION BETH SHALOM,SEATTLE,WA,98115,7334,KING,53033,2007-08-03T00:00:00.000Z,PHONE,2007-08-03T00:00:00.000Z,SYNAGOGUES,21048814,-122.2899158,47.6781285,JUDAIC,CONSERVATIVE,NOT AVAILABLE,NOT AVAILABLE,N,N
6404,10430157,BET ALEF MEDITATIVE SYNAGOGUE,SEATTLE,WA,98125,5437,KING,53033,2007-08-07T00:00:00.000Z,ALT REF,2007-08-07T00:00:00.000Z,SYNAGOGUES,19360028,-122.2958883,47.7188206,JUDAIC,REFORM,NOT AVAILABLE,NOT AVAILABLE,N,N
6405,10430160,TEMPLE BETH AM,SEATTLE,WA,98115,4622,KING,53033,2007-08-07T00:00:00.000Z,ALT REF,2007-08-09T00:00:00.000Z,SYNAGOGUES,21255413,-122.298765,47.6875204,JUDAIC,REFORM,NOT AVAILABLE,NOT AVAILABLE,N,N
6408,10430163,BIKUR CHOLIM-MACHZIKAY HADATH CONGREGATION,SEATTLE,WA,98118,2901,KING,53033,2007-07-20T00:00:00.000Z,PHONE,2007-08-03T00:00:00.000Z,SYNAGOGUES,21087133,-122.268011,47.5438632,JUDAIC,ORTHODOX,NOT AVAILABLE,NOT AVAILABLE,N,N
6415,10430165,CONGREGATION KOL HANESHAMAH - WEST SEATTLE'S PROGRESSIVE SYNAGOGUE COMMUNITY,SEATTLE,WA,98116,2735,KING,53033,2007-08-08T00:00:00.000Z,ALT REF,2007-08-08T00:00:00.000Z,SYNAGOGUES,21059333,-122.4115678,47.5737623,JUDAIC,REFORM,NOT AVAILABLE,NOT AVAILABLE,N,N
6422,10430167,SEPHARDIC BIKUR HOLIM CONGREGATION,SEATTLE,WA,98118,3402,KING,53033,2007-08-07T00:00:00.000Z,ALT REF,2007-08-07T00:00:00.000Z,SYNAGOGUES,21081756,-122.2666945,47.5439604,JUDAIC,ORTHODOX,NOT AVAILABLE,NOT AVAILABLE,N,N
6427,10430166,CONGREGATION SHAAREI TEFILAH - LUBAVITCH,SEATTLE,WA,98115,7512,KING,53033,2007-08-07T00:00:00.000Z,ALT REF,2007-08-07T00:00:00.000Z,SYNAGOGUES,21048462,-122.2818747,47.6756011,JUDAIC,ORTHODOX,NOT AVAILABLE,NOT AVAILABLE,N,N
6428,10430164,CONGREGATION EZRA BESSAROTH,SEATTLE,WA,98118,2522,KING,53033,2007-08-07T00:00:00.000Z,PHONE,2007-08-07T00:00:00.000Z,SYNAGOGUES,124515432,-122.2672862,47.5529338,JUDAIC,ORTHODOX (SEPHARDIC),NOT AVAILABLE,NOT AVAILABLE,N,N
6430,10430161,EMANUEL CONGREGATION,SEATTLE,WA,98115,7326,KING,53033,2007-08-03T00:00:00.000Z,PHONE,2007-08-03T00:00:00.000Z,SYNAGOGUES,21048345,-122.2908571,47.6759698,JUDAIC,ORTHODOX,NOT AVAILABLE,NOT AVAILABLE,N,N
6439,10428319,CHABAD OF NORTH SEATTLE,SEATTLE,WA,98115,3734,KING,53033,2007-07-30T00:00:00.000Z,PHONE,2007-07-30T00:00:00.000Z,SYNAGOGUES,21049129,-122.2845888,47.6914414,JUDAIC,CHABAD,NOT AVAILABLE,CHABAD,N,N
6447,10432618,MARS HILL CHURCH,SEATTLE,WA,98121,1613,KING,53033,2009-03-19T00:00:00.000Z,ALT REF,2009-03-19T00:00:00.000Z,CHURCHES,124506433,-122.3487281,47.6131757,CHRISTIAN,NONDENOM,NOT AVAILABLE,NOT AVAILABLE,Y,N
6452,10430134,CHABAD LUBAVITCH OF SEATTLE,SEATTLE,WA,98105,3301,KING,53033,2007-08-07T00:00:00.000Z,ALT REF,2007-08-07T00:00:00.000Z,SYNAGOGUES,21048163,-122.3076109,47.6624288,JUDAIC,ORTHODOX,NOT AVAILABLE,NOT AVAILABLE,N,N
6457,10430162,WEST SEATTLE TORAH LEARNING CENTER,SEATTLE,WA,98116,3941,KING,53033,2007-08-07T00:00:00.000Z,ALT REF,2007-08-08T00:00:00.000Z,SYNAGOGUES,21060406,-122.400724,47.5623633,JUDAIC,ORTHODOX,NOT AVAILABLE,NOT AVAILABLE,N,N
6461,10430168,CONGREGATION EITZ OR,SEATTLE,WA,98115,7332,KING,53033,2007-07-25T00:00:00.000Z,PHONE,2007-08-03T00:00:00.000Z,SYNAGOGUES,21048815,-122.2898945,47.6772939,JUDAIC,RENEWAL,NOT AVAILABLE,NOT AVAILABLE,N,N
6472,10431322,DOWNTOWN MUSLIM ASSOCIATION,SEATTLE,WA,98104,1608,KING,53033,2007-07-18T00:00:00.000Z,PHONE,2007-07-17T00:00:00.000Z,"MOSQUES, RELIGIOUS",21089538,-122.3312014,47.605296,MUSLIM,NOT AVAILABLE,NOT AVAILABLE,NOT AVAILABLE,N,N
6474,10431783,JAMIUL MUSLIMUN MOSQUE,SEATTLE,WA,98118,2616,KING,53033,2007-10-09T00:00:00.000Z,ALT REF,2007-10-09T00:00:00.000Z,"MOSQUES, RELIGIOUS",21081591,-122.283816,47.5489921,MUSLIM,NOT AVAILABLE,NOT AVAILABLE,NOT AVAILABLE,N,N
6479,10447169,SAINT CATHERINE OF SIENA CHURCH,SEATTLE,WA,98115,3002,KING,53033,2009-03-23T00:00:00.000Z,ALT REF,2009-03-27T00:00:00.000Z,CHURCHES,21049932,-122.3199138,47.6906399,CHRISTIAN,NOT AVAILABLE,NOT AVAILABLE,NOT AVAILABLE,N,Y
6489,10431647,INTERNATIONAL ISLAMIC HOUSE,SEATTLE,WA,98105,5702,KING,53033,2007-10-09T00:00:00.000Z,ALT REF,2007-10-09T00:00:00.000Z,"MOSQUES, RELIGIOUS",21052082,-122.3046645,47.6624467,MUSLIM,NOT AVAILABLE,NOT AVAILABLE,NOT AVAILABLE,N,N
6492,10431407,JAMAATUL IKHLAS MOSQUE,SEATTLE,WA,98122,5427,KING,53033,2007-10-09T00:00:00.000Z,ALT REF,2007-10-09T00:00:00.000Z,"MOSQUES, RELIGIOUS",21083397,-122.3146991,47.6029531,MUSLIM,NOT AVAILABLE,NOT AVAILABLE,NOT AVAILABLE,N,N
6493,10441765,SAINT MARYS CHURCH,SEATTLE,WA,98144,2209,KING,53033,2009-03-27T00:00:00.000Z,ALT REF,2009-03-27T00:00:00.000Z,CHURCHES,21083560,-122.3058279,47.5972794,CHRISTIAN,NOT AVAILABLE,NOT AVAILABLE,NOT AVAILABLE,N,Y
6502,10447177,SAINT PATRICKS CATHOLIC CHURCH,SEATTLE,WA,98102,3909,KING,53033,2009-03-24T00:00:00.000Z,ALT REF,2009-03-24T00:00:00.000Z,CHURCHES,21054796,-122.3211764,47.644137,CHRISTIAN,NOT AVAILABLE,NOT AVAILABLE,NOT AVAILABLE,N,Y
6507,10442890,SAINT THERESE CHURCH,SEATTLE,WA,98122,5207,KING,53033,2009-03-24T00:00:00.000Z,ALT REF,2009-03-24T00:00:00.000Z,CHURCHES,21082565,-122.2880533,47.6111818,CHRISTIAN,NOT AVAILABLE,NOT AVAILABLE,NOT AVAILABLE,N,Y
6541,10589732,OAK LAKE BAPTIST CHURCH,SEATTLE,WA,98103,3207,KING,53033,2009-03-20T00:00:00.000Z,ALT REF,2009-03-20T00:00:00.000Z,CHURCHES,21052731,-122.347049,47.6984433,CHRISTIAN,ABC,NOT AVAILABLE,NOT AVAILABLE,Y,N
6542,10447182,OUR LADY OF GUADALUPE,SEATTLE,WA,98126,3212,KING,53033,2009-03-20T00:00:00.000Z,ALT REF,2009-03-20T00:00:00.000Z,CHURCHES,21061055,-122.3762045,47.5401059,CHRISTIAN,NOT AVAILABLE,NOT AVAILABLE,NOT AVAILABLE,N,Y
6553,10428266,STROUM JEWISH COMMUNITY CENTER,SEATTLE,WA,98115,4622,KING,53033,2009-03-20T00:00:00.000Z,ALT REF,2009-03-20T00:00:00.000Z,SYNAGOGUES,21255413,-122.2994638,47.6874478,JUDAIC,NOT AVAILABLE,NOT AVAILABLE,NOT AVAILABLE,N,N
6555,10441147,CHRIST EPISCOPAL CHURCH,SEATTLE,WA,98105,4537,KING,53033,2009-03-17T00:00:00.000Z,ALT REF,2009-03-17T00:00:00.000Z,CHURCHES,21048150,-122.3138607,47.6628265,CHRISTIAN,EPIS,NOT AVAILABLE,NOT AVAILABLE,Y,N
6556,10442738,CHRIST THE KING CHURCH,SEATTLE,WA,98133,8609,KING,53033,2009-03-17T00:00:00.000Z,ALT REF,2009-03-17T00:00:00.000Z,CHURCHES,21047702,-122.3532586,47.7144705,CHRISTIAN,NOT AVAILABLE,NOT AVAILABLE,NOT AVAILABLE,N,Y
6557,10428524,CHABAD AT UNIVERSITY OF WASHINGTON,SEATTLE,WA,98105,3335,KING,53033,2009-03-17T00:00:00.000Z,ALT REF,2009-03-17T00:00:00.000Z,SYNAGOGUES,21048305,-122.30524,47.6666744,JUDAIC,CHABAD,NOT AVAILABLE,CHABAD,N,N
6559,10447185,SACRED HEART CATHOLIC CHURCH,SEATTLE,WA,98109,4817,KING,53033,2009-03-23T00:00:00.000Z,ALT REF,2009-03-23T00:00:00.000Z,CHURCHES,724776676,-122.3531365,47.6205522,CHRISTIAN,NOT AVAILABLE,NOT AVAILABLE,NOT AVAILABLE,N,Y
6570,10685020,KARMA THEGSUM CHOLING SEATTLE,SEATTLE,WA,98122,4721,KING,53033,2009-03-23T00:00:00.000Z,ALT REF,2009-03-23T00:00:00.000Z,PLACES OF WORSHIP,21089872,-122.3079734,47.6088091,BUDDHIST,"TIBETAN, KARMA KAGYU",NOT AVAILABLE,NOT AVAILABLE,N,N
6571,10684775,NALANDABODHI - SEATTLE,SEATTLE,WA,98105,3416,KING,53033,2009-03-20T00:00:00.000Z,ALT REF,2009-03-20T00:00:00.000Z,PLACES OF WORSHIP,21048089,-122.3099247,47.668668,BUDDHIST,"TIBETAN, NYINGMA / KAGYU",NOT AVAILABLE,NOT AVAILABLE,N,N
6572,10441154,SAINT LUKES EPISCOPAL CHURCH,SEATTLE,WA,98107,3144,KING,53033,2009-03-24T00:00:00.000Z,ALT REF,2009-03-24T00:00:00.000Z,CHURCHES,21043151,-122.3844939,47.6707177,CHRISTIAN,EPIS,NOT AVAILABLE,NOT AVAILABLE,Y,N
6573,10440415,SAINT PAULS EPISCOPAL CHURCH,SEATTLE,WA,98109,4019,KING,53033,2009-03-24T00:00:00.000Z,ALT REF,2009-03-24T00:00:00.000Z,CHURCHES,724942561,-122.3559117,47.6251694,CHRISTIAN,EPIS,NOT AVAILABLE,NOT AVAILABLE,Y,N
6578,10439467,THE CHURCH OF JESUS CHRIST OF LATTER DAY SAINTS - SEATTLE 1ST WARD,SEATTLE,WA,98199,3333,KING,53033,2009-03-23T00:00:00.000Z,ALT REF,2009-03-23T00:00:00.000Z,CHURCHES,21042920,-122.3974082,47.6400017,CHRISTIAN,LDS,NOT AVAILABLE,NOT AVAILABLE,Y,N
6579,10589726,NEW HOPE BAPTIST CHURCH,SEATTLE,WA,98122,5912,KING,53033,2009-03-20T00:00:00.000Z,ALT REF,2009-03-20T00:00:00.000Z,CHURCHES,21083329,-122.304601,47.602492,CHRISTIAN,ABC,NOT AVAILABLE,NOT AVAILABLE,Y,N
6580,10589745,SHILOH MISSIONARY BAPTIST CHURCH,SEATTLE,WA,98144,3001,KING,53033,2009-03-23T00:00:00.000Z,ALT REF,2009-03-23T00:00:00.000Z,CHURCHES,21083522,-122.3025285,47.5960447,CHRISTIAN,ABC,NOT AVAILABLE,NOT AVAILABLE,Y,N
6581,10589740,PRINCE OF PEACE BAPTIST CHURCH,SEATTLE,WA,98144,3006,KING,53033,2009-03-26T00:00:00.000Z,ALT REF,2009-03-26T00:00:00.000Z,CHURCHES,21089917,-122.2996567,47.5956936,CHRISTIAN,ABC,NOT AVAILABLE,NOT AVAILABLE,Y,N
6582,10589686,SEATTLE FIRST BAPTIST CHURCH,SEATTLE,WA,98122,4205,KING,53033,2009-03-18T00:00:00.000Z,ALT REF,2009-03-18T00:00:00.000Z,CHURCHES,21089713,-122.3219908,47.6120476,CHRISTIAN,ABC,NOT AVAILABLE,NOT AVAILABLE,Y,N
6584,10441146,SAINT PETERS EPISCOPAL CHURCH,SEATTLE,WA,98144,2115,KING,53033,2009-03-24T00:00:00.000Z,ALT REF,2009-03-24T00:00:00.000Z,CHURCHES,21083620,-122.3106927,47.5986314,CHRISTIAN,EPIS,NOT AVAILABLE,NOT AVAILABLE,Y,N
6586,10762262,BETHANY PRESBYTERIAN CHURCH,SEATTLE,WA,98109,2848,KING,53033,2009-03-17T00:00:00.000Z,ALT REF,2009-03-17T00:00:00.000Z,CHURCHES,21044596,-122.3567107,47.635438,CHRISTIAN,PCUSA,509,NOT AVAILABLE,Y,N
6588,10589661,BURIEN COMMUNITY CHURCH,SEATTLE,WA,98166,2713,KING,53033,2009-03-17T00:00:00.000Z,ALT REF,2009-03-17T00:00:00.000Z,CHURCHES,21098282,-122.3584171,47.4571885,CHRISTIAN,ABC,NOT AVAILABLE,NOT AVAILABLE,Y,N
6589,10589734,PARADISE BAPTIST CHURCH,SEATTLE,WA,98118,4910,KING,53033,2009-03-20T00:00:00.000Z,ALT REF,2009-03-20T00:00:00.000Z,CHURCHES,715246625,-122.2772081,47.5231282,CHRISTIAN,ABC,NOT AVAILABLE,NOT AVAILABLE,Y,N
6594,10580638,HIGHLAND PARK BAPTIST CHURCH,SEATTLE,WA,98106,2455,KING,53033,2009-03-19T00:00:00.000Z,ALT REF,2009-03-19T00:00:00.000Z,CHURCHES,21085530,-122.3544351,47.5208844,CHRISTIAN,BAPT,NOT AVAILABLE,NOT AVAILABLE,Y,N
6595,10589707,JAPANESE BAPTIST CHURCH,SEATTLE,WA,98122,5434,KING,53033,2009-03-19T00:00:00.000Z,ALT REF,2009-03-19T00:00:00.000Z,CHURCHES,21089761,-122.3203998,47.6031334,CHRISTIAN,ABC,NOT AVAILABLE,NOT AVAILABLE,Y,N
6596,10589705,GREATER MOUNT BAKER BAPTIST CHURCH,SEATTLE,WA,98144,2342,KING,53033,2009-03-18T00:00:00.000Z,ALT REF,2009-03-18T00:00:00.000Z,CHURCHES,727659255,-122.3000478,47.599043,CHRISTIAN,ABC,NOT AVAILABLE,NOT AVAILABLE,Y,N
6597,10576860,SANCTUARY,SEATTLE,WA,98103,3604,KING,53033,2009-03-23T00:00:00.000Z,ALT REF,2009-03-23T00:00:00.000Z,CHURCHES,21047517,-122.3562534,47.6908613,CHRISTIAN,CRC,NOT AVAILABLE,NOT AVAILABLE,Y,N
6598,10685017,SEATTLE BETSUIN BUDDHIST TEMPLE,SEATTLE,WA,98144,2034,KING,53033,2009-03-23T00:00:00.000Z,ALT REF,2009-03-23T00:00:00.000Z,"TEMPLES, RELIGIOUS",724572142,-122.313129,47.5997676,BUDDHIST,JODO SHINSHU (JAPANESE PURELAND),NOT AVAILABLE,NOT AVAILABLE,N,N
6599,10685021,SEATTLE KOYASAN BUDDHIST CHURCH,SEATTLE,WA,98144,2047,KING,53033,2009-03-23T00:00:00.000Z,ALT REF,2009-03-23T00:00:00.000Z,PLACES OF WORSHIP,21083593,-122.3118883,47.6010852,BUDDHIST,SHINGON,NOT AVAILABLE,NOT AVAILABLE,N,N
6600,10685072,SEATTLE CULTURE CENTER,SEATTLE,WA,98168,4319,KING,53033,2009-03-23T00:00:00.000Z,ALT REF,2009-03-23T00:00:00.000Z,PLACES OF WORSHIP,21094723,-122.2880953,47.4710877,BUDDHIST,"MAHAYANA, NICHIREN BUDDHISM",NOT AVAILABLE,NOT AVAILABLE,N,N
6603,10685023,SEATTLE SHAMBHALA MEDITATION CENTER,SEATTLE,WA,98112,4211,KING,53033,2009-03-30T00:00:00.000Z,ALT REF,2009-03-30T00:00:00.000Z,PLACES OF WORSHIP,21082711,-122.2915036,47.6223015,BUDDHIST,"TIBETAN, SHAMBHALA BUDDHIST",NOT AVAILABLE,NOT AVAILABLE,N,N
6605,10762561,WAT ATAMMAYATARAMA,SEATTLE,WA,98118,4511,KING,53033,2009-03-26T00:00:00.000Z,ALT REF,2009-03-26T00:00:00.000Z,PLACES OF WORSHIP,21086999,-122.2850638,47.5247728,BUDDHIST,NOT AVAILABLE,NOT AVAILABLE,NOT AVAILABLE,N,N
6607,10683764,NITARTHA INSTITUTE,SEATTLE,WA,98103,8435,KING,53033,2009-03-20T00:00:00.000Z,ALT REF,2009-03-20T00:00:00.000Z,PLACES OF WORSHIP,21045999,-122.3299388,47.656097,BUDDHIST,"VAJRAYANA, TIBETAN, KAGYU & NYINGMA",NOT AVAILABLE,NOT AVAILABLE,N,N
6608,10685264,VAJRALAMA BUDDHIST CENTER,SEATTLE,WA,98117,5856,KING,53033,2009-03-25T00:00:00.000Z,ALT REF,2009-03-25T00:00:00.000Z,PLACES OF WORSHIP,727789904,-122.3872118,47.6775757,BUDDHIST,"TIBETAN, NEW KADAMPA",NOT AVAILABLE,NOT AVAILABLE,N,N
6609,10440427,TRINITY PARISH CHURCH,SEATTLE,WA,98104,1921,KING,53033,2009-03-25T00:00:00.000Z,ALT REF,2009-03-25T00:00:00.000Z,CHURCHES,715128153,-122.3263691,47.6051856,CHRISTIAN,EPIS,NOT AVAILABLE,NOT AVAILABLE,Y,N
6610,10589753,UNIVERSITY BAPTIST CHURCH,SEATTLE,WA,98105,4524,KING,53033,2009-03-25T00:00:00.000Z,ALT REF,2009-03-25T00:00:00.000Z,CHURCHES,21048156,-122.3148961,47.6628926,CHRISTIAN,ABC,NOT AVAILABLE,NOT AVAILABLE,Y,N
6611,10589743,QUEEN ANNE BAPTIST CHURCH,SEATTLE,WA,98109,2504,KING,53033,2009-03-23T00:00:00.000Z,ALT REF,2009-03-23T00:00:00.000Z,CHURCHES,21044590,-122.3560116,47.6368536,CHRISTIAN,ABC,NOT AVAILABLE,NOT AVAILABLE,Y,N
6612,10577150,SOUTH PARK MISSIONARY BAPTIST CHURCH,SEATTLE,WA,98108,4737,KING,53033,2009-03-23T00:00:00.000Z,ALT REF,2009-03-23T00:00:00.000Z,CHURCHES,21085097,-122.3227005,47.5269501,CHRISTIAN,BAPT,NOT AVAILABLE,NOT AVAILABLE,Y,N
6613,10448375,SAINT JOHN CHRYSOSTOM BYZANTINE CATHOLIC CHURCH,SEATTLE,WA,98144,5038,KING,53033,2009-03-23T00:00:00.000Z,ALT REF,2009-03-23T00:00:00.000Z,CHURCHES,21083879,-122.3156595,47.5791898,CHRISTIAN,NOT AVAILABLE,NOT AVAILABLE,NOT AVAILABLE,N,Y
6614,10589706,GREATER NEW BETHEL MISSIONARY BAPTIST CHURCH,SEATTLE,WA,98118,6103,KING,53033,2009-03-19T00:00:00.000Z,ALT REF,2009-03-19T00:00:00.000Z,CHURCHES,124507636,-122.2809785,47.5537065,CHRISTIAN,ABC,NOT AVAILABLE,NOT AVAILABLE,Y,N
6615,10683855,BLUE HERON ZEN COMMUNITY,SEATTLE,WA,98133,9434,KING,53033,2009-03-17T00:00:00.000Z,ALT REF,2009-03-17T00:00:00.000Z,PLACES OF WORSHIP,21050768,-122.3378796,47.703423,BUDDHIST,"MAHAYANA, ZEN MASTER SEUNG SAHN",NOT AVAILABLE,NOT AVAILABLE,N,N
6618,10441764,SAINT JAMES CATHEDRAL,SEATTLE,WA,98104,1265,KING,53033,2009-03-24T00:00:00.000Z,ALT REF,2009-03-24T00:00:00.000Z,CHURCHES,21083306,-122.3257713,47.607651,CHRISTIAN,NOT AVAILABLE,NOT AVAILABLE,NOT AVAILABLE,N,Y
6619,10445846,SAINT MARGARET ROMAN CATHOLIC CHURCH,SEATTLE,WA,98119,1726,KING,53033,2009-03-24T00:00:00.000Z,ALT REF,2009-03-24T00:00:00.000Z,CHURCHES,21044204,-122.3754575,47.6487211,CHRISTIAN,NOT AVAILABLE,NOT AVAILABLE,NOT AVAILABLE,N,Y
6620,10442898,SAINT PETER CATHOLIC CHURCH,SEATTLE,WA,98144,5723,KING,53033,2009-03-24T00:00:00.000Z,ALT REF,2009-03-24T00:00:00.000Z,CHURCHES,21083840,-122.3137645,47.5783918,CHRISTIAN,NOT AVAILABLE,NOT AVAILABLE,NOT AVAILABLE,N,Y
6621,10685018,SEATTLE BUDDHIST CENTER,SEATTLE,WA,98115,4357,KING,53033,2009-03-23T00:00:00.000Z,ALT REF,2009-03-23T00:00:00.000Z,PLACES OF WORSHIP,21052002,-122.3154094,47.6853983,BUDDHIST,WESTERN BUDDHISM,NOT AVAILABLE,NOT AVAILABLE,N,N
6622,10685193,THREE TREASURES SANGHA OF THE PACIFIC NORTHWEST,SEATTLE,WA,98144,4628,KING,53033,2009-03-25T00:00:00.000Z,ALT REF,2009-03-25T00:00:00.000Z,PLACES OF WORSHIP,21083665,-122.3012886,47.5859235,BUDDHIST,SOTO/RINZAI ZEN,NOT AVAILABLE,NOT AVAILABLE,N,N
6650,10431340,SUFI ORDER NORTH AMERICAN SECRETARIAT,SEATTLE,WA,98102,3801,KING,53033,2009-03-26T00:00:00.000Z,ALT REF,2009-04-01T00:00:00.000Z,"MOSQUES, RELIGIOUS",732523703,-122.3233755,47.6495845,MUSLIM,NOT AVAILABLE,NOT AVAILABLE,NOT AVAILABLE,N,N
6998,10441153,EPIPHANY PARISH OF SEATTLE CHURCH,SEATTLE,WA,98122,3447,KING,53033,2009-04-01T00:00:00.000Z,ALT REF,2009-04-01T00:00:00.000Z,CHURCHES,21082457,-122.2861222,47.6181248,CHRISTIAN,EPIS,NOT AVAILABLE,NOT AVAILABLE,Y,N
5918,10428927,FRIENDSHIP CIRCLE,SEATTLE,WA,98115,7441,KING,53033,2007-07-26T00:00:00.000Z,PHONE,2007-07-26T00:00:00.000Z,SYNAGOGUES,21048822,-122.2856959,47.6769361,JUDAIC,CHABAD,NOT AVAILABLE,CHABAD,N,N
5926,10438515,THE CHURCH OF JESUS CHRIST OF LATTER DAY SAINTS - SKYWAY WARD,SEATTLE,WA,98178,NULL,KING,53033,2007-10-17T00:00:00.000Z,ALT REF,2007-10-17T00:00:00.000Z,CHURCHES,21071392,-122.2295688,47.4905746,CHRISTIAN,LDS,NOT AVAILABLE,NOT AVAILABLE,Y,N
5936,10440440,ALL SAINTS EPISCOPAL CHURCH,SEATTLE,WA,98118,4711,KING,53033,2009-03-17T00:00:00.000Z,ALT REF,2009-03-17T00:00:00.000Z,CHURCHES,21081715,-122.2682717,47.5276834,CHRISTIAN,EPIS,NOT AVAILABLE,NOT AVAILABLE,Y,N
5937,10457760,FIRST AFRICAN METHODIST EPISCOPAL CHURCH,SEATTLE,WA,98122,4024,KING,53033,2009-03-18T00:00:00.000Z,ALT REF,2009-03-18T00:00:00.000Z,CHURCHES,21082906,-122.3137928,47.6149457,CHRISTIAN,AME,NOT AVAILABLE,NOT AVAILABLE,Y,N
5939,10589741,PROGRESSIVE BAPTIST CHURCH,SEATTLE,WA,98122,4513,KING,53033,2009-03-20T00:00:00.000Z,ALT REF,2009-03-20T00:00:00.000Z,CHURCHES,21083263,-122.3145586,47.6117446,CHRISTIAN,ABC,NOT AVAILABLE,NOT AVAILABLE,Y,N
5944,10589712,MACEDONIA MISSIONARY BAPTIST CHURCH,SEATTLE,WA,98108,3913,KING,53033,2009-03-19T00:00:00.000Z,ALT REF,2009-03-19T00:00:00.000Z,CHURCHES,21087463,-122.2945688,47.5383788,CHRISTIAN,ABC,NOT AVAILABLE,NOT AVAILABLE,Y,N
5947,10431406,ISLAMIC INFORMATION CENTER OF SEATTLE,SEATTLE,WA,98144,2357,KING,53033,2009-03-19T00:00:00.000Z,ALT REF,2009-03-19T00:00:00.000Z,"MOSQUES, RELIGIOUS",727659256,-122.3018331,47.5988401,MUSLIM,NOT AVAILABLE,NOT AVAILABLE,NOT AVAILABLE,N,N
5948,10447178,ASSUMPTION CATHOLIC CHURCH,SEATTLE,WA,98115,7306,KING,53033,2009-03-17T00:00:00.000Z,ALT REF,2009-03-17T00:00:00.000Z,CHURCHES,21048370,-122.2925919,47.6744093,CHRISTIAN,NOT AVAILABLE,NOT AVAILABLE,NOT AVAILABLE,N,Y
5950,10431343,IDRIS MOSQUE,SEATTLE,WA,98125,6400,KING,53033,2009-03-19T00:00:00.000Z,ALT REF,2009-03-19T00:00:00.000Z,"MOSQUES, RELIGIOUS",724756013,-122.3128201,47.7087198,MUSLIM,NOT AVAILABLE,NOT AVAILABLE,NOT AVAILABLE,N,N
5951,10461420,HILLCREST PRESBYTERIAN CHURCH,SEATTLE,WA,98146,1270,KING,53033,2009-03-19T00:00:00.000Z,ALT REF,2009-03-19T00:00:00.000Z,CHURCHES,21085775,-122.3741209,47.5094499,CHRISTIAN,PCA,NOT AVAILABLE,NOT AVAILABLE,Y,N
5952,10684127,CHAGDUD GONPA AMRITA,SEATTLE,WA,98125,3341,KING,53033,2009-03-17T00:00:00.000Z,ALT REF,2009-03-17T00:00:00.000Z,PLACES OF WORSHIP,21050338,-122.3049614,47.7282018,BUDDHIST,"TIBETAN, NYINGMAPA",NOT AVAILABLE,NOT AVAILABLE,N,N
5956,10589704,GREATER FRIENDSHIP MISSIONARY BAPTIST CHURCH,SEATTLE,WA,98122,3161,KING,53033,2009-03-18T00:00:00.000Z,ALT REF,2009-03-18T00:00:00.000Z,CHURCHES,21083143,-122.2976872,47.6127384,CHRISTIAN,ABC,NOT AVAILABLE,NOT AVAILABLE,Y,N
5962,10579832,SKYLINE BAPTIST CHURCH,SEATTLE,WA,98115,8166,KING,53033,2009-03-26T00:00:00.000Z,ALT REF,2009-03-26T00:00:00.000Z,CHURCHES,109835523,-122.2634835,47.6824324,CHRISTIAN,BAPT,NOT AVAILABLE,NOT AVAILABLE,Y,N
5968,10447183,OUR LADY OF LOURDES,SEATTLE,WA,98168,1525,KING,53033,2009-03-20T00:00:00.000Z,ALT REF,2009-03-20T00:00:00.000Z,CHURCHES,21085193,-122.3175915,47.5109212,CHRISTIAN,NOT AVAILABLE,NOT AVAILABLE,NOT AVAILABLE,N,Y
5969,10432620,MOUNT ZION BAPTIST CHURCH,SEATTLE,WA,98122,2849,KING,53033,2009-03-20T00:00:00.000Z,ALT REF,2009-03-20T00:00:00.000Z,CHURCHES,21083239,-122.3068501,47.6162619,CHRISTIAN,BAPT,NOT AVAILABLE,NOT AVAILABLE,Y,N
5972,10447179,BLESSED SACRAMENT CHURCH,SEATTLE,WA,98105,3603,KING,53033,2009-03-17T00:00:00.000Z,ALT REF,2009-03-26T00:00:00.000Z,CHURCHES,21052037,-122.3191741,47.6665607,CHRISTIAN,NOT AVAILABLE,NOT AVAILABLE,NOT AVAILABLE,N,Y
5977,10432616,UNIVERSITY PRESBYTERIAN CHURCH,SEATTLE,WA,98105,4507,KING,53033,2007-09-10T00:00:00.000Z,ALT REF,2007-09-14T00:00:00.000Z,CHURCHES,21048148,-122.311616,47.6626365,CHRISTIAN,PCUSA,NOT AVAILABLE,NOT AVAILABLE,Y,N
5985,10684885,PEACH TEA SANGHA,SEATTLE,WA,98115,5620,KING,53033,2009-03-13T00:00:00.000Z,ALT REF,2009-03-13T00:00:00.000Z,PLACES OF WORSHIP,21052008,-122.3134798,47.6801639,BUDDHIST,ZEN BUDDHIST MASTER THICH NHAT HAHN,NOT AVAILABLE,NOT AVAILABLE,N,N
5991,10447171,SOUTH GEORGE CATHOLIC CHURCH,SEATTLE,WA,98108,2312,KING,53033,2009-03-23T00:00:00.000Z,ALT REF,2009-03-23T00:00:00.000Z,CHURCHES,21087695,-122.3155349,47.5546134,CHRISTIAN,NOT AVAILABLE,NOT AVAILABLE,NOT AVAILABLE,N,Y