OBJECTID,ID,NAME,CITY,STATE,ZIP,ZIPP4,COUNTY,FIPS,CONTDATE,CONTHOW,GEODATE,NAICSDESCR,GEOLINKID,X,Y,SUBTYPE,DENOM,MEMBERS,LOC_TYPE,PROT,CATH
33795,10440204,CHRIST CHURCH - GEORGETOWN,WASHINGTON,DC,20007,3116,DISTRICT OF COLUMBIA,11001,2007-11-07T00:00:00.000Z,ALT REF,2007-11-07T00:00:00.000Z,CHURCHES,18352515,-77.0614552,38.9082943,CHRISTIAN,EPIS,NOT AVAILABLE,NOT AVAILABLE,Y,N
33800,10441742,CHURCH OF THE ANNUNCIATION,WASHINGTON,DC,20016,5101,DISTRICT OF COLUMBIA,11001,2009-04-22T00:00:00.000Z,ALT REF,2009-04-30T00:00:00.000Z,CHURCHES,18350280,-77.0762507,38.9299062,CHRISTIAN,NOT AVAILABLE,NOT AVAILABLE,NOT AVAILABLE,N,Y
33802,10441534,SAINT DAVIDS EPISCOPAL CHURCH,WASHINGTON,DC,20016,2612,DISTRICT OF COLUMBIA,11001,2009-04-29T00:00:00.000Z,ALT REF,2009-04-29T00:00:00.000Z,CHURCHES,18418944,-77.105935,38.9322894,CHRISTIAN,EPIS,NOT AVAILABLE,NOT AVAILABLE,Y,N
33808,10430297,THE ISLAMIC CENTER,WASHINGTON,DC,20008,2826,DISTRICT OF COLUMBIA,11001,2009-04-23T00:00:00.000Z,ALT REF,2009-04-30T00:00:00.000Z,"MOSQUES, RELIGIOUS",18351525,-77.0566514,38.9170968,MUSLIM,NOT AVAILABLE,NOT AVAILABLE,NOT AVAILABLE,N,N
33809,10441752,EPIPHANY CATHOLIC CHURCH,WASHINGTON,DC,20007,3321,DISTRICT OF COLUMBIA,11001,2009-04-22T00:00:00.000Z,ALT REF,2009-04-22T00:00:00.000Z,CHURCHES,18352563,-77.0564378,38.9074695,CHRISTIAN,NOT AVAILABLE,NOT AVAILABLE,NOT AVAILABLE,N,Y
33818,10441515,SAINT JOHNS CHURCH,WASHINGTON,DC,20007,2842,DISTRICT OF COLUMBIA,11001,2009-04-29T00:00:00.000Z,ALT REF,2009-04-29T00:00:00.000Z,CHURCHES,18352542,-77.0650263,38.9074636,CHRISTIAN,EPIS,NOT AVAILABLE,NOT AVAILABLE,Y,N
33828,10445613,SAINT BLAISE CHURCH,WASHINGTON,DC,20007,1564,DISTRICT OF COLUMBIA,11001,2008-03-27T00:00:00.000Z,ALT REF,2008-03-27T00:00:00.000Z,CHURCHES,18474951,-77.094799,38.9163125,CHRISTIAN,NOT AVAILABLE,NOT AVAILABLE,NOT AVAILABLE,N,Y
33865,10441528,EPISCOPAL CHURCH HOUSE - CHAPEL OF THE ANNUNCIATION,WASHINGTON,DC,20016,NULL,DISTRICT OF COLUMBIA,11001,2007-11-08T00:00:00.000Z,ALT REF,2007-11-08T00:00:00.000Z,CHURCHES,18350288,-77.0717212,38.9296588,CHRISTIAN,EPIS,NOT AVAILABLE,NOT AVAILABLE,Y,N
33866,10441529,SAINT PATRICK'S EPISCOPAL CHURCH,WASHINGTON,DC,20007,1554,DISTRICT OF COLUMBIA,11001,2007-11-07T00:00:00.000Z,ALT REF,2007-11-07T00:00:00.000Z,CHURCHES,18409108,-77.0911928,38.916098,CHRISTIAN,EPIS,NOT AVAILABLE,NOT AVAILABLE,Y,N
33867,10685032,SHAMBHALA MEDITATION CENTER OF WASHINGTON DISTRICT OF COLUMBIA,WASHINGTON,DC,20008,2463,DISTRICT OF COLUMBIA,11001,2009-04-29T00:00:00.000Z,ALT REF,2009-05-06T00:00:00.000Z,PLACES OF WORSHIP,724265512,-77.0592904,38.9362494,BUDDHIST,"TIBETAN, KAGYU/NGINGMA",NOT AVAILABLE,NOT AVAILABLE,N,N
33869,10441743,SAINT ANN'S CATHOLIC CHURCH,WASHINGTON,DC,20016,2107,DISTRICT OF COLUMBIA,11001,2007-08-29T00:00:00.000Z,ALT REF,2007-08-29T00:00:00.000Z,CHURCHES,18417345,-77.079723,38.9465611,CHRISTIAN,NOT AVAILABLE,NOT AVAILABLE,NOT AVAILABLE,N,Y
33883,10441725,OUR LADY OF VICTORY CHURCH,WASHINGTON,DC,20007,1564,DISTRICT OF COLUMBIA,11001,2008-03-27T00:00:00.000Z,ALT REF,2008-03-27T00:00:00.000Z,CHURCHES,18474951,-77.0947999,38.916311,CHRISTIAN,NOT AVAILABLE,NOT AVAILABLE,NOT AVAILABLE,N,Y
33966,10441729,SAINT ANNS CONVENT,WASHINGTON,DC,20016,2109,DISTRICT OF COLUMBIA,11001,2009-04-28T00:00:00.000Z,ALT REF,2009-04-28T00:00:00.000Z,CONVENTS (EXCEPT SCHOOLS),18417345,-77.0814824,38.9465192,CHRISTIAN,NOT AVAILABLE,NOT AVAILABLE,NOT AVAILABLE,N,Y
34004,10441755,HOLY TRINITY CATHOLIC CHURCH,WASHINGTON,DC,20007,2613,DISTRICT OF COLUMBIA,11001,2009-04-22T00:00:00.000Z,ALT REF,2009-04-24T00:00:00.000Z,CHURCHES,18352554,-77.0700574,38.9071827,CHRISTIAN,NOT AVAILABLE,NOT AVAILABLE,NOT AVAILABLE,N,Y
34009,10585308,JERUSALEM BAPTIST CHURCH,WASHINGTON,DC,20007,3062,DISTRICT OF COLUMBIA,11001,2009-04-23T00:00:00.000Z,ALT REF,2009-04-23T00:00:00.000Z,CHURCHES,18352386,-77.0549883,38.9091568,CHRISTIAN,ABC,NOT AVAILABLE,NOT AVAILABLE,Y,N
34017,10586225,THE GEORGETOWN BAPTIST CHURCH,WASHINGTON,DC,20007,3420,DISTRICT OF COLUMBIA,11001,2009-04-22T00:00:00.000Z,ALT REF,2009-04-22T00:00:00.000Z,CHURCHES,18352698,-77.0614209,38.9070076,CHRISTIAN,ABC,NOT AVAILABLE,NOT AVAILABLE,Y,N
34023,10441718,FREE CATHOLIC CHURCH,WASHINGTON,DC,20007,1439,DISTRICT OF COLUMBIA,11001,2009-04-30T00:00:00.000Z,ALT REF,2009-05-01T00:00:00.000Z,CHURCHES,18350428,-77.0672928,38.9272977,CHRISTIAN,NOT AVAILABLE,NOT AVAILABLE,NOT AVAILABLE,N,Y
34026,10441738,SAINT THOMAS APOSTLE CATHOLIC,WASHINGTON,DC,20008,4105,DISTRICT OF COLUMBIA,11001,2009-04-30T00:00:00.000Z,ALT REF,2009-05-01T00:00:00.000Z,CHURCHES,18465910,-77.054993,38.926128,CHRISTIAN,NOT AVAILABLE,NOT AVAILABLE,NOT AVAILABLE,N,Y
34060,10430122,KESHER ISRAEL - THE GEORGETOWN SYNAGOGUE,WASHINGTON,DC,20007,3340,DISTRICT OF COLUMBIA,11001,2007-07-31T00:00:00.000Z,PHONE,2007-07-31T00:00:00.000Z,SYNAGOGUES,18352692,-77.0572292,38.9070267,JUDAIC,NOT AVAILABLE,NOT AVAILABLE,NOT AVAILABLE,N,N
34061,10430120,TEMPLE SINAI,WASHINGTON,DC,20015,1318,DISTRICT OF COLUMBIA,11001,2007-07-30T00:00:00.000Z,PHONE,2007-07-30T00:00:00.000Z,SYNAGOGUES,18415221,-77.0629089,38.9605534,JUDAIC,NOT AVAILABLE,NOT AVAILABLE,NOT AVAILABLE,N,N
34065,10430124,ADAS ISRAEL CONGREGATION,WASHINGTON,DC,20008,5200,DISTRICT OF COLUMBIA,11001,2007-07-30T00:00:00.000Z,PHONE,2007-07-30T00:00:00.000Z,SYNAGOGUES,18418503,-77.0575349,38.9367952,JUDAIC,NOT AVAILABLE,NOT AVAILABLE,NOT AVAILABLE,N,N
34076,10441714,LA PAROISSE SAINT LOUIS DE FRANCE,WASHINGTON,DC,20016,4223,DISTRICT OF COLUMBIA,11001,2007-08-29T00:00:00.000Z,ALT REF,2007-09-04T00:00:00.000Z,CHURCHES,18416036,-77.0816232,38.9562322,CHRISTIAN,NOT AVAILABLE,NOT AVAILABLE,NOT AVAILABLE,N,Y
34077,10430127,WASHINGTON HEBREW CONGREGATIONS,WASHINGTON,DC,20016,3741,DISTRICT OF COLUMBIA,11001,2007-07-30T00:00:00.000Z,PHONE,2007-07-30T00:00:00.000Z,SYNAGOGUES,18571423,-77.078397,38.933831,JUDAIC,NOT AVAILABLE,NOT AVAILABLE,NOT AVAILABLE,N,N
34082,10430126,TEMPLE MICAH,WASHINGTON,DC,20007,4702,DISTRICT OF COLUMBIA,11001,2007-07-30T00:00:00.000Z,PHONE,2007-07-30T00:00:00.000Z,SYNAGOGUES,117281089,-77.0728331,38.9269263,JUDAIC,NOT AVAILABLE,NOT AVAILABLE,NOT AVAILABLE,N,N
34122,10441527,WASHINGTON NATIONAL CATHEDRAL,WASHINGTON,DC,20016,5015,DISTRICT OF COLUMBIA,11001,2007-11-07T00:00:00.000Z,ALT REF,2007-11-07T00:00:00.000Z,CHURCHES,18618214,-77.0708633,38.9306063,CHRISTIAN,EPIS,NOT AVAILABLE,NOT AVAILABLE,Y,N
34136,10586222,FIRST BAPTIST CHURCH - GEORGETOWN,WASHINGTON,DC,20007,3319,DISTRICT OF COLUMBIA,11001,2009-04-22T00:00:00.000Z,ALT REF,2009-04-22T00:00:00.000Z,CHURCHES,18352560,-77.0556709,38.9075624,CHRISTIAN,ABC,NOT AVAILABLE,NOT AVAILABLE,Y,N
34137,10584469,ARABIC BAPTIST CHURCH,WASHINGTON,DC,20016,2361,DISTRICT OF COLUMBIA,11001,2009-04-20T00:00:00.000Z,ALT REF,2009-04-23T00:00:00.000Z,CHURCHES,18418023,-77.0913136,38.9423488,CHRISTIAN,BAPT,NOT AVAILABLE,NOT AVAILABLE,Y,N
34138,10586215,CHEVY CHASE BAPTIST CHURCH,WASHINGTON,DC,20015,2952,DISTRICT OF COLUMBIA,11001,2009-04-22T00:00:00.000Z,ALT REF,2009-04-22T00:00:00.000Z,CHURCHES,18901171,-77.0784316,38.9660817,CHRISTIAN,ABC,NOT AVAILABLE,NOT AVAILABLE,Y,N
34139,10584468,INDEPENDENT BAPTIST CHURCH OF GEORGETOWN,WASHINGTON,DC,20007,1921,DISTRICT OF COLUMBIA,11001,2009-04-22T00:00:00.000Z,ALT REF,2009-04-22T00:00:00.000Z,CHURCHES,18351695,-77.0924765,38.9158024,CHRISTIAN,BAPT,NOT AVAILABLE,NOT AVAILABLE,Y,N
34140,10432276,NATIONAL PRESBYTERIAN CHURCH,WASHINGTON,DC,20016,2735,DISTRICT OF COLUMBIA,11001,2009-04-24T00:00:00.000Z,ALT REF,2009-04-24T00:00:00.000Z,CHURCHES,117281130,-77.0807828,38.9416889,CHRISTIAN,PCUSA,NOT AVAILABLE,NOT AVAILABLE,Y,N
34141,10441536,SAINT COLUMBAS EPISCOPAL CHURCH,WASHINGTON,DC,20016,2009,DISTRICT OF COLUMBIA,11001,2009-04-29T00:00:00.000Z,ALT REF,2009-04-29T00:00:00.000Z,CHURCHES,18417066,-77.0823453,38.9483745,CHRISTIAN,EPIS,NOT AVAILABLE,NOT AVAILABLE,Y,N
34142,10441513,SAINT ALBANS EPISCOPAL CHURCH,WASHINGTON,DC,20016,5006,DISTRICT OF COLUMBIA,11001,2009-04-29T00:00:00.000Z,ALT REF,2009-04-29T00:00:00.000Z,CHURCHES,718108111,-77.072254,38.9294697,CHRISTIAN,EPIS,NOT AVAILABLE,NOT AVAILABLE,Y,N
34144,10441710,SHRINE OF THE MOST BLESSED SACRAMENT,WASHINGTON,DC,20015,2538,DISTRICT OF COLUMBIA,11001,2009-04-30T00:00:00.000Z,ALT REF,2009-04-30T00:00:00.000Z,"SHRINES, RELIGIOUS",18414087,-77.075175,38.9683811,CHRISTIAN,NOT AVAILABLE,NOT AVAILABLE,NOT AVAILABLE,N,Y
34145,10586247,WISCONSIN AVENUE BAPTIST CHURCH,WASHINGTON,DC,20016,2210,DISTRICT OF COLUMBIA,11001,2009-04-30T00:00:00.000Z,ALT REF,2009-04-30T00:00:00.000Z,CHURCHES,18417230,-77.0776906,38.9468748,CHRISTIAN,ABC,NOT AVAILABLE,NOT AVAILABLE,Y,N
34174,10585498,GRACE CHURCH,WASHINGTON,DC,20007,3635,DISTRICT OF COLUMBIA,11001,2009-04-30T00:00:00.000Z,ALT REF,2009-04-30T00:00:00.000Z,CHURCHES,18353063,-77.0620149,38.9035811,CHRISTIAN,NOT AVAILABLE,NOT AVAILABLE,NOT AVAILABLE,Y,N
34316,10683707,SOKA GAKKAI INTERNATIONAL - UNITED STATES OF AMERICA,WASHINGTON,DC,20007,1446,DISTRICT OF COLUMBIA,11001,2009-08-03T00:00:00.000Z,ALT REF,2009-08-07T00:00:00.000Z,PLACES OF WORSHIP,18350709,-77.0680673,38.925334,BUDDHIST,"MAHAYANA, NON-SECTARIAN,",NOT AVAILABLE,NOT AVAILABLE,N,N
34538,10432271,CHRIST CHURCH ON EMBASSY ROW,WASHINGTON,DC,20016,5102,DISTRICT OF COLUMBIA,11001,2009-04-30T00:00:00.000Z,ALT REF,2009-04-30T00:00:00.000Z,CHURCHES,18350280,-77.0761098,38.9314328,CHRISTIAN,NOT AVAILABLE,NOT AVAILABLE,NOT AVAILABLE,Y,N
44041,10432275,THE TEMPLE OF PRAISE,WASHINGTON,DC,20032,3404,DISTRICT OF COLUMBIA,11001,2008-03-13T00:00:00.000Z,ALT REF,2008-03-13T00:00:00.000Z,CHURCHES,18405767,-76.9961025,38.8261133,CHRISTIAN,NONDENOM,NOT AVAILABLE,NOT AVAILABLE,Y,N
44056,10586219,FELLOWSHIP BAPTIST CHURCH,WASHINGTON,DC,20011,7803,DISTRICT OF COLUMBIA,11001,2009-04-21T00:00:00.000Z,ALT REF,2009-04-21T00:00:00.000Z,CHURCHES,18415824,-77.0317044,38.9575896,CHRISTIAN,ABC,NOT AVAILABLE,NOT AVAILABLE,Y,N
44057,10586216,COVENANT BAPTIST CHURCH,WASHINGTON,DC,20032,1419,DISTRICT OF COLUMBIA,11001,2009-04-21T00:00:00.000Z,ALT REF,2009-04-21T00:00:00.000Z,CHURCHES,724058100,-77.0087036,38.8340323,CHRISTIAN,ABC,NOT AVAILABLE,NOT AVAILABLE,Y,N
44058,10586213,BROOKLAND UNION BAPTIST CHURCH,WASHINGTON,DC,20017,2927,DISTRICT OF COLUMBIA,11001,2009-04-21T00:00:00.000Z,ALT REF,2009-04-21T00:00:00.000Z,CHURCHES,18382819,-76.9856053,38.9290271,CHRISTIAN,ABC,NOT AVAILABLE,NOT AVAILABLE,Y,N
44059,10586214,CANAAN BAPTIST CHURCH,WASHINGTON,DC,20010,1803,DISTRICT OF COLUMBIA,11001,2009-04-21T00:00:00.000Z,ALT REF,2009-04-21T00:00:00.000Z,CHURCHES,18418900,-77.0369633,38.9331447,CHRISTIAN,ABC,NOT AVAILABLE,NOT AVAILABLE,Y,N
44060,10453389,FIRST RISING MOUNT ZION BAPTIST,WASHINGTON,DC,20001,3427,DISTRICT OF COLUMBIA,11001,2009-04-22T00:00:00.000Z,ALT REF,2009-04-22T00:00:00.000Z,CHURCHES,18352638,-77.0202709,38.9070003,CHRISTIAN,NBC,NOT AVAILABLE,NOT AVAILABLE,Y,N
44061,10586212,BETHESDA BAPTIST CHURCH,WASHINGTON,DC,20002,1708,DISTRICT OF COLUMBIA,11001,2009-04-21T00:00:00.000Z,ALT REF,2009-04-21T00:00:00.000Z,CHURCHES,18384124,-76.9861253,38.9111077,CHRISTIAN,ABC,NOT AVAILABLE,NOT AVAILABLE,Y,N
44062,10453369,FRIENDSHIP BAPTIST CHURCH,WASHINGTON,DC,20024,3630,DISTRICT OF COLUMBIA,11001,2009-04-22T00:00:00.000Z,ALT REF,2009-04-22T00:00:00.000Z,CHURCHES,18354658,-77.0125591,38.8788846,CHRISTIAN,NBC,NOT AVAILABLE,NOT AVAILABLE,Y,N
44063,10441520,ALL SOULS MEMORIAL EPISCOPAL CHURCH,WASHINGTON,DC,20008,1505,DISTRICT OF COLUMBIA,11001,2009-04-20T00:00:00.000Z,ALT REF,2009-04-20T00:00:00.000Z,CHURCHES,18350403,-77.0528834,38.927601,CHRISTIAN,EPIS,NOT AVAILABLE,NOT AVAILABLE,Y,N
44064,10586211,ANTIOCH BAPTIST CHURCH,WASHINGTON,DC,20019,4023,DISTRICT OF COLUMBIA,11001,2009-04-20T00:00:00.000Z,ALT REF,2009-04-20T00:00:00.000Z,CHURCHES,18384606,-76.9283047,38.9050173,CHRISTIAN,ABC,NOT AVAILABLE,NOT AVAILABLE,Y,N
44065,10457022,BROWN MEMORIAL AFRICAN METHODIST EPISCOPAL CHURCH,WASHINGTON,DC,20002,NULL,DISTRICT OF COLUMBIA,11001,2009-04-21T00:00:00.000Z,ALT REF,2009-04-21T00:00:00.000Z,CHURCHES,18386210,-76.9861693,38.8918262,CHRISTIAN,AME,NOT AVAILABLE,NOT AVAILABLE,Y,N
44066,10437238,CALVARY BAPTIST CHURCH,WASHINGTON,DC,20001,3721,DISTRICT OF COLUMBIA,11001,2009-04-21T00:00:00.000Z,ALT REF,2009-04-21T00:00:00.000Z,CHURCHES,18353519,-77.0225159,38.8995749,CHRISTIAN,SBC,793,NOT AVAILABLE,Y,N
44067,10440166,CALVARY EPISCOPAL CHURCH,WASHINGTON,DC,20002,4326,DISTRICT OF COLUMBIA,11001,2009-04-21T00:00:00.000Z,ALT REF,2009-04-21T00:00:00.000Z,CHURCHES,18385115,-76.9987443,38.9008759,CHRISTIAN,EPIS,NOT AVAILABLE,NOT AVAILABLE,Y,N
44068,10452748,CAPITAL VIEW BAPTIST CHURCH,WASHINGTON,DC,20019,6606,DISTRICT OF COLUMBIA,11001,2009-04-21T00:00:00.000Z,ALT REF,2009-04-21T00:00:00.000Z,CHURCHES,18386301,-76.9277185,38.8905442,CHRISTIAN,NBC,NOT AVAILABLE,NOT AVAILABLE,Y,N
44069,10684071,BUDDHIST GROUP WASHINGTON DISTRICT OF COLUMBIA,WASHINGTON,DC,20005,4081,DISTRICT OF COLUMBIA,11001,2009-04-21T00:00:00.000Z,ALT REF,2009-04-21T00:00:00.000Z,PLACES OF WORSHIP,18352962,-77.0273396,38.9044656,BUDDHIST,"TIBETAN, KARMA KAGYU, DIAMOND WAY",NOT AVAILABLE,NOT AVAILABLE,N,N
44070,10586220,FIRST BAPTIST CHURCH OF MARSHALL HEIGHTS,WASHINGTON,DC,20019,6259,DISTRICT OF COLUMBIA,11001,2009-04-21T00:00:00.000Z,ALT REF,2009-04-21T00:00:00.000Z,CHURCHES,18386840,-76.9305412,38.8868801,CHRISTIAN,ABC,NOT AVAILABLE,NOT AVAILABLE,Y,N
44071,10453698,FIRST BAPTIST CHURCH,WASHINGTON,DC,20019,2355,DISTRICT OF COLUMBIA,11001,2009-04-21T00:00:00.000Z,ALT REF,2009-04-21T00:00:00.000Z,CHURCHES,18387077,-76.9564312,38.8856573,CHRISTIAN,NBC,NOT AVAILABLE,NOT AVAILABLE,Y,N
44072,10455332,ENON BAPTIST CHURCH,WASHINGTON,DC,20002,3541,DISTRICT OF COLUMBIA,11001,2009-04-21T00:00:00.000Z,ALT REF,2009-04-21T00:00:00.000Z,CHURCHES,18384726,-76.9990668,38.9035249,CHRISTIAN,NBC,NOT AVAILABLE,NOT AVAILABLE,Y,N
44073,10454627,EBENEZER BAPTIST CHURCH,WASHINGTON,DC,20001,1106,DISTRICT OF COLUMBIA,11001,2009-04-21T00:00:00.000Z,ALT REF,2009-04-21T00:00:00.000Z,CHURCHES,18352200,-77.011159,38.9108975,CHRISTIAN,NBC,NOT AVAILABLE,NOT AVAILABLE,Y,N
44074,10574892,BETH SHALOM AFRICAN METHODIST EPISCOPAL ZION CHURCH,WASHINGTON,DC,20002,2513,DISTRICT OF COLUMBIA,11001,2009-04-21T00:00:00.000Z,ALT REF,2009-04-21T00:00:00.000Z,CHURCHES,18384369,-76.9786373,38.9068803,CHRISTIAN,AMEZ,NOT AVAILABLE,NOT AVAILABLE,Y,N
44075,10586224,FLORIDA AVENUE BAPTIST CHURCH,WASHINGTON,DC,20001,1852,DISTRICT OF COLUMBIA,11001,2009-04-22T00:00:00.000Z,ALT REF,2009-04-22T00:00:00.000Z,CHURCHES,18351616,-77.020857,38.9161429,CHRISTIAN,ABC,NOT AVAILABLE,NOT AVAILABLE,Y,N
44076,10586221,FIRST BAPTIST CHURCH OF WASHINGTON DISTRICT OF COLUMBIA,WASHINGTON,DC,20036,2206,DISTRICT OF COLUMBIA,11001,2009-04-22T00:00:00.000Z,ALT REF,2009-04-22T00:00:00.000Z,CHURCHES,18352580,-77.0371908,38.9084462,CHRISTIAN,ABC,NOT AVAILABLE,NOT AVAILABLE,Y,N
44077,10586217,EAST WASHINGTON HEIGHTS BAPTIST CHURCH,WASHINGTON,DC,20020,3340,DISTRICT OF COLUMBIA,11001,2009-04-20T00:00:00.000Z,ALT REF,2009-04-20T00:00:00.000Z,CHURCHES,18403150,-76.9585954,38.8628342,CHRISTIAN,ABC,NOT AVAILABLE,NOT AVAILABLE,Y,N
44078,10684017,BRIGHT PEARL ZEN GROUP OF WASHINGTON,WASHINGTON,DC,20012,1905,DISTRICT OF COLUMBIA,11001,2009-04-21T00:00:00.000Z,ALT REF,2009-04-21T00:00:00.000Z,PLACES OF WORSHIP,18413543,-77.0196261,38.9730907,BUDDHIST,SOTO/RINZAI ZEN,NOT AVAILABLE,NOT AVAILABLE,N,N
44079,10586226,HOLY COMFORTER BAPTIST CHURCH,WASHINGTON,DC,20020,2104,DISTRICT OF COLUMBIA,11001,2009-04-22T00:00:00.000Z,ALT REF,2009-04-22T00:00:00.000Z,CHURCHES,18408998,-76.977388,38.8482486,CHRISTIAN,ABC,NOT AVAILABLE,NOT AVAILABLE,Y,N
44080,10585130,MORNING STAR BAPTIST CHURCH,WASHINGTON,DC,20032,1501,DISTRICT OF COLUMBIA,11001,2009-04-24T00:00:00.000Z,ALT REF,2009-04-23T00:00:00.000Z,CHURCHES,18359794,-77.0006733,38.8435354,CHRISTIAN,ABC,NOT AVAILABLE,NOT AVAILABLE,Y,N
44081,10684560,KAGYU DRUPGYU CHODZONG,WASHINGTON,DC,20003,2439,DISTRICT OF COLUMBIA,11001,2009-04-23T00:00:00.000Z,ALT REF,2009-04-23T00:00:00.000Z,PLACES OF WORSHIP,18387106,-76.9829248,38.8838876,BUDDHIST,KARMA KAGYU AND SHANGPA KAGYU LINEAGES,NOT AVAILABLE,NOT AVAILABLE,N,N
44082,10586235,NEW SAMARITAN BAPTIST CHURCH,WASHINGTON,DC,20002,7104,DISTRICT OF COLUMBIA,11001,2009-04-24T00:00:00.000Z,ALT REF,2009-04-24T00:00:00.000Z,CHURCHES,18384773,-76.9916628,38.9037106,CHRISTIAN,ABC,NOT AVAILABLE,NOT AVAILABLE,Y,N
44083,10574890,GALBRAITH AFRICAN METHODIST EPISCOPAL ZION CHURCH,WASHINGTON,DC,20001,3629,DISTRICT OF COLUMBIA,11001,2009-04-22T00:00:00.000Z,ALT REF,2009-04-22T00:00:00.000Z,CHURCHES,18352973,-77.0201933,38.9047011,CHRISTIAN,AMEZ,NOT AVAILABLE,NOT AVAILABLE,Y,N
44084,10585448,MOUNT HOREB BAPTIST CHURCH,WASHINGTON,DC,20018,1632,DISTRICT OF COLUMBIA,11001,2009-04-24T00:00:00.000Z,ALT REF,2009-04-23T00:00:00.000Z,CHURCHES,18382983,-76.9623522,38.927997,CHRISTIAN,ABC,NOT AVAILABLE,NOT AVAILABLE,Y,N
44086,10586244,SAINT MARYS BAPTIST CHURCH,WASHINGTON,DC,20012,1311,DISTRICT OF COLUMBIA,11001,2009-04-29T00:00:00.000Z,ALT REF,2009-04-29T00:00:00.000Z,CHURCHES,18411329,-77.0303371,38.9870147,CHRISTIAN,ABC,NOT AVAILABLE,NOT AVAILABLE,Y,N
44087,10684521,INTERNATIONAL BUDDHIST WORSHIP SERVICES,WASHINGTON,DC,20052,1,DISTRICT OF COLUMBIA,11001,2009-04-23T00:00:00.000Z,ALT REF,2009-04-23T00:00:00.000Z,PLACES OF WORSHIP,732182238,-77.0478119,38.9001813,BUDDHIST,THERAVADA,NOT AVAILABLE,NOT AVAILABLE,N,N
44088,10574883,TRINITY AFRICAN METHODIST EPISCOPAL ZION CHURCH,WASHINGTON,DC,20010,3003,DISTRICT OF COLUMBIA,11001,2009-04-29T00:00:00.000Z,ALT REF,2009-04-29T00:00:00.000Z,CHURCHES,18418757,-77.0359779,38.9345563,CHRISTIAN,AMEZ,NOT AVAILABLE,NOT AVAILABLE,Y,N
44089,10441525,INTERCESSION CHAPEL,WASHINGTON,DC,20010,3017,DISTRICT OF COLUMBIA,11001,2009-04-23T00:00:00.000Z,ALT REF,2009-04-23T00:00:00.000Z,CHURCHES,19449727,-77.0148986,38.9287519,CHRISTIAN,EPIS,NOT AVAILABLE,NOT AVAILABLE,Y,N
44090,10433875,ISRAEL BAPTIST CHURCH,WASHINGTON,DC,20018,1025,DISTRICT OF COLUMBIA,11001,2009-04-23T00:00:00.000Z,ALT REF,2009-04-23T00:00:00.000Z,CHURCHES,18383378,-76.989297,38.9216503,CHRISTIAN,SBC,1206,NOT AVAILABLE,Y,N
44091,10441531,SAINT STEPHEN AND THE INCARNATION EPISCOPAL CHURCH,WASHINGTON,DC,20010,3103,DISTRICT OF COLUMBIA,11001,2009-04-20T00:00:00.000Z,ALT REF,2009-04-20T00:00:00.000Z,CHURCHES,18900914,-77.0358071,38.9334491,CHRISTIAN,EPIS,NOT AVAILABLE,NOT AVAILABLE,Y,N
44092,10574887,RAYMOND L JONES AFRICAN METHODIST EPISCOPAL ZION CHURCH,WASHINGTON,DC,20018,3804,DISTRICT OF COLUMBIA,11001,2009-04-27T00:00:00.000Z,ALT REF,2009-04-24T00:00:00.000Z,CHURCHES,18382571,-76.9801285,38.9318685,CHRISTIAN,AMEZ,NOT AVAILABLE,NOT AVAILABLE,Y,N
44093,10430876,INDONESIAN MUSLIM ASSOCIATION IN AMERICA,WASHINGTON,DC,20036,1012,DISTRICT OF COLUMBIA,11001,2009-04-27T00:00:00.000Z,ALT REF,2009-04-27T00:00:00.000Z,"MOSQUES, RELIGIOUS",18352290,-77.046138,38.9103148,MUSLIM,NOT AVAILABLE,NOT AVAILABLE,NOT AVAILABLE,N,N
44094,10430299,EMERSON MASJID,WASHINGTON,DC,20011,6905,DISTRICT OF COLUMBIA,11001,2009-04-21T00:00:00.000Z,ALT REF,2009-04-30T00:00:00.000Z,"MOSQUES, RELIGIOUS",18416787,-77.0308498,38.9499284,MUSLIM,NOT AVAILABLE,NOT AVAILABLE,NOT AVAILABLE,N,N
44096,10430301,MASJID AL-ISLAM,WASHINGTON,DC,20019,6430,DISTRICT OF COLUMBIA,11001,2009-04-23T00:00:00.000Z,ALT REF,2009-04-30T00:00:00.000Z,"MOSQUES, RELIGIOUS",18386672,-76.9292902,38.8876296,MUSLIM,NOT AVAILABLE,NOT AVAILABLE,NOT AVAILABLE,N,N
44097,10430304,JAMAAT AL-QAWIYY,WASHINGTON,DC,20001,5015,DISTRICT OF COLUMBIA,11001,2009-04-23T00:00:00.000Z,ALT REF,2009-04-23T00:00:00.000Z,"MOSQUES, RELIGIOUS",18351742,-77.027311,38.9152076,MUSLIM,NOT AVAILABLE,NOT AVAILABLE,NOT AVAILABLE,N,N
44098,10441711,SAINT FRANCIS DE SALES CATHOLIC CHURCH,WASHINGTON,DC,20018,2834,DISTRICT OF COLUMBIA,11001,2009-04-28T00:00:00.000Z,ALT REF,2009-04-30T00:00:00.000Z,CHURCHES,18382797,-76.9754793,38.9290663,CHRISTIAN,NOT AVAILABLE,NOT AVAILABLE,NOT AVAILABLE,N,Y
44099,10586227,CALVARY LIFE CENTER,WASHINGTON,DC,20011,6512,DISTRICT OF COLUMBIA,11001,2009-04-23T00:00:00.000Z,ALT REF,2009-04-23T00:00:00.000Z,CHURCHES,18415931,-77.0163971,38.9563382,CHRISTIAN,ABC,NOT AVAILABLE,NOT AVAILABLE,Y,N
44100,10457065,GALILEE AFRICAN METHODIST EPISCOPAL CHURCH,WASHINGTON,DC,20003,3524,DISTRICT OF COLUMBIA,11001,2009-04-22T00:00:00.000Z,ALT REF,2009-04-22T00:00:00.000Z,CHURCHES,18464109,-77.0094808,38.8753961,CHRISTIAN,AME,NOT AVAILABLE,NOT AVAILABLE,Y,N
44101,10684744,FRIENDS MEETING HOUSE,WASHINGTON,DC,20008,1912,DISTRICT OF COLUMBIA,11001,2009-04-23T00:00:00.000Z,ALT REF,2009-04-23T00:00:00.000Z,PLACES OF WORSHIP,18351877,-77.0475492,38.9135917,BUDDHIST,NOT AVAILABLE,NOT AVAILABLE,NOT AVAILABLE,N,N
44102,10440384,SAINT GEORGES EPISCOPAL CHURCH,WASHINGTON,DC,20001,1606,DISTRICT OF COLUMBIA,11001,2009-04-29T00:00:00.000Z,ALT REF,2009-04-29T00:00:00.000Z,CHURCHES,18351495,-77.0141671,38.9167402,CHRISTIAN,EPIS,NOT AVAILABLE,NOT AVAILABLE,Y,N
44103,10454721,GREATER NEW HOPE BAPTIST CHURCH,WASHINGTON,DC,20001,3724,DISTRICT OF COLUMBIA,11001,2009-04-22T00:00:00.000Z,ALT REF,2009-04-22T00:00:00.000Z,CHURCHES,18353408,-77.0234043,38.9003335,CHRISTIAN,NBC,NOT AVAILABLE,NOT AVAILABLE,Y,N
44107,10441751,SAINT PETERS ON CAPITOL HILL,WASHINGTON,DC,20003,1902,DISTRICT OF COLUMBIA,11001,2009-04-29T00:00:00.000Z,ALT REF,2009-04-29T00:00:00.000Z,CHURCHES,18354303,-77.0038806,38.8858131,CHRISTIAN,NOT AVAILABLE,NOT AVAILABLE,NOT AVAILABLE,N,Y
44108,10440343,SAINT TIMOTHYS EPISCOPAL CHURCH,WASHINGTON,DC,20020,2425,DISTRICT OF COLUMBIA,11001,2009-04-28T00:00:00.000Z,ALT REF,2009-04-28T00:00:00.000Z,CHURCHES,18403061,-76.9561176,38.8629562,CHRISTIAN,EPIS,NOT AVAILABLE,NOT AVAILABLE,Y,N
44109,10453079,TENTH STREET BAPTIST CHURCH,WASHINGTON,DC,20001,5017,DISTRICT OF COLUMBIA,11001,2009-04-28T00:00:00.000Z,ALT REF,2009-04-28T00:00:00.000Z,CHURCHES,18351990,-77.0266168,38.9123338,CHRISTIAN,NBC,NOT AVAILABLE,NOT AVAILABLE,Y,N
44110,10441744,SAINT PATRICKS CATHOLIC CHURCH,WASHINGTON,DC,20001,4527,DISTRICT OF COLUMBIA,11001,2009-04-29T00:00:00.000Z,ALT REF,2009-04-30T00:00:00.000Z,CHURCHES,18353606,-77.0254938,38.897947,CHRISTIAN,NOT AVAILABLE,NOT AVAILABLE,NOT AVAILABLE,N,Y
44112,10586245,TEMPLE MISSIONARY BAPTIST CHURCH,WASHINGTON,DC,20032,1537,DISTRICT OF COLUMBIA,11001,2009-04-28T00:00:00.000Z,ALT REF,2009-04-28T00:00:00.000Z,CHURCHES,18404652,-76.999378,38.843793,CHRISTIAN,ABC,NOT AVAILABLE,NOT AVAILABLE,Y,N
44113,10441731,SAINT ANTHONYS CATHOLIC CONVENT,WASHINGTON,DC,20017,2507,DISTRICT OF COLUMBIA,11001,2009-04-28T00:00:00.000Z,ALT REF,2009-04-30T00:00:00.000Z,CONVENTS (EXCEPT SCHOOLS),117281391,-76.9901225,38.93281,CHRISTIAN,NOT AVAILABLE,NOT AVAILABLE,NOT AVAILABLE,N,Y
44114,10441730,SAINT ANTHONY OF PADUA,WASHINGTON,DC,20017,1761,DISTRICT OF COLUMBIA,11001,2009-04-28T00:00:00.000Z,ALT REF,2009-04-28T00:00:00.000Z,CHURCHES,18382519,-76.9913583,38.9322836,CHRISTIAN,NOT AVAILABLE,NOT AVAILABLE,NOT AVAILABLE,N,Y
44115,10440243,SAINT AUGUSTINES EPISCOPAL CHURCH,WASHINGTON,DC,20024,2441,DISTRICT OF COLUMBIA,11001,2009-04-29T00:00:00.000Z,ALT REF,2009-04-29T00:00:00.000Z,CHURCHES,117306745,-77.0202709,38.8760578,CHRISTIAN,EPIS,NOT AVAILABLE,NOT AVAILABLE,Y,N
44116,10440244,SAINT JOHNS CHURCH,WASHINGTON,DC,20005,1005,DISTRICT OF COLUMBIA,11001,2009-04-29T00:00:00.000Z,ALT REF,2009-04-29T00:00:00.000Z,CHURCHES,732170798,-77.0361493,38.9004248,CHRISTIAN,EPIS,NOT AVAILABLE,NOT AVAILABLE,Y,N
44124,10586246,THIRD BAPTIST CHURCH,WASHINGTON,DC,20001,2404,DISTRICT OF COLUMBIA,11001,2009-04-30T00:00:00.000Z,ALT REF,2009-04-29T00:00:00.000Z,CHURCHES,18464165,-77.0192263,38.9109316,CHRISTIAN,ABC,NOT AVAILABLE,NOT AVAILABLE,Y,N
44125,10441524,SAINT THOMAS PARISH EPISCOPAL CHURCH,WASHINGTON,DC,20036,1302,DISTRICT OF COLUMBIA,11001,2009-04-30T00:00:00.000Z,ALT REF,2009-04-29T00:00:00.000Z,CHURCHES,18352261,-77.0410906,38.9101376,CHRISTIAN,EPIS,NOT AVAILABLE,NOT AVAILABLE,Y,N
44126,10441740,SAINT VINCENT DE PAUL CATHOLIC CHURCH,WASHINGTON,DC,20003,3511,DISTRICT OF COLUMBIA,11001,2009-04-30T00:00:00.000Z,ALT REF,2009-05-05T00:00:00.000Z,CHURCHES,18354714,-77.0086874,38.876688,CHRISTIAN,NOT AVAILABLE,NOT AVAILABLE,NOT AVAILABLE,N,Y
44127,10685301,WASHINGTON BUDDHIST VIHARA,WASHINGTON,DC,20011,3841,DISTRICT OF COLUMBIA,11001,2009-04-30T00:00:00.000Z,ALT REF,2009-04-30T00:00:00.000Z,PLACES OF WORSHIP,117281336,-77.0360253,38.9515588,BUDDHIST,"THERAVADA, AMERICAN",NOT AVAILABLE,NOT AVAILABLE,N,N
44128,10441741,UKRAINIAN CATHOLIC NATIONAL SHRINE OF THE HOLY FAMILY,WASHINGTON,DC,20017,1511,DISTRICT OF COLUMBIA,11001,2009-04-30T00:00:00.000Z,ALT REF,2009-04-30T00:00:00.000Z,"SHRINES, RELIGIOUS",18418561,-77.0034524,38.9395886,CHRISTIAN,NOT AVAILABLE,NOT AVAILABLE,NOT AVAILABLE,N,Y
44129,10576372,WASHINGTON DISTRICT OF COLUMBIA CHRISTIAN REFORMED CHURCH,WASHINGTON,DC,20011,1533,DISTRICT OF COLUMBIA,11001,2009-04-30T00:00:00.000Z,ALT REF,2009-04-30T00:00:00.000Z,CHURCHES,18415116,-77.0048205,38.9618121,CHRISTIAN,CRC,NOT AVAILABLE,NOT AVAILABLE,Y,N
44394,10457289,WARD MEMORIAL AFRICAN METHODIST EPISCOPAL CHURCH,WASHINGTON,DC,20019,3405,DISTRICT OF COLUMBIA,11001,2009-04-29T00:00:00.000Z,ALT REF,2009-04-29T00:00:00.000Z,CHURCHES,18385908,-76.9422519,38.8940798,CHRISTIAN,AME,NOT AVAILABLE,NOT AVAILABLE,Y,N
44396,10574886,SONS AND DAUGHTERS IN CHRIST AFRICAN METHODIST EPISCOPAL ZION CHURCH,WASHINGTON,DC,20001,1715,DISTRICT OF COLUMBIA,11001,2009-04-28T00:00:00.000Z,ALT REF,2009-04-27T00:00:00.000Z,CHURCHES,18351434,-77.0174495,38.9174886,CHRISTIAN,AMEZ,NOT AVAILABLE,NOT AVAILABLE,Y,N
44398,10574879,VICTORY WORSHIP AFRICAN METHODIST EPISCOPAL ZION CHURCH,WASHINGTON,DC,20032,2605,DISTRICT OF COLUMBIA,11001,2009-04-29T00:00:00.000Z,ALT REF,2009-05-01T00:00:00.000Z,CHURCHES,18404358,-76.9976096,38.8483067,CHRISTIAN,AMEZ,NOT AVAILABLE,NOT AVAILABLE,Y,N
44401,10574891,CONTEE AFRICAN METHODIST EPISCOPAL ZION CHURCH,WASHINGTON,DC,20019,5518,DISTRICT OF COLUMBIA,11001,2009-04-21T00:00:00.000Z,ALT REF,2009-04-21T00:00:00.000Z,CHURCHES,18384946,-76.9239534,38.9019833,CHRISTIAN,AMEZ,NOT AVAILABLE,NOT AVAILABLE,Y,N
44402,10430302,ANSAARU ALLAH COMMUNITY CHURCH,WASHINGTON,DC,20001,3172,DISTRICT OF COLUMBIA,11001,2009-04-20T00:00:00.000Z,ALT REF,2009-04-30T00:00:00.000Z,"MOSQUES, RELIGIOUS",18352113,-77.0237963,38.911425,MUSLIM,NOT AVAILABLE,NOT AVAILABLE,NOT AVAILABLE,N,N
44418,10430295,MIRACLE TEMPLE NON DENOMINATIONAL CHURCH,WASHINGTON,DC,20019,6321,DISTRICT OF COLUMBIA,11001,2009-04-20T00:00:00.000Z,ALT REF,2009-04-20T00:00:00.000Z,CHURCHES,18387124,-76.9267908,38.8839014,CHRISTIAN,NOT AVAILABLE,NOT AVAILABLE,NOT AVAILABLE,Y,N
44423,11531285,GALILEE BAPTIST CHURCH - GALILEE SOUTH,WASHINGTON,DC,20020,5324,DISTRICT OF COLUMBIA,11001,2009-05-07T00:00:00.000Z,ALT REF,2009-05-07T00:00:00.000Z,CHURCHES,18402332,-76.9734677,38.8724301,CHRISTIAN,NOT AVAILABLE,NOT AVAILABLE,NOT AVAILABLE,Y,N
44454,10441748,CATHEDRAL OF SAINT MATTHEWS CATHEDRAL THE APOSTLE,WASHINGTON,DC,20036,3001,DISTRICT OF COLUMBIA,11001,2009-04-29T00:00:00.000Z,ALT REF,2009-04-30T00:00:00.000Z,CHURCHES,18352766,-77.040271,38.9063814,CHRISTIAN,NOT AVAILABLE,NOT AVAILABLE,NOT AVAILABLE,N,Y
44455,10453178,MENTROTONE BAPTIST CHURCH,WASHINGTON,DC,20019,6403,DISTRICT OF COLUMBIA,11001,2009-04-23T00:00:00.000Z,ALT REF,2009-04-23T00:00:00.000Z,CHURCHES,18386900,-76.9268273,38.8863621,CHRISTIAN,NBC,NOT AVAILABLE,NOT AVAILABLE,Y,N
44462,10574881,FULL GOSPEL TABERNACLE CHURCH,WASHINGTON,DC,20002,5318,DISTRICT OF COLUMBIA,11001,2009-04-22T00:00:00.000Z,ALT REF,2009-04-22T00:00:00.000Z,CHURCHES,18385454,-76.9918696,38.8982314,CHRISTIAN,NOT AVAILABLE,NOT AVAILABLE,NOT AVAILABLE,Y,N
44466,10455486,EMMANUEL CHURCH OF GOD IN CHRIST,WASHINGTON,DC,20020,6727,DISTRICT OF COLUMBIA,11001,2009-04-27T00:00:00.000Z,ALT REF,2009-04-27T00:00:00.000Z,CHURCHES,18402070,-76.969366,38.8744408,CHRISTIAN,NOT AVAILABLE,NOT AVAILABLE,NOT AVAILABLE,Y,N
44472,10586223,FIRST BAPTIST CHURCH OF DEANWOOD,WASHINGTON,DC,20019,3801,DISTRICT OF COLUMBIA,11001,2009-04-21T00:00:00.000Z,ALT REF,2009-04-21T00:00:00.000Z,CHURCHES,18384822,-76.937968,38.9030814,CHRISTIAN,ABC,NOT AVAILABLE,NOT AVAILABLE,Y,N
44477,10441530,SAINT PAULS CHURCH,WASHINGTON,DC,20037,1703,DISTRICT OF COLUMBIA,11001,2009-04-29T00:00:00.000Z,ALT REF,2009-04-29T00:00:00.000Z,CHURCHES,18353196,-77.0526582,38.9021551,CHRISTIAN,EPIS,NOT AVAILABLE,NOT AVAILABLE,Y,N
44550,10586243,SECOND BAPTIST CHURCH SOUTHWEST,WASHINGTON,DC,20024,3522,DISTRICT OF COLUMBIA,11001,2009-04-27T00:00:00.000Z,ALT REF,2009-04-27T00:00:00.000Z,CHURCHES,18354732,-77.011702,38.8762073,CHRISTIAN,ABC,NOT AVAILABLE,NOT AVAILABLE,Y,N
44796,10454086,GALATIANS BAPTIST CHURCH,WASHINGTON,DC,20002,5322,DISTRICT OF COLUMBIA,11001,2008-03-06T00:00:00.000Z,ALT REF,2008-09-05T00:00:00.000Z,CHURCHES,18385449,-76.9946335,38.8975279,CHRISTIAN,NBC,NOT AVAILABLE,NOT AVAILABLE,Y,N
43083,10457006,GRACE EVANGELICAL LUTHERAN CHURCH,WASHINGTON,DC,20011,7012,DISTRICT OF COLUMBIA,11001,2009-04-21T00:00:00.000Z,ALT REF,2009-04-21T00:00:00.000Z,CHURCHES,18417859,-77.0369664,38.9431433,CHRISTIAN,NOT AVAILABLE,NOT AVAILABLE,NOT AVAILABLE,Y,N
43093,10441727,OUR LADY-PERPETUAL HELP CATHOLIC CHURCH,WASHINGTON,DC,20020,6312,DISTRICT OF COLUMBIA,11001,2009-04-24T00:00:00.000Z,ALT REF,2009-04-24T00:00:00.000Z,CHURCHES,18403632,-76.9823316,38.8574435,CHRISTIAN,NOT AVAILABLE,NOT AVAILABLE,NOT AVAILABLE,N,Y
43094,10441746,HOLY COMFORTER SAINT CYPRIAN CATHOLIC CONVENT,WASHINGTON,DC,20003,1517,DISTRICT OF COLUMBIA,11001,2009-04-22T00:00:00.000Z,ALT REF,2009-04-30T00:00:00.000Z,CONVENTS (EXCEPT SCHOOLS),18386578,-76.9834733,38.888903,CHRISTIAN,NOT AVAILABLE,NOT AVAILABLE,NOT AVAILABLE,N,Y
43095,10430291,MOORISH SCIENCE TEMPLE OF AMERICA - TEMPLE 71,WASHINGTON,DC,20011,7234,DISTRICT OF COLUMBIA,11001,2009-04-24T00:00:00.000Z,ALT REF,2009-04-23T00:00:00.000Z,"MOSQUES, RELIGIOUS",18417682,-77.02299,38.9439058,MUSLIM,NOT AVAILABLE,NOT AVAILABLE,NOT AVAILABLE,N,N
43161,10585372,SAINT PAUL BAPTIST CHURCH,WASHINGTON,DC,20018,1829,DISTRICT OF COLUMBIA,11001,2009-04-28T00:00:00.000Z,ALT REF,2009-04-28T00:00:00.000Z,CHURCHES,18382933,-76.9815344,38.9276864,CHRISTIAN,ABC,NOT AVAILABLE,NOT AVAILABLE,Y,N
43168,10457260,SAINT PAUL AFRICAN METHODIST EPISCOPAL CHURCH,WASHINGTON,DC,20011,6923,DISTRICT OF COLUMBIA,11001,2009-04-28T00:00:00.000Z,ALT REF,2009-04-28T00:00:00.000Z,CHURCHES,18416788,-77.0330369,38.9500527,CHRISTIAN,AME,NOT AVAILABLE,NOT AVAILABLE,Y,N
43169,10436622,PARAMOUNT BAPTIST CHURCH,WASHINGTON,DC,20032,3005,DISTRICT OF COLUMBIA,11001,2009-04-24T00:00:00.000Z,ALT REF,2009-04-24T00:00:00.000Z,CHURCHES,18361469,-77.0003318,38.8320683,CHRISTIAN,SBC,1170,NOT AVAILABLE,Y,N
43172,10574880,UNION WESLEY AFRICAN METHODIST EPISCOPAL ZION CHURCH,WASHINGTON,DC,20018,3333,DISTRICT OF COLUMBIA,11001,2009-04-29T00:00:00.000Z,ALT REF,2009-04-29T00:00:00.000Z,CHURCHES,724588025,-76.9788205,38.9459968,CHRISTIAN,AMEZ,NOT AVAILABLE,NOT AVAILABLE,Y,N
43176,10441724,OUR LADY OF LEBANON MARONITE SEMINARY,WASHINGTON,DC,20012,1544,DISTRICT OF COLUMBIA,11001,2009-04-24T00:00:00.000Z,ALT REF,2009-04-30T00:00:00.000Z,CHURCHES,18413043,-77.0344126,38.9773579,CHRISTIAN,NOT AVAILABLE,NOT AVAILABLE,NOT AVAILABLE,N,Y
43177,10452943,SAINT MATTHEWS BAPTIST CHURCH,WASHINGTON,DC,20003,3341,DISTRICT OF COLUMBIA,11001,2009-04-28T00:00:00.000Z,ALT REF,2009-04-28T00:00:00.000Z,CHURCHES,117306749,-77.0048556,38.877237,CHRISTIAN,NBC,NOT AVAILABLE,NOT AVAILABLE,Y,N
43178,10685145,THE BODHICITTA FOUNDATION,WASHINGTON,DC,20009,2452,DISTRICT OF COLUMBIA,11001,2009-04-28T00:00:00.000Z,ALT REF,2009-04-28T00:00:00.000Z,PLACES OF WORSHIP,18352008,-77.0395937,38.91282,BUDDHIST,NOT AVAILABLE,NOT AVAILABLE,NOT AVAILABLE,N,N
43180,10430290,MASJID USH-SHURA,WASHINGTON,DC,20032,1573,DISTRICT OF COLUMBIA,11001,2009-04-23T00:00:00.000Z,ALT REF,2009-04-30T00:00:00.000Z,"MOSQUES, RELIGIOUS",18404652,-76.9995798,38.8436718,MUSLIM,NOT AVAILABLE,NOT AVAILABLE,NOT AVAILABLE,N,N
43183,10441519,PARISH OF SAINT MONICA AND SAINT JAMES,WASHINGTON,DC,20002,6106,DISTRICT OF COLUMBIA,11001,2009-04-29T00:00:00.000Z,ALT REF,2009-04-29T00:00:00.000Z,CHURCHES,18386140,-76.9952507,38.8928772,CHRISTIAN,EPIS,NOT AVAILABLE,NOT AVAILABLE,Y,N
43184,10452367,RESURRECTION BAPTIST CHURCH,WASHINGTON,DC,20032,1545,DISTRICT OF COLUMBIA,11001,2009-04-27T00:00:00.000Z,ALT REF,2009-04-27T00:00:00.000Z,CHURCHES,18360219,-77.0046344,38.8403958,CHRISTIAN,NBC,NOT AVAILABLE,NOT AVAILABLE,Y,N
43186,10441753,SAINT ALOYSIUS CHURCH,WASHINGTON,DC,20001,1425,DISTRICT OF COLUMBIA,11001,2009-04-27T00:00:00.000Z,ALT REF,2009-04-30T00:00:00.000Z,CHURCHES,18353302,-77.0096596,38.9015503,CHRISTIAN,NOT AVAILABLE,NOT AVAILABLE,NOT AVAILABLE,N,Y
43187,10441726,OUR LADY QUEEN OF THE AMERICAS,WASHINGTON,DC,20008,3902,DISTRICT OF COLUMBIA,11001,2009-04-24T00:00:00.000Z,ALT REF,2009-04-30T00:00:00.000Z,CHURCHES,18351612,-77.0492674,38.9158149,CHRISTIAN,NOT AVAILABLE,NOT AVAILABLE,NOT AVAILABLE,N,Y
43189,10441736,SAINT FRANCES XAVIER CHURCH,WASHINGTON,DC,20020,3835,DISTRICT OF COLUMBIA,11001,2009-04-29T00:00:00.000Z,ALT REF,2009-04-29T00:00:00.000Z,CHURCHES,18402289,-76.9672375,38.8725192,CHRISTIAN,NOT AVAILABLE,NOT AVAILABLE,NOT AVAILABLE,N,Y
43191,10441732,SAINT AUGUSTINE ROMAN CATHOLIC CHURCH,WASHINGTON,DC,20009,5806,DISTRICT OF COLUMBIA,11001,2009-04-27T00:00:00.000Z,ALT REF,2009-04-24T00:00:00.000Z,CHURCHES,18351370,-77.0340645,38.9183478,CHRISTIAN,NOT AVAILABLE,NOT AVAILABLE,NOT AVAILABLE,N,Y
43192,10441757,SAINT JOSAPHATS UKRANIAN CATHOLIC SEMINARY,WASHINGTON,DC,20017,1010,DISTRICT OF COLUMBIA,11001,2009-04-28T00:00:00.000Z,ALT REF,2009-04-30T00:00:00.000Z,CHURCHES,18418127,-77.0039747,38.9403729,CHRISTIAN,NOT AVAILABLE,NOT AVAILABLE,NOT AVAILABLE,N,Y
43193,10430300,MASJID OF IVY CITY,WASHINGTON,DC,20002,1719,DISTRICT OF COLUMBIA,11001,2009-04-23T00:00:00.000Z,ALT REF,2009-04-23T00:00:00.000Z,"MOSQUES, RELIGIOUS",18383924,-76.9848703,38.9136787,MUSLIM,NOT AVAILABLE,NOT AVAILABLE,NOT AVAILABLE,N,N
43195,10432269,SHILOH BAPTIST CHURCH,WASHINGTON,DC,20001,3208,DISTRICT OF COLUMBIA,11001,2007-09-12T00:00:00.000Z,ALT REF,2007-09-17T00:00:00.000Z,CHURCHES,18352369,-77.0243783,38.9099419,CHRISTIAN,ABC-NBC,NOT AVAILABLE,NOT AVAILABLE,Y,N
43196,10432270,BIBLE WAY TEMPLE,WASHINGTON,DC,20001,1309,DISTRICT OF COLUMBIA,11001,2007-09-12T00:00:00.000Z,ALT REF,2007-09-12T00:00:00.000Z,CHURCHES,18353048,-77.0149989,38.9046154,CHRISTIAN,NOT AVAILABLE,NOT AVAILABLE,NOT AVAILABLE,Y,N
43197,10432272,METROPOLITAN BAPTIST CHURCH,WASHINGTON,DC,20009,4356,DISTRICT OF COLUMBIA,11001,2007-09-24T00:00:00.000Z,ALT REF,2007-09-24T00:00:00.000Z,CHURCHES,18352000,-77.0288899,38.9129199,CHRISTIAN,PNB,NOT AVAILABLE,NOT AVAILABLE,Y,N
43200,10585284,REDEEMED LIFE CHRISTIAN CENTER,WASHINGTON,DC,20020,1607,DISTRICT OF COLUMBIA,11001,2009-04-27T00:00:00.000Z,ALT REF,2009-04-24T00:00:00.000Z,CHURCHES,724267207,-76.9651013,38.8533187,CHRISTIAN,ABC,NOT AVAILABLE,NOT AVAILABLE,Y,N
43201,10441734,SAINT DOMINICS CHURCH,WASHINGTON,DC,20024,2503,DISTRICT OF COLUMBIA,11001,2009-04-28T00:00:00.000Z,ALT REF,2009-04-30T00:00:00.000Z,CHURCHES,18354396,-77.0209096,38.8829777,CHRISTIAN,NOT AVAILABLE,NOT AVAILABLE,NOT AVAILABLE,N,Y
43203,10433830,ZION BAPTIST CHURCH,WASHINGTON,DC,20011,3716,DISTRICT OF COLUMBIA,11001,2007-09-18T00:00:00.000Z,ALT REF,2007-09-18T00:00:00.000Z,CHURCHES,117281305,-77.0376536,38.9499695,CHRISTIAN,SBC,929,NOT AVAILABLE,Y,N
43211,10586242,SANKOFA INTERNATIONAL BAPTIST CHURCH,WASHINGTON,DC,20011,5201,DISTRICT OF COLUMBIA,11001,2009-04-27T00:00:00.000Z,ALT REF,2009-04-27T00:00:00.000Z,CHURCHES,18415915,-77.0101827,38.9567888,CHRISTIAN,ABC,NOT AVAILABLE,NOT AVAILABLE,Y,N
43223,10441747,SAINT JOSEPHS ON CAPITOL HILL ROMAN CATHOLIC CHURCH,WASHINGTON,DC,20002,5713,DISTRICT OF COLUMBIA,11001,2009-04-29T00:00:00.000Z,ALT REF,2009-04-30T00:00:00.000Z,CHURCHES,18353883,-77.0031762,38.8938129,CHRISTIAN,NOT AVAILABLE,NOT AVAILABLE,NOT AVAILABLE,N,Y
43232,10437781,FOUNDRY UNITED METHODIST CHURCH,WASHINGTON,DC,20036,1402,DISTRICT OF COLUMBIA,11001,2007-09-24T00:00:00.000Z,ALT REF,2007-09-24T00:00:00.000Z,CHURCHES,18352348,-77.0369178,38.9101821,CHRISTIAN,UMC,NOT AVAILABLE,NOT AVAILABLE,Y,N
43237,10438115,PEOPLES CONGREGATIONAL UNITED CHURCH OF CHRIST,WASHINGTON,DC,20011,4408,DISTRICT OF COLUMBIA,11001,2007-09-25T00:00:00.000Z,ALT REF,2007-09-25T00:00:00.000Z,CHURCHES,18417204,-77.030172,38.9473008,CHRISTIAN,UCC,2231,NOT AVAILABLE,Y,N
43241,10441521,SAINT MARGARETS EPISCOPAL CHURCH,WASHINGTON,DC,20009,5706,DISTRICT OF COLUMBIA,11001,2009-04-29T00:00:00.000Z,ALT REF,2009-04-29T00:00:00.000Z,CHURCHES,18900422,-77.046619,38.9151049,CHRISTIAN,EPIS,NOT AVAILABLE,NOT AVAILABLE,Y,N
43249,10439255,THE CHURCH OF JESUS CHRIST OF LATTER DAY SAINTS - WASHINGTON DC 3RD WARD,WASHINGTON,DC,20010,3407,DISTRICT OF COLUMBIA,11001,2007-10-15T00:00:00.000Z,ALT REF,2007-10-15T00:00:00.000Z,CHURCHES,18418957,-77.0305903,38.9326669,CHRISTIAN,LDS,NOT AVAILABLE,NOT AVAILABLE,Y,N
43250,10439256,THE CHURCH OF JESUS CHRIST OF LATTER DAY SAINTS - MOUNT PLEASANT (SPANISH) BRANCH,WASHINGTON,DC,20010,3407,DISTRICT OF COLUMBIA,11001,2007-10-15T00:00:00.000Z,ALT REF,2007-10-15T00:00:00.000Z,CHURCHES,18418918,-77.0305918,38.9326655,CHRISTIAN,LDS,NOT AVAILABLE,NOT AVAILABLE,Y,N
43260,10440319,CHRIST CHURCH AND WASHINGTON PARISH,WASHINGTON,DC,20003,2722,DISTRICT OF COLUMBIA,11001,2007-11-07T00:00:00.000Z,ALT REF,2007-11-19T00:00:00.000Z,CHURCHES,18478426,-76.9974849,38.8817423,CHRISTIAN,EPIS,NOT AVAILABLE,NOT AVAILABLE,Y,N
43261,10440383,SAINT LUKE'S EPISCOPAL CHURCH,WASHINGTON,DC,20005,1922,DISTRICT OF COLUMBIA,11001,2007-11-07T00:00:00.000Z,ALT REF,2007-11-07T00:00:00.000Z,CHURCHES,18352333,-77.0349424,38.9102661,CHRISTIAN,EPIS,NOT AVAILABLE,NOT AVAILABLE,Y,N
43262,10440390,HOLY COMFORTER EPISCOPAL CHURCH,WASHINGTON,DC,20011,2021,DISTRICT OF COLUMBIA,11001,2007-11-07T00:00:00.000Z,ALT REF,2007-11-07T00:00:00.000Z,CHURCHES,18415160,-77.0227003,38.9615804,CHRISTIAN,EPIS,NOT AVAILABLE,NOT AVAILABLE,Y,N
43278,10441514,CHURCH OF OUR SAVIOUR,WASHINGTON,DC,20018,3826,DISTRICT OF COLUMBIA,11001,2007-11-07T00:00:00.000Z,ALT REF,2007-11-07T00:00:00.000Z,CHURCHES,18382802,-76.9817275,38.9292813,CHRISTIAN,EPIS,NOT AVAILABLE,NOT AVAILABLE,Y,N
43279,10441518,SAINT MONICA'S EPISCOPAL CHURCH,WASHINGTON,DC,20003,1556,DISTRICT OF COLUMBIA,11001,2007-11-07T00:00:00.000Z,ALT REF,2007-11-07T00:00:00.000Z,CHURCHES,117300261,-76.9859834,38.8884217,CHRISTIAN,EPIS,NOT AVAILABLE,NOT AVAILABLE,Y,N
43280,10441526,CHURCH OF THE ASCENSION AND SAINT AGNES,WASHINGTON,DC,20005,5301,DISTRICT OF COLUMBIA,11001,2007-11-07T00:00:00.000Z,ALT REF,2007-11-07T00:00:00.000Z,CHURCHES,18352958,-77.0284119,38.9048285,CHRISTIAN,EPIS,NOT AVAILABLE,NOT AVAILABLE,Y,N
43281,10441532,SAINT PAUL'S EPISCOPAL CHURCH - ROCK CREEK PARISH,WASHINGTON,DC,20011,NULL,DISTRICT OF COLUMBIA,11001,2007-11-07T00:00:00.000Z,ALT REF,2007-11-08T00:00:00.000Z,CHURCHES,18417642,-77.0120882,38.946841,CHRISTIAN,EPIS,NOT AVAILABLE,NOT AVAILABLE,Y,N
43282,10441533,THE CHURCH OF THE HOLY COMMUNION,WASHINGTON,DC,20032,1546,DISTRICT OF COLUMBIA,11001,2007-11-07T00:00:00.000Z,ALT REF,2007-11-07T00:00:00.000Z,CHURCHES,18360519,-77.0054744,38.8383021,CHRISTIAN,EPIS,NOT AVAILABLE,NOT AVAILABLE,Y,N
43286,10435977,TAKOMA PARK BAPTIST CHURCH,WASHINGTON,DC,20012,2647,DISTRICT OF COLUMBIA,11001,2009-04-28T00:00:00.000Z,ALT REF,2009-04-28T00:00:00.000Z,CHURCHES,18413542,-77.022792,38.9726361,CHRISTIAN,NOT AVAILABLE,760,NOT AVAILABLE,Y,N
43287,10441535,SAINT PHILIP THE EVANGELIST EPISCOPAL CHURCH,WASHINGTON,DC,20020,4817,DISTRICT OF COLUMBIA,11001,2009-04-29T00:00:00.000Z,ALT REF,2009-04-29T00:00:00.000Z,CHURCHES,18402866,-76.9857609,38.8656543,CHRISTIAN,EPIS,NOT AVAILABLE,NOT AVAILABLE,Y,N
43288,10685271,VAJRAYOGINI BUDDHIST CENTER,WASHINGTON,DC,20036,6933,DISTRICT OF COLUMBIA,11001,2009-04-28T00:00:00.000Z,ALT REF,2009-04-28T00:00:00.000Z,PLACES OF WORSHIP,18352466,-77.0468064,38.9093381,BUDDHIST,"TIBETAN, NEW KADAMPA TRADITION",NOT AVAILABLE,NOT AVAILABLE,N,N
43289,10455614,THE GREATER FIRST BAPTIST CHURCH,WASHINGTON,DC,20009,5315,DISTRICT OF COLUMBIA,11001,2009-04-29T00:00:00.000Z,ALT REF,2009-04-29T00:00:00.000Z,CHURCHES,18350699,-77.0293226,38.9250403,CHRISTIAN,NBC,NOT AVAILABLE,NOT AVAILABLE,Y,N
43290,10441733,SAINT BENEDICT THE MOOR,WASHINGTON,DC,20002,6713,DISTRICT OF COLUMBIA,11001,2007-08-29T00:00:00.000Z,ALT REF,2007-08-29T00:00:00.000Z,CHURCHES,18385901,-76.9754504,38.8938556,CHRISTIAN,NOT AVAILABLE,NOT AVAILABLE,NOT AVAILABLE,N,Y
43291,10441745,NATIVITY CATHOLIC CHURCH,WASHINGTON,DC,20011,5001,DISTRICT OF COLUMBIA,11001,2007-08-29T00:00:00.000Z,ALT REF,2007-08-29T00:00:00.000Z,CHURCHES,18414948,-77.0291163,38.963234,CHRISTIAN,NOT AVAILABLE,NOT AVAILABLE,NOT AVAILABLE,N,Y
43292,10441749,SAINT GABRIEL'S CATHOLIC CHURCH,WASHINGTON,DC,20011,4604,DISTRICT OF COLUMBIA,11001,2007-08-29T00:00:00.000Z,ALT REF,2007-08-29T00:00:00.000Z,CHURCHES,18417835,-77.0201971,38.9436762,CHRISTIAN,NOT AVAILABLE,NOT AVAILABLE,NOT AVAILABLE,N,Y
43293,10441750,SAINT LUKE'S CATHOLIC CHURCH,WASHINGTON,DC,20019,5202,DISTRICT OF COLUMBIA,11001,2007-09-04T00:00:00.000Z,ALT REF,2007-08-29T00:00:00.000Z,CHURCHES,19454588,-76.930699,38.8893156,CHRISTIAN,NOT AVAILABLE,NOT AVAILABLE,NOT AVAILABLE,N,Y
43294,10441754,SAINT TERESA OF AVILA,WASHINGTON,DC,20020,7016,DISTRICT OF COLUMBIA,11001,2007-08-29T00:00:00.000Z,ALT REF,2007-09-05T00:00:00.000Z,CHURCHES,18402841,-76.987632,38.8656538,CHRISTIAN,NOT AVAILABLE,NOT AVAILABLE,NOT AVAILABLE,N,Y
43295,10441758,NATIONAL SHRINE OF THE IMMACULATE CONCEPTION,WASHINGTON,DC,20017,1517,DISTRICT OF COLUMBIA,11001,2007-08-29T00:00:00.000Z,ALT REF,2007-08-29T00:00:00.000Z,"SHRINES, RELIGIOUS",117281521,-77.000674,38.9333555,CHRISTIAN,NOT AVAILABLE,NOT AVAILABLE,NOT AVAILABLE,N,Y
43303,10574884,SAINT MARY AFRICAN METHODIST EPISCOPAL ZION CHURCH,WASHINGTON,DC,20002,6464,DISTRICT OF COLUMBIA,11001,2009-04-28T00:00:00.000Z,ALT REF,2009-04-28T00:00:00.000Z,CHURCHES,18385964,-76.9863435,38.8934222,CHRISTIAN,AMEZ,NOT AVAILABLE,NOT AVAILABLE,Y,N
43304,10439252,THE CHURCH OF JESUS CHRIST OF LATTER DAY SAINTS - CAPITOL HILL WARD,WASHINGTON,DC,20003,2737,DISTRICT OF COLUMBIA,11001,2009-04-21T00:00:00.000Z,ALT REF,2009-04-21T00:00:00.000Z,CHURCHES,18387358,-76.9958191,38.8820562,CHRISTIAN,LDS,NOT AVAILABLE,NOT AVAILABLE,Y,N
43337,10435825,UPPER ROOM BAPTIST CHURCH,WASHINGTON,DC,20019,3359,DISTRICT OF COLUMBIA,11001,2009-04-29T00:00:00.000Z,ALT REF,2009-04-29T00:00:00.000Z,CHURCHES,18386279,-76.950817,38.8913956,CHRISTIAN,NOT AVAILABLE,1200,NOT AVAILABLE,Y,N
43348,10445612,CHURCH OF THE ASSUMPTION OF THE BLESSED VIRGIN MARY,WASHINGTON,DC,20032,1543,DISTRICT OF COLUMBIA,11001,2007-08-30T00:00:00.000Z,ALT REF,2007-08-30T00:00:00.000Z,CHURCHES,18360197,-77.0041392,38.8411992,CHRISTIAN,NOT AVAILABLE,NOT AVAILABLE,NOT AVAILABLE,N,Y
43349,10445614,KIDANE-MEHRET GE'EZ RITE CATHOLIC CHURCH,WASHINGTON,DC,20011,4604,DISTRICT OF COLUMBIA,11001,2007-08-30T00:00:00.000Z,ALT REF,2007-08-30T00:00:00.000Z,CHURCHES,18417835,-77.0201901,38.9436023,CHRISTIAN,NOT AVAILABLE,NOT AVAILABLE,NOT AVAILABLE,N,Y
43350,10445615,SAINT MARTIN OF TOURS CATHOLIC CHURCH,WASHINGTON,DC,20002,1326,DISTRICT OF COLUMBIA,11001,2007-08-30T00:00:00.000Z,ALT REF,2007-08-30T00:00:00.000Z,CHURCHES,18351650,-77.0095907,38.9158603,CHRISTIAN,NOT AVAILABLE,NOT AVAILABLE,NOT AVAILABLE,N,Y
43351,10445616,SAINT MARY MOTHER OF GOD SHRINE OF OUR LADY OF THE MIRACULOUS MEDAL,WASHINGTON,DC,20001,2666,DISTRICT OF COLUMBIA,11001,2007-08-30T00:00:00.000Z,ALT REF,2007-09-05T00:00:00.000Z,"SHRINES, RELIGIOUS",18353478,-77.018457,38.8993089,CHRISTIAN,NOT AVAILABLE,NOT AVAILABLE,NOT AVAILABLE,N,Y
43392,10456988,ALLEN CHAPEL AFRICAN METHODIST EPISCOPAL CHURCH,WASHINGTON,DC,20020,2710,DISTRICT OF COLUMBIA,11001,2008-03-06T00:00:00.000Z,ALT REF,2008-03-13T00:00:00.000Z,CHURCHES,18403702,-76.9702514,38.8568781,CHRISTIAN,AME,NOT AVAILABLE,NOT AVAILABLE,Y,N
43397,10454596,CARRON BAPTIST CHURCH,WASHINGTON,DC,20024,3504,DISTRICT OF COLUMBIA,11001,2008-03-06T00:00:00.000Z,ALT REF,2008-03-13T00:00:00.000Z,CHURCHES,18355629,-77.0119535,38.8737666,CHRISTIAN,NBC,NOT AVAILABLE,NOT AVAILABLE,Y,N
43398,10453409,EMMANUEL BAPTIST CHURCH,WASHINGTON,DC,20020,3475,DISTRICT OF COLUMBIA,11001,2008-03-13T00:00:00.000Z,ALT REF,2008-03-13T00:00:00.000Z,CHURCHES,18403748,-76.971745,38.8565158,CHRISTIAN,NBC,NOT AVAILABLE,NOT AVAILABLE,Y,N
43399,10453795,FIRST BAPTIST CHURCH,WASHINGTON,DC,20011,5911,DISTRICT OF COLUMBIA,11001,2008-03-06T00:00:00.000Z,ALT REF,2008-03-14T00:00:00.000Z,CHURCHES,18418313,-77.0222419,38.9384944,CHRISTIAN,NBC,NOT AVAILABLE,NOT AVAILABLE,Y,N
43400,10454336,GRACE MEMORIAL BAPTIST CHURCH,WASHINGTON,DC,20020,5327,DISTRICT OF COLUMBIA,11001,2008-03-14T00:00:00.000Z,ALT REF,2008-03-14T00:00:00.000Z,CHURCHES,18402216,-76.9717652,38.8726523,CHRISTIAN,NBC,NOT AVAILABLE,NOT AVAILABLE,Y,N
43401,10454984,GREATER NEW SAINT PAUL BAPTIST CHURCH,WASHINGTON,DC,20011,3604,DISTRICT OF COLUMBIA,11001,2008-03-06T00:00:00.000Z,ALT REF,2008-03-06T00:00:00.000Z,CHURCHES,18416290,-77.0300045,38.9539047,CHRISTIAN,NBC,NOT AVAILABLE,NOT AVAILABLE,Y,N
43402,10457085,HEMINGWAY TEMPLE AFRICAN METHODIST EPISCOPAL CHURCH,WASHINGTON,DC,20001,2422,DISTRICT OF COLUMBIA,11001,2008-03-06T00:00:00.000Z,ALT REF,2008-03-14T00:00:00.000Z,CHURCHES,18352357,-77.0191724,38.9098793,CHRISTIAN,AME,NOT AVAILABLE,NOT AVAILABLE,Y,N
43403,10453960,JOHNSON MEMORIAL BAPTIST CHURCH,WASHINGTON,DC,20019,3081,DISTRICT OF COLUMBIA,11001,2008-03-06T00:00:00.000Z,ALT REF,2008-03-14T00:00:00.000Z,CHURCHES,18401988,-76.943299,38.8777672,CHRISTIAN,NBC,NOT AVAILABLE,NOT AVAILABLE,Y,N
43404,10452467,MERIDIAN HILL BAPTIST CHURCH,WASHINGTON,DC,20010,3301,DISTRICT OF COLUMBIA,11001,2008-03-06T00:00:00.000Z,ALT REF,2008-03-06T00:00:00.000Z,CHURCHES,18419161,-77.037068,38.9299839,CHRISTIAN,NBC,NOT AVAILABLE,NOT AVAILABLE,Y,N
43405,10454408,MOUNT CARMEL BAPTIST CHURCH,WASHINGTON,DC,20001,2510,DISTRICT OF COLUMBIA,11001,2008-03-06T00:00:00.000Z,ALT REF,2008-03-06T00:00:00.000Z,CHURCHES,18353291,-77.0148484,38.9017322,CHRISTIAN,NBC,NOT AVAILABLE,NOT AVAILABLE,Y,N
43408,10455557,NEW MOUNT CALVARY MISSIONARY BAPTIST CHURCH,WASHINGTON,DC,20019,4549,DISTRICT OF COLUMBIA,11001,2008-03-06T00:00:00.000Z,ALT REF,2008-03-06T00:00:00.000Z,CHURCHES,18386225,-76.9398776,38.8921867,CHRISTIAN,NBC,NOT AVAILABLE,NOT AVAILABLE,Y,N
43410,10453806,PILGRIM REST BAPTIST CHURCH,WASHINGTON,DC,20019,3704,DISTRICT OF COLUMBIA,11001,2008-03-13T00:00:00.000Z,ALT REF,2008-03-06T00:00:00.000Z,CHURCHES,18384829,-76.9360731,38.9025282,CHRISTIAN,NBC,NOT AVAILABLE,NOT AVAILABLE,Y,N
43411,10453057,SAINT JAMES MISSIONARY BAPTIST CHURCH,WASHINGTON,DC,20019,3540,DISTRICT OF COLUMBIA,11001,2008-03-06T00:00:00.000Z,ALT REF,2008-03-14T00:00:00.000Z,CHURCHES,117281685,-76.9488555,38.8959308,CHRISTIAN,NBC,NOT AVAILABLE,NOT AVAILABLE,Y,N
43412,10452902,SAINT JOHN UNITED BAPTIST CHURCH,WASHINGTON,DC,20011,NULL,DISTRICT OF COLUMBIA,11001,2008-03-06T00:00:00.000Z,ALT REF,2008-03-06T00:00:00.000Z,CHURCHES,18414358,-77.0293851,38.9672556,CHRISTIAN,NBC,NOT AVAILABLE,NOT AVAILABLE,Y,N
43413,10452320,SAINT LUKE BAPTIST CHURCH,WASHINGTON,DC,20011,3851,DISTRICT OF COLUMBIA,11001,2008-03-06T00:00:00.000Z,ALT REF,2008-03-14T00:00:00.000Z,CHURCHES,18416544,-77.0341647,38.9520929,CHRISTIAN,NBC,NOT AVAILABLE,NOT AVAILABLE,Y,N
43414,10454971,SAINT MARKS BAPTIST CHURCH,WASHINGTON,DC,20012,2638,DISTRICT OF COLUMBIA,11001,2008-03-06T00:00:00.000Z,ALT REF,2008-03-14T00:00:00.000Z,CHURCHES,18414110,-77.0222073,38.9683805,CHRISTIAN,NBC,NOT AVAILABLE,NOT AVAILABLE,Y,N
43415,10453187,SAINT PHILLIPS BAPTIST CHURCH,WASHINGTON,DC,20002,4236,DISTRICT OF COLUMBIA,11001,2008-03-06T00:00:00.000Z,ALT REF,2008-03-06T00:00:00.000Z,CHURCHES,117281547,-77.008724,38.9027831,CHRISTIAN,NBC,NOT AVAILABLE,NOT AVAILABLE,Y,N
43416,10453653,SECOND NEW SAINT PAUL BAPTIST CHURCH,WASHINGTON,DC,20018,4201,DISTRICT OF COLUMBIA,11001,2008-03-06T00:00:00.000Z,ALT REF,2008-03-06T00:00:00.000Z,CHURCHES,18383104,-76.9718473,38.9258028,CHRISTIAN,NBC,NOT AVAILABLE,NOT AVAILABLE,Y,N
43417,10454353,TRINIDAD BAPTIST CHURCH,WASHINGTON,DC,20002,4517,DISTRICT OF COLUMBIA,11001,2008-03-06T00:00:00.000Z,ALT REF,2008-03-06T00:00:00.000Z,CHURCHES,18385211,-76.9811188,38.8993441,CHRISTIAN,NBC,NOT AVAILABLE,NOT AVAILABLE,Y,N
43422,10454334,MATTHEWS MEMORIAL BAPTIST CHURCH,WASHINGTON,DC,20020,7715,DISTRICT OF COLUMBIA,11001,2008-03-06T00:00:00.000Z,ALT REF,2008-03-17T00:00:00.000Z,CHURCHES,18403503,-76.9949726,38.8587686,CHRISTIAN,NBC,NOT AVAILABLE,NOT AVAILABLE,Y,N
43426,10456444,CAMPBELL AFRICAN METHODIST EPISCOPAL CHURCH,WASHINGTON,DC,20020,5247,DISTRICT OF COLUMBIA,11001,2008-03-06T00:00:00.000Z,ALT REF,2008-03-13T00:00:00.000Z,CHURCHES,18403400,-76.9946542,38.859493,CHRISTIAN,AME,NOT AVAILABLE,NOT AVAILABLE,Y,N
43530,10452510,MOUNT PARAN BAPTIST CHURCH,WASHINGTON,DC,20003,4407,DISTRICT OF COLUMBIA,11001,2009-04-24T00:00:00.000Z,ALT REF,2009-04-24T00:00:00.000Z,CHURCHES,18387633,-76.9868229,38.8781515,CHRISTIAN,NBC,NOT AVAILABLE,NOT AVAILABLE,Y,N
43535,10586230,MOUNT GILEAD BAPTIST CHURCH,WASHINGTON,DC,20009,4302,DISTRICT OF COLUMBIA,11001,2009-04-23T00:00:00.000Z,ALT REF,2009-04-23T00:00:00.000Z,CHURCHES,18352058,-77.0293589,38.9118968,CHRISTIAN,ABC,NOT AVAILABLE,NOT AVAILABLE,Y,N
43538,10586228,MACEDONIA BAPTIST CHURCH,WASHINGTON,DC,20020,4438,DISTRICT OF COLUMBIA,11001,2009-04-23T00:00:00.000Z,ALT REF,2009-04-23T00:00:00.000Z,CHURCHES,117306801,-76.9919619,38.8581737,CHRISTIAN,ABC,NOT AVAILABLE,NOT AVAILABLE,Y,N
43539,10586231,MOUNT MORIAH BAPTIST CHURCH,WASHINGTON,DC,20003,1619,DISTRICT OF COLUMBIA,11001,2009-04-24T00:00:00.000Z,ALT REF,2009-04-24T00:00:00.000Z,CHURCHES,18386447,-76.9812044,38.8901192,CHRISTIAN,ABC,NOT AVAILABLE,NOT AVAILABLE,Y,N
43541,10574882,VARICK MEMORIAL AFRICAN METHODIST EPISCOPAL ZION CHURCH,WASHINGTON,DC,20019,1322,DISTRICT OF COLUMBIA,11001,2009-04-29T00:00:00.000Z,ALT REF,2009-04-29T00:00:00.000Z,CHURCHES,18386158,-76.9600925,38.8933185,CHRISTIAN,AMEZ,NOT AVAILABLE,NOT AVAILABLE,Y,N
43542,10586232,NATIONAL BAPTIST MEMORIAL CHURCH,WASHINGTON,DC,20009,4213,DISTRICT OF COLUMBIA,11001,2009-04-24T00:00:00.000Z,ALT REF,2009-04-24T00:00:00.000Z,CHURCHES,18350531,-77.036007,38.9270837,CHRISTIAN,ABC,NOT AVAILABLE,NOT AVAILABLE,Y,N
43588,10430398,HANAFI MADHAB CENTER,WASHINGTON,DC,20012,1408,DISTRICT OF COLUMBIA,11001,2007-07-17T00:00:00.000Z,PHONE,2007-07-17T00:00:00.000Z,"MOSQUES, RELIGIOUS",18411838,-77.036765,38.9835363,MUSLIM,NOT AVAILABLE,NOT AVAILABLE,NOT AVAILABLE,N,N
43597,10457029,CHRIST OUR REDEEMER AFRICAN METHODIST EPISCOPAL CHURCH,WASHINGTON,DC,20011,5836,DISTRICT OF COLUMBIA,11001,2008-03-06T00:00:00.000Z,ALT REF,2008-03-06T00:00:00.000Z,CHURCHES,18417987,-77.0241178,38.942202,CHRISTIAN,AME,NOT AVAILABLE,NOT AVAILABLE,Y,N
43617,10453727,SAINT CHARLES BAPTIST CHURCH,WASHINGTON,DC,20011,NULL,DISTRICT OF COLUMBIA,11001,2008-03-06T00:00:00.000Z,ALT REF,2008-03-06T00:00:00.000Z,CHURCHES,18417710,-77.0265003,38.9442848,CHRISTIAN,NBC,NOT AVAILABLE,NOT AVAILABLE,Y,N
43630,10454770,RENAISSANCE BAPTIST CHURCH,WASHINGTON,DC,20020,5717,DISTRICT OF COLUMBIA,11001,2008-03-10T00:00:00.000Z,ALT REF,2008-03-10T00:00:00.000Z,CHURCHES,18402931,-76.9875203,38.8641968,CHRISTIAN,NBC,NOT AVAILABLE,NOT AVAILABLE,Y,N
43657,10430296,SUFISM REORIENTED,WASHINGTON,DC,20011,2809,DISTRICT OF COLUMBIA,11001,2009-04-28T00:00:00.000Z,ALT REF,2009-04-30T00:00:00.000Z,"MOSQUES, RELIGIOUS",18415126,-77.037447,38.9616903,MUSLIM,NOT AVAILABLE,NOT AVAILABLE,NOT AVAILABLE,N,N
43658,10430681,MASJID AL-ISLAM,WASHINGTON,DC,20019,5158,DISTRICT OF COLUMBIA,11001,2009-04-23T00:00:00.000Z,ALT REF,2009-04-23T00:00:00.000Z,"MOSQUES, RELIGIOUS",18386914,-76.9363892,38.8863658,MUSLIM,NOT AVAILABLE,NOT AVAILABLE,NOT AVAILABLE,N,N
43659,10452400,MOUNT BETHEL BAPTIST CHURCH,WASHINGTON,DC,20001,1006,DISTRICT OF COLUMBIA,11001,2009-04-24T00:00:00.000Z,ALT REF,2009-04-23T00:00:00.000Z,CHURCHES,18475451,-77.01189,38.9161427,CHRISTIAN,NBC,NOT AVAILABLE,NOT AVAILABLE,Y,N
43689,10430293,MUHAMMAD MOSQUE ISLAM FOUR,WASHINGTON,DC,20019,2010,DISTRICT OF COLUMBIA,11001,2009-04-23T00:00:00.000Z,ALT REF,2009-04-23T00:00:00.000Z,"MOSQUES, RELIGIOUS",18384104,-76.934237,38.9114895,MUSLIM,NOT AVAILABLE,NOT AVAILABLE,NOT AVAILABLE,N,N
43690,10441723,IMMACULATE CONCEPTION CHURCH,WASHINGTON,DC,20001,4205,DISTRICT OF COLUMBIA,11001,2009-04-22T00:00:00.000Z,ALT REF,2009-04-30T00:00:00.000Z,CHURCHES,18352632,-77.0225962,38.9077422,CHRISTIAN,NOT AVAILABLE,NOT AVAILABLE,NOT AVAILABLE,N,Y
43691,10441716,CHURCH OF THE INCARNATION,WASHINGTON,DC,20019,7049,DISTRICT OF COLUMBIA,11001,2009-04-22T00:00:00.000Z,ALT REF,2009-04-30T00:00:00.000Z,CHURCHES,18385021,-76.9205421,38.9012898,CHRISTIAN,NOT AVAILABLE,NOT AVAILABLE,NOT AVAILABLE,N,Y
43692,10441717,FRANCISCAN MONASTERY OF THE HOLY LAND,WASHINGTON,DC,20017,3041,DISTRICT OF COLUMBIA,11001,2009-04-22T00:00:00.000Z,ALT REF,2009-04-30T00:00:00.000Z,MONASTERIES (EXCEPT SCHOOLS),18381992,-76.98522,38.9375061,CHRISTIAN,NOT AVAILABLE,NOT AVAILABLE,NOT AVAILABLE,N,Y
43696,10441737,SAINT STEPHEN MARTYR ROMAN CATHOLIC CHURCH,WASHINGTON,DC,20037,1717,DISTRICT OF COLUMBIA,11001,2009-04-29T00:00:00.000Z,ALT REF,2009-04-30T00:00:00.000Z,CHURCHES,18353083,-77.0530416,38.9031439,CHRISTIAN,NOT AVAILABLE,NOT AVAILABLE,NOT AVAILABLE,N,Y
43704,10586241,RIVERSIDE CHURCH,WASHINGTON,DC,20024,2432,DISTRICT OF COLUMBIA,11001,2009-04-27T00:00:00.000Z,ALT REF,2009-04-27T00:00:00.000Z,CHURCHES,18354620,-77.0219425,38.878831,CHRISTIAN,ABC,NOT AVAILABLE,NOT AVAILABLE,Y,N
43705,10440184,THE CHURCH OF THE EPIPHANY,WASHINGTON,DC,20005,3102,DISTRICT OF COLUMBIA,11001,2009-04-22T00:00:00.000Z,ALT REF,2009-04-22T00:00:00.000Z,CHURCHES,18353549,-77.0304129,38.8986739,CHRISTIAN,EPIS,NOT AVAILABLE,NOT AVAILABLE,Y,N
43710,10586239,PURITY BAPTIST CHURCH,WASHINGTON,DC,20002,4403,DISTRICT OF COLUMBIA,11001,2009-04-24T00:00:00.000Z,ALT REF,2009-04-24T00:00:00.000Z,CHURCHES,18385360,-76.9872814,38.8981841,CHRISTIAN,ABC,NOT AVAILABLE,NOT AVAILABLE,Y,N
43717,10441516,THE EPISCOPAL CHURCH OF THE ATONEMENT,WASHINGTON,DC,20019,5327,DISTRICT OF COLUMBIA,11001,2009-04-20T00:00:00.000Z,ALT REF,2009-04-20T00:00:00.000Z,CHURCHES,18386423,-76.9272998,38.889376,CHRISTIAN,EPIS,NOT AVAILABLE,NOT AVAILABLE,Y,N
43723,10441721,HOLY COMFORTER SAINT CYPRIAN CATHOLIC CHURCH,WASHINGTON,DC,20003,1551,DISTRICT OF COLUMBIA,11001,2009-04-22T00:00:00.000Z,ALT REF,2009-04-30T00:00:00.000Z,CHURCHES,18386465,-76.9860827,38.8895153,CHRISTIAN,NOT AVAILABLE,NOT AVAILABLE,NOT AVAILABLE,N,Y
43726,10441719,IMANI TEMPLE NUMBER 1,WASHINGTON,DC,20002,5811,DISTRICT OF COLUMBIA,11001,2009-04-22T00:00:00.000Z,ALT REF,2009-04-30T00:00:00.000Z,CHURCHES,117307046,-76.9981321,38.8938234,CHRISTIAN,NOT AVAILABLE,NOT AVAILABLE,NOT AVAILABLE,N,Y
43735,10574885,SAINT LUCILLE AFRICAN METHODIST EPISCOPAL ZION CHURCH,WASHINGTON,DC,20019,6443,DISTRICT OF COLUMBIA,11001,2009-04-28T00:00:00.000Z,ALT REF,2009-04-28T00:00:00.000Z,CHURCHES,18386823,-76.9274003,38.8871562,CHRISTIAN,AMEZ,NOT AVAILABLE,NOT AVAILABLE,Y,N
43739,10584467,NEW BIBLE BAPTIST CHURCH,WASHINGTON,DC,20019,3728,DISTRICT OF COLUMBIA,11001,2009-04-24T00:00:00.000Z,ALT REF,2009-04-24T00:00:00.000Z,CHURCHES,18384973,-76.9376402,38.9012837,CHRISTIAN,BAPT,NOT AVAILABLE,NOT AVAILABLE,Y,N
43740,10586234,NEW JERUSALEM BAPTIST CHURCH,WASHINGTON,DC,20020,4708,DISTRICT OF COLUMBIA,11001,2009-04-24T00:00:00.000Z,ALT REF,2009-04-24T00:00:00.000Z,CHURCHES,18402803,-76.9795484,38.8660788,CHRISTIAN,ABC,NOT AVAILABLE,NOT AVAILABLE,Y,N
43741,10586233,NEW COMMANDMENT BAPTIST CHURCH,WASHINGTON,DC,20010,2507,DISTRICT OF COLUMBIA,11001,2009-04-24T00:00:00.000Z,ALT REF,2009-04-24T00:00:00.000Z,CHURCHES,18418911,-77.0227606,38.9332659,CHRISTIAN,ABC,NOT AVAILABLE,NOT AVAILABLE,Y,N
43742,10433974,MOUNT AIRY BAPTIST CHURCH,WASHINGTON,DC,20002,7506,DISTRICT OF COLUMBIA,11001,2009-04-24T00:00:00.000Z,ALT REF,2009-04-23T00:00:00.000Z,CHURCHES,18353051,-77.0096384,38.9040568,CHRISTIAN,SBC,940,NOT AVAILABLE,Y,N
43743,10574888,METROPOLITAN WESLEY AFRICAN METHODIST EPISCOPAL ZION CHURCH,WASHINGTON,DC,20002,2110,DISTRICT OF COLUMBIA,11001,2009-04-23T00:00:00.000Z,ALT REF,2009-04-23T00:00:00.000Z,CHURCHES,18352015,-77.0094432,38.9128038,CHRISTIAN,AMEZ,NOT AVAILABLE,NOT AVAILABLE,Y,N
43745,10433599,NINETEENTH STREET BAPTIST CHURCH,WASHINGTON,DC,20011,4329,DISTRICT OF COLUMBIA,11001,2009-04-24T00:00:00.000Z,ALT REF,2009-04-24T00:00:00.000Z,CHURCHES,18417370,-77.0368832,38.9468112,CHRISTIAN,SBC,902,NOT AVAILABLE,Y,N
43754,10586229,JOHENNING BAPTIST COMMUNITY CENTER,WASHINGTON,DC,20032,6051,DISTRICT OF COLUMBIA,11001,2009-04-23T00:00:00.000Z,ALT REF,2009-04-23T00:00:00.000Z,CHURCHES,18405420,-76.9906363,38.831765,CHRISTIAN,ABC,NOT AVAILABLE,NOT AVAILABLE,Y,N
43755,10452377,OPEN DOOR BAPTIST CHURCH,WASHINGTON,DC,20019,6578,DISTRICT OF COLUMBIA,11001,2009-04-24T00:00:00.000Z,ALT REF,2009-04-24T00:00:00.000Z,CHURCHES,18386875,-76.9206595,38.8864758,CHRISTIAN,NBC,NOT AVAILABLE,NOT AVAILABLE,Y,N
43756,10441722,HOLY NAME CHURCH,WASHINGTON,DC,20002,3702,DISTRICT OF COLUMBIA,11001,2009-04-22T00:00:00.000Z,ALT REF,2009-04-30T00:00:00.000Z,CHURCHES,18384998,-76.9917688,38.9018394,CHRISTIAN,NOT AVAILABLE,NOT AVAILABLE,NOT AVAILABLE,N,Y
43757,10441720,HALLELUJAH CATHOLIC EVANGELIZATION,WASHINGTON,DC,20017,1102,DISTRICT OF COLUMBIA,11001,2009-04-22T00:00:00.000Z,ALT REF,2009-04-30T00:00:00.000Z,CHURCHES,18350527,-76.9986699,38.9278655,CHRISTIAN,NOT AVAILABLE,NOT AVAILABLE,NOT AVAILABLE,N,Y
43758,10441523,SAINT MARKS EPISCOPAL CHURCH,WASHINGTON,DC,20003,3812,DISTRICT OF COLUMBIA,11001,2009-04-20T00:00:00.000Z,ALT REF,2009-04-20T00:00:00.000Z,CHURCHES,18354115,-77.0017455,38.8883924,CHRISTIAN,EPIS,NOT AVAILABLE,NOT AVAILABLE,Y,N
43759,10441759,HOLY ROSARY CHURCH,WASHINGTON,DC,20001,2703,DISTRICT OF COLUMBIA,11001,2009-04-22T00:00:00.000Z,ALT REF,2009-04-30T00:00:00.000Z,CHURCHES,18353637,-77.0148486,38.8975546,CHRISTIAN,NOT AVAILABLE,NOT AVAILABLE,NOT AVAILABLE,N,Y
43760,10441517,SAINT MARYS EPISCOPAL CHURCH,WASHINGTON,DC,20037,2501,DISTRICT OF COLUMBIA,11001,2009-04-20T00:00:00.000Z,ALT REF,2009-04-20T00:00:00.000Z,CHURCHES,18353536,-77.0504407,38.8990097,CHRISTIAN,EPIS,NOT AVAILABLE,NOT AVAILABLE,Y,N
43765,10445618,OUR LADY QUEEN OF PEACE CHURCH,WASHINGTON,DC,20019,3053,DISTRICT OF COLUMBIA,11001,2009-04-24T00:00:00.000Z,ALT REF,2009-04-23T00:00:00.000Z,CHURCHES,18387239,-76.9478192,38.8831391,CHRISTIAN,NOT AVAILABLE,NOT AVAILABLE,NOT AVAILABLE,N,Y
43770,10426570,FABRANGEN HAVURAH,WASHINGTON,DC,20037,2523,DISTRICT OF COLUMBIA,11001,2009-04-21T00:00:00.000Z,ALT REF,2009-05-01T00:00:00.000Z,SYNAGOGUES,18353445,-77.0503876,38.8993724,JUDAIC,NOT AVAILABLE,NOT AVAILABLE,SYNAGOGUE,N,N
43771,10684506,INSIGHT MEDITATION COMMUNITY OF WASHINGTON,WASHINGTON,DC,20009,2522,DISTRICT OF COLUMBIA,11001,2009-04-23T00:00:00.000Z,ALT REF,2009-04-30T00:00:00.000Z,PLACES OF WORSHIP,18351892,-77.0393268,38.9135524,BUDDHIST,"THERAVADA, VIPASSANA",NOT AVAILABLE,NOT AVAILABLE,N,N
43778,10432274,GREATER MOUNT CALVARY HOLY CHURCH,WASHINGTON,DC,20002,1233,DISTRICT OF COLUMBIA,11001,2009-04-22T00:00:00.000Z,ALT REF,2009-04-22T00:00:00.000Z,CHURCHES,734051118,-76.9978434,38.9211877,CHRISTIAN,PENT,NOT AVAILABLE,NOT AVAILABLE,Y,N
43779,10761331,PLYMOUTH CONGREGATIONAL UNITED CHURCH OF CHRIST,WASHINGTON,DC,20011,2433,DISTRICT OF COLUMBIA,11001,2009-04-30T00:00:00.000Z,ALT REF,2009-04-30T00:00:00.000Z,CHURCHES,724052329,-77.0086748,38.9551476,CHRISTIAN,UCC,739,NOT AVAILABLE,Y,N
43783,10441739,SAINT THOMAS MOORE CHURCH,WASHINGTON,DC,20032,3310,DISTRICT OF COLUMBIA,11001,2009-04-30T00:00:00.000Z,ALT REF,2009-05-05T00:00:00.000Z,CHURCHES,18362395,-77.0002034,38.8254202,CHRISTIAN,NOT AVAILABLE,NOT AVAILABLE,NOT AVAILABLE,N,Y
43790,10586238,PILGRIM BAPTIST CHURCH,WASHINGTON,DC,20002,3631,DISTRICT OF COLUMBIA,11001,2009-04-27T00:00:00.000Z,ALT REF,2009-04-24T00:00:00.000Z,CHURCHES,18385004,-76.9958803,38.9015516,CHRISTIAN,ABC,NOT AVAILABLE,NOT AVAILABLE,Y,N
43800,10454309,PLEASANT LANE BAPTIST CHURCH,WASHINGTON,DC,20003,4236,DISTRICT OF COLUMBIA,11001,2009-04-24T00:00:00.000Z,ALT REF,2009-04-24T00:00:00.000Z,CHURCHES,18387264,-76.9992756,38.8825243,CHRISTIAN,NBC,NOT AVAILABLE,NOT AVAILABLE,Y,N
43801,10441522,TRINITY EPISCOPAL CHURCH,WASHINGTON,DC,20012,2417,DISTRICT OF COLUMBIA,11001,2009-04-30T00:00:00.000Z,ALT REF,2009-04-29T00:00:00.000Z,CHURCHES,18413129,-77.0206942,38.9756258,CHRISTIAN,EPIS,NOT AVAILABLE,NOT AVAILABLE,Y,N
43803,10441756,HOLY REDEEMER CATHOLIC CHURCH,WASHINGTON,DC,20001,1232,DISTRICT OF COLUMBIA,11001,2009-04-22T00:00:00.000Z,ALT REF,2009-04-30T00:00:00.000Z,CHURCHES,18352868,-77.014052,38.9052735,CHRISTIAN,NOT AVAILABLE,NOT AVAILABLE,NOT AVAILABLE,N,Y
43806,10454197,SECOND BAPTIST CHURCH,WASHINGTON,DC,20001,2509,DISTRICT OF COLUMBIA,11001,2009-04-27T00:00:00.000Z,ALT REF,2009-04-27T00:00:00.000Z,CHURCHES,18353397,-77.0154747,38.9007433,CHRISTIAN,NBC,NOT AVAILABLE,NOT AVAILABLE,Y,N
43809,10574889,JOHN WESLEY AFRICAN METHODIST EPISCOPAL ZION CHURCH,WASHINGTON,DC,20009,4306,DISTRICT OF COLUMBIA,11001,2009-04-23T00:00:00.000Z,ALT REF,2009-04-23T00:00:00.000Z,CHURCHES,18352148,-77.0315942,38.9116727,CHRISTIAN,AMEZ,NOT AVAILABLE,NOT AVAILABLE,Y,N
43811,10586237,THE PENNSYLVANIA AVENUE BAPTIST CHURCH,WASHINGTON,DC,20020,3718,DISTRICT OF COLUMBIA,11001,2009-04-24T00:00:00.000Z,ALT REF,2009-04-24T00:00:00.000Z,CHURCHES,117281621,-76.9636997,38.8711404,CHRISTIAN,ABC,NOT AVAILABLE,NOT AVAILABLE,Y,N
43813,10586218,FAITH SHEPHERD BAPTIST CHURCH,WASHINGTON,DC,20019,3634,DISTRICT OF COLUMBIA,11001,2009-04-21T00:00:00.000Z,ALT REF,2009-04-24T00:00:00.000Z,CHURCHES,117281674,-76.9325895,38.8990384,CHRISTIAN,ABC,NOT AVAILABLE,NOT AVAILABLE,Y,N
43817,10586240,REDEEMER BAPTIST CHURCH,WASHINGTON,DC,20011,3010,DISTRICT OF COLUMBIA,11001,2009-04-27T00:00:00.000Z,ALT REF,2009-04-27T00:00:00.000Z,CHURCHES,18415955,-77.0208143,38.9562535,CHRISTIAN,ABC,NOT AVAILABLE,NOT AVAILABLE,Y,N
43819,10684393,GIAC HOANG TEMPLE BUDDHIST CONGREGATIONAL CHURCH OF AMERICA,WASHINGTON,DC,20011,3618,DISTRICT OF COLUMBIA,11001,2009-04-22T00:00:00.000Z,ALT REF,2009-04-22T00:00:00.000Z,"TEMPLES, RELIGIOUS",724052338,-77.0357815,38.9552814,BUDDHIST,VIETNAMESE MAHAYANA,NOT AVAILABLE,NOT AVAILABLE,N,N
43826,10429435,FABRANGEN,WASHINGTON,DC,20012,1462,DISTRICT OF COLUMBIA,11001,2009-04-30T00:00:00.000Z,ALT REF,2009-04-30T00:00:00.000Z,SYNAGOGUES,724418825,-77.0368522,38.9852911,JUDAIC,"EGALITARIAN, INDEPENDENT, HAVURA",NOT AVAILABLE,NOT AVAILABLE,N,N
43831,10426569,BET MISHPACHAH,WASHINGTON,DC,20036,1425,DISTRICT OF COLUMBIA,11001,2007-07-20T00:00:00.000Z,PHONE,2007-07-20T00:00:00.000Z,SYNAGOGUES,18352260,-77.036031,38.9109129,JUDAIC,NOT AVAILABLE,NOT AVAILABLE,SYNAGOGUE,N,N
43839,10429055,DISTRICT OF COLUMBIA MINYAN,WASHINGTON,DC,20036,1425,DISTRICT OF COLUMBIA,11001,2007-07-25T00:00:00.000Z,PHONE,2007-07-25T00:00:00.000Z,SYNAGOGUES,18352260,-77.0359309,38.9108635,JUDAIC,TRADITIONAL EGALITARIAN,NOT AVAILABLE,NOT AVAILABLE,N,N
43840,10430119,TEMPLE ROCK OF AGES ASSEMBLY OF YAHWEH,WASHINGTON,DC,20002,7122,DISTRICT OF COLUMBIA,11001,2007-08-03T00:00:00.000Z,PHONE,2007-08-06T00:00:00.000Z,SYNAGOGUES,18384993,-76.9880623,38.9014515,JUDAIC,NOT AVAILABLE,NOT AVAILABLE,NOT AVAILABLE,N,N
43856,10430123,OHEV SHOLOM TALMUD TORAH CONGREGATION,WASHINGTON,DC,20012,1108,DISTRICT OF COLUMBIA,11001,2007-07-30T00:00:00.000Z,PHONE,2007-07-30T00:00:00.000Z,SYNAGOGUES,18411819,-77.0368995,38.9838463,JUDAIC,NOT AVAILABLE,NOT AVAILABLE,NOT AVAILABLE,N,N
43859,10430121,SIXTH AND I SYNAGOGUE,WASHINGTON,DC,20001,3736,DISTRICT OF COLUMBIA,11001,2007-07-30T00:00:00.000Z,PHONE,2007-07-30T00:00:00.000Z,SYNAGOGUES,18353326,-77.0201705,38.9006475,JUDAIC,NOT AVAILABLE,NOT AVAILABLE,NOT AVAILABLE,N,N
43866,10456181,PILGRIM AFRICAN METHODIST EPISCOPAL CHURCH,WASHINGTON,DC,20002,4683,DISTRICT OF COLUMBIA,11001,2009-04-24T00:00:00.000Z,ALT REF,2009-04-24T00:00:00.000Z,CHURCHES,18385477,-76.9802906,38.897403,CHRISTIAN,AME,NOT AVAILABLE,NOT AVAILABLE,Y,N
43867,10457114,METROPOLITAN AFRICAN METHODIST EPISCOPAL CHURCH,WASHINGTON,DC,20005,1703,DISTRICT OF COLUMBIA,11001,2009-04-23T00:00:00.000Z,ALT REF,2009-04-23T00:00:00.000Z,CHURCHES,18352862,-77.0354947,38.9053965,CHRISTIAN,AME,NOT AVAILABLE,NOT AVAILABLE,Y,N
43897,10430125,TIFERETH ISRAEL CONGREGATION,WASHINGTON,DC,20012,1407,DISTRICT OF COLUMBIA,11001,2007-08-02T00:00:00.000Z,PHONE,2007-08-02T00:00:00.000Z,SYNAGOGUES,18568976,-77.0358013,38.9835128,JUDAIC,NOT AVAILABLE,NOT AVAILABLE,NOT AVAILABLE,N,N
43906,10457070,GOOD SHEPHERD MINISTRIES,WASHINGTON,DC,20009,5628,DISTRICT OF COLUMBIA,11001,2008-03-06T00:00:00.000Z,ALT REF,2008-03-14T00:00:00.000Z,CHURCHES,18350854,-77.0380684,38.923341,CHRISTIAN,NOT AVAILABLE,NOT AVAILABLE,NOT AVAILABLE,Y,N
43908,10430128,JEWISH COMMUNITY CENTER,WASHINGTON,DC,20036,1425,DISTRICT OF COLUMBIA,11001,2007-07-30T00:00:00.000Z,PHONE,2007-07-31T00:00:00.000Z,SYNAGOGUES,18352260,-77.0359684,38.9108905,JUDAIC,NOT AVAILABLE,NOT AVAILABLE,NOT AVAILABLE,N,N
43930,10586236,PAVILION OF GOD BAPTIST CHURCH,WASHINGTON,DC,20009,4304,DISTRICT OF COLUMBIA,11001,2009-04-27T00:00:00.000Z,ALT REF,2009-04-24T00:00:00.000Z,CHURCHES,18352001,-77.0293185,38.9132517,CHRISTIAN,ABC,NOT AVAILABLE,NOT AVAILABLE,Y,N
43932,10430292,MUHAMMAD MASJID,WASHINGTON,DC,20001,1905,DISTRICT OF COLUMBIA,11001,2007-10-09T00:00:00.000Z,ALT REF,2007-10-11T00:00:00.000Z,"MOSQUES, RELIGIOUS",18352344,-77.0158971,38.9103338,MUSLIM,NOT AVAILABLE,NOT AVAILABLE,NOT AVAILABLE,N,N
43933,10441760,SHRINE OF THE SACRED HEART,WASHINGTON,DC,20010,3362,DISTRICT OF COLUMBIA,11001,2009-04-27T00:00:00.000Z,ALT REF,2009-04-30T00:00:00.000Z,"SHRINES, RELIGIOUS",18419060,-77.0356896,38.9310885,CHRISTIAN,NOT AVAILABLE,NOT AVAILABLE,NOT AVAILABLE,N,Y
43935,10585607,MOUNT HEBRON BAPTIST CHURCH,WASHINGTON,DC,20011,1312,DISTRICT OF COLUMBIA,11001,2009-04-30T00:00:00.000Z,ALT REF,2009-04-30T00:00:00.000Z,CHURCHES,18414591,-77.0164079,38.9656032,CHRISTIAN,ABC,NOT AVAILABLE,NOT AVAILABLE,Y,N
43938,10430303,MASJID-UL ALLAH,WASHINGTON,DC,20011,3009,DISTRICT OF COLUMBIA,11001,2007-10-09T00:00:00.000Z,ALT REF,2007-10-11T00:00:00.000Z,"MOSQUES, RELIGIOUS",18415955,-77.0210913,38.956695,MUSLIM,NOT AVAILABLE,NOT AVAILABLE,NOT AVAILABLE,N,N
43941,10453124,OLD WAY BAPTIST CHURCH,WASHINGTON,DC,20017,3830,DISTRICT OF COLUMBIA,11001,2009-04-24T00:00:00.000Z,ALT REF,2009-04-24T00:00:00.000Z,CHURCHES,18381500,-76.9864544,38.9414808,CHRISTIAN,NBC,NOT AVAILABLE,NOT AVAILABLE,Y,N
43945,10434071,REHOBOTH BAPTIST CHURCH,WASHINGTON,DC,20032,4104,DISTRICT OF COLUMBIA,11001,2009-04-27T00:00:00.000Z,ALT REF,2009-04-27T00:00:00.000Z,CHURCHES,18404659,-76.9970257,38.8429499,CHRISTIAN,SBC,1061,NOT AVAILABLE,Y,N
43954,10430294,AMERICAN FAZAL MOSQUE,WASHINGTON,DC,20008,1848,DISTRICT OF COLUMBIA,11001,2007-10-09T00:00:00.000Z,ALT REF,2007-10-11T00:00:00.000Z,"MOSQUES, RELIGIOUS",18351605,-77.0482882,38.9156076,MUSLIM,NOT AVAILABLE,NOT AVAILABLE,NOT AVAILABLE,N,N