NAME,CITY,STATE,COUNTY,NAICSDESCR,GEOLINKID,X,Y,SUBTYPE,DENOM,PROT,CATH
THE CHURCH OF JESUS CHRIST OF LATTER DAY SAINTS - MONUMENT PARK 12TH WARD,SALT LAKE CITY,UT,SALT LAKE,CHURCHES,32096373,-111.8101797,40.7473195,CHRISTIAN,LDS,Y,N
THE CHURCH OF JESUS CHRIST OF LATTER DAY SAINTS - GARDEN PARK WARD,SALT LAKE CITY,UT,SALT LAKE,CHURCHES,32096405,-111.8577906,40.7452752,CHRISTIAN,LDS,Y,N
THE CHURCH OF JESUS CHRIST OF LATTER DAY SAINTS - BROOKSHIRE WARD,SALT LAKE CITY,UT,SALT LAKE,CHURCHES,32098914,-111.8534467,40.6956593,CHRISTIAN,LDS,Y,N
COMMUNITY OF MINDFUL LIVING,SALT LAKE CITY,UT,SALT LAKE,PLACES OF WORSHIP,32096944,-111.8459403,40.7351077,BUDDHIST,ZEN BUDDHIST MASTER THICH NHAT HAHN,N,N
FIRST BAPTIST CHURCH OF SALT LAKE CITY,SALT LAKE CITY,UT,SALT LAKE,CHURCHES,32096010,-111.8530878,40.7524897,CHRISTIAN,ABC,Y,N
URGYEN SAMTEN LING,SALT LAKE CITY,UT,SALT LAKE,PLACES OF WORSHIP,32124346,-111.9001449,40.7529632,BUDDHIST,"TIBETAN, NYINGMA",N,N
SOKA GAKKAI INTERNATIONAL,SALT LAKE CITY,UT,SALT LAKE,PLACES OF WORSHIP,32122371,-111.8840672,40.7610818,BUDDHIST,MAHAYANA,N,N
DZOGCHEN SHRI SINGHA ASSOCIATION,SALT LAKE CITY,UT,SALT LAKE,PLACES OF WORSHIP,32093928,-111.8710549,40.7798733,BUDDHIST,"TIBETAN, VAJRAYANA, DZOGCHEN",N,N
THE CHURCH OF JESUS CHRIST OF LATTER DAY SAINTS - GARDEN TERRACE (CARE CENTER) BRANCH,SALT LAKE CITY,UT,SALT LAKE,CHURCHES,32122311,-111.8565237,40.6750087,CHRISTIAN,LDS,Y,N
SAINT VINCENT DE PAUL CATHOLIC PARISH,SALT LAKE CITY,UT,SALT LAKE,CHURCHES,32100657,-111.8535185,40.6613534,CHRISTIAN,NOT AVAILABLE,N,Y
THE CHURCH OF JESUS CHRIST OF LATTER DAY SAINTS - JOHANNA CASE (CARE CENTER) BRANCH,SALT LAKE CITY,UT,SALT LAKE,CHURCHES,32063036,-111.878779,40.7135012,CHRISTIAN,LDS,Y,N
OUR LADY OF PERPETUAL HELP PARISH (VIETNAMESE),SALT LAKE CITY,UT,SALT LAKE,CHURCHES,32066699,-111.9950749,40.6530668,CHRISTIAN,NOT AVAILABLE,N,Y
THE CHURCH OF JESUS CHRIST OF LATTER DAY SAINTS - DOMINGUEZ PARK (RETIREMENT) BRANCH,SALT LAKE CITY,UT,SALT LAKE,CHURCHES,129577157,-111.9122201,40.6849491,CHRISTIAN,LDS,Y,N
THE CHURCH OF JESUS CHRIST OF LATTER DAY SAINTS - COLONIAL HILLS WARD,SALT LAKE CITY,UT,SALT LAKE,CHURCHES,32096803,-111.8417078,40.7379842,CHRISTIAN,LDS,Y,N
THE CHURCH OF JESUS CHRIST OF LATTER DAY SAINTS - NIBLEY PARK WARD,SALT LAKE CITY,UT,SALT LAKE,CHURCHES,32097802,-111.874458,40.7172297,CHRISTIAN,LDS,Y,N
THE CHURCH OF JESUS CHRIST OF LATTER DAY SAINTS - MILLCREEK (RETIREMENT) BRANCH,SALT LAKE CITY,UT,SALT LAKE,CHURCHES,32120344,-111.868505,40.6875861,CHRISTIAN,LDS,Y,N
SOUTHEAST CHRISTIAN CHURCH,SALT LAKE CITY,UT,SALT LAKE,CHURCHES,32131636,-111.8385797,40.6408805,CHRISTIAN,CHRISTIAN,Y,N
JORDAN VALLEY BAPTIST CHURCH,SALT LAKE CITY,UT,SALT LAKE,CHURCHES,32098777,-111.8634589,40.6985441,CHRISTIAN,BAPT,Y,N
THE CHURCH OF JESUS CHRIST OF LATTER DAY SAINTS - EAST MILL CREEK 13TH (CARE CENTER) BRANCH,SALT LAKE CITY,UT,SALT LAKE,CHURCHES,737867237,-111.8141471,40.6995637,CHRISTIAN,LDS,Y,N
SALT LAKE SANGHA,SALT LAKE CITY,UT,SALT LAKE,PLACES OF WORSHIP,124038764,-111.9355617,40.7382259,BUDDHIST,VIETNAMESE ZEN,N,N
THE CHURCH OF JESUS CHRIST OF LATTER DAY SAINTS - COTTONWOOD CREEK (CARE CENTER) BRANCH,SALT LAKE CITY,UT,SALT LAKE,CHURCHES,717721851,-111.8547903,40.6736526,CHRISTIAN,LDS,Y,N
THE CHURCH OF JESUS CHRIST OF LATTER DAY SAINTS - BELVEDERE WARD,SALT LAKE CITY,UT,SALT LAKE,CHURCHES,32097192,-111.8735908,40.7307432,CHRISTIAN,LDS,Y,N
THE CHURCH OF JESUS CHRIST OF LATTER DAY SAINTS - ENSIGN PEAK WARD,SALT LAKE CITY,UT,SALT LAKE,CHURCHES,32093256,-111.8874145,40.7910016,CHRISTIAN,LDS,Y,N
THE CHURCH OF JESUS CHRIST OF LATTER DAY SAINTS - MONUMENT PARK 15TH WARD,SALT LAKE CITY,UT,SALT LAKE,CHURCHES,32096674,-111.8217628,40.7412448,CHRISTIAN,LDS,Y,N
THE CHURCH OF JESUS CHRIST OF LATTER DAY SAINTS - GRANDVIEW 1ST WARD,SALT LAKE CITY,UT,SALT LAKE,CHURCHES,32098251,-111.8345947,40.7077623,CHRISTIAN,LDS,Y,N
THE CHURCH OF JESUS CHRIST OF LATTER DAY SAINTS - COTTONWOOD 13TH WARD,SALT LAKE CITY,UT,SALT LAKE,CHURCHES,32101473,-111.8396106,40.6341635,CHRISTIAN,LDS,Y,N
SAINT MARK'S CATHEDRAL,SALT LAKE CITY,UT,SALT LAKE,CHURCHES,32132216,-111.8843809,40.7676534,CHRISTIAN,EPIS,Y,N
THE CHURCH OF JESUS CHRIST OF LATTER DAY SAINTS - WILFORD 1ST WARD,SALT LAKE CITY,UT,SALT LAKE,CHURCHES,32098657,-111.8506852,40.701525,CHRISTIAN,LDS,Y,N
THE CHURCH OF JESUS CHRIST OF LATTER DAY SAINTS - WOODLAND (CARE CENTER) BRANCH,SALT LAKE CITY,UT,SALT LAKE,CHURCHES,32109169,-111.870193,40.6886006,CHRISTIAN,LDS,Y,N
THE CHURCH OF JESUS CHRIST OF LATTER DAY SAINTS - MONUMENT PARK 13TH WARD,SALT LAKE CITY,UT,SALT LAKE,CHURCHES,32096674,-111.8217637,40.7412455,CHRISTIAN,LDS,Y,N
THE CHURCH OF JESUS CHRIST OF LATTER DAY SAINTS - NINETEENTH WARD,SALT LAKE CITY,UT,SALT LAKE,CHURCHES,32093879,-111.8981738,40.7797232,CHRISTIAN,LDS,Y,N
THE CHURCH OF JESUS CHRIST OF LATTER DAY SAINTS - PARKVIEW (TONGAN) WARD,SALT LAKE CITY,UT,SALT LAKE,CHURCHES,32061912,-111.9315611,40.7434159,CHRISTIAN,LDS,Y,N
THE CHURCH OF JESUS CHRIST OF LATTER DAY SAINTS - SALT LAKE 2ND (TONGAN - YOUNG SINGLE ADULT) WARD,SALT LAKE CITY,UT,SALT LAKE,CHURCHES,32061912,-111.9315588,40.7434161,CHRISTIAN,LDS,Y,N
THE CHURCH OF JESUS CHRIST OF LATTER DAY SAINTS - FEDERAL HEIGHTS WARD,SALT LAKE CITY,UT,SALT LAKE,CHURCHES,32130992,-111.8504398,40.7757205,CHRISTIAN,LDS,Y,N
THE CHURCH OF JESUS CHRIST OF LATTER DAY SAINTS - CANNON 5TH WARD,SALT LAKE CITY,UT,SALT LAKE,CHURCHES,32062118,-111.9276641,40.739192,CHRISTIAN,LDS,Y,N
THE CHURCH OF JESUS CHRIST OF LATTER DAY SAINTS - CANNON 3RD WARD,SALT LAKE CITY,UT,SALT LAKE,CHURCHES,32062051,-111.9254351,40.7414027,CHRISTIAN,LDS,Y,N
THE CHURCH OF JESUS CHRIST OF LATTER DAY SAINTS - FOOTHILL 7TH WARD,SALT LAKE CITY,UT,SALT LAKE,CHURCHES,32096768,-111.836936,40.7388277,CHRISTIAN,LDS,Y,N
THE CHURCH OF JESUS CHRIST OF LATTER DAY SAINTS - FOURTH WARD,SALT LAKE CITY,UT,SALT LAKE,CHURCHES,124056241,-111.895221,40.774337,CHRISTIAN,LDS,Y,N
THE CHURCH OF JESUS CHRIST OF LATTER DAY SAINTS - MOUNT OLYMPUS 2ND WARD,SALT LAKE CITY,UT,SALT LAKE,CHURCHES,32099970,-111.7873344,40.6778057,CHRISTIAN,LDS,Y,N
THE CHURCH OF JESUS CHRIST OF LATTER DAY SAINTS - MILLCREEK 3RD (SPANISH) BRANCH,SALT LAKE CITY,UT,SALT LAKE,CHURCHES,32100257,-111.8752152,40.6723063,CHRISTIAN,LDS,Y,N
THE CHURCH OF JESUS CHRIST OF LATTER DAY SAINTS - SALT LAKE 2ND BRANCH,SALT LAKE CITY,UT,SALT LAKE,CHURCHES,124056241,-111.8952226,40.7743419,CHRISTIAN,LDS,Y,N
THE CHURCH OF JESUS CHRIST OF LATTER DAY SAINTS - MOUNT ENSIGN 4TH (RUSSIAN) BRANCH,SALT LAKE CITY,UT,SALT LAKE,CHURCHES,124056241,-111.8952235,40.7743395,CHRISTIAN,LDS,Y,N
THE CHURCH OF JESUS CHRIST OF LATTER DAY SAINTS - COTTONWOOD CREEK WARD,SALT LAKE CITY,UT,SALT LAKE,CHURCHES,717673260,-111.8560999,40.6649652,CHRISTIAN,LDS,Y,N
THE CHURCH OF JESUS CHRIST OF LATTER DAY SAINTS - EASTRIDGE WARD,SALT LAKE CITY,UT,SALT LAKE,CHURCHES,717673260,-111.8561017,40.6649681,CHRISTIAN,LDS,Y,N
THE CHURCH OF JESUS CHRIST OF LATTER DAY SAINTS - CANYON ROAD WARD,SALT LAKE CITY,UT,SALT LAKE,CHURCHES,32094883,-111.8907225,40.7698274,CHRISTIAN,LDS,Y,N
THE CHURCH OF JESUS CHRIST OF LATTER DAY SAINTS - ENSIGN 3RD BRANCH,SALT LAKE CITY,UT,SALT LAKE,CHURCHES,32094883,-111.890722,40.7698253,CHRISTIAN,LDS,Y,N
OUR LADY OF LOURDES CHURCH,SALT LAKE CITY,UT,SALT LAKE,CHURCHES,32095873,-111.8599618,40.7545823,CHRISTIAN,NOT AVAILABLE,N,Y
THE CHURCH OF JESUS CHRIST OF LATTER DAY SAINTS - THIRTEENTH WARD,SALT LAKE CITY,UT,SALT LAKE,CHURCHES,32130901,-111.8727791,40.7666778,CHRISTIAN,LDS,Y,N
THE CHURCH OF JESUS CHRIST OF LATTER DAY SAINTS - TWELFTH WARD,SALT LAKE CITY,UT,SALT LAKE,CHURCHES,32130901,-111.8727792,40.7666783,CHRISTIAN,LDS,Y,N
THE CHURCH OF JESUS CHRIST OF LATTER DAY SAINTS - BRYAN WARD,SALT LAKE CITY,UT,SALT LAKE,CHURCHES,32096992,-111.8589913,40.7340113,CHRISTIAN,LDS,Y,N
THE CHURCH OF JESUS CHRIST OF LATTER DAY SAINTS - BONNEVILLE 1ST WARD,SALT LAKE CITY,UT,SALT LAKE,CHURCHES,32096376,-111.8468095,40.7470595,CHRISTIAN,LDS,Y,N
THE CHURCH OF JESUS CHRIST OF LATTER DAY SAINTS - COTTONWOOD 10TH WARD,SALT LAKE CITY,UT,SALT LAKE,CHURCHES,32100623,-111.8434564,40.662071,CHRISTIAN,LDS,Y,N
THE CHURCH OF JESUS CHRIST OF LATTER DAY SAINTS - ROSE PARK 2ND WARD,SALT LAKE CITY,UT,SALT LAKE,CHURCHES,32093479,-111.9244394,40.7858678,CHRISTIAN,LDS,Y,N
THE CHURCH OF JESUS CHRIST OF LATTER DAY SAINTS - ROSE PARK 1ST WARD,SALT LAKE CITY,UT,SALT LAKE,CHURCHES,32093479,-111.924438,40.7858663,CHRISTIAN,LDS,Y,N
THE CHURCH OF JESUS CHRIST OF LATTER DAY SAINTS - ROSE PARK 9TH WARD,SALT LAKE CITY,UT,SALT LAKE,CHURCHES,32093479,-111.924439,40.7858676,CHRISTIAN,LDS,Y,N
THE CHURCH OF JESUS CHRIST OF LATTER DAY SAINTS - ROSE PARK 10TH WARD,SALT LAKE CITY,UT,SALT LAKE,CHURCHES,32093479,-111.924439,40.7858657,CHRISTIAN,LDS,Y,N
THE CHURCH OF JESUS CHRIST OF LATTER DAY SAINTS - CHEVY CHASE WARD,SALT LAKE CITY,UT,SALT LAKE,CHURCHES,32100839,-111.8589812,40.6559404,CHRISTIAN,LDS,Y,N
THE CHURCH OF JESUS CHRIST OF LATTER DAY SAINTS - FARM HILL WARD,SALT LAKE CITY,UT,SALT LAKE,CHURCHES,32100839,-111.8589802,40.6559401,CHRISTIAN,LDS,Y,N
THE CHURCH OF JESUS CHRIST OF LATTER DAY SAINTS - COTTONWOOD 7TH WARD,SALT LAKE CITY,UT,SALT LAKE,CHURCHES,32120704,-111.8454555,40.6503737,CHRISTIAN,LDS,Y,N
THE CHURCH OF JESUS CHRIST OF LATTER DAY SAINTS - EMIGRATION 4TH WARD,SALT LAKE CITY,UT,SALT LAKE,CHURCHES,32093340,-111.871545,40.7895006,CHRISTIAN,LDS,Y,N
THE CHURCH OF JESUS CHRIST OF LATTER DAY SAINTS - COTTONWOOD 5TH WARD,SALT LAKE CITY,UT,SALT LAKE,CHURCHES,32101155,-111.8344159,40.6434573,CHRISTIAN,LDS,Y,N
THE CHURCH OF JESUS CHRIST OF LATTER DAY SAINTS - MAPUSAGA (SAMOAN) WARD,SALT LAKE CITY,UT,SALT LAKE,CHURCHES,32085031,-112.015799,40.6852567,CHRISTIAN,LDS,Y,N
THE CHURCH OF JESUS CHRIST OF LATTER DAY SAINTS - COTTONWOOD 1ST WARD,SALT LAKE CITY,UT,SALT LAKE,CHURCHES,32101155,-111.8344162,40.643458,CHRISTIAN,LDS,Y,N
THE CHURCH OF JESUS CHRIST OF LATTER DAY SAINTS - SALT LAKE UNIVERSITY 2ND (STUDENT MARRIED) WARD,SALT LAKE CITY,UT,SALT LAKE,CHURCHES,32095474,-111.835312,40.7593699,CHRISTIAN,LDS,Y,N
THE CHURCH OF JESUS CHRIST OF LATTER DAY SAINTS - CANNON 1ST WARD,SALT LAKE CITY,UT,SALT LAKE,CHURCHES,32131996,-111.918111,40.7453633,CHRISTIAN,LDS,Y,N
THE CHURCH OF JESUS CHRIST OF LATTER DAY SAINTS - SALT LAKE UNIVERSITY 3RD (STUDENT MARRIED) WARD,SALT LAKE CITY,UT,SALT LAKE,CHURCHES,32095474,-111.8353122,40.759372,CHRISTIAN,LDS,Y,N
THE CHURCH OF JESUS CHRIST OF LATTER DAY SAINTS - HAWTHORNE WARD,SALT LAKE CITY,UT,SALT LAKE,CHURCHES,32096793,-111.8677229,40.7377024,CHRISTIAN,LDS,Y,N
THE CHURCH OF JESUS CHRIST OF LATTER DAY SAINTS - SALT LAKE UNIVERSITY 39TH (CHINESE) WARD,SALT LAKE CITY,UT,SALT LAKE,CHURCHES,32095474,-111.8353122,40.759372,CHRISTIAN,LDS,Y,N
THE CHURCH OF JESUS CHRIST OF LATTER DAY SAINTS - CANNON 7TH WARD,SALT LAKE CITY,UT,SALT LAKE,CHURCHES,32131996,-111.9181116,40.745364,CHRISTIAN,LDS,Y,N
THE CHURCH OF JESUS CHRIST OF LATTER DAY SAINTS - HARVARD WARD,SALT LAKE CITY,UT,SALT LAKE,CHURCHES,32109424,-111.8772372,40.7537974,CHRISTIAN,LDS,Y,N
THE CHURCH OF JESUS CHRIST OF LATTER DAY SAINTS - SECOND WARD,SALT LAKE CITY,UT,SALT LAKE,CHURCHES,32109424,-111.8772367,40.7537974,CHRISTIAN,LDS,Y,N
THE CHURCH OF JESUS CHRIST OF LATTER DAY SAINTS - APPLE VALLEY WARD,SALT LAKE CITY,UT,SALT LAKE,CHURCHES,32102076,-111.7992577,40.6208108,CHRISTIAN,LDS,Y,N
THE CHURCH OF JESUS CHRIST OF LATTER DAY SAINTS - OLD MILL WARD,SALT LAKE CITY,UT,SALT LAKE,CHURCHES,32102076,-111.7992543,40.6208111,CHRISTIAN,LDS,Y,N
THE CHURCH OF JESUS CHRIST OF LATTER DAY SAINTS - SALT LAKE UNIVERSITY 5TH (STUDENT MARRIED) WARD,SALT LAKE CITY,UT,SALT LAKE,CHURCHES,32095474,-111.8353115,40.7593716,CHRISTIAN,LDS,Y,N
THE CHURCH OF JESUS CHRIST OF LATTER DAY SAINTS - SALT LAKE UNIVERSITY 11TH (STUDENT MARRIED) WARD,SALT LAKE CITY,UT,SALT LAKE,CHURCHES,32095474,-111.8353141,40.7593714,CHRISTIAN,LDS,Y,N
THE CHURCH OF JESUS CHRIST OF LATTER DAY SAINTS - TWIN PEAKS WARD,SALT LAKE CITY,UT,SALT LAKE,CHURCHES,32100839,-111.8589795,40.6559411,CHRISTIAN,LDS,Y,N
FIRST CHRISTIAN REFORMED CHURCH OF SALT LAKE CITY,SALT LAKE CITY,UT,SALT LAKE,CHURCHES,32096182,-111.8678193,40.7501282,CHRISTIAN,CRC,Y,N
HERITAGE BAPTIST CHURCH,SALT LAKE CITY,UT,SALT LAKE,CHURCHES,32094106,-111.9341453,40.7792265,CHRISTIAN,BAPT,Y,N
ISLAMIC SOCIETY OF SALT LAKE CITY MASJID AL-NOOR,SALT LAKE CITY,UT,SALT LAKE,"MOSQUES, RELIGIOUS",32095983,-111.8713984,40.7530989,MUSLIM,NOT AVAILABLE,N,N
THE CHURCH OF JESUS CHRIST OF LATTER DAY SAINTS - SALT LAKE UNIVERSITY 32ND (STUDENT SINGLE) WARD,SALT LAKE CITY,UT,SALT LAKE,CHURCHES,124038550,-111.8393169,40.7597203,CHRISTIAN,LDS,Y,N
THE CHURCH OF JESUS CHRIST OF LATTER DAY SAINTS - SALT LAKE UNIVERSITY 34TH (STUDENT SINGLE) WARD,SALT LAKE CITY,UT,SALT LAKE,CHURCHES,124038550,-111.8393136,40.7597191,CHRISTIAN,LDS,Y,N
THE CHURCH OF JESUS CHRIST OF LATTER DAY SAINTS - FIRST WARD,SALT LAKE CITY,UT,SALT LAKE,CHURCHES,32108933,-111.8688625,40.7536259,CHRISTIAN,LDS,Y,N
THE CHURCH OF JESUS CHRIST OF LATTER DAY SAINTS - SALT LAKE UNIVERSITY 37TH (STUDENT SINGLE) WARD,SALT LAKE CITY,UT,SALT LAKE,CHURCHES,124038285,-111.8360266,40.7614914,CHRISTIAN,LDS,Y,N
THE CHURCH OF JESUS CHRIST OF LATTER DAY SAINTS - SALT LAKE UNIVERSITY 15TH (STUDENT SINGLE) WARD,SALT LAKE CITY,UT,SALT LAKE,CHURCHES,124038285,-111.836026,40.7614905,CHRISTIAN,LDS,Y,N
THE CHURCH OF JESUS CHRIST OF LATTER DAY SAINTS - BUTLER 8TH WARD,SALT LAKE CITY,UT,SALT LAKE,CHURCHES,734819069,-111.8156073,40.6243651,CHRISTIAN,LDS,Y,N
THE CHURCH OF JESUS CHRIST OF LATTER DAY SAINTS - OLYMPUS 7TH WARD,SALT LAKE CITY,UT,SALT LAKE,CHURCHES,717721194,-111.8157699,40.6758113,CHRISTIAN,LDS,Y,N
THE CHURCH OF JESUS CHRIST OF LATTER DAY SAINTS - COTTONWOOD 17TH (YOUNG SINGLE ADULT) WARD,SALT LAKE CITY,UT,SALT LAKE,CHURCHES,32100779,-111.8321679,40.656692,CHRISTIAN,LDS,Y,N
THE CHURCH OF JESUS CHRIST OF LATTER DAY SAINTS - WESTMINSTER (STUDENT SINGLE) WARD,SALT LAKE CITY,UT,SALT LAKE,CHURCHES,32097473,-111.8571475,40.7276708,CHRISTIAN,LDS,Y,N
ANCHOR BAPTIST CHURCH,SALT LAKE CITY,UT,SALT LAKE,CHURCHES,32131443,-111.8382346,40.6489528,CHRISTIAN,BAPT,Y,N
THE CHURCH OF JESUS CHRIST OF LATTER DAY SAINTS - LITTLE COTTONWOOD 1ST WARD,SALT LAKE CITY,UT,SALT LAKE,CHURCHES,32101464,-111.8486037,40.6356778,CHRISTIAN,LDS,Y,N
THE CHURCH OF JESUS CHRIST OF LATTER DAY SAINTS - COTTONWOOD 16TH WARD,SALT LAKE CITY,UT,SALT LAKE,CHURCHES,32100816,-111.841745,40.6555561,CHRISTIAN,LDS,Y,N
THE CHURCH OF JESUS CHRIST OF LATTER DAY SAINTS - SUGAR HOUSE WARD,SALT LAKE CITY,UT,SALT LAKE,CHURCHES,32096992,-111.858993,40.7340119,CHRISTIAN,LDS,Y,N
THE CHURCH OF JESUS CHRIST OF LATTER DAY SAINTS - EMERSON WARD,SALT LAKE CITY,UT,SALT LAKE,CHURCHES,32096992,-111.8589962,40.7340143,CHRISTIAN,LDS,Y,N
THE CHURCH OF JESUS CHRIST OF LATTER DAY SAINTS - EDGEHILL WARD,SALT LAKE CITY,UT,SALT LAKE,CHURCHES,32097136,-111.8485932,40.732178,CHRISTIAN,LDS,Y,N
THE CHURCH OF JESUS CHRIST OF LATTER DAY SAINTS - YALECREST 1ST WARD,SALT LAKE CITY,UT,SALT LAKE,CHURCHES,32096381,-111.8387954,40.746419,CHRISTIAN,LDS,Y,N
THE CHURCH OF JESUS CHRIST OF LATTER DAY SAINTS - BRIGHTON 3RD WARD,SALT LAKE CITY,UT,SALT LAKE,CHURCHES,32102439,-111.8238189,40.6135572,CHRISTIAN,LDS,Y,N
THE CHURCH OF JESUS CHRIST OF LATTER DAY SAINTS - MILLCREEK 6TH WARD,SALT LAKE CITY,UT,SALT LAKE,CHURCHES,32100257,-111.8752154,40.6723067,CHRISTIAN,LDS,Y,N
THE CHURCH OF JESUS CHRIST OF LATTER DAY SAINTS - ROOSEVELT (YOUNG SINGLE ADULT) WARD,SALT LAKE CITY,UT,SALT LAKE,CHURCHES,32097473,-111.8571475,40.7276698,CHRISTIAN,LDS,Y,N
THE CHURCH OF JESUS CHRIST OF LATTER DAY SAINTS - OLYMPUS 3RD WARD,SALT LAKE CITY,UT,SALT LAKE,CHURCHES,32099673,-111.8207166,40.6826552,CHRISTIAN,LDS,Y,N
THE CHURCH OF JESUS CHRIST OF LATTER DAY SAINTS - GARDEN HEIGHTS NORTH WARD,SALT LAKE CITY,UT,SALT LAKE,CHURCHES,32098288,-111.8270211,40.7069205,CHRISTIAN,LDS,Y,N
THE CHURCH OF JESUS CHRIST OF LATTER DAY SAINTS - BUTLER 1ST WARD,SALT LAKE CITY,UT,SALT LAKE,CHURCHES,734819069,-111.8156111,40.6243638,CHRISTIAN,LDS,Y,N
THE CHURCH OF JESUS CHRIST OF LATTER DAY SAINTS - KENWOOD 1ST WARD,SALT LAKE CITY,UT,SALT LAKE,CHURCHES,32098485,-111.8408878,40.7035072,CHRISTIAN,LDS,Y,N
THE CHURCH OF JESUS CHRIST OF LATTER DAY SAINTS - BRIGHTON 6TH WARD,SALT LAKE CITY,UT,SALT LAKE,CHURCHES,32102633,-111.8097641,40.6098737,CHRISTIAN,LDS,Y,N
THE CHURCH OF JESUS CHRIST OF LATTER DAY SAINTS - WINDER 5TH WARD,SALT LAKE CITY,UT,SALT LAKE,CHURCHES,32122335,-111.8519443,40.6850874,CHRISTIAN,LDS,Y,N
THE CHURCH OF JESUS CHRIST OF LATTER DAY SAINTS - HARMONY PARK WARD,SALT LAKE CITY,UT,SALT LAKE,CHURCHES,32064389,-111.8903856,40.6883116,CHRISTIAN,LDS,Y,N
THE CHURCH OF JESUS CHRIST OF LATTER DAY SAINTS - EAST MILL CREEK 11TH WARD,SALT LAKE CITY,UT,SALT LAKE,CHURCHES,32098868,-111.8146277,40.6964935,CHRISTIAN,LDS,Y,N
THE CHURCH OF JESUS CHRIST OF LATTER DAY SAINTS - MONUMENT PARK 20TH WARD,SALT LAKE CITY,UT,SALT LAKE,CHURCHES,32096373,-111.8101777,40.7473195,CHRISTIAN,LDS,Y,N
THE CHURCH OF JESUS CHRIST OF LATTER DAY SAINTS - CANYON RIM 2ND WARD,SALT LAKE CITY,UT,SALT LAKE,CHURCHES,32121186,-111.8061597,40.7059353,CHRISTIAN,LDS,Y,N
THE CHURCH OF JESUS CHRIST OF LATTER DAY SAINTS - HEUGHS CANYON WARD,SALT LAKE CITY,UT,SALT LAKE,CHURCHES,32101375,-111.8242301,40.6366727,CHRISTIAN,LDS,Y,N
THE CHURCH OF JESUS CHRIST OF LATTER DAY SAINTS - STRATFORD EAST WARD,SALT LAKE CITY,UT,SALT LAKE,CHURCHES,32097974,-111.8474324,40.7151444,CHRISTIAN,LDS,Y,N
THE CHURCH OF JESUS CHRIST OF LATTER DAY SAINTS - STRATFORD WARD,SALT LAKE CITY,UT,SALT LAKE,CHURCHES,32097974,-111.8474337,40.7151455,CHRISTIAN,LDS,Y,N
THE CHURCH OF JESUS CHRIST OF LATTER DAY SAINTS - GARDEN HEIGHTS SOUTH WARD,SALT LAKE CITY,UT,SALT LAKE,CHURCHES,32098288,-111.8270207,40.7069217,CHRISTIAN,LDS,Y,N
THE CHURCH OF JESUS CHRIST OF LATTER DAY SAINTS - EIGHTEENTH WARD,SALT LAKE CITY,UT,SALT LAKE,CHURCHES,32094883,-111.8907225,40.7698289,CHRISTIAN,LDS,Y,N
THE CHURCH OF JESUS CHRIST OF LATTER DAY SAINTS - BONNEVILLE 2ND WARD,SALT LAKE CITY,UT,SALT LAKE,CHURCHES,32096376,-111.8468087,40.7470611,CHRISTIAN,LDS,Y,N
THE CHURCH OF JESUS CHRIST OF LATTER DAY SAINTS - TWENTY SEVENTH EAST WARD,SALT LAKE CITY,UT,SALT LAKE,CHURCHES,32094628,-111.8614945,40.7736278,CHRISTIAN,LDS,Y,N
THE CHURCH OF JESUS CHRIST OF LATTER DAY SAINTS - KENWOOD 2ND WARD,SALT LAKE CITY,UT,SALT LAKE,CHURCHES,32098485,-111.8408878,40.7035094,CHRISTIAN,LDS,Y,N
THE CHURCH OF JESUS CHRIST OF LATTER DAY SAINTS - ROSE PARK 4TH WARD,SALT LAKE CITY,UT,SALT LAKE,CHURCHES,32093479,-111.924439,40.7858676,CHRISTIAN,LDS,Y,N
THE CHURCH OF JESUS CHRIST OF LATTER DAY SAINTS - WINDER 18TH (SPANISH) BRANCH,SALT LAKE CITY,UT,SALT LAKE,CHURCHES,32100438,-111.8486316,40.6680064,CHRISTIAN,LDS,Y,N
THE CHURCH OF JESUS CHRIST OF LATTER DAY SAINTS - SALT LAKE UNIVERSITY 12TH (STUDENT MARRIED) WARD,SALT LAKE CITY,UT,SALT LAKE,CHURCHES,32130668,-111.8382172,40.7513407,CHRISTIAN,LDS,Y,N
THE CHURCH OF JESUS CHRIST OF LATTER DAY SAINTS - MOUNT OLYMPUS 1ST WARD,SALT LAKE CITY,UT,SALT LAKE,CHURCHES,32100391,-111.8002655,40.6699802,CHRISTIAN,LDS,Y,N
THE CHURCH OF JESUS CHRIST OF LATTER DAY SAINTS - THIRTY THIRD WARD,SALT LAKE CITY,UT,SALT LAKE,CHURCHES,32095542,-111.8590453,40.759255,CHRISTIAN,LDS,Y,N
THE CHURCH OF JESUS CHRIST OF LATTER DAY SAINTS - COTTONWOOD 3RD WARD,SALT LAKE CITY,UT,SALT LAKE,CHURCHES,32101375,-111.8242298,40.6366734,CHRISTIAN,LDS,Y,N
THE CHURCH OF JESUS CHRIST OF LATTER DAY SAINTS - BRIGHTON 9TH (YOUNG SINGLE ADULT) WARD,SALT LAKE CITY,UT,SALT LAKE,CHURCHES,735201440,-111.8193388,40.6120976,CHRISTIAN,LDS,Y,N
THE CHURCH OF JESUS CHRIST OF LATTER DAY SAINTS - LITTLE COTTONWOOD 5TH WARD,SALT LAKE CITY,UT,SALT LAKE,CHURCHES,32101464,-111.8486031,40.6356772,CHRISTIAN,LDS,Y,N
THE CHURCH OF JESUS CHRIST OF LATTER DAY SAINTS - SALT LAKE UNIVERSITY 21ST (STUDENT MARRIED) WARD,SALT LAKE CITY,UT,SALT LAKE,CHURCHES,32130668,-111.8382185,40.751343,CHRISTIAN,LDS,Y,N
THE CHURCH OF JESUS CHRIST OF LATTER DAY SAINTS - VALLEY VIEW 7TH WARD,SALT LAKE CITY,UT,SALT LAKE,CHURCHES,32099395,-111.8262042,40.6875627,CHRISTIAN,LDS,Y,N
THE CHURCH OF JESUS CHRIST OF LATTER DAY SAINTS - COTTONWOOD 4TH WARD,SALT LAKE CITY,UT,SALT LAKE,CHURCHES,32120704,-111.8454535,40.6503739,CHRISTIAN,LDS,Y,N
THE CHURCH OF JESUS CHRIST OF LATTER DAY SAINTS - PARLEYS 2ND WARD,SALT LAKE CITY,UT,SALT LAKE,CHURCHES,32097660,-111.8374385,40.7204367,CHRISTIAN,LDS,Y,N
CALVARY BAPTIST CHURCH,SALT LAKE CITY,UT,SALT LAKE,CHURCHES,32061832,-111.8894246,40.7453712,CHRISTIAN,ABC,Y,N
THE CHURCH OF JESUS CHRIST OF LATTER DAY SAINTS - BRIGHTON 2ND WARD,SALT LAKE CITY,UT,SALT LAKE,CHURCHES,735201440,-111.8193397,40.6120978,CHRISTIAN,LDS,Y,N
THE CHURCH OF JESUS CHRIST OF LATTER DAY SAINTS - CRYSTAL HEIGHTS 2ND WARD,SALT LAKE CITY,UT,SALT LAKE,CHURCHES,32097883,-111.834691,40.7151688,CHRISTIAN,LDS,Y,N
THE CHURCH OF JESUS CHRIST OF LATTER DAY SAINTS - LIBERTY PARK (SPANISH) BRANCH,SALT LAKE CITY,UT,SALT LAKE,CHURCHES,32061847,-111.878708,40.7450741,CHRISTIAN,LDS,Y,N
THE CHURCH OF JESUS CHRIST OF LATTER DAY SAINTS - MONUMENT PARK 17TH WARD,SALT LAKE CITY,UT,SALT LAKE,CHURCHES,32096348,-111.8101805,40.7473201,CHRISTIAN,LDS,Y,N
THE CHURCH OF JESUS CHRIST OF LATTER DAY SAINTS - HIGHLAND VIEW WARD,SALT LAKE CITY,UT,SALT LAKE,CHURCHES,32098501,-111.8095952,40.7046869,CHRISTIAN,LDS,Y,N
THE CHURCH OF JESUS CHRIST OF LATTER DAY SAINTS - CRYSTAL HEIGHTS 1ST WARD,SALT LAKE CITY,UT,SALT LAKE,CHURCHES,32097883,-111.8346917,40.7151683,CHRISTIAN,LDS,Y,N
THE CHURCH OF JESUS CHRIST OF LATTER DAY SAINTS - BURTON (SPANISH) WARD,SALT LAKE CITY,UT,SALT LAKE,CHURCHES,32063056,-111.8915835,40.7118151,CHRISTIAN,LDS,Y,N
THE CHURCH OF JESUS CHRIST OF LATTER DAY SAINTS - DAI-ICHI (JAPANESE) WARD,SALT LAKE CITY,UT,SALT LAKE,CHURCHES,32131650,-111.8645609,40.7265655,CHRISTIAN,LDS,Y,N
THE CHURCH OF JESUS CHRIST OF LATTER DAY SAINTS - OLYMPUS 6TH WARD,SALT LAKE CITY,UT,SALT LAKE,CHURCHES,32099711,-111.8059791,40.6821329,CHRISTIAN,LDS,Y,N
THE CHURCH OF JESUS CHRIST OF LATTER DAY SAINTS - MOUNT ENSIGN 3RD (SPANISH) BRANCH,SALT LAKE CITY,UT,SALT LAKE,CHURCHES,32093879,-111.898171,40.779722,CHRISTIAN,LDS,Y,N
THE CHURCH OF JESUS CHRIST OF LATTER DAY SAINTS - EAST MILL CREEK 15TH WARD,SALT LAKE CITY,UT,SALT LAKE,CHURCHES,32099274,-111.8190828,40.6898362,CHRISTIAN,LDS,Y,N
THE CHURCH OF JESUS CHRIST OF LATTER DAY SAINTS - EAST MILL CREEK 2ND WARD,SALT LAKE CITY,UT,SALT LAKE,CHURCHES,32099274,-111.8190818,40.6898392,CHRISTIAN,LDS,Y,N
THE CHURCH OF JESUS CHRIST OF LATTER DAY SAINTS - FOREST DALE 1ST WARD,SALT LAKE CITY,UT,SALT LAKE,CHURCHES,32131650,-111.8645608,40.7265662,CHRISTIAN,LDS,Y,N
THE CHURCH OF JESUS CHRIST OF LATTER DAY SAINTS - PARLEYS 4TH WARD,SALT LAKE CITY,UT,SALT LAKE,CHURCHES,32097660,-111.8374384,40.7204375,CHRISTIAN,LDS,Y,N
THE CHURCH OF JESUS CHRIST OF LATTER DAY SAINTS - LITTLE COTTONWOOD 16TH WARD,SALT LAKE CITY,UT,SALT LAKE,CHURCHES,32101464,-111.8486031,40.635676,CHRISTIAN,LDS,Y,N
THE CHURCH OF JESUS CHRIST OF LATTER DAY SAINTS - SALT LAKE UNIVERSITY 6TH (STUDENT SINGLE) WARD,SALT LAKE CITY,UT,SALT LAKE,CHURCHES,124038285,-111.8360288,40.7614905,CHRISTIAN,LDS,Y,N
THE CHURCH OF JESUS CHRIST OF LATTER DAY SAINTS - FOOTHILL 3RD WARD,SALT LAKE CITY,UT,SALT LAKE,CHURCHES,32096811,-111.8273443,40.7381735,CHRISTIAN,LDS,Y,N
THE CHURCH OF JESUS CHRIST OF LATTER DAY SAINTS - WINDER 3RD WARD,SALT LAKE CITY,UT,SALT LAKE,CHURCHES,32100228,-111.8564087,40.6728615,CHRISTIAN,LDS,Y,N
THE CHURCH OF JESUS CHRIST OF LATTER DAY SAINTS - LEGRAND WARD,SALT LAKE CITY,UT,SALT LAKE,CHURCHES,32096428,-111.8617564,40.7456715,CHRISTIAN,LDS,Y,N
THE CHURCH OF JESUS CHRIST OF LATTER DAY SAINTS - LIBERTY 3RD (TONGAN) WARD,SALT LAKE CITY,UT,SALT LAKE,CHURCHES,32097832,-111.8676082,40.7169472,CHRISTIAN,LDS,Y,N
THE CHURCH OF JESUS CHRIST OF LATTER DAY SAINTS - MEADOW WARD,SALT LAKE CITY,UT,SALT LAKE,CHURCHES,32094043,-111.9469698,40.7776942,CHRISTIAN,LDS,Y,N
THE CHURCH OF JESUS CHRIST OF LATTER DAY SAINTS - LITTLE COTTONWOOD 9TH WARD,SALT LAKE CITY,UT,SALT LAKE,CHURCHES,32128335,-111.8577656,40.6401245,CHRISTIAN,LDS,Y,N
CONGREGATION KOL AMI,SALT LAKE CITY,UT,SALT LAKE,SYNAGOGUES,32098046,-111.8213743,40.7118435,JUDAIC,REFORM,N,N
THE CHURCH OF JESUS CHRIST OF LATTER DAY SAINTS - FORESTVIEW WARD,SALT LAKE CITY,UT,SALT LAKE,CHURCHES,32098098,-111.8591423,40.7105898,CHRISTIAN,LDS,Y,N
CHAVURAH B'YACHAD,SALT LAKE CITY,UT,SALT LAKE,SYNAGOGUES,32095040,-111.8803376,40.7674647,JUDAIC,RECONSTRUCTIONIST,N,N
IJ AND JEANNE WAGNER JEWISH COMMUNITY CENTER,SALT LAKE CITY,UT,SALT LAKE,SYNAGOGUES,32119556,-111.8398507,40.7737849,JUDAIC,NOT AVAILABLE,N,N
CHABAD LUBAVITCH OF UTAH,SALT LAKE CITY,UT,SALT LAKE,SYNAGOGUES,32097123,-111.8600965,40.7320513,JUDAIC,CHABAD,N,N
THE CHURCH OF JESUS CHRIST OF LATTER DAY SAINTS - COTTONWOOD 12TH WARD,SALT LAKE CITY,UT,SALT LAKE,CHURCHES,32100816,-111.8417453,40.6555568,CHRISTIAN,LDS,Y,N
THE CHURCH OF JESUS CHRIST OF LATTER DAY SAINTS - MONUMENT PARK 14TH WARD,SALT LAKE CITY,UT,SALT LAKE,CHURCHES,32097623,-111.8115283,40.7230843,CHRISTIAN,LDS,Y,N
THE CHURCH OF JESUS CHRIST OF LATTER DAY SAINTS - GARDEN HEIGHTS WARD,SALT LAKE CITY,UT,SALT LAKE,CHURCHES,32098288,-111.8270218,40.7069211,CHRISTIAN,LDS,Y,N
THE CHURCH OF JESUS CHRIST OF LATTER DAY SAINTS - ARBOR BRANCH (SPANISH),SALT LAKE CITY,UT,SALT LAKE,CHURCHES,32062274,-111.8851028,40.7365309,CHRISTIAN,LDS,Y,N
THE CHURCH OF JESUS CHRIST OF LATTER DAY SAINTS - MOUNT OLYMPUS 9TH WARD,SALT LAKE CITY,UT,SALT LAKE,CHURCHES,32100391,-111.8002678,40.6699785,CHRISTIAN,LDS,Y,N
THE CHURCH OF JESUS CHRIST OF LATTER DAY SAINTS - COTTONWOOD ACRES WARD,SALT LAKE CITY,UT,SALT LAKE,CHURCHES,32120621,-111.8632539,40.6508758,CHRISTIAN,LDS,Y,N
THE CHURCH OF JESUS CHRIST OF LATTER DAY SAINTS - MOUNT OLYMPUS 12TH WARD,SALT LAKE CITY,UT,SALT LAKE,CHURCHES,32099821,-111.785156,40.680338,CHRISTIAN,LDS,Y,N
THE CHURCH OF JESUS CHRIST OF LATTER DAY SAINTS - MILLCREEK 5TH WARD,SALT LAKE CITY,UT,SALT LAKE,CHURCHES,32064389,-111.8903857,40.6883126,CHRISTIAN,LDS,Y,N
THE CHURCH OF JESUS CHRIST OF LATTER DAY SAINTS - WHITTIER WARD,SALT LAKE CITY,UT,SALT LAKE,CHURCHES,32062274,-111.885103,40.736531,CHRISTIAN,LDS,Y,N
THE CHURCH OF JESUS CHRIST OF LATTER DAY SAINTS - PIONEER (TONGAN) WARD,SALT LAKE CITY,UT,SALT LAKE,CHURCHES,31347951,-111.9385774,40.7836275,CHRISTIAN,LDS,Y,N
THE CHURCH OF JESUS CHRIST OF LATTER DAY SAINTS - WINDER 1ST WARD,SALT LAKE CITY,UT,SALT LAKE,CHURCHES,32100228,-111.8564094,40.6728604,CHRISTIAN,LDS,Y,N
THE CHURCH OF JESUS CHRIST OF LATTER DAY SAINTS - BUTLER 12TH WARD,SALT LAKE CITY,UT,SALT LAKE,CHURCHES,734819069,-111.8156092,40.6243659,CHRISTIAN,LDS,Y,N
THE CHURCH OF JESUS CHRIST OF LATTER DAY SAINTS - EIGHTH WARD,SALT LAKE CITY,UT,SALT LAKE,CHURCHES,32132136,-111.8829168,40.7580649,CHRISTIAN,LDS,Y,N
THE CHURCH OF JESUS CHRIST OF LATTER DAY SAINTS - EIGHTEENTH NORTH WARD,SALT LAKE CITY,UT,SALT LAKE,CHURCHES,32094692,-111.8751014,40.7720828,CHRISTIAN,LDS,Y,N
THE CHURCH OF JESUS CHRIST OF LATTER DAY SAINTS - HAVEN WARD,SALT LAKE CITY,UT,SALT LAKE,CHURCHES,32062743,-111.8831046,40.7209975,CHRISTIAN,LDS,Y,N
THE CHURCH OF JESUS CHRIST OF LATTER DAY SAINTS - WATERLOO WARD,SALT LAKE CITY,UT,SALT LAKE,CHURCHES,32062313,-111.8762699,40.7344632,CHRISTIAN,LDS,Y,N
THE CHURCH OF JESUS CHRIST OF LATTER DAY SAINTS - FOOTHILL 6TH WARD,SALT LAKE CITY,UT,SALT LAKE,CHURCHES,32096811,-111.827344,40.7381747,CHRISTIAN,LDS,Y,N
THE CHURCH OF JESUS CHRIST OF LATTER DAY SAINTS - CENTRAL PARK WARD,SALT LAKE CITY,UT,SALT LAKE,CHURCHES,32063034,-111.8821569,40.7123097,CHRISTIAN,LDS,Y,N
THE CHURCH OF JESUS CHRIST OF LATTER DAY SAINTS - SALT LAKE 5TH (TONGAN) WARD,SALT LAKE CITY,UT,SALT LAKE,CHURCHES,31347951,-111.938577,40.7836277,CHRISTIAN,LDS,Y,N
THE CHURCH OF JESUS CHRIST OF LATTER DAY SAINTS - TWENTY FIRST WARD,SALT LAKE CITY,UT,SALT LAKE,CHURCHES,32094702,-111.8690409,40.7711834,CHRISTIAN,LDS,Y,N
THE CHURCH OF JESUS CHRIST OF LATTER DAY SAINTS - GERMAN SPEAKING WARD,SALT LAKE CITY,UT,SALT LAKE,CHURCHES,32096045,-111.8562328,40.7533734,CHRISTIAN,LDS,Y,N
THE CHURCH OF JESUS CHRIST OF LATTER DAY SAINTS - WINDER 14TH (YOUNG SINGLE ADULT) WARD,SALT LAKE CITY,UT,SALT LAKE,CHURCHES,32100046,-111.8604677,40.6766976,CHRISTIAN,LDS,Y,N
THE CHURCH OF JESUS CHRIST OF LATTER DAY SAINTS - VALLEY VIEW 6TH WARD,SALT LAKE CITY,UT,SALT LAKE,CHURCHES,32131229,-111.8344818,40.6874993,CHRISTIAN,LDS,Y,N
THE CHURCH OF JESUS CHRIST OF LATTER DAY SAINTS - DOUGLAS WARD,SALT LAKE CITY,UT,SALT LAKE,CHURCHES,32096045,-111.8562318,40.7533738,CHRISTIAN,LDS,Y,N
THE CHURCH OF JESUS CHRIST OF LATTER DAY SAINTS - VALLEY VIEW 10TH WARD,SALT LAKE CITY,UT,SALT LAKE,CHURCHES,32131229,-111.8344815,40.6874974,CHRISTIAN,LDS,Y,N
SAINT PATRICK CATHOLIC CHURCH,SALT LAKE CITY,UT,SALT LAKE,CHURCHES,32095386,-111.9211471,40.7610223,CHRISTIAN,NOT AVAILABLE,N,Y
BIG MIND WESTERN ZEN CENTER,SALT LAKE CITY,UT,SALT LAKE,PLACES OF WORSHIP,734783361,-111.85434,40.769072,BUDDHIST,MAHAYANA,N,N
THE CHURCH OF JESUS CHRIST OF LATTER DAY SAINTS - WASATCH VALLEY (CARE CENTER) BRANCH,SALT LAKE CITY,UT,SALT LAKE,CHURCHES,737867224,-111.8276182,40.6989734,CHRISTIAN,LDS,Y,N
SAINT PAUL'S EPISCOPAL CHURCH,SALT LAKE CITY,UT,SALT LAKE,CHURCHES,32095312,-111.8647149,40.7633805,CHRISTIAN,EPIS,Y,N
OUR LADY OF GUADALUPE CHURCH,SALT LAKE CITY,UT,SALT LAKE,CHURCHES,32094325,-111.9116298,40.7754695,CHRISTIAN,NOT AVAILABLE,N,Y
THE CHURCH OF JESUS CHRIST OF LATTER DAY SAINTS - MONUMENT PARK 2ND WARD,SALT LAKE CITY,UT,SALT LAKE,CHURCHES,32096355,-111.8328544,40.7472433,CHRISTIAN,LDS,Y,N
THE CHURCH OF JESUS CHRIST OF LATTER DAY SAINTS - MONUMENT PARK 1ST WARD,SALT LAKE CITY,UT,SALT LAKE,CHURCHES,32096355,-111.8328503,40.7472429,CHRISTIAN,LDS,Y,N
THE CHURCH OF JESUS CHRIST OF LATTER DAY SAINTS - TWENTY SIXTH WARD,SALT LAKE CITY,UT,SALT LAKE,CHURCHES,736498791,-111.9240229,40.7580596,CHRISTIAN,LDS,Y,N
THE CHURCH OF JESUS CHRIST OF LATTER DAY SAINTS - LITTLE COTTONWOOD 20TH WARD,SALT LAKE CITY,UT,SALT LAKE,CHURCHES,32128335,-111.8577631,40.6401226,CHRISTIAN,LDS,Y,N
THE CHURCH OF JESUS CHRIST OF LATTER DAY SAINTS - MOUNTAIN VIEW 1ST WARD,SALT LAKE CITY,UT,SALT LAKE,CHURCHES,32096768,-111.8369351,40.738829,CHRISTIAN,LDS,Y,N
THE CHURCH OF JESUS CHRIST OF LATTER DAY SAINTS - WINDER 17TH (PORTUGUESE) BRANCH,SALT LAKE CITY,UT,SALT LAKE,CHURCHES,32100438,-111.8486325,40.6680057,CHRISTIAN,LDS,Y,N
THE CHURCH OF JESUS CHRIST OF LATTER DAY SAINTS - PARLEYS 7TH (SINGLE ADULT) WARD,SALT LAKE CITY,UT,SALT LAKE,CHURCHES,32097660,-111.8374389,40.7204369,CHRISTIAN,LDS,Y,N
THE CHURCH OF JESUS CHRIST OF LATTER DAY SAINTS - VALLEY VIEW 12TH WARD,SALT LAKE CITY,UT,SALT LAKE,CHURCHES,32098875,-111.8312194,40.6971898,CHRISTIAN,LDS,Y,N
THE CHURCH OF JESUS CHRIST OF LATTER DAY SAINTS - OLYMPUS 5TH WARD,SALT LAKE CITY,UT,SALT LAKE,CHURCHES,32099711,-111.8059791,40.6821358,CHRISTIAN,LDS,Y,N
THE CHURCH OF JESUS CHRIST OF LATTER DAY SAINTS - SPRINGVIEW WARD,SALT LAKE CITY,UT,SALT LAKE,CHURCHES,32098591,-111.8648672,40.7026865,CHRISTIAN,LDS,Y,N
THE CHURCH OF JESUS CHRIST OF LATTER DAY SAINTS - GRANITE (SPANISH) WARD,SALT LAKE CITY,UT,SALT LAKE,CHURCHES,32063713,-111.8822141,40.7009089,CHRISTIAN,LDS,Y,N
THE CHURCH OF JESUS CHRIST OF LATTER DAY SAINTS - MILLER WARD,SALT LAKE CITY,UT,SALT LAKE,CHURCHES,32063713,-111.8822143,40.7009084,CHRISTIAN,LDS,Y,N
THE CHURCH OF JESUS CHRIST OF LATTER DAY SAINTS - WASATCH 8TH WARD,SALT LAKE CITY,UT,SALT LAKE,CHURCHES,32118954,-111.7921845,40.6129107,CHRISTIAN,LDS,Y,N
THE CHURCH OF JESUS CHRIST OF LATTER DAY SAINTS - MOUNT OLYMPUS 5TH WARD,SALT LAKE CITY,UT,SALT LAKE,CHURCHES,32119933,-111.7928311,40.6945184,CHRISTIAN,LDS,Y,N
THE CHURCH OF JESUS CHRIST OF LATTER DAY SAINTS - LEE WARD,SALT LAKE CITY,UT,SALT LAKE,CHURCHES,32064389,-111.8903888,40.6883103,CHRISTIAN,LDS,Y,N
THE CHURCH OF JESUS CHRIST OF LATTER DAY SAINTS - MILLCREEK 2ND WARD,SALT LAKE CITY,UT,SALT LAKE,CHURCHES,32118927,-111.8801323,40.6797568,CHRISTIAN,LDS,Y,N
THE CHURCH OF JESUS CHRIST OF LATTER DAY SAINTS - WINDER 12TH WARD,SALT LAKE CITY,UT,SALT LAKE,CHURCHES,32100046,-111.8604684,40.6766979,CHRISTIAN,LDS,Y,N
THE CHURCH OF JESUS CHRIST OF LATTER DAY SAINTS - WINDER 6TH WARD,SALT LAKE CITY,UT,SALT LAKE,CHURCHES,32100051,-111.8490271,40.6764887,CHRISTIAN,LDS,Y,N
THE CHURCH OF JESUS CHRIST OF LATTER DAY SAINTS - WINDER 10TH WARD,SALT LAKE CITY,UT,SALT LAKE,CHURCHES,32100051,-111.8490264,40.6764891,CHRISTIAN,LDS,Y,N
THE CHURCH OF JESUS CHRIST OF LATTER DAY SAINTS - MOUNT OLYMPUS 7TH WARD,SALT LAKE CITY,UT,SALT LAKE,CHURCHES,32123008,-111.7925944,40.675583,CHRISTIAN,LDS,Y,N
THE CHURCH OF JESUS CHRIST OF LATTER DAY SAINTS - MOUNT OLYMPUS 6TH WARD,SALT LAKE CITY,UT,SALT LAKE,CHURCHES,32123008,-111.7925935,40.6755836,CHRISTIAN,LDS,Y,N
THE CHURCH OF JESUS CHRIST OF LATTER DAY SAINTS - LINCOLN HEIGHTS WARD,SALT LAKE CITY,UT,SALT LAKE,CHURCHES,124039013,-111.8743076,40.7034879,CHRISTIAN,LDS,Y,N
THE CHURCH OF JESUS CHRIST OF LATTER DAY SAINTS - FOREST DALE 2ND BRANCH(SPANISH),SALT LAKE CITY,UT,SALT LAKE,CHURCHES,32097687,-111.8700866,40.7203411,CHRISTIAN,LDS,Y,N
THE CHURCH OF JESUS CHRIST OF LATTER DAY SAINTS - SALT LAKE VALLEY 1ST (DEAF) WARD,SALT LAKE CITY,UT,SALT LAKE,CHURCHES,32108933,-111.8688626,40.7536271,CHRISTIAN,LDS,Y,N
THE CHURCH OF JESUS CHRIST OF LATTER DAY SAINTS - WASATCH 5TH WARD,SALT LAKE CITY,UT,SALT LAKE,CHURCHES,32103051,-111.7911797,40.6033277,CHRISTIAN,LDS,Y,N
THE CHURCH OF JESUS CHRIST OF LATTER DAY SAINTS - WASATCH 2ND (YOUNG SINGLE ADULT) WARD,SALT LAKE CITY,UT,SALT LAKE,CHURCHES,32103087,-111.7985169,40.6027584,CHRISTIAN,LDS,Y,N
THE CHURCH OF JESUS CHRIST OF LATTER DAY SAINTS - WASATCH 4TH WARD,SALT LAKE CITY,UT,SALT LAKE,CHURCHES,32103087,-111.7985173,40.6027578,CHRISTIAN,LDS,Y,N
THE CHURCH OF JESUS CHRIST OF LATTER DAY SAINTS - WASATCH 3RD WARD,SALT LAKE CITY,UT,SALT LAKE,CHURCHES,32103087,-111.7985169,40.6027584,CHRISTIAN,LDS,Y,N
THE CHURCH OF JESUS CHRIST OF LATTER DAY SAINTS - LUCERO (SPANISH) BRANCH,SALT LAKE CITY,UT,SALT LAKE,CHURCHES,32097175,-111.8664889,40.7303219,CHRISTIAN,LDS,Y,N
THE CHURCH OF JESUS CHRIST OF LATTER DAY SAINTS - STARCREST WARD,SALT LAKE CITY,UT,SALT LAKE,CHURCHES,32093383,-111.9430418,40.7883602,CHRISTIAN,LDS,Y,N
SACRED HEART CATHOLIC CHURCH,SALT LAKE CITY,UT,SALT LAKE,CHURCHES,32061683,-111.8856873,40.7493359,CHRISTIAN,NOT AVAILABLE,N,Y
THE CHURCH OF JESUS CHRIST OF LATTER DAY SAINTS - WASATCH 7TH WARD,SALT LAKE CITY,UT,SALT LAKE,CHURCHES,32103051,-111.7911798,40.603328,CHRISTIAN,LDS,Y,N
THE CHURCH OF JESUS CHRIST OF LATTER DAY SAINTS - RICHARDS WARD,SALT LAKE CITY,UT,SALT LAKE,CHURCHES,32097175,-111.8664886,40.7303215,CHRISTIAN,LDS,Y,N
THE CHURCH OF JESUS CHRIST OF LATTER DAY SAINTS - SALT LAKE UNIVERSITY 46TH (STUDENT SINGLE) WARD,SALT LAKE CITY,UT,SALT LAKE,CHURCHES,32097687,-111.870087,40.7203432,CHRISTIAN,LDS,Y,N
MOUNTAIN SPRINGS COMMUNITY CHURCH,SALT LAKE CITY,UT,SALT LAKE,CHURCHES,32102001,-111.8448094,40.6215861,CHRISTIAN,CRC,Y,N
THE CHURCH OF JESUS CHRIST OF LATTER DAY SAINTS - VETERAN'S HOME (CARE CENTER) BRANCH,SALT LAKE CITY,UT,SALT LAKE,CHURCHES,32119632,-111.8403391,40.7572657,CHRISTIAN,LDS,Y,N
THE CHURCH OF JESUS CHRIST OF LATTER DAY SAINTS - SAINT JOSEPH (RETIREMENT) BRANCH,SALT LAKE CITY,UT,SALT LAKE,CHURCHES,124059165,-111.8780751,40.7282554,CHRISTIAN,LDS,Y,N
THE CHURCH OF JESUS CHRIST OF LATTER DAY SAINTS - SALT LAKE UNIVERSITY 33RD (STUDENT SINGLE) WARD,SALT LAKE CITY,UT,SALT LAKE,CHURCHES,32096355,-111.8328535,40.7472452,CHRISTIAN,LDS,Y,N
THE CHURCH OF JESUS CHRIST OF LATTER DAY SAINTS - TWENTY NINTH WARD,SALT LAKE CITY,UT,SALT LAKE,CHURCHES,32093845,-111.9236518,40.7808251,CHRISTIAN,LDS,Y,N
PHO QUANG TEMPLE,SALT LAKE CITY,UT,SALT LAKE,"TEMPLES, RELIGIOUS",32093224,-111.925014,40.7907223,BUDDHIST,MAHAYANA,N,N
THE CHURCH OF JESUS CHRIST OF LATTER DAY SAINTS - OLYMPUS 2ND WARD,SALT LAKE CITY,UT,SALT LAKE,CHURCHES,32099711,-111.8059795,40.682134,CHRISTIAN,LDS,Y,N
THE CHURCH OF JESUS CHRIST OF LATTER DAY SAINTS - ENSIGN 7TH (YOUNG SINGLE ADULT) WARD,SALT LAKE CITY,UT,SALT LAKE,CHURCHES,32094692,-111.8751015,40.7720825,CHRISTIAN,LDS,Y,N
THE CHURCH OF JESUS CHRIST OF LATTER DAY SAINTS - PARLEYS 3RD WARD,SALT LAKE CITY,UT,SALT LAKE,CHURCHES,722472737,-111.8154356,40.7214984,CHRISTIAN,LDS,Y,N
THE CHURCH OF JESUS CHRIST OF LATTER DAY SAINTS - HIGHLAND (YOUNG SINGLE ADULT) BRANCH,SALT LAKE CITY,UT,SALT LAKE,CHURCHES,32097829,-111.8545254,40.7164188,CHRISTIAN,LDS,Y,N
THE CHURCH OF JESUS CHRIST OF LATTER DAY SAINTS - HIGHLAND PARK WARD,SALT LAKE CITY,UT,SALT LAKE,CHURCHES,32097829,-111.8545269,40.7164193,CHRISTIAN,LDS,Y,N
THE INNER LIGHT CENTER,SALT LAKE CITY,UT,SALT LAKE,PLACES OF WORSHIP,32065304,-111.8772971,40.675649,BUDDHIST,THERAVADA TRADITION,N,N
THE CHURCH OF JESUS CHRIST OF LATTER DAY SAINTS - YALE WARD,SALT LAKE CITY,UT,SALT LAKE,CHURCHES,32096340,-111.850015,40.7475687,CHRISTIAN,LDS,Y,N
SALT LAKE BUDDHIST TEMPLE,SALT LAKE CITY,UT,SALT LAKE,"TEMPLES, RELIGIOUS",32132463,-111.8974007,40.7669031,BUDDHIST,JODO SHINSHU BUDDHISM,N,N
BIBLE BAPTIST CHURCH,SALT LAKE CITY,UT,SALT LAKE,CHURCHES,32131829,-111.9808821,40.6666986,CHRISTIAN,BAPT,Y,N
THE CHURCH OF JESUS CHRIST OF LATTER DAY SAINTS - BUTLER 10TH WARD,SALT LAKE CITY,UT,SALT LAKE,CHURCHES,32126231,-111.8422093,40.6299296,CHRISTIAN,LDS,Y,N
THE CHURCH OF JESUS CHRIST OF LATTER DAY SAINTS - RIVERSIDE 2ND (TONGAN) WARD,SALT LAKE CITY,UT,SALT LAKE,CHURCHES,31347951,-111.9385777,40.7836304,CHRISTIAN,LDS,Y,N
THE CHURCH OF JESUS CHRIST OF LATTER DAY SAINTS - BRIGHTON GARDENS (CARE CENTER) BRANCH,SALT LAKE CITY,UT,SALT LAKE,CHURCHES,32095045,-111.877337,40.7677067,CHRISTIAN,LDS,Y,N
THE CHURCH OF JESUS CHRIST OF LATTER DAY SAINTS - TEMPLE VIEW (RETIREMENT) BRANCH,SALT LAKE CITY,UT,SALT LAKE,CHURCHES,32062599,-111.8861472,40.727345,CHRISTIAN,LDS,Y,N
THE CHURCH OF JESUS CHRIST OF LATTER DAY SAINTS - TENTH WARD,SALT LAKE CITY,UT,SALT LAKE,CHURCHES,101941249,-111.868609,40.7602694,CHRISTIAN,LDS,Y,N
THE CHURCH OF JESUS CHRIST OF LATTER DAY SAINTS - BRIGHTON POINT WARD,SALT LAKE CITY,UT,SALT LAKE,CHURCHES,735201443,-111.7970917,40.6099413,CHRISTIAN,LDS,Y,N
THE CHURCH OF JESUS CHRIST OF LATTER DAY SAINTS - ELEVENTH WARD,SALT LAKE CITY,UT,SALT LAKE,CHURCHES,32095037,-111.8636467,40.7676726,CHRISTIAN,LDS,Y,N
CENTRAL VALLEY BAPTIST CHURCH,SALT LAKE CITY,UT,SALT LAKE,CHURCHES,32100983,-111.8562035,40.6491077,CHRISTIAN,BAPT,Y,N
ALL SAINTS EPISCOPAL CHURCH,SALT LAKE CITY,UT,SALT LAKE,CHURCHES,32097071,-111.8207665,40.7330506,CHRISTIAN,EPIS,Y,N
THE CHURCH OF JESUS CHRIST OF LATTER DAY SAINTS - UNIVERSITY WARD,SALT LAKE CITY,UT,SALT LAKE,CHURCHES,32095104,-111.8528468,40.7659391,CHRISTIAN,LDS,Y,N
THE CHURCH OF JESUS CHRIST OF LATTER DAY SAINTS - WELLS WARD,SALT LAKE CITY,UT,SALT LAKE,CHURCHES,32062546,-111.8771316,40.7268198,CHRISTIAN,LDS,Y,N
THE CHURCH OF JESUS CHRIST OF LATTER DAY SAINTS - GRANDVIEW 2ND WARD,SALT LAKE CITY,UT,SALT LAKE,CHURCHES,32098251,-111.8345959,40.7077648,CHRISTIAN,LDS,Y,N
THE CHURCH OF JESUS CHRIST OF LATTER DAY SAINTS - VALLEY VIEW 5TH WARD,SALT LAKE CITY,UT,SALT LAKE,CHURCHES,32099395,-111.8262042,40.6875627,CHRISTIAN,LDS,Y,N
THE CHURCH OF JESUS CHRIST OF LATTER DAY SAINTS - SALT LAKE UNIVERSITY 7TH (STUDENT SINGLE) WARD,SALT LAKE CITY,UT,SALT LAKE,CHURCHES,124038550,-111.8393146,40.7597193,CHRISTIAN,LDS,Y,N
THE CHURCH OF JESUS CHRIST OF LATTER DAY SAINTS - HILLSIDE (YOUNG SINGLE ADULT) WARD,SALT LAKE CITY,UT,SALT LAKE,CHURCHES,32097289,-111.8417307,40.7291581,CHRISTIAN,LDS,Y,N
THE CHURCH OF JESUS CHRIST OF LATTER DAY SAINTS - MOUNT ENSIGN 2ND (SPANISH) WARD,SALT LAKE CITY,UT,SALT LAKE,CHURCHES,32093479,-111.924438,40.7858663,CHRISTIAN,LDS,Y,N
THE CHURCH OF JESUS CHRIST OF LATTER DAY SAINTS - CANYON RIM 3RD WARD,SALT LAKE CITY,UT,SALT LAKE,CHURCHES,32098501,-111.8095957,40.7046878,CHRISTIAN,LDS,Y,N
THE CHURCH OF JESUS CHRIST OF LATTER DAY SAINTS - SALT LAKE UNIVERSITY 31ST (STUDENT SINGLE) WARD,SALT LAKE CITY,UT,SALT LAKE,CHURCHES,124038550,-111.8393135,40.7597197,CHRISTIAN,LDS,Y,N
THE CHURCH OF JESUS CHRIST OF LATTER DAY SAINTS - FOOTHILL 1ST WARD,SALT LAKE CITY,UT,SALT LAKE,CHURCHES,737167173,-111.8318327,40.7286178,CHRISTIAN,LDS,Y,N
THE CHURCH OF JESUS CHRIST OF LATTER DAY SAINTS - MOUNT OLYMPUS 8TH WARD,SALT LAKE CITY,UT,SALT LAKE,CHURCHES,32099821,-111.7851554,40.6803385,CHRISTIAN,LDS,Y,N
THE CHURCH OF JESUS CHRIST OF LATTER DAY SAINTS - BUTLER 33RD WARD,SALT LAKE CITY,UT,SALT LAKE,CHURCHES,32102061,-111.8391588,40.6210802,CHRISTIAN,LDS,Y,N
THE CHURCH OF JESUS CHRIST OF LATTER DAY SAINTS - WILFORD 2ND (YOUNG SINGLE ADULT) WARD,SALT LAKE CITY,UT,SALT LAKE,CHURCHES,32119519,-111.8133238,40.7061075,CHRISTIAN,LDS,Y,N
THE CHURCH OF JESUS CHRIST OF LATTER DAY SAINTS - EAST MILL CREEK 19TH (YOUNG SINGLE ADULT) WARD,SALT LAKE CITY,UT,SALT LAKE,CHURCHES,32119519,-111.8133247,40.7061071,CHRISTIAN,LDS,Y,N
THE CHURCH OF JESUS CHRIST OF LATTER DAY SAINTS - ENSIGN 2ND WARD,SALT LAKE CITY,UT,SALT LAKE,CHURCHES,32094683,-111.8841516,40.7724891,CHRISTIAN,LDS,Y,N
THE CHURCH OF JESUS CHRIST OF LATTER DAY SAINTS - VALLEY VIEW 1ST WARD,SALT LAKE CITY,UT,SALT LAKE,CHURCHES,32099395,-111.8262042,40.6875627,CHRISTIAN,LDS,Y,N
THE CHURCH OF JESUS CHRIST OF LATTER DAY SAINTS - MOUNTAIN VIEW 3RD WARD,SALT LAKE CITY,UT,SALT LAKE,CHURCHES,32097289,-111.8417316,40.7291583,CHRISTIAN,LDS,Y,N
THE CHURCH OF JESUS CHRIST OF LATTER DAY SAINTS - WANDAMERE WARD,SALT LAKE CITY,UT,SALT LAKE,CHURCHES,32063034,-111.8821554,40.7123085,CHRISTIAN,LDS,Y,N
THE CHURCH OF JESUS CHRIST OF LATTER DAY SAINTS - EAST MILL CREEK 6TH WARD,SALT LAKE CITY,UT,SALT LAKE,CHURCHES,32099124,-111.8054312,40.6927391,CHRISTIAN,LDS,Y,N
THE CHURCH OF JESUS CHRIST OF LATTER DAY SAINTS - BUTLER 27TH WARD,SALT LAKE CITY,UT,SALT LAKE,CHURCHES,32102061,-111.8391591,40.6210794,CHRISTIAN,LDS,Y,N
THE CHURCH OF JESUS CHRIST OF LATTER DAY SAINTS - CENTER 3RD WARD,SALT LAKE CITY,UT,SALT LAKE,CHURCHES,32094043,-111.9469695,40.7776921,CHRISTIAN,LDS,Y,N
THE CHURCH OF JESUS CHRIST OF LATTER DAY SAINTS - COTTONWOOD 14TH WARD,SALT LAKE CITY,UT,SALT LAKE,CHURCHES,32100779,-111.8321688,40.6566926,CHRISTIAN,LDS,Y,N
THE CHURCH OF JESUS CHRIST OF LATTER DAY SAINTS - SALT LAKE UNIVERSITY 29TH (STUDENT SINGLE) WARD,SALT LAKE CITY,UT,SALT LAKE,CHURCHES,124038550,-111.8393141,40.7597165,CHRISTIAN,LDS,Y,N
THE CHURCH OF JESUS CHRIST OF LATTER DAY SAINTS - EAST MILL CREEK 16TH WARD,SALT LAKE CITY,UT,SALT LAKE,CHURCHES,32098879,-111.806077,40.6976783,CHRISTIAN,LDS,Y,N
THE CHURCH OF JESUS CHRIST OF LATTER DAY SAINTS - NORTHPOINT 1ST WARD,SALT LAKE CITY,UT,SALT LAKE,CHURCHES,32093006,-111.9465353,40.8012839,CHRISTIAN,LDS,Y,N
THE CHURCH OF JESUS CHRIST OF LATTER DAY SAINTS - CANNON 4TH WARD,SALT LAKE CITY,UT,SALT LAKE,CHURCHES,32062051,-111.925436,40.7414023,CHRISTIAN,LDS,Y,N
THE CHURCH OF JESUS CHRIST OF LATTER DAY SAINTS - SALT LAKE UNIVERSITY 18TH (STUDENT SINGLE) WARD,SALT LAKE CITY,UT,SALT LAKE,CHURCHES,124038550,-111.8393142,40.7597188,CHRISTIAN,LDS,Y,N
THE CHURCH OF JESUS CHRIST OF LATTER DAY SAINTS - SALT LAKE UNIVERSITY 4TH (STUDENT MARRIED) WARD,SALT LAKE CITY,UT,SALT LAKE,CHURCHES,32130668,-111.8382191,40.7513446,CHRISTIAN,LDS,Y,N
THE CHURCH OF JESUS CHRIST OF LATTER DAY SAINTS - FAIRMONT WARD,SALT LAKE CITY,UT,SALT LAKE,CHURCHES,32097832,-111.8676091,40.7169449,CHRISTIAN,LDS,Y,N
THE CHURCH OF JESUS CHRIST OF LATTER DAY SAINTS - NORTHPOINT 2ND WARD,SALT LAKE CITY,UT,SALT LAKE,CHURCHES,32093006,-111.9465353,40.8012857,CHRISTIAN,LDS,Y,N
THE CHURCH OF JESUS CHRIST OF LATTER DAY SAINTS - WINDER 7TH WARD,SALT LAKE CITY,UT,SALT LAKE,CHURCHES,32100046,-111.8604686,40.6766976,CHRISTIAN,LDS,Y,N
THE CHURCH OF JESUS CHRIST OF LATTER DAY SAINTS - FOURTEENTH WARD,SALT LAKE CITY,UT,SALT LAKE,CHURCHES,124056241,-111.8952201,40.7743368,CHRISTIAN,LDS,Y,N
THE CHURCH OF JESUS CHRIST OF LATTER DAY SAINTS - PARLEYS 6TH WARD,SALT LAKE CITY,UT,SALT LAKE,CHURCHES,721164506,-111.8313065,40.7195789,CHRISTIAN,LDS,Y,N
THE CHURCH OF JESUS CHRIST OF LATTER DAY SAINTS - ENSIGN 8TH WARD,SALT LAKE CITY,UT,SALT LAKE,CHURCHES,32094683,-111.8841516,40.7724891,CHRISTIAN,LDS,Y,N
THE CHURCH OF JESUS CHRIST OF LATTER DAY SAINTS - WINDER 8TH WARD,SALT LAKE CITY,UT,SALT LAKE,CHURCHES,32122335,-111.8519437,40.6850874,CHRISTIAN,LDS,Y,N
THE CHURCH OF JESUS CHRIST OF LATTER DAY SAINTS - YALECREST 2ND WARD,SALT LAKE CITY,UT,SALT LAKE,CHURCHES,32096381,-111.8387947,40.7464187,CHRISTIAN,LDS,Y,N
THE CHURCH OF JESUS CHRIST OF LATTER DAY SAINTS - BRIGHTON 5TH WARD,SALT LAKE CITY,UT,SALT LAKE,CHURCHES,735201440,-111.8193386,40.6120966,CHRISTIAN,LDS,Y,N
THE CHURCH OF JESUS CHRIST OF LATTER DAY SAINTS - WINDER 11TH WARD,SALT LAKE CITY,UT,SALT LAKE,CHURCHES,32099327,-111.8639496,40.6882779,CHRISTIAN,LDS,Y,N
THE CHURCH OF JESUS CHRIST OF LATTER DAY SAINTS - COTTONWOOD HEIGHTS 7TH WARD,SALT LAKE CITY,UT,SALT LAKE,CHURCHES,32101656,-111.8194243,40.6287681,CHRISTIAN,LDS,Y,N
THE CHURCH OF JESUS CHRIST OF LATTER DAY SAINTS - OLYMPUS 8TH WARD,SALT LAKE CITY,UT,SALT LAKE,CHURCHES,717721194,-111.8157706,40.6758088,CHRISTIAN,LDS,Y,N
THE CHURCH OF JESUS CHRIST OF LATTER DAY SAINTS - BRIGHTON 4TH WARD,SALT LAKE CITY,UT,SALT LAKE,CHURCHES,32102439,-111.8238178,40.6135568,CHRISTIAN,LDS,Y,N
THE CHURCH OF JESUS CHRIST OF LATTER DAY SAINTS - BUTLER 11TH WARD,SALT LAKE CITY,UT,SALT LAKE,CHURCHES,32102061,-111.8391588,40.6210802,CHRISTIAN,LDS,Y,N
THE CHURCH OF JESUS CHRIST OF LATTER DAY SAINTS - SALT LAKE UNIVERSITY 14TH (STUDENT SINGLE) WARD,SALT LAKE CITY,UT,SALT LAKE,CHURCHES,124038550,-111.8393135,40.7597165,CHRISTIAN,LDS,Y,N
THE CHURCH OF JESUS CHRIST OF LATTER DAY SAINTS - SALT LAKE UNIVERSITY 41ST (STUDENT SINGLE) WARD,SALT LAKE CITY,UT,SALT LAKE,CHURCHES,124038550,-111.8393154,40.7597194,CHRISTIAN,LDS,Y,N
THE CHURCH OF JESUS CHRIST OF LATTER DAY SAINTS - BUTLER 7TH WARD,SALT LAKE CITY,UT,SALT LAKE,CHURCHES,32110202,-111.8519871,40.6208708,CHRISTIAN,LDS,Y,N
THE CHURCH OF JESUS CHRIST OF LATTER DAY SAINTS - JEFFERSON WARD,SALT LAKE CITY,UT,SALT LAKE,CHURCHES,32062445,-111.8932861,40.7292106,CHRISTIAN,LDS,Y,N
THE CHURCH OF JESUS CHRIST OF LATTER DAY SAINTS - KIMBALL WARD,SALT LAKE CITY,UT,SALT LAKE,CHURCHES,32062743,-111.8831071,40.720998,CHRISTIAN,LDS,Y,N
THE CHURCH OF JESUS CHRIST OF LATTER DAY SAINTS - ROSECREST 1ST WARD,SALT LAKE CITY,UT,SALT LAKE,CHURCHES,32098577,-111.823703,40.7033786,CHRISTIAN,LDS,Y,N
THE CHURCH OF JESUS CHRIST OF LATTER DAY SAINTS - MADISON (YOUNG SINGLE ADULT) WARD,SALT LAKE CITY,UT,SALT LAKE,CHURCHES,32063056,-111.8915836,40.7118137,CHRISTIAN,LDS,Y,N
THE CHURCH OF JESUS CHRIST OF LATTER DAY SAINTS - NINTH WARD,SALT LAKE CITY,UT,SALT LAKE,CHURCHES,32132136,-111.8829169,40.7580663,CHRISTIAN,LDS,Y,N
THE CHURCH OF JESUS CHRIST OF LATTER DAY SAINTS - SEVENTEENTH WARD,SALT LAKE CITY,UT,SALT LAKE,CHURCHES,32093879,-111.8981747,40.7797237,CHRISTIAN,LDS,Y,N
THE CHURCH OF JESUS CHRIST OF LATTER DAY SAINTS - TWENTIETH WARD,SALT LAKE CITY,UT,SALT LAKE,CHURCHES,32094692,-111.8751026,40.7720829,CHRISTIAN,LDS,Y,N
THE CHURCH OF JESUS CHRIST OF LATTER DAY SAINTS - WINDER 9TH WARD,SALT LAKE CITY,UT,SALT LAKE,CHURCHES,32100438,-111.8486343,40.6680055,CHRISTIAN,LDS,Y,N
THE CHURCH OF JESUS CHRIST OF LATTER DAY SAINTS - TWENTY SEVENTH WARD,SALT LAKE CITY,UT,SALT LAKE,CHURCHES,32094628,-111.861496,40.7736273,CHRISTIAN,LDS,Y,N
THE CHURCH OF JESUS CHRIST OF LATTER DAY SAINTS - BRICKYARD WARD,SALT LAKE CITY,UT,SALT LAKE,CHURCHES,32098098,-111.8591423,40.7105884,CHRISTIAN,LDS,Y,N
THE CHURCH OF JESUS CHRIST OF LATTER DAY SAINTS - ENSIGN 1ST WARD,SALT LAKE CITY,UT,SALT LAKE,CHURCHES,32094683,-111.8841516,40.7724891,CHRISTIAN,LDS,Y,N
THE CHURCH OF JESUS CHRIST OF LATTER DAY SAINTS - IMPERIAL 1ST WARD,SALT LAKE CITY,UT,SALT LAKE,CHURCHES,32098123,-111.8477087,40.7120672,CHRISTIAN,LDS,Y,N
THE CHURCH OF JESUS CHRIST OF LATTER DAY SAINTS - RIDGEDALE WARD,SALT LAKE CITY,UT,SALT LAKE,CHURCHES,101939091,-111.8603863,40.6976983,CHRISTIAN,LDS,Y,N
THE CHURCH OF JESUS CHRIST OF LATTER DAY SAINTS - ROSE PARK 7TH WARD,SALT LAKE CITY,UT,SALT LAKE,CHURCHES,32093225,-111.9261623,40.7938825,CHRISTIAN,LDS,Y,N
THE CHURCH OF JESUS CHRIST OF LATTER DAY SAINTS - CANNON 6TH (SPANISH) BRANCH,SALT LAKE CITY,UT,SALT LAKE,CHURCHES,32062118,-111.9276622,40.7391916,CHRISTIAN,LDS,Y,N
THE CHURCH OF JESUS CHRIST OF LATTER DAY SAINTS - RIVERSIDE 1ST WARD,SALT LAKE CITY,UT,SALT LAKE,CHURCHES,32093845,-111.9236518,40.7808251,CHRISTIAN,LDS,Y,N
THE CHURCH OF JESUS CHRIST OF LATTER DAY SAINTS - PARLEYS 1ST WARD,SALT LAKE CITY,UT,SALT LAKE,CHURCHES,721164506,-111.8313067,40.7195778,CHRISTIAN,LDS,Y,N
THE CHURCH OF JESUS CHRIST OF LATTER DAY SAINTS - OLYMPUS 4TH WARD,SALT LAKE CITY,UT,SALT LAKE,CHURCHES,717721194,-111.8157706,40.6758088,CHRISTIAN,LDS,Y,N
THE CHURCH OF JESUS CHRIST OF LATTER DAY SAINTS - ROSE PARK 15TH (SAMOAN) WARD,SALT LAKE CITY,UT,SALT LAKE,CHURCHES,32093225,-111.9261621,40.7938827,CHRISTIAN,LDS,Y,N
THE CHURCH OF JESUS CHRIST OF LATTER DAY SAINTS - WASATCH WARD,SALT LAKE CITY,UT,SALT LAKE,CHURCHES,32097136,-111.848594,40.7321788,CHRISTIAN,LDS,Y,N
THE CHURCH OF JESUS CHRIST OF LATTER DAY SAINTS - VALLEY VIEW 4TH WARD,SALT LAKE CITY,UT,SALT LAKE,CHURCHES,32098875,-111.8312204,40.6971896,CHRISTIAN,LDS,Y,N
THE CHURCH OF JESUS CHRIST OF LATTER DAY SAINTS - EAST MILL CREEK 1ST WARD,SALT LAKE CITY,UT,SALT LAKE,CHURCHES,32098868,-111.814628,40.6964956,CHRISTIAN,LDS,Y,N
THE CHURCH OF JESUS CHRIST OF LATTER DAY SAINTS - SOUTHGATE WARD,SALT LAKE CITY,UT,SALT LAKE,CHURCHES,32063056,-111.8915861,40.7118156,CHRISTIAN,LDS,Y,N
THE CHURCH OF JESUS CHRIST OF LATTER DAY SAINTS - GREGSON WARD,SALT LAKE CITY,UT,SALT LAKE,CHURCHES,32098591,-111.8648669,40.7026856,CHRISTIAN,LDS,Y,N
THE CHURCH OF JESUS CHRIST OF LATTER DAY SAINTS - OLYMPUS 1ST WARD,SALT LAKE CITY,UT,SALT LAKE,CHURCHES,32099673,-111.8207123,40.6826549,CHRISTIAN,LDS,Y,N
THE CHURCH OF JESUS CHRIST OF LATTER DAY SAINTS - ROSEDALE WARD,SALT LAKE CITY,UT,SALT LAKE,CHURCHES,32093845,-111.9236518,40.780827,CHRISTIAN,LDS,Y,N
THE CHURCH OF JESUS CHRIST OF LATTER DAY SAINTS - WASATCH 9TH WARD,SALT LAKE CITY,UT,SALT LAKE,CHURCHES,32118954,-111.7921837,40.612912,CHRISTIAN,LDS,Y,N
THE CHURCH OF JESUS CHRIST OF LATTER DAY SAINTS - MOUNT OLYMPUS 10TH WARD,SALT LAKE CITY,UT,SALT LAKE,CHURCHES,32119933,-111.7928304,40.6945178,CHRISTIAN,LDS,Y,N
THE CHURCH OF JESUS CHRIST OF LATTER DAY SAINTS - ROSECREST 2ND WARD,SALT LAKE CITY,UT,SALT LAKE,CHURCHES,32098577,-111.823704,40.7033792,CHRISTIAN,LDS,Y,N
THE CHURCH OF JESUS CHRIST OF LATTER DAY SAINTS - MONUMENT PARK 9TH WARD,SALT LAKE CITY,UT,SALT LAKE,CHURCHES,32096954,-111.8214518,40.7357536,CHRISTIAN,LDS,Y,N
THE CHURCH OF JESUS CHRIST OF LATTER DAY SAINTS - MONUMENT PARK 11TH WARD,SALT LAKE CITY,UT,SALT LAKE,CHURCHES,32096954,-111.8214523,40.7357519,CHRISTIAN,LDS,Y,N
THE CHURCH OF JESUS CHRIST OF LATTER DAY SAINTS - GRANDVIEW 3RD WARD,SALT LAKE CITY,UT,SALT LAKE,CHURCHES,32098251,-111.8345926,40.707764,CHRISTIAN,LDS,Y,N
THE CHURCH OF JESUS CHRIST OF LATTER DAY SAINTS - IVINS WARD,SALT LAKE CITY,UT,SALT LAKE,CHURCHES,32062432,-111.8831145,40.7297845,CHRISTIAN,LDS,Y,N
THE CHURCH OF JESUS CHRIST OF LATTER DAY SAINTS - MCKINLEY WARD,SALT LAKE CITY,UT,SALT LAKE,CHURCHES,32062445,-111.8932835,40.7292103,CHRISTIAN,LDS,Y,N
THE CHURCH OF JESUS CHRIST OF LATTER DAY SAINTS - LIBERTY WARD,SALT LAKE CITY,UT,SALT LAKE,CHURCHES,32061847,-111.8787064,40.7450736,CHRISTIAN,LDS,Y,N
THE CHURCH OF JESUS CHRIST OF LATTER DAY SAINTS - MONUMENT PARK 19TH (SINGLE ADULT) WARD,SALT LAKE CITY,UT,SALT LAKE,CHURCHES,32097623,-111.8115283,40.7230843,CHRISTIAN,LDS,Y,N
THE CHURCH OF JESUS CHRIST OF LATTER DAY SAINTS - COTTONWOOD 11TH WARD,SALT LAKE CITY,UT,SALT LAKE,CHURCHES,32101473,-111.8396087,40.6341626,CHRISTIAN,LDS,Y,N
THE CHURCH OF JESUS CHRIST OF LATTER DAY SAINTS - ROSE PARK CENTER WARD,SALT LAKE CITY,UT,SALT LAKE,CHURCHES,32093383,-111.9430415,40.7883607,CHRISTIAN,LDS,Y,N
THE CHURCH OF JESUS CHRIST OF LATTER DAY SAINTS - EMIGRATION 6TH WARD,SALT LAKE CITY,UT,SALT LAKE,CHURCHES,32093340,-111.871545,40.7895025,CHRISTIAN,LDS,Y,N
THE CHURCH OF JESUS CHRIST OF LATTER DAY SAINTS - COTTONWOOD 8TH WARD,SALT LAKE CITY,UT,SALT LAKE,CHURCHES,32101375,-111.8242288,40.6366756,CHRISTIAN,LDS,Y,N
THE CHURCH OF JESUS CHRIST OF LATTER DAY SAINTS - EAST MILL CREEK 12TH WARD,SALT LAKE CITY,UT,SALT LAKE,CHURCHES,32099124,-111.8054239,40.6927359,CHRISTIAN,LDS,Y,N
THE CHURCH OF JESUS CHRIST OF LATTER DAY SAINTS - MOUNT OLYMPUS 4TH WARD,SALT LAKE CITY,UT,SALT LAKE,CHURCHES,32099821,-111.7851559,40.6803371,CHRISTIAN,LDS,Y,N
THE CHURCH OF JESUS CHRIST OF LATTER DAY SAINTS - EMIGRATION 2ND (SINGLE ADULT) WARD,SALT LAKE CITY,UT,SALT LAKE,CHURCHES,32094702,-111.8690418,40.77118,CHRISTIAN,LDS,Y,N
THE CHURCH OF JESUS CHRIST OF LATTER DAY SAINTS - BUTLER 18TH WARD,SALT LAKE CITY,UT,SALT LAKE,CHURCHES,32126231,-111.8422094,40.6299299,CHRISTIAN,LDS,Y,N
THE CHURCH OF JESUS CHRIST OF LATTER DAY SAINTS - MILLCREEK 8TH WARD,SALT LAKE CITY,UT,SALT LAKE,CHURCHES,32100257,-111.8752152,40.6723063,CHRISTIAN,LDS,Y,N
THE CHURCH OF JESUS CHRIST OF LATTER DAY SAINTS - UNIVERSITY (CARE CENTER) BRANCH,SALT LAKE CITY,UT,SALT LAKE,CHURCHES,32119559,-111.8365449,40.771591,CHRISTIAN,LDS,Y,N
THE CHURCH OF JESUS CHRIST OF LATTER DAY SAINTS - BRIGHTON 1ST WARD,SALT LAKE CITY,UT,SALT LAKE,CHURCHES,32102633,-111.8097618,40.609873,CHRISTIAN,LDS,Y,N
THE CHURCH OF JESUS CHRIST OF LATTER DAY SAINTS - COTTONWOOD HEIGHTS 3RD WARD,SALT LAKE CITY,UT,SALT LAKE,CHURCHES,32126465,-111.8278275,40.62579,CHRISTIAN,LDS,Y,N
THE CHURCH OF JESUS CHRIST OF LATTER DAY SAINTS - TWENTY FIRST NORTH WARD,SALT LAKE CITY,UT,SALT LAKE,CHURCHES,32094702,-111.8690416,40.7711807,CHRISTIAN,LDS,Y,N
THE CHURCH OF JESUS CHRIST OF LATTER DAY SAINTS - COTTONWOOD HEIGHTS 2ND WARD,SALT LAKE CITY,UT,SALT LAKE,CHURCHES,32126465,-111.8278262,40.6257889,CHRISTIAN,LDS,Y,N
THE CHURCH OF JESUS CHRIST OF LATTER DAY SAINTS - HYLAND LAKE WARD,SALT LAKE CITY,UT,SALT LAKE,CHURCHES,32120621,-111.8632527,40.650875,CHRISTIAN,LDS,Y,N
THE CHURCH OF JESUS CHRIST OF LATTER DAY SAINTS - WINDER 16TH WARD,SALT LAKE CITY,UT,SALT LAKE,CHURCHES,32099327,-111.8639513,40.6882773,CHRISTIAN,LDS,Y,N
THE CHURCH OF JESUS CHRIST OF LATTER DAY SAINTS - COTTONWOOD HEIGHTS 6TH (YOUNG SINGLE ADULT) WARD,SALT LAKE CITY,UT,SALT LAKE,CHURCHES,32126465,-111.8278259,40.6257899,CHRISTIAN,LDS,Y,N
THE CHURCH OF JESUS CHRIST OF LATTER DAY SAINTS - BUTLER 17TH WARD,SALT LAKE CITY,UT,SALT LAKE,CHURCHES,32102076,-111.7992518,40.6208111,CHRISTIAN,LDS,Y,N
THE CHURCH OF JESUS CHRIST OF LATTER DAY SAINTS - WINDER 4TH WARD,SALT LAKE CITY,UT,SALT LAKE,CHURCHES,32099327,-111.8639494,40.6882768,CHRISTIAN,LDS,Y,N
THE CHURCH OF JESUS CHRIST OF LATTER DAY SAINTS - THIRTY FIRST WARD,SALT LAKE CITY,UT,SALT LAKE,CHURCHES,32096428,-111.8617575,40.7456705,CHRISTIAN,LDS,Y,N
THE CHURCH OF JESUS CHRIST OF LATTER DAY SAINTS - NORTH STAR (SPANISH) BRANCH,SALT LAKE CITY,UT,SALT LAKE,CHURCHES,32094043,-111.9469698,40.7776923,CHRISTIAN,LDS,Y,N
THE CHURCH OF JESUS CHRIST OF LATTER DAY SAINTS - CAPITOL HILL 1ST WARD,SALT LAKE CITY,UT,SALT LAKE,CHURCHES,32094019,-111.8906533,40.7785852,CHRISTIAN,LDS,Y,N
THE CHURCH OF JESUS CHRIST OF LATTER DAY SAINTS - ELDREDGE WARD,SALT LAKE CITY,UT,SALT LAKE,CHURCHES,124039013,-111.8743071,40.7034875,CHRISTIAN,LDS,Y,N
THE CHURCH OF JESUS CHRIST OF LATTER DAY SAINTS - RIVIERA WARD,SALT LAKE CITY,UT,SALT LAKE,CHURCHES,124039013,-111.8743078,40.703488,CHRISTIAN,LDS,Y,N
THE CHURCH OF JESUS CHRIST OF LATTER DAY SAINTS - ROSE PARK 8TH WARD,SALT LAKE CITY,UT,SALT LAKE,CHURCHES,32093225,-111.9261621,40.7938827,CHRISTIAN,LDS,Y,N
COTTONWOOD PRESBYTERIAN CHURCH,SALT LAKE CITY,UT,SALT LAKE,CHURCHES,32101220,-111.8476772,40.6399162,CHRISTIAN,PCA,Y,N
SAINT ANNS CHURCH,SALT LAKE CITY,UT,SALT LAKE,CHURCHES,737124322,-111.8775037,40.7248477,CHRISTIAN,NOT AVAILABLE,N,Y
SAINT AMBROSE CATHOLIC CHURCH,SALT LAKE CITY,UT,SALT LAKE,CHURCHES,32097355,-111.8245358,40.7275417,CHRISTIAN,NOT AVAILABLE,N,Y
THE CHURCH OF JESUS CHRIST OF LATTER DAY SAINTS - MONUMENT PARK 16TH WARD,SALT LAKE CITY,UT,SALT LAKE,CHURCHES,32096674,-111.8217652,40.7412448,CHRISTIAN,LDS,Y,N
THE CHURCH OF JESUS CHRIST OF LATTER DAY SAINTS - EAST MILL CREEK 4TH WARD,SALT LAKE CITY,UT,SALT LAKE,CHURCHES,32099124,-111.8054282,40.6927364,CHRISTIAN,LDS,Y,N
THE CHURCH OF JESUS CHRIST OF LATTER DAY SAINTS - SILVERADO (CARE CENTER) BRANCH,SALT LAKE CITY,UT,SALT LAKE,CHURCHES,32122294,-111.8510216,40.6730397,CHRISTIAN,LDS,Y,N
THE CHURCH OF JESUS CHRIST OF LATTER DAY SAINTS - MILLCREEK 9TH WARD,SALT LAKE CITY,UT,SALT LAKE,CHURCHES,32118927,-111.8801323,40.6797568,CHRISTIAN,LDS,Y,N
THE CHURCH OF JESUS CHRIST OF LATTER DAY SAINTS - IMPERIAL 2ND WARD,SALT LAKE CITY,UT,SALT LAKE,CHURCHES,32098123,-111.8477087,40.7120672,CHRISTIAN,LDS,Y,N
THE CHURCH OF JESUS CHRIST OF LATTER DAY SAINTS - WILSON WARD,SALT LAKE CITY,UT,SALT LAKE,CHURCHES,32062432,-111.8831137,40.7297853,CHRISTIAN,LDS,Y,N
THE CHURCH OF JESUS CHRIST OF LATTER DAY SAINTS - WINDER 2ND WARD,SALT LAKE CITY,UT,SALT LAKE,CHURCHES,32122335,-111.8519443,40.6850874,CHRISTIAN,LDS,Y,N
THE CHURCH OF JESUS CHRIST OF LATTER CAY SAINTS - CANYON RIM 1ST WARD,SALT LAKE CITY,UT,SALT LAKE,CHURCHES,32121186,-111.8061591,40.7059362,CHRISTIAN,LDS,Y,N
THE CHURCH OF JESUS CHRIST OF LATTER DAY SAINS - CANNON 9TH WARD,SALT LAKE CITY,UT,SALT LAKE,CHURCHES,32062118,-111.9276616,40.7391939,CHRISTIAN,LDS,Y,N
THE CHURCH OF JESUS CHRIST OF LATTER DAY SAINTS - ARLINGTON HILLS WARD,SALT LAKE CITY,UT,SALT LAKE,CHURCHES,32130992,-111.8504395,40.7757207,CHRISTIAN,LDS,Y,N
THE CHURCH OF JESUS CHRIST OF LATTER DAY SAINTS - CANYON RIM 4TH WARD,SALT LAKE CITY,UT,SALT LAKE,CHURCHES,32098501,-111.8095957,40.7046871,CHRISTIAN,LDS,Y,N
THE CHURCH OF JESUS CHRIST OF LATTER DAY SAINTS - COTTONWOOD 6TH WARD,SALT LAKE CITY,UT,SALT LAKE,CHURCHES,32100623,-111.8434588,40.6620705,CHRISTIAN,LDS,Y,N
THE CHURCH OF JESUS CHRIST OF LATTER DAY SAINTS - COTTONWOOD HEIGHTS 4TH WARD,SALT LAKE CITY,UT,SALT LAKE,CHURCHES,32101656,-111.8194244,40.6287669,CHRISTIAN,LDS,Y,N
THE CHURCH OF JESUS CHRIST OF LATTER DAY SAINTS - EAST MILL CREEK 9TH WARD,SALT LAKE CITY,UT,SALT LAKE,CHURCHES,32099274,-111.819085,40.6898392,CHRISTIAN,LDS,Y,N
THE CHURCH OF JESUS CHRIST OF LATTER DAY SAINTS - FOOTHILL 2ND WARD,SALT LAKE CITY,UT,SALT LAKE,CHURCHES,737167173,-111.8318371,40.7286172,CHRISTIAN,LDS,Y,N
THE CHURCH OF JESUS CHRIST OF LATTER DAY SAINTS - LITTLE COTTONWOOD 14TH WARD,SALT LAKE CITY,UT,SALT LAKE,CHURCHES,32128335,-111.8577605,40.6401217,CHRISTIAN,LDS,Y,N
THE CHURCH OF JESUS CHRIST OF LATTER DAY SAINTS - MCKAY WARD,SALT LAKE CITY,UT,SALT LAKE,CHURCHES,32062313,-111.8762691,40.734461,CHRISTIAN,LDS,Y,N
THE CHURCH OF JESUS CHRIST OF LATTER DAY SAINTS - NORTHPOINT 3RD WARD,SALT LAKE CITY,UT,SALT LAKE,CHURCHES,32093006,-111.9465368,40.8012867,CHRISTIAN,LDS,Y,N
THE CHURCH OF JESUS CHRIST OF LATTER DAY SAINTS - PARLEYS 5TH WARD,SALT LAKE CITY,UT,SALT LAKE,CHURCHES,722472737,-111.815436,40.7215007,CHRISTIAN,LDS,Y,N
THE CHURCH OF JESUS CHRIST OF LATTER DAY SAINTS - SALT LAKE UNIVERSITY 13TH (STUDENT SINGLE) WARD,SALT LAKE CITY,UT,SALT LAKE,CHURCHES,124038284,-111.8393126,40.7597173,CHRISTIAN,LDS,Y,N
THE CHURCH OF JESUS CHRIST OF LATTER DAY SAINTS - SALT LAKE UNIVERSITY 19TH (STUDENT MARRIED) WARD,SALT LAKE CITY,UT,SALT LAKE,CHURCHES,32130668,-111.8382167,40.7513413,CHRISTIAN,LDS,Y,N
THE CHURCH OF JESUS CHRIST OF LATTER DAY SAINTS - SALT LAKE UNIVERSITY 25TH (STUDENT MARRIED) WARD,SALT LAKE CITY,UT,SALT LAKE,CHURCHES,32130668,-111.838216,40.7513434,CHRISTIAN,LDS,Y,N
THE CHURCH OF JESUS CHRIST OF LATTER DAY SAINTS - SALT LAKE UNIVERSITY 28TH (STUDENT SINGLE) WARD,SALT LAKE CITY,UT,SALT LAKE,CHURCHES,124038550,-111.8393138,40.7597168,CHRISTIAN,LDS,Y,N
THE CHURCH OF JESUS CHRIST OF LATTER DAY SAINTS - SALT LAKE UNIVERSITY 35TH (STUDENT SINGLE) WARD,SALT LAKE CITY,UT,SALT LAKE,CHURCHES,124038550,-111.8393144,40.7597182,CHRISTIAN,LDS,Y,N
THE CHURCH OF JESUS CHRIST OF LATTER DAY SAINTS - SALT LAKE UNIVERSITY 38TH (STUDENT SINGLE) WARD,SALT LAKE CITY,UT,SALT LAKE,CHURCHES,124038550,-111.8393131,40.7597181,CHRISTIAN,LDS,Y,N
THE CHURCH OF JESUS CHRIST OF LATTER DAY SAINTS - SALT LAKE UNIVERSITY 40TH (STUDENT SINGLE) WARD,SALT LAKE CITY,UT,SALT LAKE,CHURCHES,124038550,-111.8393145,40.7597177,CHRISTIAN,LDS,Y,N
THE CHURCH OF JESUS CHRIST OF LATTER DAY SAINTS - SALT LAKE UNIVERSITY 9TH (STUDENT MARRIED) WARD,SALT LAKE CITY,UT,SALT LAKE,CHURCHES,32130668,-111.8382185,40.7513407,CHRISTIAN,LDS,Y,N
THE CHURCH OF JESUS CHRIST OF LATTER DAY SAINTS - WINDER 13TH WARD,SALT LAKE CITY,UT,SALT LAKE,CHURCHES,32100228,-111.856406,40.6728602,CHRISTIAN,LDS,Y,N
LIBERTY BAPTIST CHURCH,SALT LAKE CITY,UT,SALT LAKE,CHURCHES,32063295,-111.896486,40.7075813,CHRISTIAN,BAPT,Y,N
THE CHURCH OF JESUS CHRIST OF LATTER DAY SAINTS - COTTONWOOD HEIGHTS 5TH WARD,SALT LAKE CITY,UT,SALT LAKE,CHURCHES,32101943,-111.8266399,40.622781,CHRISTIAN,LDS,Y,N
THE CHURCH OF JESUS CHRIST OF LATTER DAY SAINTS - COTTONWOOD HEIGHTS 1ST WARD,SALT LAKE CITY,UT,SALT LAKE,CHURCHES,32101943,-111.8266395,40.6227808,CHRISTIAN,LDS,Y,N
THE CHURCH OF JESUS CHRIST OF LATTER DAY SAINTS - COTTONWOOD 2ND WARD,SALT LAKE CITY,UT,SALT LAKE,CHURCHES,32100779,-111.8321698,40.6566923,CHRISTIAN,LDS,Y,N
THE CHURCH OF JESUS CHRIST OF LATTER DAY SAINTS - BUENA VISTA BRANCH (SPANISH),SALT LAKE CITY,UT,SALT LAKE,CHURCHES,736498791,-111.9240207,40.7580592,CHRISTIAN,LDS,Y,N
THE CHURCH OF JESUS CHRIST OF LATTER DAY SAINTS - ROSE PARK 6TH WARD,SALT LAKE CITY,UT,SALT LAKE,CHURCHES,32093225,-111.9261605,40.7938827,CHRISTIAN,LDS,Y,N
THE CHURCH OF JESUS CHRIST OF LATTER DAY SAINTS - ROSE PARK 14TH (SPANISH) WARD,SALT LAKE CITY,UT,SALT LAKE,CHURCHES,32093225,-111.9261621,40.7938827,CHRISTIAN,LDS,Y,N
TRINITY AFRICAN METHODIST EPISCOPAL CHURCH,SALT LAKE CITY,UT,SALT LAKE,CHURCHES,32132137,-111.8843795,40.7566089,CHRISTIAN,AME,Y,N
CATHOLIC DIOCESE OF SALT LAKE CITY CHURCH,SALT LAKE CITY,UT,SALT LAKE,CHURCHES,32094893,-111.8809354,40.7699833,CHRISTIAN,NOT AVAILABLE,N,Y
THE CATHEDRAL OF THE MADELEINE,SALT LAKE CITY,UT,SALT LAKE,CHURCHES,32094894,-111.8815821,40.7696337,CHRISTIAN,NOT AVAILABLE,N,Y
SOUTHEAST BAPTIST CHURCH,SALT LAKE CITY,UT,SALT LAKE,CHURCHES,32101856,-111.8430107,40.6247661,CHRISTIAN,SBC,Y,N
THE CHURCH OF JESUS CHRIST OF LATTER DAY SAINTS - MOUNT OLYMPUS 3RD (YOUNG SINGLE ADULT) WARD,SALT LAKE CITY,UT,SALT LAKE,CHURCHES,32099970,-111.7873354,40.6778066,CHRISTIAN,LDS,Y,N
SAINT CATHERINE OF SIENA - NEWMAN CENTER,SALT LAKE CITY,UT,SALT LAKE,CHURCHES,32095104,-111.8527022,40.7655613,CHRISTIAN,NOT AVAILABLE,N,Y
THE CHURCH OF JESUS CHRIST OF LATTER DAY SAINTS - BUTLER 4TH WARD,SALT LAKE CITY,UT,SALT LAKE,CHURCHES,32126231,-111.8422143,40.6299299,CHRISTIAN,LDS,Y,N
THE CHURCH OF JESUS CHRIST OF LATTER DAY SAINTS - BUTLER 20TH WARD,SALT LAKE CITY,UT,SALT LAKE,CHURCHES,32110202,-111.8519843,40.6208701,CHRISTIAN,LDS,Y,N
THE CHURCH OF JESUS CHRIST OF LATTER DAY SAINTS - EAST MILL CREEK 7TH WARD,SALT LAKE CITY,UT,SALT LAKE,CHURCHES,32098879,-111.8060771,40.6976779,CHRISTIAN,LDS,Y,N
THE CHURCH OF JESUS CHRIST OF LATTER DAY SAINTS - TWENTY FIFTH WARD,SALT LAKE CITY,UT,SALT LAKE,CHURCHES,736498791,-111.9240209,40.7580604,CHRISTIAN,LDS,Y,N
THE CHURCH OF JESUS CHRIST OF LATTER DAY SAINTS - CAPITOL HILL 2ND WARD,SALT LAKE CITY,UT,SALT LAKE,CHURCHES,32094019,-111.8906527,40.778586,CHRISTIAN,LDS,Y,N
THE CHURCH OF JESUS CHRIST OF LATTER DAY SAINTS - SALT LAKE UNIVERSITY 43RD (STUDENT SINGLE) WARD,SALT LAKE CITY,UT,SALT LAKE,CHURCHES,32096405,-111.8577907,40.7452748,CHRISTIAN,LDS,Y,N
THE CHURCH OF JESUS CHRIST OF LATTER DAY SAINTS - ESCALANTE BRANCH,SALT LAKE CITY,UT,SALT LAKE,CHURCHES,32093225,-111.9261598,40.7938816,CHRISTIAN,LDS,Y,N
THE CHURCH OF JESUS CHRIST OF LATTER DAY SAINTS - CANNON 2ND (TONGAN) WARD,SALT LAKE CITY,UT,SALT LAKE,CHURCHES,32061912,-111.9315589,40.7434161,CHRISTIAN,LDS,Y,N
THE CHURCH OF JESUS CHRIST OF LATTER DAY SAINTS - MILLSTREAM WARD,SALT LAKE CITY,UT,SALT LAKE,CHURCHES,101939091,-111.8603867,40.697697,CHRISTIAN,LDS,Y,N